{"type": "FeatureCollection", "name": "districts", "crs": {"type": "name", "properties": {"name": "urn:ogc:def:crs:OGC:1.3:CRS84"}}, "features": [{"type": "Feature", "properties": {"DISTRICT": "Chennai", "ST_NM": "Tamil Nadu", "ST_CEN_CD": 33, "DT_CEN_CD": 2, "censuscode": 603, "district": "Chennai"}, "geometry": {"type": "Polygon", "coordinates": [[[80.29769499430681, 13.12548441009056], [80.29798400428142, 13.119137934557719], [80.30014905028769, 13.11372751230948], [80.30065788896088, 13.110780060727988], [80.30073618675796, 13.10958416327976], [80.30101014042464, 13.101707089552658], [80.30331918884765, 13.101045501419046], [80.3058789116416, 13.098820770845736], [80.30569892816798, 13.094740333489232], [80.30144387707094, 13.084481899411466], [80.29984228510648, 13.083131079274278], [80.29850469683336, 13.079927344231642], [80.2967172168716, 13.07804022950603], [80.29395721614436, 13.073974435565617], [80.29270511300822, 13.0728560772699], [80.29138239402765, 13.07219756358505], [80.28969418486514, 13.06689550250955], [80.2887230921292, 13.065353151971111], [80.28739279370033, 13.06322731960059], [80.28519629821506, 13.055483142892324], [80.28294494825413, 13.034380523601115], [80.28030809295292, 13.024366974485588], [80.27884793967654, 13.012549271583294], [80.2756813409784, 13.000511168842039], [80.2733132117346, 12.9950393514923], [80.27325985261449, 12.99474729315023], [80.2718392767134, 12.995249731787434], [80.26342627411697, 12.99498093848042], [80.25907554301183, 12.99527331378666], [80.25501277924401, 12.99442718806897], [80.25123911154749, 12.99301151832233], [80.24717849696071, 12.993303024924563], [80.24340193443182, 12.990180392200633], [80.23933941550894, 12.989333837822308], [80.23092873836127, 12.990200981704108], [80.22310040452493, 12.992489042075343], [80.2199095328918, 12.992493961401188], [80.21498128441684, 12.99449266277078], [80.21266324382323, 12.996202902489976], [80.2109248935479, 12.99762779666652], [80.21024248649812, 12.999375443322768], [80.21066479549975, 13.00027706210628], [80.21190116331766, 13.002530173624642], [80.21231275887156, 13.002914380622803], [80.21289487579642, 13.006643757574649], [80.20069429006273, 13.015430450373135], [80.20116660690437, 13.02106045683429], [80.20182550763862, 13.021364709559563], [80.20255190010703, 13.024665358603823], [80.20455874773236, 13.028195216679329], [80.20444655679687, 13.028210211389514], [80.20662331711718, 13.030918430313964], [80.21387158939554, 13.027209387734997], [80.21532944508334, 13.0317591400391], [80.2147535445771, 13.03460499067325], [80.21069683752691, 13.038309518649012], [80.21099396609976, 13.0428611710109], [80.21041923014363, 13.046560633316425], [80.20868409039079, 13.050546339749074], [80.2092705270391, 13.054528713158172], [80.21043656712064, 13.057941245071861], [80.21160702271169, 13.064199050138155], [80.21161312535835, 13.068182438185913], [80.21132767537775, 13.071312705712542], [80.20929811772751, 13.072738343537587], [80.20756219006593, 13.076439826571846], [80.20756646612124, 13.079285208275628], [80.20785972465849, 13.081276571804244], [80.20960650135213, 13.084688555133512], [80.21251360861051, 13.087529747760282], [80.21456014810245, 13.096916909601333], [80.21457164276424, 13.104315428886995], [80.21690175385736, 13.109149529430466], [80.22184823784517, 13.115971653451343], [80.2256337990992, 13.122795581126441], [80.22767958615374, 13.12645754129418], [80.24174214109982, 13.127216677033068], [80.24566764248678, 13.122478161202864], [80.24973102921938, 13.121617424720002], [80.25466751043882, 13.121893342561528], [80.26483525061292, 13.124720764386824], [80.26948429281535, 13.126419612577129], [80.27297986893157, 13.132104712125265], [80.27668680887135, 13.139635804647858], [80.28062051095941, 13.141789474036637], [80.28821698456234, 13.14273024560953], [80.30349075389594, 13.14125378000404], [80.29963809399933, 13.132773129237876], [80.2992522500614, 13.131754746322377], [80.29769499430681, 13.12548441009056]]]}}, {"type": "Feature", "properties": {"DISTRICT": "Kancheepuram", "ST_NM": "Tamil Nadu", "ST_CEN_CD": 33, "DT_CEN_CD": 3, "censuscode": 604, "district": "Kancheepuram"}, "geometry": {"type": "Polygon", "coordinates": [[[80.0939218711724, 13.13564794844049], [80.10325669389803, 13.133104887401046], [80.11286974158315, 13.13210111141233], [80.11951873478283, 13.124304823167972], [80.12367063732242, 13.115695234305582], [80.12662094789164, 13.107630398047325], [80.12772337604142, 13.100382518750676], [80.12707118441422, 13.094676341792363], [80.12290988707483, 13.09178131866505], [80.12594695740546, 13.078010531409523], [80.12568686511827, 13.06674447152851], [80.12482205119919, 13.060168066236757], [80.13184163041561, 13.057897520289131], [80.13063379436987, 13.050743442620284], [80.14135170831594, 13.051820115969413], [80.14125578027486, 13.04837859208013], [80.14854640818896, 13.041216273708377], [80.15075923875156, 13.037319596010088], [80.14669430124184, 13.036961485374059], [80.14834991034121, 13.030257971313551], [80.161652234615, 13.030877582318206], [80.1628492242069, 13.027615936882192], [80.1663583415375, 13.02679683018032], [80.16728697417321, 13.030871133145084], [80.17301274670871, 13.02977761009178], [80.17979937964671, 13.027675705929068], [80.18446213006696, 13.026231367605915], [80.18547639132927, 13.024871578377036], [80.18981833412057, 13.02531872326593], [80.18983041898865, 13.025330132772252], [80.18985062338173, 13.025302878560234], [80.20158627206837, 13.02859245937762], [80.20444655679687, 13.028210211389514], [80.20455874773236, 13.028195216679329], [80.20255190010703, 13.024665358603823], [80.20182550763862, 13.021364709559563], [80.20116660690437, 13.02106045683429], [80.20069429006273, 13.015430450373135], [80.21289487579642, 13.006643757574649], [80.21231275887156, 13.002914380622803], [80.21190116331766, 13.002530173624642], [80.21066479549975, 13.00027706210628], [80.21024248649812, 12.999375443322768], [80.2109248935479, 12.99762779666652], [80.21266324382323, 12.996202902489976], [80.21498128441684, 12.99449266277078], [80.2199095328918, 12.992493961401188], [80.22310040452493, 12.992489042075343], [80.23092873836127, 12.990200981704108], [80.23933941550894, 12.989333837822308], [80.24340193443182, 12.990180392200633], [80.24717849696071, 12.993303024924563], [80.25123911154749, 12.99301151832233], [80.25501277924401, 12.99442718806897], [80.25907554301183, 12.99527331378666], [80.26342627411697, 12.99498093848042], [80.2718392767134, 12.995249731787434], [80.27325985261449, 12.99474729315023], [80.27073673701567, 12.980936124043845], [80.26819412823404, 12.970917117904236], [80.26634500317228, 12.963649651762509], [80.26502623629831, 12.958427652205746], [80.26354188896548, 12.948638144867461], [80.2602224542537, 12.937281474984992], [80.25804356358675, 12.919789390609381], [80.2554887866292, 12.902083926658397], [80.25365310806329, 12.892484577667563], [80.25179410140169, 12.877533453518087], [80.25113436146164, 12.855916700162826], [80.25104567798566, 12.852819012350148], [80.25069553287003, 12.840333505387767], [80.24684478458921, 12.8005883982609], [80.24715919496577, 12.793334472078387], [80.24972766887244, 12.792232762430457], [80.25228438097888, 12.789757772201938], [80.25475400546529, 12.782602099379464], [80.25507265084075, 12.781637779757256], [80.25554479343461, 12.781417472795685], [80.25490041424763, 12.773229122044514], [80.25386531549405, 12.766880832388633], [80.2533109107711, 12.766203130529362], [80.25298069401836, 12.764606624439095], [80.24592210199351, 12.749770146731986], [80.2448163919445, 12.7461369295091], [80.24103659163542, 12.736717383148333], [80.24040032610601, 12.735234585660512], [80.23654555098878, 12.726084615711116], [80.23181588532037, 12.710146207313661], [80.23036367717205, 12.706952623129116], [80.22814253274521, 12.699895006064036], [80.2269066778062, 12.697827461322936], [80.22645705787859, 12.697595238049642], [80.2249415244876, 12.69213789637083], [80.2237619211046, 12.687790601587452], [80.22231134992062, 12.682489340353312], [80.22204723399027, 12.681544390341768], [80.22188522532207, 12.681081023131943], [80.21927082806343, 12.675286388124684], [80.21849185187767, 12.672101056954585], [80.2160658804676, 12.66437268909639], [80.2075269551525, 12.642255390354931], [80.20320780253742, 12.627221976462922], [80.20086800042303, 12.622216805679793], [80.1963033131304, 12.603564653502085], [80.19153397136576, 12.590850881071818], [80.19061608779921, 12.586280557033794], [80.1893796489622, 12.581009849618049], [80.18752097995812, 12.571697767964658], [80.18370050546143, 12.563238456880844], [80.1828814971996, 12.558254645825441], [80.18207295629705, 12.55596563720068], [80.17995923718317, 12.551625586217321], [80.1752158803994, 12.544094618395965], [80.17468172058263, 12.542044932711441], [80.17055108050583, 12.532677761991929], [80.16849835378389, 12.530625372535763], [80.16383445367063, 12.517174522980214], [80.16292922146391, 12.508455182572874], [80.16363247344975, 12.501989952528017], [80.16437230686478, 12.49540957325457], [80.163818295008, 12.478233063224629], [80.16327458165743, 12.47552160336184], [80.16253188096056, 12.471813733833242], [80.16242707727417, 12.470683821870054], [80.15946250148335, 12.468800047628173], [80.15183728105146, 12.470076130060379], [80.14929527403318, 12.469583918372575], [80.15046171159668, 12.461444471931928], [80.1499098370777, 12.459383978723857], [80.14923546436967, 12.458914626317517], [80.14552252046137, 12.46004161680457], [80.14152936660874, 12.459365391923404], [80.14042841040165, 12.457741554790198], [80.1405276641664, 12.455854436764405], [80.14117096893847, 12.455239092526346], [80.14163294008691, 12.455010443695468], [80.14247155647648, 12.454171152314474], [80.14345942862249, 12.453243587286751], [80.14346580864886, 12.452782569796524], [80.14518964457659, 12.451838485081952], [80.14602529387757, 12.450511074214566], [80.14887206639138, 12.448178234241908], [80.14397738665883, 12.444906457979087], [80.13886568154976, 12.447397301023539], [80.13778081087112, 12.447954321249693], [80.1369395336657, 12.448341525335053], [80.13424864209087, 12.447980220296825], [80.13105823519703, 12.447088268598577], [80.13283920287559, 12.443396334787474], [80.13431478609117, 12.440351010318231], [80.1387168584685, 12.43656619358613], [80.13908338359033, 12.435214499988003], [80.13823908398173, 12.432456160703763], [80.13736183429837, 12.431270623164345], [80.13129995911017, 12.423082652310708], [80.12881010132418, 12.42078908670311], [80.12823881032604, 12.419653021286233], [80.12615534823345, 12.416606607607193], [80.12513389740829, 12.415895725929666], [80.12485532582359, 12.415459856139938], [80.12396433402891, 12.413991880571883], [80.12300893917718, 12.412596301093174], [80.12226990383891, 12.411394823416254], [80.11443286227801, 12.403355044939014], [80.11237277739917, 12.400127884097673], [80.1120735608483, 12.399689733145967], [80.1080754981545, 12.396219986571785], [80.10482801743922, 12.390971435325406], [80.09622221944478, 12.38156712612071], [80.08649353886499, 12.368277315343285], [80.08217489734737, 12.364116072132761], [80.08021273169936, 12.361026586326096], [80.07949971030985, 12.360003602665024], [80.07721853882308, 12.35747905806959], [80.07674972817483, 12.357472536524913], [80.07632180643586, 12.356573578330712], [80.07587801100078, 12.356106140264275], [80.06787245166274, 12.348713789990395], [80.06745633052178, 12.348293813123664], [80.06665599555078, 12.346927406266126], [80.06220460827576, 12.341218471343499], [80.06072422097023, 12.33983433254972], [80.05695122592641, 12.334296776931893], [80.0561212954331, 12.333111113758008], [80.05476729612906, 12.331482924010505], [80.05109337918913, 12.325396395260826], [80.04979434156931, 12.322984345720311], [80.04951622268958, 12.322521335818593], [80.04556743571652, 12.317596034568993], [80.0437765138155, 12.313704569408147], [80.03946985696271, 12.30890129652371], [80.03813432513182, 12.305929096168123], [80.03541596103247, 12.303171831526894], [80.03341184808777, 12.299276036933335], [80.02954947500149, 12.294931069015938], [80.02832007812275, 12.292862363879452], [80.02504819664186, 12.287821618126165], [80.02403051157484, 12.286904794442464], [80.02369500598792, 12.28597882586887], [80.01914888848474, 12.282065322751896], [80.0188340209353, 12.280931536574798], [80.01578341031521, 12.27704942794215], [80.01403050520098, 12.272462483661302], [80.01246857198612, 12.270479643571205], [80.01018767632773, 12.266274521551919], [80.00885537878185, 12.261739602076169], [80.00478572664396, 12.255917604793693], [79.99973132130766, 12.257446596121428], [79.99287436158278, 12.253114831506394], [79.9861122816388, 12.245600801477131], [79.97858409663642, 12.237835859280489], [79.97347583443286, 12.234736692387491], [79.9722424269405, 12.236805005468181], [79.96041384528839, 12.23354812241435], [79.9552875311141, 12.23113481686325], [79.94987869575971, 12.236017614775303], [79.9450635695916, 12.242354797283394], [79.92609710811546, 12.24649702568095], [79.92502831028543, 12.235640879894891], [79.92549061178151, 12.22990298524242], [79.91624927521212, 12.233707481208477], [79.9042259472446, 12.228761231750475], [79.90011357304081, 12.229271034359806], [79.88687765497812, 12.23716273436937], [79.87910845701263, 12.238836532159057], [79.87073845608253, 12.244348494370724], [79.86538424789758, 12.253223413390213], [79.86216238329172, 12.262515967313677], [79.84850292679434, 12.274842612447362], [79.84271573832734, 12.278361992412831], [79.84349056394353, 12.281716833724934], [79.8429149689584, 12.289070312242687], [79.83576438076311, 12.29687054798777], [79.83086764919443, 12.303862433681244], [79.8298104767778, 12.307974425140324], [79.82504732669909, 12.310487290283557], [79.81176769387989, 12.321437199823135], [79.81003299658131, 12.326506190287342], [79.80336082461285, 12.32648590228416], [79.79919035740089, 12.33624567664994], [79.78738742004, 12.337328826515549], [79.78331847186642, 12.340013207820885], [79.77214039763398, 12.332547895939506], [79.76082877757253, 12.327254780720518], [79.75709077970566, 12.32714231008945], [79.75254868074977, 12.324414792488945], [79.737880892781, 12.329371962251107], [79.73156884373165, 12.330790233243617], [79.72808023532103, 12.329992989905826], [79.71799969157108, 12.33600498268499], [79.70258961377127, 12.33449418169297], [79.70116036722516, 12.326004256713114], [79.69629795415389, 12.324245628185267], [79.69063817999898, 12.323610048064685], [79.68525581508592, 12.316195942706578], [79.66985413955655, 12.319922337991473], [79.66001106102303, 12.32582445346711], [79.65440598166552, 12.332773164741], [79.65132369230514, 12.334114320920245], [79.65062281719187, 12.339615607020825], [79.64922399413756, 12.34301881067054], [79.6447743801536, 12.345176611976685], [79.64458189263863, 12.354827100461936], [79.64654417342825, 12.359431615659345], [79.65243211107136, 12.360306792464435], [79.66317363749057, 12.365063218243186], [79.66777838017629, 12.37118529498469], [79.66112644965825, 12.377990568021879], [79.66355847832493, 12.382605346865935], [79.68794687311585, 12.398474249503902], [79.69643915220995, 12.398223612838326], [79.69852012871453, 12.408515613914034], [79.6927775978692, 12.410467005143062], [79.68973989980387, 12.413879216167361], [79.69067869452573, 12.417636749642769], [79.70562283157501, 12.413329736781652], [79.70723560260076, 12.418209297455485], [79.7061606914898, 12.426391596094728], [79.70446821123866, 12.429727970666454], [79.70878013897567, 12.430493847665206], [79.71525888722236, 12.42747880820096], [79.71733638436501, 12.43587330061869], [79.7358022998542, 12.427766711132797], [79.73961345134128, 12.433224153407307], [79.74041604455448, 12.439286300544035], [79.7332926061325, 12.446305768405713], [79.73538912063051, 12.450280236278168], [79.73856313187495, 12.453657794799666], [79.74483331078818, 12.455510928652147], [79.75000405687572, 12.45498670895086], [79.75012948677018, 12.46194074550678], [79.74707045811708, 12.464604389505869], [79.74696587493905, 12.482820236750262], [79.74234371604666, 12.484629137430806], [79.73604561487367, 12.489492834103311], [79.73412333611556, 12.492710036838286], [79.72799656612321, 12.49200691887867], [79.72415857679104, 12.494820319778608], [79.72515915148243, 12.498354971223], [79.72767113964345, 12.500735282419638], [79.73089828096795, 12.498589638595499], [79.73673716274098, 12.497217196894125], [79.73895832553808, 12.495336246072451], [79.74000932381882, 12.499157922679675], [79.74373774868432, 12.5019763972914], [79.75228284937026, 12.503962379993872], [79.75309243856388, 12.5079554485888], [79.75690738557994, 12.511567173554191], [79.75675553226903, 12.518121955109997], [79.75187073454188, 12.52469135900396], [79.74554419300614, 12.531708025753444], [79.73612053698466, 12.539501089368382], [79.71731234693466, 12.549032026585587], [79.72111075321106, 12.558687912536854], [79.72148855621232, 12.565369013302124], [79.71503501077528, 12.567580923382703], [79.70998455040709, 12.567943832622365], [79.70730562302955, 12.571139644620247], [79.71702514779965, 12.5769558331398], [79.71839047012001, 12.58016212791804], [79.72431032852701, 12.578039366730208], [79.72827480746255, 12.578797539703809], [79.7285395668283, 12.583459936436334], [79.72577365326968, 12.587623716335118], [79.70638738068004, 12.594955985400077], [79.70051806780825, 12.593460671807582], [79.69766448642042, 12.598308917737924], [79.69192070599671, 12.600379127633731], [79.68621870477185, 12.597156169136332], [79.68129909479447, 12.597176959355776], [79.67721923262309, 12.594461468665447], [79.67055330709631, 12.592189895732018], [79.6642419348839, 12.595670713984564], [79.66263351644105, 12.59821277217754], [79.65838834651524, 12.599174945165062], [79.65407091357493, 12.602314172929837], [79.65017613729184, 12.601210401776772], [79.64562532828916, 12.609983372829262], [79.64696645008608, 12.6194493931454], [79.64696387918656, 12.624966622712188], [79.6443370568945, 12.626606292704587], [79.63881139275814, 12.62551159701939], [79.63866388586976, 12.62821335143284], [79.63371500606235, 12.631045438315267], [79.63657187258653, 12.644471082208126], [79.6406000056449, 12.65407164885521], [79.64367397215922, 12.656982991415097], [79.64849471728382, 12.66770963523977], [79.65891627136038, 12.669869635837877], [79.67114036781999, 12.666738862399287], [79.6843039617291, 12.667550895464808], [79.70691451374114, 12.675421471650044], [79.72729684570791, 12.68495579698059], [79.73861217290892, 12.688464280143155], [79.74520024465093, 12.693607850409093], [79.74674681599845, 12.69819278084566], [79.74549295155208, 12.701031284132089], [79.73731903370442, 12.69979974184177], [79.73533414817793, 12.701695968719442], [79.73839407807573, 12.705119085337053], [79.7396047713983, 12.709409638880214], [79.73904889054066, 12.715834431521955], [79.7347550105081, 12.720180654486741], [79.72598916820805, 12.722957602969908], [79.71768349692059, 12.722525334582976], [79.71562424185254, 12.726665073202149], [79.72065961345916, 12.728654161536273], [79.73104720817835, 12.72989545203771], [79.74182222442059, 12.732292555932483], [79.74490453637537, 12.736521199018746], [79.74653610561252, 12.742780826407992], [79.74229945893431, 12.747012383278758], [79.73471615653513, 12.751264857648982], [79.72883774210277, 12.755569996368198], [79.71188838698419, 12.757980095813968], [79.71065693724185, 12.76161520267838], [79.71000215032367, 12.76940718869471], [79.71132039993353, 12.776115183698105], [79.70703686315727, 12.779721654837214], [79.70259434805934, 12.775678829820874], [79.69438921944146, 12.779446427998455], [79.68831322701732, 12.784426342531422], [79.67861161167248, 12.790913791107615], [79.66985906344694, 12.78385571056041], [79.67288262840286, 12.777399159626857], [79.65936318797931, 12.774625847690961], [79.66133109955892, 12.770151211657785], [79.65654101672791, 12.763801066999202], [79.65308069241772, 12.767771985219202], [79.64949805829478, 12.773522986817278], [79.6500934013621, 12.78238585240187], [79.6394473001165, 12.785332261216908], [79.6379706746036, 12.787588643297331], [79.64137800697719, 12.791083524988743], [79.64416739979659, 12.797375484874314], [79.64467883255939, 12.807385946136558], [79.63994294580246, 12.81631348420657], [79.63213961276108, 12.820040554939633], [79.62263852314544, 12.822156362431159], [79.61287183892625, 12.826800435424943], [79.59676775440822, 12.829799396304313], [79.58809518189724, 12.833610064567743], [79.58259222776515, 12.840742154918013], [79.56037663347283, 12.84957994479087], [79.56039518319963, 12.849592904115573], [79.56519771555476, 12.852948184727012], [79.5677309697068, 12.856359146519472], [79.56732485382057, 12.861576156124189], [79.5633389204373, 12.86897751601485], [79.55967499687642, 12.873632547700122], [79.5608114487536, 12.880395722115932], [79.56625867125952, 12.886020160152732], [79.5729810576271, 12.8994426046738], [79.58332480952635, 12.900686060286233], [79.59268952230383, 12.903044014383973], [79.60306729601372, 12.907047303166202], [79.61303702889194, 12.908670105318816], [79.62178113849781, 12.912219570015772], [79.63929786199652, 12.92218019647209], [79.66204559221744, 12.92960504506352], [79.66087143900712, 12.948239688973736], [79.68033493169473, 12.955962308357977], [79.68267758262711, 12.960003519392442], [79.69065170697483, 12.9674298167015], [79.70636844658624, 12.975143515845694], [79.72636163975723, 12.98086724091142], [79.73485357855098, 12.98497835775435], [79.74255098529942, 12.992055487698654], [79.7501015725116, 13.000307025055953], [79.76067921045684, 13.010397325322424], [79.7701136398473, 13.015986666725567], [79.78551157155877, 13.022127273718747], [79.78663255824947, 13.022115959701926], [79.7994650022175, 13.026572068360894], [79.80012089938472, 13.020143023401607], [79.80225290265636, 13.014802907667157], [79.8101009788394, 13.016805791007313], [79.82055959065156, 13.000247007441763], [79.82029137626552, 12.993455091879143], [79.81558586859573, 12.99027972136492], [79.81771434172853, 12.98684141137339], [79.82334578005133, 12.988025616562352], [79.82131803682071, 12.985034902816695], [79.82328051636415, 12.966836977971386], [79.82503922678065, 12.96330779245687], [79.83805693593362, 12.963775819636446], [79.83667776380761, 12.958884829758627], [79.84711250522689, 12.95699487251438], [79.85163862321063, 12.954917133464475], [79.85367475028453, 12.950120530966624], [79.86466242103535, 12.94841093021224], [79.89568256886643, 12.94644493893095], [79.89955225249395, 12.956950616777808], [79.90324263698432, 12.960574870108388], [79.90979611256158, 12.963114381487909], [79.91237854652256, 12.967462207548076], [79.91283673198399, 12.972895355768898], [79.91689692506836, 12.977063018565481], [79.9012840509991, 12.988190876637962], [79.89454115640041, 12.990540440911232], [79.89758549903938, 12.994708169935175], [79.90220293847904, 12.994620810751101], [79.90838661311018, 13.00014876279447], [79.91291002631841, 13.003139923790412], [79.91586802286217, 12.998704464031691], [79.92944772732989, 12.990742971576443], [79.93849665940152, 12.993010928291957], [79.94089689556792, 12.99473251351447], [79.9435728298427, 13.000076310869558], [79.9443104698064, 13.003064945627964], [79.94384707997334, 13.006958789708056], [79.93239238111866, 13.012025114678286], [79.92435572815782, 13.014466223671635], [79.92241346936125, 13.019174380611656], [79.91613456856474, 13.016001189198304], [79.9114238442404, 13.01645116536242], [79.90523650861428, 13.01490772337796], [79.90384664496621, 13.021336574420026], [79.90374845094716, 13.029668351669889], [79.89811025589458, 13.03446439647349], [79.90410330416583, 13.050770818656211], [79.91500658109076, 13.047969955865687], [79.92193535891394, 13.048064515350903], [79.92157192759193, 13.03728672109771], [79.92600720582891, 13.035115435363977], [79.93554723217828, 13.033601293303372], [79.94633043986228, 13.03340373918122], [79.96277138540604, 13.03965798181337], [79.97127053892339, 13.038210877880058], [79.9727482940303, 13.039569705260643], [79.97154656301606, 13.043554460378491], [79.97145344865022, 13.047358298062061], [79.97699552358512, 13.052974678643478], [79.98937512942877, 13.056870688912714], [79.99307097875422, 13.051798941164911], [79.98300129181327, 13.047813011615876], [79.9790299923935, 13.03993304162414], [79.97912291413893, 13.036491456782977], [79.98457351277915, 13.03268838205767], [79.99177876551502, 13.031421052494133], [79.99464220230904, 13.03513438416975], [79.99659674971899, 13.041266888091128], [79.99824460350659, 13.051889615833971], [79.99440098154663, 13.057767419440165], [79.99107774138385, 13.06069429708708], [79.98752676811105, 13.063120118042214], [79.98031968076376, 13.065383625802287], [79.9814094274038, 13.0736089531323], [79.98327440922029, 13.081687877849825], [79.98752461663143, 13.08694200088789], [79.98826355739251, 13.091289837598053], [79.99685782790466, 13.096544132534094], [80.00101658073753, 13.093464333993545], [80.0036042265471, 13.096906469766589], [80.00212562351523, 13.099986360790648], [80.00499064159999, 13.100439174880712], [80.01099810639724, 13.103790484959893], [80.01349384131423, 13.107413703343108], [80.01062963889747, 13.118828080549212], [80.01229354257822, 13.120911506510302], [80.01719246505748, 13.120276865989903], [80.01515955615001, 13.126165532230651], [80.01469801975465, 13.131510506597875], [80.03059735118487, 13.130058530475884], [80.03854732863924, 13.130962546823085], [80.04390953705, 13.133135262254486], [80.04280168949785, 13.137937084231499], [80.0554665411162, 13.137751596018864], [80.06027248950015, 13.135212984960946], [80.07968967629242, 13.14254176684346], [80.08773137794385, 13.140634547016539], [80.0939218711724, 13.13564794844049]]]}}, {"type": "Feature", "properties": {"DISTRICT": "Thiruvallur", "ST_NM": "Tamil Nadu", "ST_CEN_CD": 33, "DT_CEN_CD": 1, "censuscode": 602, "district": "Thiruvallur"}, "geometry": {"type": "MultiPolygon", "coordinates": [[[[80.30878854823142, 13.468258432943056], [80.31026779333445, 13.464675411067718], [80.31169773123673, 13.46290396068053], [80.31258269890719, 13.46189088500885], [80.31787000517595, 13.458288168913947], [80.3187624399303, 13.456531462336638], [80.31810037976057, 13.4517062978862], [80.31738782688082, 13.450084660413482], [80.31649492325009, 13.449592432772265], [80.3142765693012, 13.449921480789863], [80.31211138359373, 13.45119345351307], [80.31074404504396, 13.450894916915043], [80.31020324572533, 13.45040864931046], [80.31005604602676, 13.448810685576664], [80.31178634813503, 13.443715196504613], [80.31219840795535, 13.439477308885058], [80.31374598845008, 13.438651021284903], [80.31201704809878, 13.436120318540521], [80.31093380623368, 13.43231642080304], [80.30836556032585, 13.432412645012498], [80.30465582550613, 13.4327038966248], [80.30360508637256, 13.433028021984734], [80.29844380295997, 13.434671040785002], [80.29690476074332, 13.436276892228625], [80.29621166217511, 13.436015393447716], [80.29431514276392, 13.437279732379785], [80.29175965026913, 13.440188931664117], [80.28900588093082, 13.440255698036886], [80.28727224748724, 13.439726435810734], [80.28654213280787, 13.438286383240415], [80.28642909232889, 13.438204948257994], [80.286448967081, 13.438102919240269], [80.28559394568853, 13.434574987092201], [80.28416538191074, 13.431771391067263], [80.28391957234071, 13.431288972302823], [80.28086725765313, 13.427978442038688], [80.28448475309465, 13.426826544543706], [80.29077229988745, 13.421196662935374], [80.29252407945246, 13.416692239460154], [80.29289591182626, 13.415736099746113], [80.29306579699094, 13.413942696696544], [80.29275171085507, 13.413258746602875], [80.29185909510991, 13.412748260097173], [80.28918743368747, 13.413080069180195], [80.28789312483215, 13.412571983295454], [80.28783160678269, 13.412547833560208], [80.28703165029938, 13.412048460568805], [80.28683570601349, 13.411364302174613], [80.28888808519189, 13.402830351516753], [80.29506295485791, 13.399247755957854], [80.30607542644505, 13.397157530934019], [80.3098633134356, 13.394998354457567], [80.31967688617597, 13.388358245521472], [80.3205611684544, 13.387297741101753], [80.32512185577369, 13.38317137577237], [80.32834724627558, 13.385249316605739], [80.3279472177042, 13.388382715730682], [80.3284657534606, 13.389313104335107], [80.32866648367506, 13.389483452019471], [80.32947263764429, 13.39016758312684], [80.32823730533312, 13.39351825992847], [80.32815877379124, 13.395417034920571], [80.32808611688434, 13.397173715956106], [80.32782250285317, 13.403547047784524], [80.32774026309542, 13.405535245283337], [80.32744760342925, 13.412966397500426], [80.3256965426415, 13.419675640131027], [80.32537294537603, 13.423067406259738], [80.32493176702897, 13.427691387478596], [80.32458461152639, 13.432889631212937], [80.32441138456755, 13.435483384549118], [80.32494109876683, 13.436180419831965], [80.32521952375008, 13.437591435046206], [80.3256654517348, 13.439851282952182], [80.32689010690174, 13.440582997271754], [80.32933330699838, 13.438471386551065], [80.32964971208453, 13.432502690523885], [80.32993385913703, 13.427142143232825], [80.33320171101501, 13.408945514841275], [80.33292551504545, 13.405804409167947], [80.33273967021698, 13.403617513811708], [80.33273970252547, 13.403617470219023], [80.33263238836285, 13.402354828201567], [80.33416279147153, 13.390793404907567], [80.337148374623, 13.37041895382588], [80.33726955377064, 13.368850261256666], [80.34072203465503, 13.351383747821517], [80.34628841184112, 13.312474943036795], [80.34630540690279, 13.293431102083149], [80.34263477401117, 13.275294445628216], [80.34177961750878, 13.270952890826822], [80.3416506261341, 13.270243996339874], [80.34075553074743, 13.2684130605763], [80.3401731089928, 13.267707508493361], [80.33840788116143, 13.262919561559], [80.33819580782185, 13.261331751795437], [80.33440186850889, 13.249740180971955], [80.33260937620321, 13.244970606971163], [80.32963612215379, 13.233832971920023], [80.32252946259615, 13.207252504117308], [80.318183617259, 13.18974000099805], [80.31699876923923, 13.185230274047504], [80.31523467934133, 13.17808746627476], [80.3103319890898, 13.163959282514364], [80.30771382856166, 13.151894602243651], [80.30359055724972, 13.141455142046441], [80.30349075389594, 13.14125378000404], [80.28821698456234, 13.14273024560953], [80.28062051095941, 13.141789474036637], [80.27668680887135, 13.139635804647858], [80.27297986893157, 13.132104712125265], [80.26948429281535, 13.126419612577129], [80.26483525061292, 13.124720764386824], [80.25466751043882, 13.121893342561528], [80.24973102921938, 13.121617424720002], [80.24566764248678, 13.122478161202864], [80.24174214109982, 13.127216677033068], [80.22767958615374, 13.12645754129418], [80.2256337990992, 13.122795581126441], [80.22184823784517, 13.115971653451343], [80.21690175385736, 13.109149529430466], [80.21457164276424, 13.104315428886995], [80.21456014810245, 13.096916909601333], [80.21251360861051, 13.087529747760282], [80.20960650135213, 13.084688555133512], [80.20785972465849, 13.081276571804244], [80.20756646612124, 13.079285208275628], [80.20756219006593, 13.076439826571846], [80.20929811772751, 13.072738343537587], [80.21132767537775, 13.071312705712542], [80.21161312535835, 13.068182438185913], [80.21160702271169, 13.064199050138155], [80.21043656712064, 13.057941245071861], [80.2092705270391, 13.054528713158172], [80.20868409039079, 13.050546339749074], [80.21041923014363, 13.046560633316425], [80.21099396609976, 13.0428611710109], [80.21069683752691, 13.038309518649012], [80.2147535445771, 13.03460499067325], [80.21532944508334, 13.0317591400391], [80.21387158939554, 13.027209387734997], [80.20662331711718, 13.030918430313964], [80.20444655679687, 13.028210211389514], [80.20158627206837, 13.02859245937762], [80.18985062338173, 13.025302878560234], [80.18983041898865, 13.025330132772252], [80.18981833412057, 13.02531872326593], [80.18547639132927, 13.024871578377036], [80.18446213006696, 13.026231367605915], [80.17979937964671, 13.027675705929068], [80.17301274670871, 13.02977761009178], [80.16728697417321, 13.030871133145084], [80.1663583415375, 13.02679683018032], [80.1628492242069, 13.027615936882192], [80.161652234615, 13.030877582318206], [80.14834991034121, 13.030257971313551], [80.14669430124184, 13.036961485374059], [80.15075923875156, 13.037319596010088], [80.14854640818896, 13.041216273708377], [80.14125578027486, 13.04837859208013], [80.14135170831594, 13.051820115969413], [80.13063379436987, 13.050743442620284], [80.13184163041561, 13.057897520289131], [80.12482205119919, 13.060168066236757], [80.12568686511827, 13.06674447152851], [80.12594695740546, 13.078010531409523], [80.12290988707483, 13.09178131866505], [80.12707118441422, 13.094676341792363], [80.12772337604142, 13.100382518750676], [80.12662094789164, 13.107630398047325], [80.12367063732242, 13.115695234305582], [80.11951873478283, 13.124304823167972], [80.11286974158315, 13.13210111141233], [80.10325669389803, 13.133104887401046], [80.0939218711724, 13.13564794844049], [80.08773137794385, 13.140634547016539], [80.07968967629242, 13.14254176684346], [80.06027248950015, 13.135212984960946], [80.0554665411162, 13.137751596018864], [80.04280168949785, 13.137937084231499], [80.04390953705, 13.133135262254486], [80.03854732863924, 13.130962546823085], [80.03059735118487, 13.130058530475884], [80.01469801975465, 13.131510506597875], [80.01515955615001, 13.126165532230651], [80.01719246505748, 13.120276865989903], [80.01229354257822, 13.120911506510302], [80.01062963889747, 13.118828080549212], [80.01349384131423, 13.107413703343108], [80.01099810639724, 13.103790484959893], [80.00499064159999, 13.100439174880712], [80.00212562351523, 13.099986360790648], [80.0036042265471, 13.096906469766589], [80.00101658073753, 13.093464333993545], [79.99685782790466, 13.096544132534094], [79.98826355739251, 13.091289837598053], [79.98752461663143, 13.08694200088789], [79.98327440922029, 13.081687877849825], [79.9814094274038, 13.0736089531323], [79.98031968076376, 13.065383625802287], [79.98752676811105, 13.063120118042214], [79.99107774138385, 13.06069429708708], [79.99440098154663, 13.057767419440165], [79.99824460350659, 13.051889615833971], [79.99659674971899, 13.041266888091128], [79.99464220230904, 13.03513438416975], [79.99177876551502, 13.031421052494133], [79.98457351277915, 13.03268838205767], [79.97912291413893, 13.036491456782977], [79.9790299923935, 13.03993304162414], [79.98300129181327, 13.047813011615876], [79.99307097875422, 13.051798941164911], [79.98937512942877, 13.056870688912714], [79.97699552358512, 13.052974678643478], [79.97145344865022, 13.047358298062061], [79.97154656301606, 13.043554460378491], [79.9727482940303, 13.039569705260643], [79.97127053892339, 13.038210877880058], [79.96277138540604, 13.03965798181337], [79.94633043986228, 13.03340373918122], [79.93554723217828, 13.033601293303372], [79.92600720582891, 13.035115435363977], [79.92157192759193, 13.03728672109771], [79.92193535891394, 13.048064515350903], [79.91500658109076, 13.047969955865687], [79.90410330416583, 13.050770818656211], [79.89811025589458, 13.03446439647349], [79.90374845094716, 13.029668351669889], [79.90384664496621, 13.021336574420026], [79.90523650861428, 13.01490772337796], [79.9114238442404, 13.01645116536242], [79.91613456856474, 13.016001189198304], [79.92241346936125, 13.019174380611656], [79.92435572815782, 13.014466223671635], [79.93239238111866, 13.012025114678286], [79.94384707997334, 13.006958789708056], [79.9443104698064, 13.003064945627964], [79.9435728298427, 13.000076310869558], [79.94089689556792, 12.99473251351447], [79.93849665940152, 12.993010928291957], [79.92944772732989, 12.990742971576443], [79.91586802286217, 12.998704464031691], [79.91291002631841, 13.003139923790412], [79.90838661311018, 13.00014876279447], [79.90220293847904, 12.994620810751101], [79.89758549903938, 12.994708169935175], [79.89454115640041, 12.990540440911232], [79.9012840509991, 12.988190876637962], [79.91689692506836, 12.977063018565481], [79.91283673198399, 12.972895355768898], [79.91237854652256, 12.967462207548076], [79.90979611256158, 12.963114381487909], [79.90324263698432, 12.960574870108388], [79.89955225249395, 12.956950616777808], [79.89568256886643, 12.94644493893095], [79.86466242103535, 12.94841093021224], [79.85367475028453, 12.950120530966624], [79.85163862321063, 12.954917133464475], [79.84711250522689, 12.95699487251438], [79.83667776380761, 12.958884829758627], [79.83805693593362, 12.963775819636446], [79.82503922678065, 12.96330779245687], [79.82328051636415, 12.966836977971386], [79.82131803682071, 12.985034902816695], [79.82334578005133, 12.988025616562352], [79.81771434172853, 12.98684141137339], [79.81558586859573, 12.99027972136492], [79.82029137626552, 12.993455091879143], [79.82055959065156, 13.000247007441763], [79.8101009788394, 13.016805791007313], [79.80225290265636, 13.014802907667157], [79.80012089938472, 13.020143023401607], [79.7994650022175, 13.026572068360894], [79.78663255824947, 13.022115959701926], [79.78551157155877, 13.022127273718747], [79.7855702155469, 13.022150693714504], [79.786159795822, 13.029152059483108], [79.78587771389796, 13.039781846466628], [79.78980740702431, 13.046525911966963], [79.78681188140081, 13.052521768562064], [79.77822508454199, 13.055015378043137], [79.77646207432088, 13.058313995055444], [79.77118044974023, 13.059163849132407], [79.76147561231855, 13.051965661192668], [79.74882636888559, 13.050245961756358], [79.73429292329254, 13.059231716503207], [79.72681421150442, 13.053205981958634], [79.72089353785523, 13.053665564797809], [79.71951453108301, 13.05713179070499], [79.72416584723376, 13.060874664520242], [79.72649600532215, 13.066943064214826], [79.73428761129506, 13.066812768997806], [79.73898561090606, 13.069468443834754], [79.74055193929723, 13.07427634581689], [79.73227838599506, 13.095198798179679], [79.72691709001707, 13.096970991632784], [79.71228376911485, 13.09762859587371], [79.70165585316627, 13.09973113165652], [79.7035471884475, 13.106610422987002], [79.7087043044281, 13.107771458681887], [79.7166380378732, 13.104818349743299], [79.7221584334628, 13.106899017124794], [79.72623475149526, 13.114835520888377], [79.73455740082, 13.116309626091141], [79.73717580599806, 13.12467597352515], [79.7396446639098, 13.136475664359578], [79.73934639981474, 13.15124016026183], [79.73580334220416, 13.164422971257043], [79.7283631093373, 13.164087431062802], [79.7178554772197, 13.161491823197958], [79.70372802052931, 13.160190479620674], [79.7002836750347, 13.156029264049854], [79.69569335535407, 13.159118169907947], [79.69229031508449, 13.164547039277325], [79.69205884545364, 13.175054381213615], [79.6974436013279, 13.179997090149541], [79.70027790568234, 13.187437419260982], [79.69239842704036, 13.189695070731931], [79.68279513320329, 13.185363464154891], [79.67098597878416, 13.181447585571267], [79.66951917411488, 13.1867515962404], [79.67078045445571, 13.20074710634086], [79.65504808292523, 13.20830370293898], [79.65241343155444, 13.20224205219484], [79.64789383910504, 13.196540588218573], [79.64555874585272, 13.186569981193147], [79.64523797784057, 13.17824681625287], [79.63236775016317, 13.168882151494085], [79.63187710195592, 13.161308722997813], [79.63612736727427, 13.147487159425978], [79.62952759404452, 13.143590470195898], [79.6188611302812, 13.14282424171734], [79.60872992891719, 13.143254537843328], [79.59405439210629, 13.145401777359895], [79.59197164988684, 13.142376724668509], [79.59635642136186, 13.135909216942467], [79.59904018536173, 13.129330512459578], [79.59516232165247, 13.122244396187273], [79.58449435443002, 13.12107710395139], [79.57161000411908, 13.121539773183631], [79.56915926322748, 13.127876162017804], [79.5698104424408, 13.133959155816209], [79.55567193053534, 13.136672547800552], [79.55094931393371, 13.13343949301358], [79.52896221348001, 13.136098290382632], [79.52255655161191, 13.140582038477785], [79.5170185000919, 13.142697089031119], [79.50500319965101, 13.136717649238697], [79.49304769697106, 13.136762079543972], [79.48240018363418, 13.138062662233612], [79.48184980730358, 13.130767807542705], [79.47938976225616, 13.126775078777953], [79.47404055941557, 13.126010505982915], [79.47514757989333, 13.121118069287647], [79.47562268243094, 13.112846663288636], [79.47365775804106, 13.107003343721244], [79.46612266210091, 13.107650450669379], [79.46342706242045, 13.10444947753424], [79.46220979992131, 13.097225317840612], [79.46036879438086, 13.09534555913188], [79.45328141316038, 13.092193671251708], [79.45197729219345, 13.094199643808423], [79.44234457963917, 13.10923151709276], [79.43209485203099, 13.113107078275185], [79.43129116041426, 13.11805009948975], [79.44132839520027, 13.118254762950759], [79.45376802627409, 13.120442762129445], [79.45280537358016, 13.126024089429045], [79.44311699644727, 13.123978011109955], [79.43700230700584, 13.125127355017515], [79.4241885050055, 13.144470693244736], [79.41855762309115, 13.148484237331276], [79.4121592346219, 13.135620619559566], [79.41273857791192, 13.12981358640446], [79.41245866478464, 13.120103242310737], [79.40785000221432, 13.114920660944783], [79.40226908668475, 13.105949749103432], [79.40910886810967, 13.10153250540476], [79.4186278731185, 13.102710409639418], [79.42166271170606, 13.098034891137326], [79.4197202281403, 13.090182521899953], [79.41692516608728, 13.082974509378083], [79.3937340111444, 13.08115979189715], [79.38265397042024, 13.078666980753695], [79.34717974971156, 13.060523971822098], [79.33801497490838, 13.063760858249605], [79.33159401284998, 13.072718604014856], [79.32257805182414, 13.079281821442398], [79.30633675277345, 13.084061749522757], [79.30135780422786, 13.089621977277787], [79.29832153777944, 13.096992034324735], [79.29115309209001, 13.10807400546347], [79.28575526848462, 13.119724340715672], [79.2860897208309, 13.132805368498438], [79.28977493975972, 13.13163454616815], [79.2971934668603, 13.134789756021867], [79.30037124611472, 13.130221167699018], [79.31106050850264, 13.126805313624299], [79.30978194256232, 13.109358210073559], [79.32026522183266, 13.108928062655323], [79.32235074266681, 13.111956699205557], [79.32205784779259, 13.118901337922248], [79.32470710425223, 13.125773888763055], [79.32903830494664, 13.131372444008615], [79.34299943378039, 13.133262428689969], [79.34763115944277, 13.139543676871943], [79.350108329755, 13.135213024068504], [79.35667456421088, 13.135616306932162], [79.3624342156643, 13.137524119339632], [79.36693034492373, 13.141847295424219], [79.35907418689885, 13.146913143879374], [79.35917682408586, 13.15218875354055], [79.36015138482269, 13.155860157998948], [79.35937634503979, 13.1659770111648], [79.36004400266944, 13.17504052604161], [79.3670030551856, 13.173374738346252], [79.37351374339464, 13.168091496329142], [79.37725057953453, 13.172429592407125], [79.37947184413754, 13.177635491027385], [79.38307866220642, 13.18064557509717], [79.38127810390766, 13.188307901721023], [79.39065127939058, 13.194486852503523], [79.39665726207527, 13.196788797360721], [79.40485707818745, 13.196546609220045], [79.41021276310478, 13.198510046489925], [79.42561382713495, 13.197981143894236], [79.4329281623388, 13.196596612778478], [79.43612969595888, 13.199608466877548], [79.43389589189292, 13.20531514613608], [79.43548177582873, 13.211043802905321], [79.43546411166808, 13.215928005749964], [79.43393472690626, 13.22065000064918], [79.45781585827558, 13.22894087342575], [79.45774325730119, 13.233879517574872], [79.45476746344477, 13.241312997447816], [79.44838839388332, 13.241943434220188], [79.43917503076952, 13.234845943054832], [79.43045518144109, 13.23055015728904], [79.42927612503895, 13.22430168724462], [79.4231248573242, 13.224245409869246], [79.42091532679724, 13.231665233792496], [79.42193873934468, 13.240212857032718], [79.41956980401285, 13.249705473745804], [79.42088945070027, 13.258775893413983], [79.42451093399906, 13.269537050193929], [79.43122250264923, 13.278377916933282], [79.43019105592366, 13.281086104298417], [79.43054080917157, 13.286595925630111], [79.43722730757636, 13.293368022838958], [79.43394546088253, 13.298678046715315], [79.41757599471123, 13.297386754640245], [79.41110924731983, 13.301115229731233], [79.39773190981869, 13.306620757154148], [79.38667823034595, 13.314924657907474], [79.41348141467319, 13.327674955052622], [79.42942896344339, 13.333916837513454], [79.44098983431574, 13.335537298530213], [79.46679960907066, 13.33634913113721], [79.49146109441145, 13.333553429766782], [79.4994380815429, 13.328659131352584], [79.51004370290663, 13.326957443058138], [79.52176591001266, 13.326860913370007], [79.53497393836531, 13.328121171079928], [79.54805862211711, 13.323295039157916], [79.55117412162897, 13.313168261981465], [79.55152969429045, 13.30202256265869], [79.55376513828996, 13.29120934690566], [79.55869267218769, 13.286343685569713], [79.56109304163567, 13.27943096465769], [79.56716534578472, 13.27151207987969], [79.57778339957306, 13.26176673071518], [79.58338967351851, 13.259766569645082], [79.59269676235533, 13.257783522415323], [79.59786845109669, 13.259520043956792], [79.5988769929031, 13.265889626871742], [79.60111701073244, 13.272817928903597], [79.60729777745911, 13.275458755178883], [79.61356555403232, 13.280166085034836], [79.61754348835287, 13.279789250030067], [79.62320750007645, 13.277035299431883], [79.62767430424763, 13.272923085865745], [79.63322574474817, 13.271428320934124], [79.63677327329461, 13.274502974063909], [79.64204154905602, 13.273358334991393], [79.64317478952933, 13.280645894549108], [79.6449885919295, 13.28602513374844], [79.65094174818606, 13.288668192297534], [79.65623770092257, 13.285864378925725], [79.6611054684114, 13.285878193067047], [79.66587088628407, 13.2870993539236], [79.6699064311252, 13.281026944374577], [79.67506864322904, 13.280694294495813], [79.67840662492831, 13.28583408219065], [79.68101951205725, 13.294477708265438], [79.69184577176611, 13.281916257453284], [79.69414910936283, 13.278164352820268], [79.69686839906853, 13.269297079508775], [79.68633242449157, 13.259629121427954], [79.68368863998887, 13.248455707440206], [79.68590502415127, 13.242119019891437], [79.69327854031893, 13.241022526666807], [79.69714747835623, 13.246495426236224], [79.70452722866506, 13.251191611891368], [79.7086379568942, 13.246562183617547], [79.70836326503213, 13.236461557960894], [79.70206719686658, 13.22394291605946], [79.7013817298139, 13.220099234267567], [79.70507909485661, 13.22023825878136], [79.71229259992748, 13.21540482544451], [79.7183446787321, 13.221954880963828], [79.72409571314984, 13.223223387897802], [79.72836157475137, 13.227143994401674], [79.7312063129495, 13.235327937459383], [79.73547476786041, 13.234597293927726], [79.73918351175685, 13.230140950237077], [79.74518928991874, 13.22773438489642], [79.74636815779559, 13.223012917662764], [79.75019233045737, 13.218323298851374], [79.75098470676224, 13.211077566805898], [79.75710669921381, 13.207746624997146], [79.76454233780454, 13.217613518870358], [79.77041232346417, 13.21842043189842], [79.77607714839377, 13.22169843200603], [79.77988099696171, 13.226199001424048], [79.78630814473648, 13.230386313663947], [79.79005976850675, 13.230063340396523], [79.79598830943586, 13.230805890462017], [79.79762909682198, 13.23635884654973], [79.7959824420342, 13.241030412014704], [79.78807730800253, 13.246961712352656], [79.76543818857382, 13.256537589586022], [79.7582135510796, 13.260966461870607], [79.75201467119076, 13.267168666194847], [79.73436587495577, 13.278420984839197], [79.7338513157687, 13.28491408635254], [79.742209561433, 13.287763977685175], [79.75406862435592, 13.289373138494], [79.75873403230237, 13.292718799699944], [79.76231544609908, 13.303588006211227], [79.76310244979783, 13.311506923211887], [79.76661299887654, 13.315494227291197], [79.7809510859183, 13.302382565335245], [79.78681671688095, 13.297902417565586], [79.79241834843722, 13.294862823916015], [79.79988566871768, 13.297431681631544], [79.80489206299465, 13.304445151127288], [79.80760585740666, 13.311367110176866], [79.81289250788207, 13.317120946479362], [79.82110198019636, 13.317899611826265], [79.83666772820851, 13.3151693307406], [79.84323532544947, 13.314931887996885], [79.84941519335362, 13.315876643603534], [79.85169652242787, 13.316228018423361], [79.86382921223192, 13.316337437553027], [79.8683395704791, 13.321055213552832], [79.87151167909118, 13.326648760835619], [79.87786239203714, 13.32366067040004], [79.88321660698992, 13.324700759188971], [79.88762063829408, 13.330340306086226], [79.8928139499392, 13.333390081031272], [79.89874512052651, 13.334248781481566], [79.90447090808019, 13.337586345287104], [79.9100362836963, 13.34246247851328], [79.91653553513112, 13.346246635083155], [79.91894859563597, 13.352022630800791], [79.92333240814862, 13.356682533578638], [79.92981506892278, 13.354036387862351], [79.93819896915309, 13.34896132134834], [79.94141777156236, 13.356552750474641], [79.95266480413659, 13.371137042480516], [79.95329122134929, 13.374002109328437], [79.95238322453471, 13.382104759746113], [79.96069076661828, 13.380246404133306], [79.96622923860863, 13.387133731315291], [79.96291859700442, 13.394975485857081], [79.94823083700342, 13.397822430142801], [79.94817306584292, 13.40356172288682], [79.9450508926025, 13.41731087452706], [79.9485133577212, 13.42250094359304], [79.95685015350753, 13.423734588998268], [79.96344884734317, 13.42109098974822], [79.9710693445328, 13.425832763192664], [79.97582075141025, 13.430895613121214], [79.9735931851116, 13.440622723299608], [79.97561988960263, 13.453520217393447], [79.97472277331764, 13.457088445604679], [79.9743971426846, 13.464213977165006], [79.98079018357012, 13.469372774682665], [79.9820101864503, 13.469722749438024], [79.98316151369649, 13.471890305018102], [79.98491028205225, 13.476341641205243], [79.98595945156927, 13.480450547525132], [79.99120728265147, 13.484559814751222], [80.00310348548469, 13.492093075590082], [80.01395091127088, 13.496543846466171], [80.01815023676735, 13.499282739550303], [80.01818068763029, 13.49926783561117], [80.01841009263286, 13.50074309798883], [80.03138838754441, 13.499378192484134], [80.03736215830901, 13.499714561622602], [80.04859967102215, 13.497518646984604], [80.04972417097456, 13.505851004221194], [80.04952027967374, 13.512370005862522], [80.04526870492407, 13.514852016710346], [80.038145508753, 13.516960602076344], [80.03160505633757, 13.514637999192953], [80.02612245445604, 13.516877132145746], [80.02090650882818, 13.521249738543576], [80.01871272709903, 13.527996048781997], [80.01288355698733, 13.525284671118255], [80.00264434126117, 13.52299270590352], [80.00219477236188, 13.525899722001068], [80.00173595851136, 13.531888438094148], [80.00212545754002, 13.539641475078758], [80.00658051316317, 13.542487302403279], [80.02016147214236, 13.545279825704656], [80.02694997275893, 13.541425903448676], [80.03002967536338, 13.538075951749171], [80.04200309276749, 13.536560453358458], [80.04659869150642, 13.534781197289588], [80.05792570824262, 13.53498796577063], [80.06347141733417, 13.543509795607283], [80.07201861662558, 13.545573912145283], [80.07810914506982, 13.547788544374024], [80.07967906248669, 13.548951024854944], [80.08194477177855, 13.550623341942362], [80.08526886355139, 13.546956761374016], [80.08835415068467, 13.539823040827878], [80.08955066853477, 13.537044426717472], [80.08286313176598, 13.532048291053316], [80.08000168316691, 13.52565077788079], [80.07875662827468, 13.516681089216886], [80.07878702100543, 13.509071405634778], [80.08046588712737, 13.491108165528631], [80.10403871708155, 13.490222425467136], [80.11076408294619, 13.491942858486254], [80.11316651824836, 13.497189906081758], [80.11319916503194, 13.500284861464335], [80.11327744849717, 13.50809379852323], [80.12114814656489, 13.506711066116912], [80.12624668261974, 13.50725765431237], [80.13248090583997, 13.505533359674258], [80.14692242419297, 13.503605629522218], [80.14773287678642, 13.494428694059451], [80.1647700676895, 13.492170054935752], [80.16909763285169, 13.491600460941354], [80.17968402405911, 13.487932698916529], [80.20303045318443, 13.486702286550265], [80.21085589165271, 13.484387455523143], [80.2113446976357, 13.487377292303076], [80.21562434193586, 13.48747756049297], [80.21517873664686, 13.485521520212457], [80.21888362696265, 13.484132866651471], [80.22545563590765, 13.48346295452119], [80.23418185195668, 13.47434601551411], [80.2345865441489, 13.473914572748784], [80.23509318392136, 13.473503393487562], [80.24180669744818, 13.467971637098627], [80.24217250459397, 13.469174908417264], [80.24227038148767, 13.469492152920395], [80.2477605388529, 13.487362324878212], [80.24842946332544, 13.489558200899094], [80.25342239299162, 13.505808881995227], [80.2619502807424, 13.546213139481068], [80.26264264075108, 13.549497810360489], [80.26441811343025, 13.557883013204425], [80.26487735182859, 13.560419824265258], [80.2696929683849, 13.563152697504124], [80.27115186276139, 13.559986356050599], [80.27177208565476, 13.559440930814034], [80.27282417236407, 13.556912589198399], [80.27378309224251, 13.556525244968155], [80.28400400537258, 13.534141361673207], [80.28807489116255, 13.519049335407258], [80.29049808073542, 13.51201294034817], [80.29203522397027, 13.502497870732785], [80.29286596479795, 13.497609931617227], [80.29563997798738, 13.48913571227936], [80.30176656316708, 13.475576021238934], [80.30276050785858, 13.474544611756682], [80.30399483164615, 13.472209052502873], [80.30445876057041, 13.471425890810753], [80.3068824398833, 13.469523080602647], [80.30878854823142, 13.468258432943056]]], [[[80.3192822768322, 13.413932276998326], [80.31841735762227, 13.413433220190212], [80.31605144632563, 13.413769383430788], [80.31368291028019, 13.414991847513726], [80.3126468833457, 13.42175382134239], [80.31343488794198, 13.42405748688647], [80.31730593862683, 13.425581427210782], [80.32068131121153, 13.423035055199344], [80.3210430571745, 13.416283564062665], [80.3192822768322, 13.413932276998326]]], [[[80.30521933447017, 13.42151134093935], [80.30737886555143, 13.419942588157912], [80.30764575545737, 13.420198172710684], [80.30764631044931, 13.419409316882295], [80.30873924747374, 13.416240212860162], [80.30982516904672, 13.413077941346337], [80.30929933200692, 13.409907837948566], [80.30686903031818, 13.409371257509855], [80.30389451636047, 13.410941675765265], [80.30199737749537, 13.41384716955888], [80.30144795062766, 13.417803911526006], [80.30144042552033, 13.420714550386565], [80.30332898901266, 13.422297400327274], [80.30521933447017, 13.42151134093935]]], [[[80.3212087830054, 13.391976926137684], [80.32067378704777, 13.390917342642169], [80.31932913896465, 13.391174199210479], [80.31898829640132, 13.390961864069018], [80.31794848177728, 13.394885500124946], [80.3173287216565, 13.397226077136581], [80.31676385834223, 13.400303249551085], [80.31809407038052, 13.402793724246711], [80.32117387703288, 13.400853367681611], [80.32206634312772, 13.398296776773954], [80.32231688590026, 13.397521006276177], [80.32147643744368, 13.393565272744405], [80.3212087830054, 13.391976926137684]]], [[[79.84505500058654, 13.330697349430663], [79.84607271942144, 13.322952567816754], [79.84280000646939, 13.323311631504266], [79.84137087988807, 13.326371665587896], [79.84505500058654, 13.330697349430663]]], [[[80.32018159634984, 13.438219707453905], [80.31814213341747, 13.437677905623387], [80.31703105775087, 13.438979329063327], [80.31651724061405, 13.440152484674407], [80.31787565460421, 13.442645466239632], [80.31844831403403, 13.442895841987617], [80.31958397792138, 13.443190280737698], [80.32008092831242, 13.44275167393493], [80.32041050761674, 13.440053206924427], [80.32018159634984, 13.438219707453905]]]]}}]}