{"type": "FeatureCollection", "features": [{"type": "Feature", "properties": {"osm_id": 603015252, "osm_type": "node", "name": "Mannadi", "network": "Chennai Metro", "note": "Contributors are requested to not edit the \"network\" and the \"operator\" tags. (2023/11/08)", "operator": "Chennai Metro Rail Limited", "public_transport": "stop_position", "railway": "stop", "station": "subway", "subway": "yes"}, "geometry": {"type": "Point", "coordinates": [80.2860786, 13.095369]}}, {"type": "Feature", "properties": {"osm_id": 603015278, "osm_type": "node", "name": "அரசினர் தோட்டம்", "name:en": "Government Estate", "name:ta": "அரசினர் தோட்டம்", "network": "Chennai Metro", "note": "Contributors are requested to not edit the \"network\" and the \"operator\" tags. (2023/11/08)", "operator": "Chennai Metro Rail Limited", "public_transport": "stop_position", "railway": "stop", "station": "subway", "subway": "yes"}, "geometry": {"type": "Point", "coordinates": [80.2730041, 13.0697128]}}, {"type": "Feature", "properties": {"osm_id": 5308690568, "osm_type": "node", "addr:city": "Chennai", "layer": "1", "level": "1", "name": "Alandur", "name:en": "Alandur", "name:ml": "ആലന്തൂർ", "name:ta": "ஆலந்தூர்", "network": "Chennai Metro", "note": "Contributors are requested to not edit the \"network\" and the \"operator\" tags. (2023/11/08)", "operator": "Chennai Metro Rail Limited", "public_transport": "station", "railway": "station", "railway:ref": "SAL", "ref": "SAL", "station": "subway", "subway": "yes", "wheelchair": "yes", "wikidata": "Q4708199", "wikipedia": "en:Alandur metro station"}, "geometry": {"type": "Point", "coordinates": [80.2014525, 13.0042558]}}, {"type": "Feature", "properties": {"osm_id": 5319202812, "osm_type": "node", "name": "Saint Thomas Mount", "name:en": "Saint Thomas Mount", "name:ml": "സെന്റ് തോമസ് മൗണ്ട്", "name:ta": "பரங்கிமலை", "network": "Chennai Metro", "network:wikidata": "Q1639576", "note": "Contributors are requested to not edit the \"network\" and the \"operator\" tags. (2023/11/08)", "operator": "Chennai Metro Rail Limited", "public_transport": "station", "railway": "station", "railway:ref": "SMM", "ref": "SMM", "station": "subway", "subway": "yes", "wikidata": "Q7591984", "wikipedia": "en:St. Thomas Mount railway station"}, "geometry": {"type": "Point", "coordinates": [80.198582, 12.995]}}, {"type": "Feature", "properties": {"osm_id": 5319207344, "osm_type": "node", "name": "சென்னை விமான நிலையம்", "name:en": "Chennai International Airport", "name:ta": "சென்னை விமான நிலையம்", "network": "Chennai Metro", "note": "Contributors are requested to not edit the \"network\" and the \"operator\" tags. (2023/11/08)", "operator": "Chennai Metro Rail Limited", "public_transport": "stop_position", "railway": "stop", "station": "subway", "subway": "yes"}, "geometry": {"type": "Point", "coordinates": [80.1641832, 12.9807725]}}, {"type": "Feature", "properties": {"osm_id": 5319207346, "osm_type": "node", "name": "மீனம்பாக்கம்", "name:en": "Meenambakkam", "name:ta": "மீனம்பாக்கம்", "network": "Chennai Metro", "note": "Contributors are requested to not edit the \"network\" and the \"operator\" tags. (2023/11/08)", "operator": "Chennai Metro Rail Limited", "public_transport": "stop_position", "railway": "stop", "station": "subway", "subway": "yes"}, "geometry": {"type": "Point", "coordinates": [80.1764698, 12.9876388]}}, {"type": "Feature", "properties": {"osm_id": 5319207355, "osm_type": "node", "name": "Nanganallur Road", "network": "Chennai Metro", "note": "Contributors are requested to not edit the \"network\" and the \"operator\" tags. (2023/11/08)", "operator": "Chennai Metro Rail Limited", "public_transport": "stop_position", "railway": "stop", "station": "subway", "subway": "yes"}, "geometry": {"type": "Point", "coordinates": [80.1940028, 12.9998483]}}, {"type": "Feature", "properties": {"osm_id": 5319207378, "osm_type": "node", "alt_name": "SIDCO", "local_ref": "SIDCO", "name": "Ekkattuthangal", "name:en": "Ekkattuthangal", "name:ml": "ഈക്കാട്ടുത്താങ്കൽ", "name:ta": "ஈக்காட்டுத்தாங்கல்", "network": "Chennai Metro", "network:wikidata": "Q1639576", "note": "Contributors are requested to not edit the \"network\" and the \"operator\" tags. (2023/11/08)", "operator": "Chennai Metro Rail Limited", "public_transport": "station", "railway": "station", "railway:ref": "SSI", "ref": "SSI", "station": "subway", "subway": "yes", "wikidata": "Q19891416", "wikipedia": "en:Ekkattuthangal metro station"}, "geometry": {"type": "Point", "coordinates": [80.2054236, 13.0169222]}}, {"type": "Feature", "properties": {"osm_id": 5319972796, "osm_type": "node", "alt_name": "Ashok Nagar - KK Nagar", "local_ref": "Ashok Nagar - KK Nagar", "name": "Ashok Nagar", "name:en": "Ashok Nagar", "name:ml": "അശോക് നഗർ", "name:ta": "அசோக் நகர்", "network": "Chennai Metro", "network:wikidata": "Q1639576", "note": "Contributors are requested to not edit the \"network\" and the \"operator\" tags. (2023/11/08)", "operator": "Chennai Metro Rail Limited", "public_transport": "station", "railway": "station", "railway:ref": "SAN", "ref": "SAN", "station": "subway", "subway": "yes", "wikidata": "Q18378132", "wikipedia": "en:Ashok Nagar metro station"}, "geometry": {"type": "Point", "coordinates": [80.2111075, 13.0354768]}}, {"type": "Feature", "properties": {"osm_id": 5319972798, "osm_type": "node", "name": "Vadapalani", "name:en": "Vadapalani", "name:ml": "വടപഴനി", "name:ta": "வடபழநி", "network": "Chennai Metro", "note": "Contributors are requested to not edit the \"network\" and the \"operator\" tags. (2023/11/08)", "operator": "Chennai Metro Rail Limited", "public_transport": "station", "railway": "station", "railway:ref": "SVA", "ref": "SVA", "station": "subway", "subway": "yes", "wikidata": "Q17075798", "wikipedia": "en:Vadapalani metro station"}, "geometry": {"type": "Point", "coordinates": [80.2120661, 13.0509304]}}, {"type": "Feature", "properties": {"osm_id": 5319972799, "osm_type": "node", "name": "Arumbakkam", "name:en": "Arumbakkam", "name:ml": "അരുമ്പാക്കം", "name:ta": "அரும்பாக்கம்", "network": "Chennai Metro", "note": "Contributors are requested to not edit the \"network\" and the \"operator\" tags. (2023/11/08)", "operator": "Chennai Metro Rail Limited", "public_transport": "station", "railway": "station", "railway:ref": "SAR", "ref": "SAR", "station": "subway", "subway": "yes", "wikidata": "Q19882103", "wikipedia": "en:Arumbakkam metro station"}, "geometry": {"type": "Point", "coordinates": [80.2116557, 13.0616746]}}, {"type": "Feature", "properties": {"osm_id": 5321248424, "osm_type": "node", "name": "சின்னமலை", "name:en": "Little Mount", "name:ta": "சின்னமலை", "network": "Chennai Metro", "note": "Contributors are requested to not edit the \"network\" and the \"operator\" tags. (2023/11/08)", "operator": "Chennai Metro Rail Limited", "public_transport": "stop_position", "railway": "stop", "station": "subway", "subway": "yes"}, "geometry": {"type": "Point", "coordinates": [80.2241682, 13.0146226]}}, {"type": "Feature", "properties": {"osm_id": 5321248425, "osm_type": "node", "name": "கிண்டி", "name:en": "Guindy", "name:ta": "கிண்டி", "network": "Chennai Metro", "note": "Contributors are requested to not edit the \"network\" and the \"operator\" tags. (2023/11/08)", "operator": "Chennai Metro Rail Limited", "public_transport": "stop_position", "railway": "stop", "station": "subway", "subway": "yes"}, "geometry": {"type": "Point", "coordinates": [80.2130951, 13.0092314]}}, {"type": "Feature", "properties": {"osm_id": 5321248890, "osm_type": "node", "alt_name": "கோயம்பேடு பேருந்து நிலையம்", "alt_name:en": "Chennai Mofussil Bus Terminus", "alt_name:ta": "கோயம்பேடு பேருந்து நிலையம்", "name": "CMBT", "name:en": "CMBT", "name:ml": "ചെന്നൈ നഗരപ്രാന്ത ബഹുവാഹക നിലയം", "name:ta": "சென்னை புறநகர் பேருந்து நிலையம்", "network": "Chennai Metro", "note": "Contributors are requested to not edit the \"network\" and the \"operator\" tags. (2023/11/08)", "operator": "Chennai Metro Rail Limited", "public_transport": "station", "railway": "station", "railway:ref": "SCM", "ref": "SCM", "station": "subway", "subway": "yes", "wikidata": "Q5012859", "wikipedia": "en:Chennai Mofussil Bus Terminus metro station"}, "geometry": {"type": "Point", "coordinates": [80.2039625, 13.0685246]}}, {"type": "Feature", "properties": {"osm_id": 5321248896, "osm_type": "node", "name": "Koyambedu", "name:en": "Koyambedu", "name:ml": "കോയമ്പേട്", "name:ta": "கோயம்பேடு", "network": "Chennai Metro", "network:wikidata": "Q1639576", "note": "Contributors are requested to not edit the \"network\" and the \"operator\" tags. (2023/11/08)", "operator": "Chennai Metro Rail Limited", "public_transport": "station", "railway": "station", "railway:ref": "SKO", "ref": "SKO", "station": "subway", "subway": "yes", "wikidata": "Q6435138", "wikipedia": "en:Koyambedu metro station"}, "geometry": {"type": "Point", "coordinates": [80.1948363, 13.0734496]}}, {"type": "Feature", "properties": {"osm_id": 5329907482, "osm_type": "node", "name": "Pachaiyappa's College", "name:ml": "പച്ചയ്യപ്പൻ കോളേജ്", "name:ta": "பச்சையப்பன் கல்லூரி", "network": "Chennai Metro", "note": "Contributors are requested to not edit the \"network\" and the \"operator\" tags. (2023/11/08)", "operator": "Chennai Metro Rail Limited", "public_transport": "station", "railway": "station", "railway:ref": "SPC", "ref": "SPC", "station": "subway", "subway": "yes", "wikidata": "Q30638918", "wikipedia": "en:Pachaiyappa's College metro station"}, "geometry": {"type": "Point", "coordinates": [80.2328522, 13.0755466]}}, {"type": "Feature", "properties": {"osm_id": 5329907487, "osm_type": "node", "name": "Kilpauk", "name:ml": "കീഴ്പാക്കം", "name:ta": "கீழ்பாக்கம்", "network": "Chennai Metro", "network:wikidata": "Q1639576", "note": "Contributors are requested to not edit the \"network\" and the \"operator\" tags. (2023/11/08)", "operator": "Chennai Metro Rail Limited", "public_transport": "station", "railway": "station", "railway:ref": "SKM", "ref": "SKM", "station": "subway", "subway": "yes", "wikidata": "Q30638925", "wikipedia": "en:Kilpauk Medical College metro station"}, "geometry": {"type": "Point", "coordinates": [80.2426191, 13.0776371]}}, {"type": "Feature", "properties": {"osm_id": 5329907490, "osm_type": "node", "internet_access": "no", "name": "Nehru Park", "name:ml": "നെഹ്റു പാർക്ക്", "name:ta": "நேரு பூங்கா", "network": "Chennai Metro", "network:wikidata": "Q1639576", "note": "Contributors are requested to not edit the \"network\" and the \"operator\" tags. (2023/11/08)", "operator": "Chennai Metro Rail Limited", "public_transport": "station", "railway": "station", "railway:ref": "SNP", "ref": "SNP", "station": "subway", "subway": "yes", "wikidata": "Q30638924", "wikipedia": "en:Nehru Park metro station"}, "geometry": {"type": "Point", "coordinates": [80.250473, 13.0787841]}}, {"type": "Feature", "properties": {"osm_id": 5329907499, "osm_type": "node", "name": "Egmore", "name:ml": "എഴുമ്പൂർ", "name:ta": "எழும்பூர்", "network": "Chennai Metro", "network:wikidata": "Q1639576", "note": "Contributors are requested to not edit the \"network\" and the \"operator\" tags. (2023/11/08)", "operator": "Chennai Metro Rail Limited", "public_transport": "station", "railway": "station", "railway:ref": "SEG", "ref": "SEG", "station": "subway", "subway": "yes", "wikidata": "Q30638926", "wikipedia": "en:Egmore metro station"}, "geometry": {"type": "Point", "coordinates": [80.2630546, 13.0802807]}}, {"type": "Feature", "properties": {"osm_id": 5337407333, "osm_type": "node", "name": "சைதாப்பேட்டை", "name:en": "Saidapet", "name:ta": "சைதாப்பேட்டை", "network": "Chennai Metro", "note": "Contributors are requested to not edit the \"network\" and the \"operator\" tags. (2023/11/08)", "operator": "Chennai Metro Rail Limited", "public_transport": "stop_position", "railway": "stop", "station": "subway", "subway": "yes"}, "geometry": {"type": "Point", "coordinates": [80.2280916, 13.0239394]}}, {"type": "Feature", "properties": {"osm_id": 5337407335, "osm_type": "node", "name": "நந்தனம்", "name:en": "Nandanam", "name:ta": "நந்தனம்", "network": "Chennai Metro", "note": "Contributors are requested to not edit the \"network\" and the \"operator\" tags. (2023/11/08)", "operator": "Chennai Metro Rail Limited", "public_transport": "stop_position", "railway": "stop", "station": "subway", "subway": "yes"}, "geometry": {"type": "Point", "coordinates": [80.2411933, 13.0316813]}}, {"type": "Feature", "properties": {"osm_id": 5337407339, "osm_type": "node", "name": "தேனாம்பேட்டை", "name:en": "Teynampet", "name:ta": "தேனாம்பேட்டை", "network": "Chennai Metro", "note": "Contributors are requested to not edit the \"network\" and the \"operator\" tags. (2023/11/08)", "operator": "Chennai Metro Rail Limited", "public_transport": "stop_position", "railway": "stop", "station": "subway", "subway": "yes"}, "geometry": {"type": "Point", "coordinates": [80.2464553, 13.0368085]}}, {"type": "Feature", "properties": {"osm_id": 5337407346, "osm_type": "node", "name": "ஆயிரம் விளக்கு", "name:en": "Thousand Lights", "name:ml": "ആയിരം വിളക്ക്", "name:ta": "ஆயிரம் விளக்கு", "network": "Chennai Metro", "network:wikidata": "Q1639576", "note": "Contributors are requested to not edit the \"network\" and the \"operator\" tags. (2023/11/08)", "operator": "Chennai Metro Rail Limited", "public_transport": "station", "railway": "station", "railway:ref": "STL", "ref": "STL", "station": "subway", "subway": "yes", "wikidata": "Q62005544", "wikipedia": "en:Thousand Lights metro station"}, "geometry": {"type": "Point", "coordinates": [80.2587833, 13.0585155]}}, {"type": "Feature", "properties": {"osm_id": 5337407347, "osm_type": "node", "name": "ஏ ஜி டி.எம்.எஸ்", "name:en": "AG-DMS", "name:ta": "ஏ ஜி டி.எம்.எஸ்", "network": "Chennai Metro", "note": "Contributors are requested to not edit the \"network\" and the \"operator\" tags. (2023/11/08)", "operator": "Chennai Metro Rail Limited", "public_transport": "stop_position", "railway": "stop", "station": "subway", "subway": "yes"}, "geometry": {"type": "Point", "coordinates": [80.2483032, 13.0458615]}}, {"type": "Feature", "properties": {"osm_id": 5337407350, "osm_type": "node", "name": "எல் ஐ சி", "name:en": "LIC", "name:ml": "എൽഐസി", "name:ta": "எல் ஐ சி", "network": "Chennai Metro", "network:wikidata": "Q1639576", "note": "Contributors are requested to not edit the \"network\" and the \"operator\" tags. (2023/11/08)", "operator": "Chennai Metro Rail Limited", "public_transport": "station", "railway": "station", "railway:ref": "SLI", "ref": "SLI", "station": "subway", "subway": "yes", "wikidata": "Q62005418", "wikipedia": "en:LIC metro station"}, "geometry": {"type": "Point", "coordinates": [80.2658465, 13.0643716]}}, {"type": "Feature", "properties": {"osm_id": 5337407354, "osm_type": "node", "name": "அரசினர் தோட்டம்", "name:en": "Government Estate", "name:ml": "സർക്കാർ എസ്റ്റേറ്റ്", "name:ta": "அரசினர் தோட்டம்", "network": "Chennai Metro", "network:wikidata": "Q1639576", "note": "Contributors are requested to not edit the \"network\" and the \"operator\" tags. (2023/11/08)", "operator": "Chennai Metro Rail Limited", "public_transport": "station", "railway": "station", "railway:ref": "SGE", "ref": "SGE", "station": "subway", "subway": "yes", "wikidata": "Q62005539", "wikipedia": "en:Government Estate metro station"}, "geometry": {"type": "Point", "coordinates": [80.2730362, 13.0696345]}}, {"type": "Feature", "properties": {"osm_id": 5337658075, "osm_type": "node", "name": "Mannadi", "network": "Chennai Metro", "note": "Contributors are requested to not edit the \"network\" and the \"operator\" tags. (2023/11/08)", "operator": "Chennai Metro Rail Limited", "public_transport": "stop_position", "railway": "stop", "station": "subway", "subway": "yes"}, "geometry": {"type": "Point", "coordinates": [80.2861592, 13.0953587]}}, {"type": "Feature", "properties": {"osm_id": 5337658083, "osm_type": "node", "name": "High Court", "name:en": "High Court", "name:hi": "हाई कोर्ट", "name:ml": "ഹൈക്കോടതി", "name:ta": "உயர்நீதிமன்றம்", "network": "Chennai Metro", "note": "Contributors are requested to not edit the \"network\" and the \"operator\" tags. (2023/11/08)", "operator": "Chennai Metro Rail Limited", "public_transport": "station", "railway": "station", "railway:ref": "SHC", "ref": "SHC", "start_date": "2019-02-10", "station": "subway", "subway": "yes", "wikidata": "Q62005403", "wikipedia": "en:High Court metro station"}, "geometry": {"type": "Point", "coordinates": [80.2849845, 13.0872681]}}, {"type": "Feature", "properties": {"osm_id": 5337658088, "osm_type": "node", "name": "Mannadi", "name:en": "Mannadi", "name:ml": "മണ്ണടി", "name:ta": "மண்ணடி", "network": "Chennai Metro", "note": "Contributors are requested to not edit the \"network\" and the \"operator\" tags. (2023/11/08)", "operator": "Chennai Metro Rail Limited", "public_transport": "station", "railway": "station", "railway:ref": "SMA", "ref": "SMA", "station": "subway", "subway": "yes", "wikidata": "Q62005430", "wikipedia": "en:Mannadi metro station"}, "geometry": {"type": "Point", "coordinates": [80.2861312, 13.0954465]}}, {"type": "Feature", "properties": {"osm_id": 5337658099, "osm_type": "node", "name": "Washermanpet", "name:en": "Washermanpet", "name:ml": "വണ്ണാരപ്പേട്ട", "name:ta": "வண்ணாரப்பேட்டை", "network": "Chennai Metro", "note": "Contributors are requested to not edit the \"network\" and the \"operator\" tags. (2023/11/08)", "operator": "Chennai Metro Rail Limited", "public_transport": "station", "railway": "station", "railway:ref": "SWA", "ref": "SWA", "station": "subway", "subway": "yes", "wikidata": "Q48732079", "wikipedia": "en:Washermanpet metro station"}, "geometry": {"type": "Point", "coordinates": [80.280949, 13.1078469]}}, {"type": "Feature", "properties": {"osm_id": 5760196458, "osm_type": "node", "name": "ஏ ஜி டி.எம்.எஸ்", "name:en": "AG-DMS", "name:ta": "ஏ ஜி டி.எம்.எஸ்", "network": "Chennai Metro", "note": "Contributors are requested to not edit the \"network\" and the \"operator\" tags. (2023/11/08)", "operator": "Chennai Metro Rail Limited", "public_transport": "stop_position", "railway": "stop", "station": "subway", "subway": "yes"}, "geometry": {"type": "Point", "coordinates": [80.2482567, 13.0458703]}}, {"type": "Feature", "properties": {"osm_id": 5760196466, "osm_type": "node", "name": "தேனாம்பேட்டை", "name:en": "Teynampet", "name:ta": "தேனாம்பேட்டை", "network": "Chennai Metro", "note": "Contributors are requested to not edit the \"network\" and the \"operator\" tags. (2023/11/08)", "operator": "Chennai Metro Rail Limited", "public_transport": "stop_position", "railway": "stop", "station": "subway", "subway": "yes"}, "geometry": {"type": "Point", "coordinates": [80.2463929, 13.0368236]}}, {"type": "Feature", "properties": {"osm_id": 5760196474, "osm_type": "node", "name": "நந்தனம்", "name:en": "Nandanam", "name:ta": "நந்தனம்", "network": "Chennai Metro", "note": "Contributors are requested to not edit the \"network\" and the \"operator\" tags. (2023/11/08)", "operator": "Chennai Metro Rail Limited", "public_transport": "stop_position", "railway": "stop", "station": "subway", "subway": "yes"}, "geometry": {"type": "Point", "coordinates": [80.2411721, 13.0317226]}}, {"type": "Feature", "properties": {"osm_id": 5760196488, "osm_type": "node", "name": "சைதாப்பேட்டை", "name:en": "Saidapet", "name:ta": "சைதாப்பேட்டை", "network": "Chennai Metro", "note": "Contributors are requested to not edit the \"network\" and the \"operator\" tags. (2023/11/08)", "operator": "Chennai Metro Rail Limited", "public_transport": "stop_position", "railway": "stop", "station": "subway", "subway": "yes"}, "geometry": {"type": "Point", "coordinates": [80.2280614, 13.023975]}}, {"type": "Feature", "properties": {"osm_id": 6285857236, "osm_type": "node", "name": "Nanganallur Road", "network": "Chennai Metro", "note": "Contributors are requested to not edit the \"network\" and the \"operator\" tags. (2023/11/08)", "operator": "Chennai Metro Rail Limited", "public_transport": "stop_position", "railway": "stop", "station": "subway", "subway": "yes"}, "geometry": {"type": "Point", "coordinates": [80.1939756, 12.9998739]}}, {"type": "Feature", "properties": {"osm_id": 6285857237, "osm_type": "node", "alt_name": "Officers Training Academy", "local_ref": "Officers Training Academy", "name": "Nanganallur Road", "name:en": "Nanganallur Road", "name:ml": "നങ്കനല്ലൂർ റോഡ്", "name:ta": "நங்கநல்லூர் சாலை", "network": "Chennai Metro", "note": "Contributors are requested to not edit the \"network\" and the \"operator\" tags. (2023/11/08)", "operator": "Chennai Metro Rail Limited", "public_transport": "station", "railway": "station", "railway:ref": "SOT", "ref": "SOT", "station": "subway", "subway": "yes", "wikidata": "Q19894462", "wikipedia": "en:Nanganallur Road metro station"}, "geometry": {"type": "Point", "coordinates": [80.1940099, 12.9998798]}}, {"type": "Feature", "properties": {"osm_id": 6285857238, "osm_type": "node", "name": "மீனம்பாக்கம்", "name:en": "Meenambakkam", "name:ta": "மீனம்பாக்கம்", "network": "Chennai Metro", "note": "Contributors are requested to not edit the \"network\" and the \"operator\" tags. (2023/11/08)", "operator": "Chennai Metro Rail Limited", "public_transport": "stop_position", "railway": "stop", "station": "subway", "subway": "yes"}, "geometry": {"type": "Point", "coordinates": [80.1764378, 12.9876709]}}, {"type": "Feature", "properties": {"osm_id": 6285857239, "osm_type": "node", "name": "Meenambakkam", "name:en": "Meenambakkam", "name:ml": "മീനമ്പാക്കം", "name:ta": "மீனம்பாக்கம்", "network": "Chennai Metro", "note": "Contributors are requested to not edit the \"network\" and the \"operator\" tags. (2023/11/08)", "operator": "Chennai Metro Rail Limited", "public_transport": "station", "railway": "station", "railway:ref": "SME", "ref": "SME", "station": "subway", "subway": "yes", "wheelchair": "yes", "wikidata": "Q19893884", "wikipedia": "en:Meenambakkam metro station"}, "geometry": {"type": "Point", "coordinates": [80.1764787, 12.9876728]}}, {"type": "Feature", "properties": {"osm_id": 6285857240, "osm_type": "node", "name": "சென்னை விமான நிலையம்", "name:en": "Chennai International Airport", "name:ta": "சென்னை விமான நிலையம்", "network": "Chennai Metro", "note": "Contributors are requested to not edit the \"network\" and the \"operator\" tags. (2023/11/08)", "operator": "Chennai Metro Rail Limited", "public_transport": "stop_position", "railway": "stop", "station": "subway", "subway": "yes"}, "geometry": {"type": "Point", "coordinates": [80.1641592, 12.9808178]}}, {"type": "Feature", "properties": {"osm_id": 6285857241, "osm_type": "node", "name": "Chennai International Airport", "name:en": "Chennai International Airport", "name:ml": "ചെന്നൈ വിമാനത്താവളം", "name:ta": "சென்னை விமான நிலையம்", "network": "Chennai Metro", "note": "Contributors are requested to not edit the \"network\" and the \"operator\" tags. (2023/11/08)", "operator": "Chennai Metro Rail Limited", "public_transport": "station", "railway": "station", "railway:ref": "SAP", "ref": "SAP", "station": "subway", "subway": "yes", "wikidata": "Q5091440", "wikipedia": "en:Chennai International Airport metro station"}, "geometry": {"type": "Point", "coordinates": [80.1642026, 12.9808092]}}, {"type": "Feature", "properties": {"osm_id": 6285857242, "osm_type": "node", "name": "தேனாம்பேட்டை", "name:en": "Teynampet", "name:ml": "തേനാംപേട്ട", "name:ta": "தேனாம்பேட்டை", "network": "Chennai Metro", "network:wikidata": "Q1639576", "note": "Contributors are requested to not edit the \"network\" and the \"operator\" tags. (2023/11/08)", "operator": "Chennai Metro Rail Limited", "public_transport": "station", "railway": "station", "railway:ref": "STE", "ref": "STE", "station": "subway", "subway": "yes", "wikidata": "Q55634996", "wikipedia": "en:Teynampet metro station"}, "geometry": {"type": "Point", "coordinates": [80.2464194, 13.0368003]}}, {"type": "Feature", "properties": {"osm_id": 6285857243, "osm_type": "node", "alt_name": "Chamiers Road", "local_ref": "Chamiers Road", "name": "நந்தனம்", "name:en": "Nandanam", "name:ml": "നന്ദനം", "name:ta": "நந்தனம்", "network": "Chennai Metro", "network:wikidata": "Q1639576", "note": "Contributors are requested to not edit the \"network\" and the \"operator\" tags. (2023/11/08)", "operator": "Chennai Metro Rail Limited", "public_transport": "station", "railway": "station", "railway:ref": "SCR", "ref": "SCR", "station": "subway", "subway": "yes", "wikidata": "Q55624607", "wikipedia": "en:Nandanam metro station"}, "geometry": {"type": "Point", "coordinates": [80.2411957, 13.0317092]}}, {"type": "Feature", "properties": {"osm_id": 6285857244, "osm_type": "node", "name": "சைதாப்பேட்டை", "name:en": "Saidapet", "name:ml": "സൈദാപേട്ട", "name:ta": "சைதாப்பேட்டை", "network": "Chennai Metro", "network:wikidata": "Q1639576", "note": "Contributors are requested to not edit the \"network\" and the \"operator\" tags. (2023/11/08)", "operator": "Chennai Metro Rail Limited", "public_transport": "station", "railway": "station", "railway:ref": "SSA", "ref": "SSA", "station": "subway", "subway": "yes", "wikidata": "Q55632346", "wikipedia": "en:Saidapet metro station"}, "geometry": {"type": "Point", "coordinates": [80.2281244, 13.0239952]}}, {"type": "Feature", "properties": {"osm_id": 6285857245, "osm_type": "node", "name": "சின்னமலை", "name:en": "Little Mount", "name:ta": "சின்னமலை", "network": "Chennai Metro", "note": "Contributors are requested to not edit the \"network\" and the \"operator\" tags. (2023/11/08)", "operator": "Chennai Metro Rail Limited", "public_transport": "stop_position", "railway": "stop", "station": "subway", "subway": "yes"}, "geometry": {"type": "Point", "coordinates": [80.2241109, 13.0146778]}}, {"type": "Feature", "properties": {"osm_id": 6285857246, "osm_type": "node", "name": "சின்னமலை", "name:en": "Little Mount", "name:ml": "ചിന്നമല", "name:ta": "சின்னமலை", "network": "Chennai Metro", "note": "Contributors are requested to not edit the \"network\" and the \"operator\" tags. (2023/11/08)", "operator": "Chennai Metro Rail Limited", "public_transport": "station", "railway": "station", "railway:ref": "SLM", "ref": "SLM", "station": "subway", "subway": "yes", "wheelchair": "yes", "wikidata": "Q30639073", "wikipedia": "en:Little Mount metro station"}, "geometry": {"type": "Point", "coordinates": [80.2241669, 13.0146634]}}, {"type": "Feature", "properties": {"osm_id": 6285857247, "osm_type": "node", "name": "கிண்டி", "name:en": "Guindy", "name:ta": "கிண்டி", "network": "Chennai Metro", "note": "Contributors are requested to not edit the \"network\" and the \"operator\" tags. (2023/11/08)", "operator": "Chennai Metro Rail Limited", "public_transport": "stop_position", "railway": "stop", "station": "subway", "subway": "yes"}, "geometry": {"type": "Point", "coordinates": [80.2130723, 13.0092951]}}, {"type": "Feature", "properties": {"osm_id": 6285857248, "osm_type": "node", "name": "கிண்டி", "name:en": "Guindy", "name:ml": "ഗിണ്ടി", "name:ta": "கிண்டி", "network": "Chennai Metro", "note": "Contributors are requested to not edit the \"network\" and the \"operator\" tags. (2023/11/08)", "operator": "Chennai Metro Rail Limited", "public_transport": "station", "railway": "station", "railway:ref": "SGU", "ref": "SGU", "station": "subway", "subway": "yes", "wikidata": "Q18357501", "wikipedia": "en:Guindy metro station"}, "geometry": {"type": "Point", "coordinates": [80.2130846, 13.0092746]}}, {"type": "Feature", "properties": {"osm_id": 6285857249, "osm_type": "node", "alt_name": "Gemini", "alt_name:ta": "ஜெமினி", "local_ref": "Gemini", "name": "ஏ ஜி டி.எம்.எஸ்", "name:en": "AG-DMS", "name:ml": "എജി - ഡിഎംഎസ്", "name:ta": "ஏ ஜி டி.எம்.எஸ்", "network": "Chennai Metro", "note": "Contributors are requested to not edit the \"network\" and the \"operator\" tags. (2023/11/08)", "operator": "Chennai Metro Rail Limited", "public_transport": "station", "railway": "station", "railway:ref": "SGM", "ref": "SGM", "station": "subway", "subway": "yes", "wikidata": "Q55602937", "wikipedia": "en:AG-DMS metro station"}, "geometry": {"type": "Point", "coordinates": [80.2482846, 13.0458852]}}, {"type": "Feature", "properties": {"osm_id": 6285857250, "osm_type": "node", "alt_name": "Chennai Central", "alt_name:en": "Chennai Central", "alt_name:hi": "चेन्नई सेंट्रल", "name": "Central Metro", "name:en": "Central Metro", "name:hi": "सेंट्रल मेट्रो", "network": "Chennai Metro", "note": "Contributors are requested to not edit the \"network\" and the \"operator\" tags. (2023/11/08)", "operator": "Chennai Metro Rail Limited", "public_transport": "stop_position", "railway": "stop", "station": "subway", "subway": "yes"}, "geometry": {"type": "Point", "coordinates": [80.2739223, 13.0816876]}}, {"type": "Feature", "properties": {"osm_id": 6285857251, "osm_type": "node", "alt_name": "Chennai Central", "alt_name:en": "Chennai Central", "alt_name:hi": "चेन्नई सेंट्रल", "name": "Central Metro", "name:en": "Central Metro", "name:hi": "सेंट्रल मेट्रो", "network": "Chennai Metro", "note": "Contributors are requested to not edit the \"network\" and the \"operator\" tags. (2023/11/08)", "operator": "Chennai Metro Rail Limited", "public_transport": "stop_position", "railway": "stop", "station": "subway", "subway": "yes"}, "geometry": {"type": "Point", "coordinates": [80.2739184, 13.0817126]}}, {"type": "Feature", "properties": {"osm_id": 6285857253, "osm_type": "node", "alt_name": "Chennai Central", "alt_name:en": "Chennai Central", "alt_name:hi": "चेन्नई सेंट्रल", "internet_access": "no", "name": "Central Metro", "name:en": "Central Metro", "name:hi": "सेंट्रल मेट्रो", "name:ml": "ചെന്നൈ സെൻട്രൽ", "name:ta": "சென்னை மத்திய ரயில் நிலையம்", "network": "Chennai Metro", "note": "Contributors are requested to not edit the \"network\" and the \"operator\" tags. (2023/11/08)", "operator": "Chennai Metro Rail Limited", "public_transport": "station", "railway": "station", "railway:ref": "SCC", "ref": "SCC", "station": "subway", "subway": "yes", "wikidata": "Q5091428", "wikipedia": "en:Chennai Central metro station"}, "geometry": {"type": "Point", "coordinates": [80.273916, 13.0817254]}}, {"type": "Feature", "properties": {"osm_id": 6397600715, "osm_type": "node", "name": "வண்ணாரப்பேட்டை", "name:en": "Washermanpet", "name:ta": "வண்ணாரப்பேட்டை", "network": "Chennai Metro", "note": "Contributors are requested to not edit the \"network\" and the \"operator\" tags. (2023/11/08)", "operator": "Chennai Metro Rail Limited", "public_transport": "stop_position", "railway": "stop", "station": "subway", "subway": "yes"}, "geometry": {"type": "Point", "coordinates": [80.281025, 13.1079591]}}, {"type": "Feature", "properties": {"osm_id": 6397600716, "osm_type": "node", "name": "வண்ணாரப்பேட்டை", "name:en": "Washermanpet", "name:ta": "வண்ணாரப்பேட்டை", "network": "Chennai Metro", "note": "Contributors are requested to not edit the \"network\" and the \"operator\" tags. (2023/11/08)", "operator": "Chennai Metro Rail Limited", "public_transport": "stop_position", "railway": "stop", "station": "subway", "subway": "yes"}, "geometry": {"type": "Point", "coordinates": [80.2809437, 13.1079711]}}, {"type": "Feature", "properties": {"osm_id": 6397600717, "osm_type": "node", "name": "High Court", "name:en": "High Court", "name:hi": "हाई कोर्ट", "network": "Chennai Metro", "note": "Contributors are requested to not edit the \"network\" and the \"operator\" tags. (2023/11/08)", "operator": "Chennai Metro Rail Limited", "public_transport": "stop_position", "railway": "stop", "station": "subway", "subway": "yes"}, "geometry": {"type": "Point", "coordinates": [80.2849401, 13.0872148]}}, {"type": "Feature", "properties": {"osm_id": 6397600718, "osm_type": "node", "name": "High Court", "name:en": "High Court", "name:hi": "हाई कोर्ट", "network": "Chennai Metro", "note": "Contributors are requested to not edit the \"network\" and the \"operator\" tags. (2023/11/08)", "operator": "Chennai Metro Rail Limited", "public_transport": "stop_position", "railway": "stop", "station": "subway", "subway": "yes"}, "geometry": {"type": "Point", "coordinates": [80.2849935, 13.0872079]}}, {"type": "Feature", "properties": {"osm_id": 6397600719, "osm_type": "node", "name": "அரசினர் தோட்டம்", "name:en": "Government Estate", "name:ta": "அரசினர் தோட்டம்", "network": "Chennai Metro", "note": "Contributors are requested to not edit the \"network\" and the \"operator\" tags. (2023/11/08)", "operator": "Chennai Metro Rail Limited", "public_transport": "stop_position", "railway": "stop", "station": "subway", "subway": "yes"}, "geometry": {"type": "Point", "coordinates": [80.2731105, 13.0696147]}}, {"type": "Feature", "properties": {"osm_id": 6397600720, "osm_type": "node", "name": "எல் ஐ சி", "name:en": "LIC", "name:ta": "எல் ஐ சி", "network": "Chennai Metro", "note": "Contributors are requested to not edit the \"network\" and the \"operator\" tags. (2023/11/08)", "operator": "Chennai Metro Rail Limited", "public_transport": "stop_position", "railway": "stop", "station": "subway", "subway": "yes"}, "geometry": {"type": "Point", "coordinates": [80.265862, 13.0643478]}}, {"type": "Feature", "properties": {"osm_id": 6397600721, "osm_type": "node", "name": "எல் ஐ சி", "name:en": "LIC", "name:ta": "எல் ஐ சி", "network": "Chennai Metro", "note": "Contributors are requested to not edit the \"network\" and the \"operator\" tags. (2023/11/08)", "operator": "Chennai Metro Rail Limited", "public_transport": "stop_position", "railway": "stop", "station": "subway", "subway": "yes"}, "geometry": {"type": "Point", "coordinates": [80.26583, 13.0643999]}}, {"type": "Feature", "properties": {"osm_id": 6397600722, "osm_type": "node", "name": "ஆயிரம் விளக்கு", "name:en": "Thousand Lights", "name:ta": "ஆயிரம் விளக்கு", "network": "Chennai Metro", "note": "Contributors are requested to not edit the \"network\" and the \"operator\" tags. (2023/11/08)", "operator": "Chennai Metro Rail Limited", "public_transport": "stop_position", "railway": "stop", "station": "subway", "subway": "yes"}, "geometry": {"type": "Point", "coordinates": [80.2587519, 13.0586219]}}, {"type": "Feature", "properties": {"osm_id": 6397600723, "osm_type": "node", "name": "ஆயிரம் விளக்கு", "name:en": "Thousand Lights", "name:ta": "ஆயிரம் விளக்கு", "network": "Chennai Metro", "note": "Contributors are requested to not edit the \"network\" and the \"operator\" tags. (2023/11/08)", "operator": "Chennai Metro Rail Limited", "public_transport": "stop_position", "railway": "stop", "station": "subway", "subway": "yes"}, "geometry": {"type": "Point", "coordinates": [80.258773, 13.0585796]}}, {"type": "Feature", "properties": {"osm_id": 8430632406, "osm_type": "node", "alt_name": "Sir Tyagaraya College;Sir Thyagaraya College", "alt_name:hi": "सर तियागराया कौलेज", "name": "Sir Theagaraya College", "name:en": "Sir Theagaraya College", "name:hi": "सर त्यागराया कॉलेज", "name:ml": "ത്യാഗരായ കോളേജ്", "name:ta": "தியாகராயா கல்லூரி", "network": "Chennai Metro", "note": "Contributors are requested to not edit the \"network\" and the \"operator\" tags. (2023/11/08)", "operator": "Chennai Metro Rail Limited", "public_transport": "station", "railway": "station", "railway:ref": "STC", "ref": "STC", "station": "subway", "subway": "yes", "wikidata": "Q105676245"}, "geometry": {"type": "Point", "coordinates": [80.2847439, 13.1157545]}}, {"type": "Feature", "properties": {"osm_id": 8430632416, "osm_type": "node", "name": "Tondiarpet", "name:en": "Tondiarpet", "name:ml": "തണ്ടയാർപേട്ട", "name:ta": "தொண்டையார்பேட்டை", "network": "Chennai Metro", "note": "Contributors are requested to not edit the \"network\" and the \"operator\" tags. (2023/11/08)", "operator": "Chennai Metro Rail Limited", "public_transport": "station", "railway": "station", "railway:ref": "STR", "ref": "STR", "station": "subway", "subway": "yes"}, "geometry": {"type": "Point", "coordinates": [80.2888557, 13.1245276]}}, {"type": "Feature", "properties": {"osm_id": 8430636713, "osm_type": "node", "name": "Wimco Nagar", "name:en": "Wimco Nagar", "name:hi": "विम्को नगर", "name:ml": "വിംകോ നഗർ", "name:ta": "விம்கோ நகர்", "network": "Chennai Metro", "note": "Contributors are requested to not edit the \"network\" and the \"operator\" tags. (2023/11/08)", "operator": "Chennai Metro Rail Limited", "public_transport": "station", "railway": "station", "railway:ref": "SWN", "ref": "SWN", "station": "subway", "subway": "yes", "wikidata": "Q104856728"}, "geometry": {"type": "Point", "coordinates": [80.3073435, 13.1792903]}}, {"type": "Feature", "properties": {"osm_id": 8430636714, "osm_type": "node", "name": "Thiruvottriyur", "name:en": "Thiruvottriyur", "name:ml": "തിരുവൊറ്റിയൂർ", "name:ta": "திருவொற்றியூர்", "network": "Chennai Metro", "note": "Contributors are requested to not edit the \"network\" and the \"operator\" tags. (2023/11/08)", "operator": "Chennai Metro Rail Limited", "public_transport": "station", "railway": "station", "railway:ref": "STV", "ref": "STV", "station": "subway", "subway": "yes"}, "geometry": {"type": "Point", "coordinates": [80.3052689, 13.1718028]}}, {"type": "Feature", "properties": {"osm_id": 8430636715, "osm_type": "node", "name": "Kaladipet", "name:en": "Kaladipet", "name:ml": "കാലടിപേട്ട", "name:ta": "காலடிபேட்டை", "network": "Chennai Metro", "note": "Contributors are requested to not edit the \"network\" and the \"operator\" tags. (2023/11/08)", "operator": "Chennai Metro Rail Limited", "public_transport": "station", "railway": "station", "railway:ref": "SKP", "ref": "SKP", "station": "subway", "subway": "yes"}, "geometry": {"type": "Point", "coordinates": [80.2993928, 13.1506672]}}, {"type": "Feature", "properties": {"osm_id": 8430636716, "osm_type": "node", "name": "சுங்கச்சாவடி", "name:en": "Tollgate", "name:ml": "ടോൾഗേറ്റ്", "name:ta": "சுங்கச்சாவடி", "network": "Chennai Metro", "note": "Contributors are requested to not edit the \"network\" and the \"operator\" tags. (2023/11/08)", "operator": "Chennai Metro Rail Limited", "public_transport": "station", "railway": "station", "railway:ref": "STG", "ref": "STG", "station": "subway", "subway": "yes", "wikidata": "Q105605215"}, "geometry": {"type": "Point", "coordinates": [80.2963291, 13.1431344]}}, {"type": "Feature", "properties": {"osm_id": 8430636817, "osm_type": "node", "name": "புது வண்ணாரப்பேட்டை", "name:en": "New Washermanpet", "name:ml": "പുതിയ വണ്ണാരപ്പേട്ട", "name:ta": "புது வண்ணாரப்பேட்டை", "network": "Chennai Metro", "note": "Contributors are requested to not edit the \"network\" and the \"operator\" tags. (2023/11/08)", "operator": "Chennai Metro Rail Limited", "public_transport": "station", "railway": "station", "railway:ref": "SNW", "ref": "SNW", "station": "subway", "subway": "yes", "wikidata": "Q105584479"}, "geometry": {"type": "Point", "coordinates": [80.2930011, 13.1345195]}}, {"type": "Feature", "properties": {"osm_id": 9580013601, "osm_type": "node", "name": "Thiruvottiyur Theradi", "name:en": "Thiruvottiyur Theradi", "name:ml": "തിരുവൊറ്റിയൂർ തേരടി", "name:ta": "திருவொற்றியூர் தேரடி", "network": "Chennai Metro", "note": "Contributors are requested to not edit the \"network\" and the \"operator\" tags. (2023/11/08)", "operator": "Chennai Metro Rail Limited", "public_transport": "station", "railway": "station", "railway:ref": "STT", "ref": "STT", "station": "subway", "subway": "yes"}, "geometry": {"type": "Point", "coordinates": [80.3024483, 13.1602152]}}, {"type": "Feature", "properties": {"osm_id": 9857416360, "osm_type": "node", "name": "Wimco Nagar Depot", "name:en": "Wimco Nagar Depot", "name:hi": "विम्को नगर डीपो", "name:ml": "വിംകോ നഗർ ഡിപ്പോ", "name:ta": "விம்கோ நகர் டிப்போ", "network": "Chennai Metro", "note": "Contributors are requested to not edit the \"network\" and the \"operator\" tags. (2023/11/08)", "operator": "Chennai Metro Rail Limited", "public_transport": "station", "railway": "station", "station": "subway", "subway": "yes", "wikidata": "Q110588986"}, "geometry": {"type": "Point", "coordinates": [80.3089939, 13.1839706]}}]}