{"type": "FeatureCollection", "name": "pcs", "crs": {"type": "name", "properties": {"name": "urn:ogc:def:crs:OGC:1.3:CRS84"}}, "features": [{"type": "Feature", "properties": {"pc_id": 3301, "st_name": "Tamil Nadu", "pc_no": 1, "pc_name": "Thiruvallur", "pc_category": "SC", "office": "MP", "representative": "Sasikanth Senthil", "party": "INC"}, "geometry": {"type": "MultiPolygon", "coordinates": [[[[80.304, 13.473], [80.326, 13.445], [80.344, 13.337], [80.335, 13.238], [80.314, 13.226], [80.293, 13.181], [80.249, 13.189], [80.256, 13.159], [80.242, 13.129], [80.145, 13.141], [80.14, 13.107], [80.124, 13.11], [80.13, 13.041], [80.119, 13.023], [80.096, 13.045], [80.081, 13.045], [80.079, 13.019], [80.071, 13.04], [80.049, 13.027], [80.045, 13.041], [80.023, 13.037], [79.996, 13.05], [79.984, 13.031], [79.974, 13.039], [79.991, 13.052], [79.986, 13.056], [79.949, 13.033], [79.918, 13.035], [79.918, 13.048], [79.901, 13.049], [79.9, 13.017], [79.92, 13.02], [79.942, 13.001], [79.93, 12.99], [79.908, 13.004], [79.889, 12.994], [79.914, 12.978], [79.892, 12.945], [79.852, 12.948], [79.82, 12.963], [79.818, 13.005], [79.787, 13.028], [79.789, 13.056], [79.719, 13.054], [79.742, 13.076], [79.736, 13.096], [79.701, 13.1], [79.702, 13.111], [79.719, 13.105], [79.736, 13.119], [79.737, 13.167], [79.695, 13.159], [79.701, 13.192], [79.671, 13.183], [79.671, 13.205], [79.615, 13.224], [79.621, 13.248], [79.69, 13.238], [79.701, 13.253], [79.714, 13.236], [79.701, 13.225], [79.712, 13.218], [79.732, 13.223], [79.732, 13.237], [79.752, 13.207], [79.794, 13.226], [79.795, 13.242], [79.735, 13.276], [79.734, 13.289], [79.756, 13.295], [79.76, 13.319], [79.792, 13.294], [79.809, 13.317], [79.862, 13.317], [79.868, 13.332], [79.883, 13.323], [79.882, 13.334], [79.914, 13.348], [79.915, 13.36], [79.935, 13.353], [79.963, 13.393], [79.944, 13.397], [79.934, 13.416], [79.973, 13.429], [79.972, 13.469], [80.005, 13.495], [80.012, 13.486], [80.016, 13.5], [80.046, 13.495], [80.048, 13.512], [80.027, 13.514], [80.018, 13.53], [80.0, 13.526], [79.994, 13.545], [80.057, 13.537], [80.081, 13.55], [80.089, 13.535], [80.077, 13.527], [80.079, 13.489], [80.099, 13.488], [80.113, 13.505], [80.14, 13.504], [80.146, 13.491], [80.215, 13.49], [80.242, 13.471], [80.269, 13.565], [80.304, 13.473]]]]}}, {"type": "Feature", "properties": {"pc_id": 3304, "st_name": "Tamil Nadu", "pc_no": 4, "pc_name": "Chennai Central", "pc_category": "GEN", "office": "MP", "representative": "Dayanidhi Maran", "party": "DMK"}, "geometry": {"type": "MultiPolygon", "coordinates": [[[[80.206, 13.118], [80.204, 13.111], [80.237, 13.107], [80.244, 13.085], [80.278, 13.104], [80.298, 13.102], [80.301, 13.091], [80.304, 13.103], [80.311, 13.109], [80.283, 13.046], [80.266, 13.047], [80.267, 13.039], [80.23, 13.026], [80.245, 13.043], [80.216, 13.051], [80.208, 13.072], [80.19, 13.082], [80.192, 13.106], [80.206, 13.118]]]]}}, {"type": "Feature", "properties": {"pc_id": 3305, "st_name": "Tamil Nadu", "pc_no": 5, "pc_name": "Sriperumbudur", "pc_category": "GEN", "office": "MP", "representative": "T. R. Baalu", "party": "DMK"}, "geometry": {"type": "MultiPolygon", "coordinates": [[[[80.155, 13.143], [80.201, 13.129], [80.182, 13.049], [80.188, 13.027], [80.21, 13.027], [80.199, 13.017], [80.213, 13.007], [80.203, 12.988], [80.209, 12.979], [80.186, 12.961], [80.192, 12.952], [80.164, 12.941], [80.178, 12.868], [80.171, 12.86], [80.161, 12.876], [80.123, 12.864], [80.135, 12.89], [80.112, 12.903], [80.096, 12.891], [80.063, 12.899], [80.049, 12.841], [80.01, 12.808], [79.958, 12.825], [79.961, 12.796], [79.938, 12.786], [79.904, 12.805], [79.909, 12.867], [79.812, 12.899], [79.81, 12.916], [79.797, 12.923], [79.777, 12.918], [79.789, 12.95], [79.763, 12.954], [79.768, 12.989], [79.742, 12.993], [79.768, 13.017], [79.797, 13.028], [79.818, 13.005], [79.821, 12.962], [79.89, 12.945], [79.914, 12.978], [79.889, 12.994], [79.908, 13.004], [79.93, 12.99], [79.942, 13.001], [79.92, 13.02], [79.9, 13.017], [79.901, 13.049], [79.918, 13.048], [79.918, 13.035], [79.949, 13.033], [79.986, 13.056], [79.974, 13.039], [79.984, 13.031], [79.996, 13.05], [80.023, 13.037], [80.045, 13.041], [80.049, 13.027], [80.071, 13.04], [80.079, 13.019], [80.081, 13.045], [80.096, 13.045], [80.119, 13.023], [80.13, 13.041], [80.124, 13.11], [80.14, 13.107], [80.145, 13.141], [80.155, 13.143]]]]}}, {"type": "Feature", "properties": {"pc_id": 3302, "st_name": "Tamil Nadu", "pc_no": 2, "pc_name": "Chennai North", "pc_category": "GEN", "office": "MP", "representative": "Kalanidhi Veeraswamy", "party": "DMK"}, "geometry": {"type": "MultiPolygon", "coordinates": [[[[80.334, 13.235], [80.298, 13.135], [80.306, 13.13], [80.304, 13.106], [80.259, 13.099], [80.244, 13.085], [80.237, 13.107], [80.204, 13.111], [80.202, 13.127], [80.242, 13.129], [80.241, 13.143], [80.255, 13.15], [80.249, 13.189], [80.293, 13.181], [80.314, 13.226], [80.334, 13.235]]]]}}, {"type": "Feature", "properties": {"pc_id": 3306, "st_name": "Tamil Nadu", "pc_no": 6, "pc_name": "Kancheepuram", "pc_category": "SC", "office": "MP", "representative": "G. Selvam", "party": "DMK"}, "geometry": {"type": "MultiPolygon", "coordinates": [[[[79.764, 12.982], [79.763, 12.954], [79.789, 12.95], [79.777, 12.918], [79.797, 12.923], [79.81, 12.916], [79.812, 12.899], [79.909, 12.867], [79.904, 12.805], [79.938, 12.786], [79.961, 12.796], [79.958, 12.825], [80.01, 12.808], [80.049, 12.841], [80.063, 12.899], [80.096, 12.891], [80.112, 12.903], [80.135, 12.89], [80.123, 12.871], [80.129, 12.861], [80.161, 12.876], [80.171, 12.86], [80.18, 12.866], [80.196, 12.852], [80.207, 12.877], [80.222, 12.853], [80.25, 12.857], [80.255, 12.781], [80.166, 12.53], [80.15, 12.436], [80.004, 12.248], [79.987, 12.25], [79.956, 12.228], [79.925, 12.247], [79.924, 12.231], [79.873, 12.242], [79.828, 12.312], [79.799, 12.336], [79.778, 12.338], [79.751, 12.323], [79.709, 12.337], [79.685, 12.316], [79.657, 12.326], [79.642, 12.345], [79.646, 12.361], [79.664, 12.367], [79.667, 12.388], [79.695, 12.398], [79.689, 12.418], [79.705, 12.414], [79.703, 12.43], [79.716, 12.436], [79.735, 12.428], [79.733, 12.453], [79.75, 12.458], [79.744, 12.483], [79.723, 12.5], [79.738, 12.496], [79.757, 12.515], [79.715, 12.549], [79.72, 12.564], [79.707, 12.574], [79.725, 12.579], [79.725, 12.588], [79.689, 12.602], [79.673, 12.593], [79.646, 12.603], [79.646, 12.625], [79.631, 12.638], [79.646, 12.67], [79.682, 12.668], [79.742, 12.693], [79.737, 12.718], [79.714, 12.728], [79.741, 12.734], [79.745, 12.744], [79.709, 12.758], [79.709, 12.777], [79.678, 12.791], [79.653, 12.765], [79.65, 12.783], [79.635, 12.786], [79.643, 12.803], [79.632, 12.822], [79.595, 12.829], [79.557, 12.852], [79.566, 12.859], [79.558, 12.884], [79.568, 12.899], [79.662, 12.93], [79.659, 12.95], [79.7, 12.975], [79.752, 12.995], [79.768, 12.989], [79.764, 12.982]]]]}}, {"type": "Feature", "properties": {"pc_id": 3303, "st_name": "Tamil Nadu", "pc_no": 3, "pc_name": "Chennai South", "pc_category": "GEN", "office": "MP", "representative": "Thamizhachi Thangapandian", "party": "DMK"}, "geometry": {"type": "MultiPolygon", "coordinates": [[[[80.202, 13.073], [80.216, 13.051], [80.245, 13.043], [80.23, 13.026], [80.267, 13.039], [80.266, 13.047], [80.283, 13.046], [80.25, 12.857], [80.228, 12.853], [80.207, 12.877], [80.191, 12.853], [80.163, 12.91], [80.164, 12.941], [80.191, 12.951], [80.186, 12.961], [80.209, 12.979], [80.203, 12.988], [80.213, 13.007], [80.199, 13.017], [80.21, 13.027], [80.188, 13.027], [80.182, 13.049], [80.185, 13.076], [80.202, 13.073]]]]}}]}