{"type": "FeatureCollection", "features": [{"type": "Feature", "properties": {"osm_id": 298617029, "osm_type": "node", "amenity": "toilets", "created_by": "Potlatch 0.10b"}, "geometry": {"type": "Point", "coordinates": [80.2501255, 13.0398404]}}, {"type": "Feature", "properties": {"osm_id": 303590744, "osm_type": "node", "amenity": "toilets"}, "geometry": {"type": "Point", "coordinates": [80.2580782, 13.03468]}}, {"type": "Feature", "properties": {"osm_id": 303590928, "osm_type": "node", "amenity": "toilets", "created_by": "Potlatch 0.10f"}, "geometry": {"type": "Point", "coordinates": [80.2593209, 13.0325341]}}, {"type": "Feature", "properties": {"osm_id": 303590935, "osm_type": "node", "amenity": "toilets", "wheelchair": "no"}, "geometry": {"type": "Point", "coordinates": [80.2621697, 13.0319782]}}, {"type": "Feature", "properties": {"osm_id": 303590942, "osm_type": "node", "amenity": "toilets"}, "geometry": {"type": "Point", "coordinates": [80.2597071, 13.0281754]}}, {"type": "Feature", "properties": {"osm_id": 308450689, "osm_type": "node", "amenity": "toilets", "created_by": "Potlatch 0.10b"}, "geometry": {"type": "Point", "coordinates": [80.2473365, 13.0378923]}}, {"type": "Feature", "properties": {"osm_id": 314696207, "osm_type": "node", "amenity": "toilets"}, "geometry": {"type": "Point", "coordinates": [80.2063575, 13.0672264]}}, {"type": "Feature", "properties": {"osm_id": 320941272, "osm_type": "node", "amenity": "toilets"}, "geometry": {"type": "Point", "coordinates": [80.283539, 13.0853406]}}, {"type": "Feature", "properties": {"osm_id": 320941273, "osm_type": "node", "amenity": "toilets"}, "geometry": {"type": "Point", "coordinates": [80.2810757, 13.0858673]}}, {"type": "Feature", "properties": {"osm_id": 334701871, "osm_type": "node", "amenity": "toilets"}, "geometry": {"type": "Point", "coordinates": [80.2488529, 13.0140469]}}, {"type": "Feature", "properties": {"osm_id": 335506434, "osm_type": "node", "amenity": "toilets"}, "geometry": {"type": "Point", "coordinates": [80.2576899, 13.0105023]}}, {"type": "Feature", "properties": {"osm_id": 335506448, "osm_type": "node", "amenity": "toilets"}, "geometry": {"type": "Point", "coordinates": [80.2482636, 13.0065132]}}, {"type": "Feature", "properties": {"osm_id": 335506462, "osm_type": "node", "amenity": "toilets"}, "geometry": {"type": "Point", "coordinates": [80.2495085, 12.9997123]}}, {"type": "Feature", "properties": {"osm_id": 335527154, "osm_type": "node", "amenity": "toilets"}, "geometry": {"type": "Point", "coordinates": [80.2559473, 13.0023987]}}, {"type": "Feature", "properties": {"osm_id": 335527167, "osm_type": "node", "amenity": "toilets"}, "geometry": {"type": "Point", "coordinates": [80.2506483, 12.9955115]}}, {"type": "Feature", "properties": {"osm_id": 335535158, "osm_type": "node", "amenity": "toilets"}, "geometry": {"type": "Point", "coordinates": [80.262631, 13.0021187]}}, {"type": "Feature", "properties": {"osm_id": 367868022, "osm_type": "node", "amenity": "toilets"}, "geometry": {"type": "Point", "coordinates": [80.2467443, 13.0431424]}}, {"type": "Feature", "properties": {"osm_id": 389515419, "osm_type": "node", "amenity": "toilets"}, "geometry": {"type": "Point", "coordinates": [80.2507421, 13.0355025]}}, {"type": "Feature", "properties": {"osm_id": 393454739, "osm_type": "node", "amenity": "toilets"}, "geometry": {"type": "Point", "coordinates": [80.2841977, 13.0880727]}}, {"type": "Feature", "properties": {"osm_id": 393454742, "osm_type": "node", "amenity": "toilets"}, "geometry": {"type": "Point", "coordinates": [80.2839251, 13.086451]}}, {"type": "Feature", "properties": {"osm_id": 413880992, "osm_type": "node", "amenity": "toilets"}, "geometry": {"type": "Point", "coordinates": [80.2679423, 13.036061]}}, {"type": "Feature", "properties": {"osm_id": 577362192, "osm_type": "node", "amenity": "toilets"}, "geometry": {"type": "Point", "coordinates": [80.2050035, 13.0654047]}}, {"type": "Feature", "properties": {"osm_id": 577362194, "osm_type": "node", "amenity": "toilets"}, "geometry": {"type": "Point", "coordinates": [80.2056553, 13.0653995]}}, {"type": "Feature", "properties": {"osm_id": 577362198, "osm_type": "node", "amenity": "toilets"}, "geometry": {"type": "Point", "coordinates": [80.2062695, 13.0654073]}}, {"type": "Feature", "properties": {"osm_id": 1334303172, "osm_type": "node", "amenity": "toilets"}, "geometry": {"type": "Point", "coordinates": [80.2623274, 13.0197997]}}, {"type": "Feature", "properties": {"osm_id": 1950158966, "osm_type": "node", "amenity": "toilets"}, "geometry": {"type": "Point", "coordinates": [80.2051262, 13.0671796]}}, {"type": "Feature", "properties": {"osm_id": 1955972451, "osm_type": "node", "amenity": "toilets"}, "geometry": {"type": "Point", "coordinates": [80.17401, 13.0219246]}}, {"type": "Feature", "properties": {"osm_id": 2013361106, "osm_type": "node", "amenity": "toilets"}, "geometry": {"type": "Point", "coordinates": [80.1704463, 12.9526815]}}, {"type": "Feature", "properties": {"osm_id": 2339219743, "osm_type": "node", "amenity": "toilets"}, "geometry": {"type": "Point", "coordinates": [80.2349561, 13.0112848]}}, {"type": "Feature", "properties": {"osm_id": 2407847206, "osm_type": "node", "amenity": "toilets"}, "geometry": {"type": "Point", "coordinates": [80.2776646, 13.0784567]}}, {"type": "Feature", "properties": {"osm_id": 2407874079, "osm_type": "node", "amenity": "toilets", "tc:toilet_id": "59/2"}, "geometry": {"type": "Point", "coordinates": [80.2790263, 13.0784653]}}, {"type": "Feature", "properties": {"osm_id": 2407880716, "osm_type": "node", "amenity": "toilets", "tc:toilet_id": "59/3"}, "geometry": {"type": "Point", "coordinates": [80.279608, 13.0784261]}}, {"type": "Feature", "properties": {"osm_id": 2411630051, "osm_type": "node", "amenity": "toilets", "tc:toilet_id": "110/1"}, "geometry": {"type": "Point", "coordinates": [80.2361909, 13.0679013]}}, {"type": "Feature", "properties": {"osm_id": 2411630383, "osm_type": "node", "amenity": "toilets", "name": "Public Toilet", "tc:toilet_id": "110/2"}, "geometry": {"type": "Point", "coordinates": [80.2367981, 13.0683088]}}, {"type": "Feature", "properties": {"osm_id": 2411639147, "osm_type": "node", "amenity": "toilets", "tc:toilet_id": "110/4"}, "geometry": {"type": "Point", "coordinates": [80.2387146, 13.0546853]}}, {"type": "Feature", "properties": {"osm_id": 2411640349, "osm_type": "node", "amenity": "toilets", "tc:toilet_id": "110/5"}, "geometry": {"type": "Point", "coordinates": [80.2377635, 13.0564844]}}, {"type": "Feature", "properties": {"osm_id": 2411640646, "osm_type": "node", "amenity": "toilets", "tc:toilet_id": "110/6"}, "geometry": {"type": "Point", "coordinates": [80.2416413, 13.0566848]}}, {"type": "Feature", "properties": {"osm_id": 2411641487, "osm_type": "node", "amenity": "toilets", "tc:toilet_id": "110/7"}, "geometry": {"type": "Point", "coordinates": [80.2413637, 13.0553476]}}, {"type": "Feature", "properties": {"osm_id": 2878256946, "osm_type": "node", "amenity": "toilets"}, "geometry": {"type": "Point", "coordinates": [80.1872711, 12.9942807]}}, {"type": "Feature", "properties": {"osm_id": 3377594457, "osm_type": "node", "amenity": "toilets", "check_date": "2025-02-24"}, "geometry": {"type": "Point", "coordinates": [80.2650537, 13.0080794]}}, {"type": "Feature", "properties": {"osm_id": 3377597614, "osm_type": "node", "access": "customers", "amenity": "toilets", "fee": "yes"}, "geometry": {"type": "Point", "coordinates": [80.2795669, 13.041597]}}, {"type": "Feature", "properties": {"osm_id": 3762193346, "osm_type": "node", "amenity": "toilets"}, "geometry": {"type": "Point", "coordinates": [80.2160551, 13.030483]}}, {"type": "Feature", "properties": {"osm_id": 3800594896, "osm_type": "node", "amenity": "toilets"}, "geometry": {"type": "Point", "coordinates": [80.2393415, 13.0033864]}}, {"type": "Feature", "properties": {"osm_id": 3800594899, "osm_type": "node", "amenity": "toilets", "fee": "yes"}, "geometry": {"type": "Point", "coordinates": [80.2369112, 13.0038767]}}, {"type": "Feature", "properties": {"osm_id": 3800594932, "osm_type": "node", "amenity": "toilets", "fee": "yes"}, "geometry": {"type": "Point", "coordinates": [80.2371898, 13.005705]}}, {"type": "Feature", "properties": {"osm_id": 3902496342, "osm_type": "node", "amenity": "toilets"}, "geometry": {"type": "Point", "coordinates": [80.2706188, 12.9960397]}}, {"type": "Feature", "properties": {"osm_id": 3910184073, "osm_type": "node", "amenity": "toilets", "fee": "yes"}, "geometry": {"type": "Point", "coordinates": [80.2359927, 13.0057888]}}, {"type": "Feature", "properties": {"osm_id": 3953076889, "osm_type": "node", "amenity": "toilets"}, "geometry": {"type": "Point", "coordinates": [80.1135055, 12.9621317]}}, {"type": "Feature", "properties": {"osm_id": 4415974018, "osm_type": "node", "amenity": "toilets"}, "geometry": {"type": "Point", "coordinates": [80.2440357, 13.0117657]}}, {"type": "Feature", "properties": {"osm_id": 4415974020, "osm_type": "node", "amenity": "toilets"}, "geometry": {"type": "Point", "coordinates": [80.2440102, 13.0125413]}}, {"type": "Feature", "properties": {"osm_id": 4555032812, "osm_type": "node", "amenity": "toilets"}, "geometry": {"type": "Point", "coordinates": [80.2520806, 13.0506767]}}, {"type": "Feature", "properties": {"osm_id": 4763212039, "osm_type": "node", "amenity": "toilets"}, "geometry": {"type": "Point", "coordinates": [80.2859394, 13.0635813]}}, {"type": "Feature", "properties": {"osm_id": 4763212996, "osm_type": "node", "amenity": "toilets"}, "geometry": {"type": "Point", "coordinates": [80.2297822, 13.0341571]}}, {"type": "Feature", "properties": {"osm_id": 5229484624, "osm_type": "node", "access": "yes", "addr:city": "Thirumangalam, Chennai", "addr:postcode": "600040", "addr:street": "Anna Nagar 2nd Avenue", "amenity": "toilets", "description": "Both Men and Womem", "fee": "no", "name": "Public Toilet", "unisex": "yes"}, "geometry": {"type": "Point", "coordinates": [80.1987937, 13.0854156]}}, {"type": "Feature", "properties": {"osm_id": 5332418093, "osm_type": "node", "amenity": "toilets", "name": "Community Toilet"}, "geometry": {"type": "Point", "coordinates": [80.25266, 12.9376329]}}, {"type": "Feature", "properties": {"osm_id": 5336313515, "osm_type": "node", "amenity": "toilets", "name": "Free Public Toilet"}, "geometry": {"type": "Point", "coordinates": [80.2138514, 13.0986944]}}, {"type": "Feature", "properties": {"osm_id": 5338606120, "osm_type": "node", "amenity": "toilets", "name": "Public Toilet"}, "geometry": {"type": "Point", "coordinates": [80.2182368, 13.0886408]}}, {"type": "Feature", "properties": {"osm_id": 5372698653, "osm_type": "node", "amenity": "toilets", "name": "Public Toilet"}, "geometry": {"type": "Point", "coordinates": [80.1971917, 13.0870523]}}, {"type": "Feature", "properties": {"osm_id": 5498746021, "osm_type": "node", "addr:street": "61st Street, Ashok Nagar", "amenity": "toilets", "name": "கட்டணமில்லா கழிப்பிடம்"}, "geometry": {"type": "Point", "coordinates": [80.2171155, 13.032666]}}, {"type": "Feature", "properties": {"osm_id": 5557375679, "osm_type": "node", "access": "permissive", "amenity": "toilets", "unisex": "yes"}, "geometry": {"type": "Point", "coordinates": [80.2478836, 12.9749904]}}, {"type": "Feature", "properties": {"osm_id": 5744866577, "osm_type": "node", "amenity": "toilets"}, "geometry": {"type": "Point", "coordinates": [80.2563392, 13.0676384]}}, {"type": "Feature", "properties": {"osm_id": 6018924740, "osm_type": "node", "access": "customers", "amenity": "toilets", "female": "yes", "male": "yes"}, "geometry": {"type": "Point", "coordinates": [80.1992533, 13.1705311]}}, {"type": "Feature", "properties": {"osm_id": 6057480283, "osm_type": "node", "addr:street": "Ponniamman Koil Street, Kotturpuram, Chennai", "amenity": "toilets", "description": "Community Toilet for Men and Women managed by Tamil Nadu Government", "name": "Public Toilet Gents/Ladies"}, "geometry": {"type": "Point", "coordinates": [80.2412807, 13.0179809]}}, {"type": "Feature", "properties": {"osm_id": 6060488661, "osm_type": "node", "addr:street": "Nehru High Road, BV Nagar, Chennai", "amenity": "toilets", "fee": "no", "name": "Public Toilet Men/Women", "wheelchair": "limited"}, "geometry": {"type": "Point", "coordinates": [80.1786426, 12.9817896]}}, {"type": "Feature", "properties": {"osm_id": 6060489208, "osm_type": "node", "addr:street": "Nehru High Road", "amenity": "toilets", "description": "Public Toilets for Differentially Abled People", "fee": "no", "name": "Toilets for Differentially Abled", "wheelchair": "limited"}, "geometry": {"type": "Point", "coordinates": [80.1786135, 12.9818258]}}, {"type": "Feature", "properties": {"osm_id": 6075389142, "osm_type": "node", "addr:street": "Lake Area, First Main Road, Valluvar Kottam", "amenity": "toilets", "name": "Public Toilet Men/Women"}, "geometry": {"type": "Point", "coordinates": [80.2412317, 13.0531452]}}, {"type": "Feature", "properties": {"osm_id": 6276760885, "osm_type": "node", "amenity": "toilets", "check_date": "2025-08-23", "fee": "no", "operator": "Chennai Airport"}, "geometry": {"type": "Point", "coordinates": [80.1661069, 12.9838686]}}, {"type": "Feature", "properties": {"osm_id": 6297349285, "osm_type": "node", "amenity": "toilets", "female": "yes", "male": "yes"}, "geometry": {"type": "Point", "coordinates": [80.1644573, 12.9801078]}}, {"type": "Feature", "properties": {"osm_id": 6299267010, "osm_type": "node", "amenity": "toilets"}, "geometry": {"type": "Point", "coordinates": [80.1188024, 12.9273204]}}, {"type": "Feature", "properties": {"osm_id": 6356478659, "osm_type": "node", "amenity": "toilets", "name": "Public Toilet"}, "geometry": {"type": "Point", "coordinates": [80.2489203, 13.0495026]}}, {"type": "Feature", "properties": {"osm_id": 6442841390, "osm_type": "node", "amenity": "toilets", "fee": "no", "wheelchair": "no"}, "geometry": {"type": "Point", "coordinates": [80.1878934, 13.0858288]}}, {"type": "Feature", "properties": {"osm_id": 7184544526, "osm_type": "node", "amenity": "toilets", "name": "Public Toilet"}, "geometry": {"type": "Point", "coordinates": [80.1699505, 13.0989421]}}, {"type": "Feature", "properties": {"osm_id": 8127991889, "osm_type": "node", "access": "permissive", "amenity": "toilets"}, "geometry": {"type": "Point", "coordinates": [80.2535246, 12.932612]}}, {"type": "Feature", "properties": {"osm_id": 8133342294, "osm_type": "node", "access": "yes", "amenity": "toilets", "toilets:disposal": "flush", "wheelchair": "no"}, "geometry": {"type": "Point", "coordinates": [80.1834417, 12.9751149]}}, {"type": "Feature", "properties": {"osm_id": 8246644693, "osm_type": "node", "access": "yes", "amenity": "toilets", "toilets:disposal": "pitlatrine", "wheelchair": "limited"}, "geometry": {"type": "Point", "coordinates": [80.1925288, 12.9613855]}}, {"type": "Feature", "properties": {"osm_id": 9920341493, "osm_type": "node", "access": "yes", "amenity": "toilets", "toilets:disposal": "flush"}, "geometry": {"type": "Point", "coordinates": [80.2180249, 12.9874591]}}, {"type": "Feature", "properties": {"osm_id": 9920532079, "osm_type": "node", "amenity": "toilets", "name": "Public Toilets", "operator": "Government of Tamil Nadu"}, "geometry": {"type": "Point", "coordinates": [80.2044096, 12.9415245]}}, {"type": "Feature", "properties": {"osm_id": 9983079356, "osm_type": "node", "amenity": "toilets"}, "geometry": {"type": "Point", "coordinates": [80.2860664, 13.0976931]}}, {"type": "Feature", "properties": {"osm_id": 9989751273, "osm_type": "node", "amenity": "toilets"}, "geometry": {"type": "Point", "coordinates": [80.2819329, 13.0884512]}}, {"type": "Feature", "properties": {"osm_id": 10036725817, "osm_type": "node", "amenity": "toilets"}, "geometry": {"type": "Point", "coordinates": [80.2899191, 13.1031181]}}, {"type": "Feature", "properties": {"osm_id": 10102869332, "osm_type": "node", "amenity": "toilets"}, "geometry": {"type": "Point", "coordinates": [80.2861149, 13.1045166]}}, {"type": "Feature", "properties": {"osm_id": 10209368557, "osm_type": "node", "amenity": "toilets"}, "geometry": {"type": "Point", "coordinates": [80.2916729, 13.097014]}}, {"type": "Feature", "properties": {"osm_id": 10209526324, "osm_type": "node", "amenity": "toilets"}, "geometry": {"type": "Point", "coordinates": [80.291934, 13.1061264]}}, {"type": "Feature", "properties": {"osm_id": 10593460306, "osm_type": "node", "amenity": "toilets"}, "geometry": {"type": "Point", "coordinates": [80.204421, 13.0086079]}}, {"type": "Feature", "properties": {"osm_id": 10603942569, "osm_type": "node", "amenity": "toilets"}, "geometry": {"type": "Point", "coordinates": [80.2600901, 12.9426177]}}, {"type": "Feature", "properties": {"osm_id": 10893149180, "osm_type": "node", "amenity": "toilets"}, "geometry": {"type": "Point", "coordinates": [80.2745608, 13.1039687]}}, {"type": "Feature", "properties": {"osm_id": 10895311234, "osm_type": "node", "amenity": "toilets"}, "geometry": {"type": "Point", "coordinates": [80.2573466, 13.113125]}}, {"type": "Feature", "properties": {"osm_id": 11307787739, "osm_type": "node", "access": "yes", "amenity": "toilets", "fee": "no", "female": "yes", "male": "yes"}, "geometry": {"type": "Point", "coordinates": [80.2382559, 12.9865261]}}, {"type": "Feature", "properties": {"osm_id": 11307787748, "osm_type": "node", "access": "yes", "amenity": "toilets", "changing_table": "no", "fee": "no", "female": "yes"}, "geometry": {"type": "Point", "coordinates": [80.2366131, 12.9854655]}}, {"type": "Feature", "properties": {"osm_id": 11307787749, "osm_type": "node", "access": "yes", "amenity": "toilets", "changing_table": "no", "fee": "no", "female": "no", "male": "yes"}, "geometry": {"type": "Point", "coordinates": [80.2366156, 12.9854255]}}, {"type": "Feature", "properties": {"osm_id": 11394231905, "osm_type": "node", "access": "yes", "amenity": "toilets", "changing_table": "no", "fee": "no", "level": "0", "opening_hours": "24/7", "toilets:disposal": "flush", "unisex": "yes", "wheelchair": "limited"}, "geometry": {"type": "Point", "coordinates": [80.275275, 13.0825063]}}, {"type": "Feature", "properties": {"osm_id": 11496743230, "osm_type": "node", "amenity": "toilets"}, "geometry": {"type": "Point", "coordinates": [80.2764534, 13.0951977]}}, {"type": "Feature", "properties": {"osm_id": 11626579869, "osm_type": "node", "amenity": "toilets"}, "geometry": {"type": "Point", "coordinates": [80.2177677, 13.0683612]}}, {"type": "Feature", "properties": {"osm_id": 12458703106, "osm_type": "node", "amenity": "toilets", "check_date": "2024-12-28", "toilets:disposal": "chemical"}, "geometry": {"type": "Point", "coordinates": [80.3134816, 13.1902946]}}, {"type": "Feature", "properties": {"osm_id": 12458790381, "osm_type": "node", "access": "yes", "addr:postcode": "600019", "amenity": "toilets", "check_date": "2024-12-28", "description": "பலகை தொட்டி குப்பம், காசி விஸ்வநாதர் கோயில் குப்பம், திருவெற்றியூர்", "fee": "no", "opening_hours": "24/7", "operator": "Greater Chennai Corporation", "portable": "no", "toilets:disposal": "pour_flush", "toilets:menstrual_products": "no"}, "geometry": {"type": "Point", "coordinates": [80.3132806, 13.1770897]}}, {"type": "Feature", "properties": {"osm_id": 12614951214, "osm_type": "node", "amenity": "toilets", "fee": "yes", "wheelchair": "no"}, "geometry": {"type": "Point", "coordinates": [80.2697256, 12.995318]}}, {"type": "Feature", "properties": {"osm_id": 13041221048, "osm_type": "node", "amenity": "toilets"}, "geometry": {"type": "Point", "coordinates": [80.2416552, 13.002541]}}, {"type": "Feature", "properties": {"osm_id": 13092296899, "osm_type": "node", "amenity": "toilets", "check_date": "2025-08-23", "operator": "Chennai Airport"}, "geometry": {"type": "Point", "coordinates": [80.1673783, 12.9843741]}}, {"type": "Feature", "properties": {"osm_id": 13092372717, "osm_type": "node", "amenity": "toilets", "check_date": "2025-08-23", "operator": "Chennai Airport"}, "geometry": {"type": "Point", "coordinates": [80.1677646, 12.9844973]}}, {"type": "Feature", "properties": {"osm_id": 13321923720, "osm_type": "node", "access": "yes", "amenity": "toilets", "fee": "yes", "wheelchair": "designated"}, "geometry": {"type": "Point", "coordinates": [80.2274709, 13.0116901]}}, {"type": "Feature", "properties": {"osm_id": 13347546301, "osm_type": "node", "amenity": "toilets"}, "geometry": {"type": "Point", "coordinates": [80.274591, 13.0422866]}}, {"type": "Feature", "properties": {"osm_id": 13401591089, "osm_type": "node", "amenity": "toilets"}, "geometry": {"type": "Point", "coordinates": [80.1678906, 13.2202165]}}, {"type": "Feature", "properties": {"osm_id": 13730065769, "osm_type": "node", "access": "customers", "amenity": "toilets", "check_date": "2026-04-14", "fee": "yes", "female": "yes", "level": "0", "male": "yes", "name": "Toilets", "portable": "no", "toilets:disposal": "flush", "toilets:handwashing": "yes", "toilets:position": "seated;urinal", "wheelchair": "limited"}, "geometry": {"type": "Point", "coordinates": [80.2793862, 13.0397627]}}, {"type": "Feature", "properties": {"osm_id": 13742637365, "osm_type": "node", "access": "yes", "amenity": "toilets", "fee": "yes", "female": "yes", "level": "0", "male": "yes"}, "geometry": {"type": "Point", "coordinates": [80.2396194, 13.0404705]}}, {"type": "Feature", "properties": {"osm_id": 13869865896, "osm_type": "node", "amenity": "toilets", "fee": "no", "wheelchair": "yes"}, "geometry": {"type": "Point", "coordinates": [80.1380906, 12.936772]}}]}