{"type": "FeatureCollection", "crs": {"type": "name", "properties": {"name": "urn:ogc:def:crs:OGC:1.3:CRS84"}}, "features": [{"type": "Feature", "properties": {"construction": "station", "disused": "yes", "name": "Durgapura Metro (u/c)", "network": "Jaipur Metro", "operator": "NWR", "railway": "construction", "station": "subway", "osm_id": 1064270892, "osm_type": "node"}, "geometry": {"type": "Point", "coordinates": [75.7936432, 26.8355542]}}, {"type": "Feature", "properties": {"construction": "station", "disused:railway": "station", "name": "Ambabadi Metro (u/c)", "network": "Jaipur Metro", "note": "Contributors are requested to not edit the \"network\" and the \"operator\" tags. (2023/11/08)", "operator": "Jaipur Metro Rail Corporation Limited", "public_transport": "station", "railway": "station", "station": "subway", "subway": "yes", "osm_id": 1064270917, "osm_type": "node"}, "geometry": {"type": "Point", "coordinates": [75.7777965, 26.9397287]}}, {"type": "Feature", "properties": {"name": "Sindhi Camp", "name:hi": "सिन्धी कैंप", "network": "Jaipur Metro", "note": "Contributors are requested to not edit the \"network\" and the \"operator\" tags. (2023/11/08)", "operator": "Jaipur Metro Rail Corporation Limited", "public_transport": "station", "public_transport:version": "2", "railway": "station", "ref": "SICP", "shelter": "yes", "station": "subway", "subway": "yes", "wheelchair": "yes", "wikidata": "Q28180440", "wikipedia": "en:Sindhi Camp metro station", "osm_id": 5391526672, "osm_type": "node"}, "geometry": {"type": "Point", "coordinates": [75.799635, 26.9224737]}}, {"type": "Feature", "properties": {"name": "Railway Station", "name:hi": "रेलवे स्टेशन", "network": "Jaipur Metro", "note": "Contributors are requested to not edit the \"network\" and the \"operator\" tags. (2023/11/08)", "operator": "Jaipur Metro Rail Corporation Limited", "public_transport": "station", "public_transport:version": "2", "railway": "station", "ref": "MRSN", "shelter": "yes", "station": "subway", "subway": "yes", "wheelchair": "yes", "wikidata": "Q28180437", "wikipedia": "en:Railway Station metro station", "osm_id": 5391527174, "osm_type": "node"}, "geometry": {"type": "Point", "coordinates": [75.790129, 26.9181132]}}, {"type": "Feature", "properties": {"name": "Civil Lines", "name:hi": "सिविल लाइन्स", "network": "Jaipur Metro", "note": "Contributors are requested to not edit the \"network\" and the \"operator\" tags. (2023/11/08)", "operator": "Jaipur Metro Rail Corporation Limited", "public_transport": "station", "public_transport:version": "2", "railway": "station", "ref": "CLJP", "shelter": "yes", "station": "subway", "subway": "yes", "wheelchair": "yes", "wikidata": "Q28180430", "wikipedia": "en:Civil Lines metro station (Jaipur)", "osm_id": 6783208321, "osm_type": "node"}, "geometry": {"type": "Point", "coordinates": [75.7812494, 26.9096783]}}, {"type": "Feature", "properties": {"name": "Chandpole", "name:hi": "चांदपोल", "network": "Jaipur Metro", "note": "Contributors are requested to not edit the \"network\" and the \"operator\" tags. (2023/11/08)", "operator": "Jaipur Metro Rail Corporation Limited", "public_transport": "station", "public_transport:version": "2", "railway": "station", "ref": "CDPE", "shelter": "yes", "station": "subway", "subway": "yes", "wheelchair": "yes", "wikidata": "Q28180449", "wikipedia": "en:Chandpole metro station", "osm_id": 8044083221, "osm_type": "node"}, "geometry": {"type": "Point", "coordinates": [75.807892, 26.9266005]}}, {"type": "Feature", "properties": {"name": "Choti Chaupar", "name:hi": "छोटी चौपड़", "network": "Jaipur Metro", "note": "Contributors are requested to not edit the \"network\" and the \"operator\" tags. (2023/11/08)", "operator": "Jaipur Metro Rail Corporation Limited", "public_transport": "station", "public_transport:version": "2", "railway": "station", "ref": "CDPE", "shelter": "yes", "station": "subway", "subway": "yes", "wheelchair": "yes", "wikidata": "Q20717371", "wikipedia": "en:Chhoti Chaupar metro station", "osm_id": 8044083222, "osm_type": "node"}, "geometry": {"type": "Point", "coordinates": [75.8184589, 26.9247317]}}, {"type": "Feature", "properties": {"name": "Badi Chaupar", "name:hi": "बड़ी चौपड़", "network": "Jaipur Metro", "note": "Contributors are requested to not edit the \"network\" and the \"operator\" tags. (2023/11/08)", "operator": "Jaipur Metro Rail Corporation Limited", "public_transport": "station", "public_transport:version": "2", "railway": "station", "shelter": "yes", "station": "subway", "subway": "yes", "wheelchair": "yes", "wikidata": "Q20311991", "wikipedia": "en:Badi Chaupar metro station", "osm_id": 8044083223, "osm_type": "node"}, "geometry": {"type": "Point", "coordinates": [75.8268223, 26.9229585]}}, {"type": "Feature", "properties": {"name": "Manasarovar", "name:hi": "मानसरोवर", "network": "Jaipur Metro", "note": "Contributors are requested to not edit the \"network\" and the \"operator\" tags. (2023/11/08)", "operator": "Jaipur Metro Rail Corporation Limited", "public_transport": "station", "public_transport:version": "2", "railway": "station", "ref": "MSOR", "shelter": "yes", "station": "subway", "subway": "yes", "wheelchair": "yes", "wikidata": "Q28180399", "wikipedia": "en:Mansarovar metro station", "osm_id": 8140108469, "osm_type": "node"}, "geometry": {"type": "Point", "coordinates": [75.7502389, 26.8794402]}}, {"type": "Feature", "properties": {"name": "Shyam Nagar", "name:hi": "श्याम नगर", "network": "Jaipur Metro", "note": "Contributors are requested to not edit the \"network\" and the \"operator\" tags. (2023/11/08)", "operator": "Jaipur Metro Rail Corporation Limited", "public_transport": "station", "public_transport:version": "2", "railway": "station", "ref": "SMNR", "shelter": "yes", "station": "subway", "subway": "yes", "wheelchair": "yes", "wikidata": "Q28180421", "wikipedia": "en:Shyam Nagar metro station", "osm_id": 8149193787, "osm_type": "node"}, "geometry": {"type": "Point", "coordinates": [75.7706279, 26.8964768]}}, {"type": "Feature", "properties": {"name": "Vivek Vihar", "name:hi": "विवेक विहार", "network": "Jaipur Metro", "note": "Contributors are requested to not edit the \"network\" and the \"operator\" tags. (2023/11/08)", "operator": "Jaipur Metro Rail Corporation Limited", "public_transport": "station", "public_transport:version": "2", "railway": "station", "ref": "VKVR", "shelter": "yes", "station": "subway", "subway": "yes", "wheelchair": "yes", "wikidata": "Q28180413", "wikipedia": "en:Vivek Vihar metro station", "osm_id": 8149193788, "osm_type": "node"}, "geometry": {"type": "Point", "coordinates": [75.768407, 26.8884539]}}, {"type": "Feature", "properties": {"name": "New Aatish Market", "name:hi": "नया आतिश मार्केट", "network": "Jaipur Metro", "note": "Contributors are requested to not edit the \"network\" and the \"operator\" tags. (2023/11/08)", "operator": "Jaipur Metro Rail Corporation Limited", "public_transport": "station", "public_transport:version": "2", "railway": "station", "ref": "NAMT", "shelter": "yes", "station": "subway", "subway": "yes", "wheelchair": "yes", "wikidata": "Q28180408", "wikipedia": "en:New Aatish Market metro station", "osm_id": 8149193789, "osm_type": "node"}, "geometry": {"type": "Point", "coordinates": [75.764466, 26.880154]}}]}