{"type": "FeatureCollection", "crs": {"type": "name", "properties": {"name": "urn:ogc:def:crs:OGC:1.3:CRS84"}}, "features": [{"type": "Feature", "properties": {"addr:housenumber": "2976", "addr:street": "uniyaro ka rasta, 3rd cross", "amenity": "school", "name": "New Pupils Senior Secondary School", "osm_id": 2130276039, "osm_type": "node"}, "geometry": {"type": "Point", "coordinates": [75.8117789, 26.9304084]}}, {"type": "Feature", "properties": {"amenity": "school", "name": "Maheshwari girls public school", "opening_hours": "Mo-Fr 07:00-15:00", "phone": "1412236571", "website": "https://mgps.in/", "osm_id": 2692620780, "osm_type": "node"}, "geometry": {"type": "Point", "coordinates": [75.7780051, 26.9549389]}}, {"type": "Feature", "properties": {"amenity": "school", "name": "Bharatiya Vidya Bhavan's Vidyashram", "osm_id": 2725271168, "osm_type": "node"}, "geometry": {"type": "Point", "coordinates": [75.8061902, 26.8688181]}}, {"type": "Feature", "properties": {"amenity": "school", "name": "Subodh Public School", "wikidata": "Q7630292", "osm_id": 2725536822, "osm_type": "node"}, "geometry": {"type": "Point", "coordinates": [75.8119244, 26.8940483]}}, {"type": "Feature", "properties": {"addr:city": "Jaipur", "addr:country": "IN", "addr:state": "Rajasthan", "addr:street": "New Sanganer Road", "amenity": "school", "name": "St. Anslem School", "osm_id": 3083894233, "osm_type": "node"}, "geometry": {"type": "Point", "coordinates": [75.7563465, 26.8606149]}}, {"type": "Feature", "properties": {"addr:city": "Jaipur", "addr:postcode": "302018", "addr:street": "Jawaharlal Nehru Marg", "amenity": "school", "name": "Jaipuria school", "osm_id": 3476214795, "osm_type": "node"}, "geometry": {"type": "Point", "coordinates": [75.803689, 26.8589613]}}, {"type": "Feature", "properties": {"addr:city": "Jaipur", "addr:street": "Calgiri Road", "address": "Calgiri Marg, Jhalana Gram, Malviya Nagar, Jaipur, Rajasthan 302017", "amenity": "school", "building:levels": "12th", "name": "St.Anselm's Pink City,Malviya Nagar, Jaipur", "opening_hours": "Mo-Sa 07:45-14:30", "phone": "01412520240", "website": "stanselmspinkcity.in", "osm_id": 3560497262, "osm_type": "node"}, "geometry": {"type": "Point", "coordinates": [75.8142447, 26.857769]}}, {"type": "Feature", "properties": {"amenity": "school", "name": "Yash Vidya Mandir", "osm_id": 3840693080, "osm_type": "node"}, "geometry": {"type": "Point", "coordinates": [75.7855382, 26.9026832]}}, {"type": "Feature", "properties": {"addr:postcode": "302017", "amenity": "school", "name": "Turtles School", "osm_id": 4225230790, "osm_type": "node"}, "geometry": {"type": "Point", "coordinates": [75.8430423, 26.8300718]}}, {"type": "Feature", "properties": {"amenity": "school", "name": "Gandhi Nagar Girl's School 1", "operator": "Govt. of Rajasthan", "operator:type": "government", "osm_id": 4226406292, "osm_type": "node"}, "geometry": {"type": "Point", "coordinates": [75.8061827, 26.88125]}}, {"type": "Feature", "properties": {"amenity": "school", "name": "VPM Classes", "osm_id": 4297282789, "osm_type": "node"}, "geometry": {"type": "Point", "coordinates": [75.7519619, 26.833001]}}, {"type": "Feature", "properties": {"amenity": "school", "name": "Maharani School Ground , Jaipur", "osm_id": 4511686895, "osm_type": "node"}, "geometry": {"type": "Point", "coordinates": [75.7956827, 26.9295583]}}, {"type": "Feature", "properties": {"amenity": "school", "name": "The Palace School", "name:en": "The Palace School", "osm_id": 4784703223, "osm_type": "node"}, "geometry": {"type": "Point", "coordinates": [75.8248127, 26.9270361]}}, {"type": "Feature", "properties": {"amenity": "school", "name": "ALLEN Career Institute, JLN Marg", "name:en": "Allen", "osm_id": 4880279121, "osm_type": "node"}, "geometry": {"type": "Point", "coordinates": [75.8045019, 26.8673092]}}, {"type": "Feature", "properties": {"amenity": "school", "name": "Ajeet Vidhya Niketan School", "osm_id": 6324050650, "osm_type": "node"}, "geometry": {"type": "Point", "coordinates": [75.7798494, 26.9151355]}}, {"type": "Feature", "properties": {"amenity": "school", "brand": "Kendriya Vidyalaya", "brand:wikidata": "Q1156653", "name": "Kendriya Vidyalaya No 4", "name:hi": "kv no4", "operator:type": "government_non_profit", "osm_id": 6978714374, "osm_type": "node"}, "geometry": {"type": "Point", "coordinates": [75.7668854, 26.9171632]}}, {"type": "Feature", "properties": {"addr:city": "Jaipur", "addr:street": "Hanuman nagar extension", "amenity": "school", "name": "Sanskar school", "osm_id": 7037601185, "osm_type": "node"}, "geometry": {"type": "Point", "coordinates": [75.7355619, 26.9224344]}}, {"type": "Feature", "properties": {"addr:street": "Ajmer Road", "amenity": "school", "email": "lm1962@jaipurcookingclasses.com", "name:en": "Jaipur Cooking Classes", "phone": "+919928097288", "website": "https://www.jaipurcookingclasses.com/", "osm_id": 7233534385, "osm_type": "node"}, "geometry": {"type": "Point", "coordinates": [75.7465894, 26.8893549]}}, {"type": "Feature", "properties": {"amenity": "school", "email": "lm1962@jaipurcookingclasses.com", "name:en": "Jaipur Cooking Classes", "phone": "+919928097288", "website": "https://www.jaipurcookingclasses.com/", "osm_id": 7233534485, "osm_type": "node"}, "geometry": {"type": "Point", "coordinates": [75.7465483, 26.8894205]}}, {"type": "Feature", "properties": {"addr:city": "Jaipur", "addr:housenumber": "Janta Colony", "addr:postcode": "302004", "addr:street": "Govind Marg", "amenity": "school", "name": "SJ Public School", "phone": "+91-141-2613956", "osm_id": 8125619003, "osm_type": "node"}, "geometry": {"type": "Point", "coordinates": [75.8381512, 26.9062568]}}, {"type": "Feature", "properties": {"amenity": "school", "name": "Defence Public School", "website": "https://www.defencejp.com/", "osm_id": 8140727879, "osm_type": "node"}, "geometry": {"type": "Point", "coordinates": [75.7442167, 26.9094485]}}, {"type": "Feature", "properties": {"addr:city": "Jaipur", "addr:state": "Rajasthan", "amenity": "school", "brand": "Kendriya Vidyalaya", "brand:wikidata": "Q1156653", "name": "Kendriya Vidyalaya No. 1", "operator:type": "government_non_profit", "osm_id": 10554368727, "osm_type": "node"}, "geometry": {"type": "Point", "coordinates": [75.7996963, 26.8785419]}}, {"type": "Feature", "properties": {"addr:housenumber": "WR65+XXF, Bhagwan Das Rd, Panch Batti, C Scheme, Ashok Nagar, Jaipur, Rajasthan 302001", "amenity": "school", "name": "St xavier sec school", "osm_id": 10904798522, "osm_type": "node"}, "geometry": {"type": "Point", "coordinates": [75.8086258, 26.9128913]}}, {"type": "Feature", "properties": {"addr:city": "Jaipur (Rajasthan) INDIA", "addr:country": "IN", "addr:housenumber": "ITS-3, IT Park", "addr:postcode": "302022", "addr:street": "EPIP Sitapura", "amenity": "school", "description": "The British International School (BISJaipur) is a Best Top rated CBSE (English Medium) Pre Primary School / Nursery / kindergarten & Middle School at Sitapura / Jagatpura / Partap Nagar in Jaipur.", "email": "info@bisjaipur.com", "grades": "Nursery - 7", "mobile": "+91 95888 42422", "name": "British International School Jaipur (BISJaipur)", "operator": "British International School Jaipur", "operator:type": "private", "phone": "+91 95888 42421", "website": "https://www.bisjaipur.edu.in/", "osm_id": 10945668875, "osm_type": "node"}, "geometry": {"type": "Point", "coordinates": [75.8340014, 26.789821]}}, {"type": "Feature", "properties": {"amenity": "school", "name": "SCHOLARS INTERNATIONAL SCHOOL", "osm_id": 10959824933, "osm_type": "node"}, "geometry": {"type": "Point", "coordinates": [75.6994895, 26.9574707]}}, {"type": "Feature", "properties": {"amenity": "school", "name": "R.N.PUBLIC SCHOOL GROUND", "osm_id": 10960889867, "osm_type": "node"}, "geometry": {"type": "Point", "coordinates": [75.7602182, 26.9833039]}}, {"type": "Feature", "properties": {"amenity": "school", "name": "SCHOLARS INTERNATIONAL SCHOOL", "osm_id": 11690475792, "osm_type": "node"}, "geometry": {"type": "Point", "coordinates": [75.6994735, 26.9568809]}}, {"type": "Feature", "properties": {"amenity": "school", "osm_id": 11691543487, "osm_type": "node"}, "geometry": {"type": "Point", "coordinates": [75.784914, 26.8861253]}}, {"type": "Feature", "properties": {"amenity": "school", "name": "SG International School", "osm_id": 11697042114, "osm_type": "node"}, "geometry": {"type": "Point", "coordinates": [75.7149263, 26.9448303]}}, {"type": "Feature", "properties": {"addr:city": "Sukhpuriya", "amenity": "school", "name": "Government Senior Secondary School, Sukhpuriya", "osm_id": 12151385704, "osm_type": "node"}, "geometry": {"type": "Point", "coordinates": [75.8231674, 26.7835215]}}, {"type": "Feature", "properties": {"amenity": "school", "name": "Jayshree Periwal International Preschool", "osm_id": 12357926601, "osm_type": "node"}, "geometry": {"type": "Point", "coordinates": [75.7945348, 26.9309751]}}, {"type": "Feature", "properties": {"amenity": "school", "name": "Veda", "osm_id": 12361057302, "osm_type": "node"}, "geometry": {"type": "Point", "coordinates": [75.7931823, 26.929202]}}, {"type": "Feature", "properties": {"amenity": "school", "name": "Mahatma Gandhi Ground , Jaipur", "osm_id": 12361796204, "osm_type": "node"}, "geometry": {"type": "Point", "coordinates": [75.7901302, 26.9230387]}}, {"type": "Feature", "properties": {"amenity": "school", "name": "Pareek College ,Jaipur", "osm_id": 12367918017, "osm_type": "node"}, "geometry": {"type": "Point", "coordinates": [75.8007512, 26.928425]}}, {"type": "Feature", "properties": {"amenity": "school", "min_age": "5", "name": "Mahatma Gandhi Government School (Modi Khana)", "operator": "Rajastan Government", "school:gender": "mixed", "osm_id": 12373618075, "osm_type": "node"}, "geometry": {"type": "Point", "coordinates": [75.8205409, 26.9220675]}}, {"type": "Feature", "properties": {"amenity": "school", "name": "All Saints' Church School", "osm_id": 12379232402, "osm_type": "node"}, "geometry": {"type": "Point", "coordinates": [75.7986514, 26.9179474]}}, {"type": "Feature", "properties": {"amenity": "school", "name": "Shanti Vidya Niketan", "osm_id": 12669173972, "osm_type": "node"}, "geometry": {"type": "Point", "coordinates": [75.7417117, 26.958371]}}, {"type": "Feature", "properties": {"amenity": "school", "name": "SDM Public School", "osm_id": 12669173979, "osm_type": "node"}, "geometry": {"type": "Point", "coordinates": [75.7427077, 26.9608938]}}, {"type": "Feature", "properties": {"amenity": "school", "name": "Darbar Public School", "osm_id": 12697269269, "osm_type": "node"}, "geometry": {"type": "Point", "coordinates": [75.7408163, 26.9531406]}}, {"type": "Feature", "properties": {"amenity": "school", "education": "yes", "name": "Pink City Cooking Class", "phone": "+91 98290 06362", "website": "https://pinkcitycookingclass.com", "osm_id": 13423844222, "osm_type": "node"}, "geometry": {"type": "Point", "coordinates": [75.8342169, 26.9374136]}}, {"type": "Feature", "properties": {"amenity": "school", "name": "Raja Ramdev Poddar Senior Secondary School", "osm_id": 230845534, "osm_type": "way"}, "geometry": {"type": "Polygon", "coordinates": [[[75.8116556, 26.884349], [75.8116948, 26.884341], [75.8116839, 26.8842982], [75.8113453, 26.8829735], [75.8113323, 26.8829225], [75.811293, 26.8829304], [75.8112821, 26.8828876], [75.8106955, 26.8830069], [75.8107195, 26.8831008], [75.8112412, 26.8829947], [75.8115797, 26.8843194], [75.8110581, 26.8844254], [75.8110813, 26.8845165], [75.8116679, 26.8843973], [75.8116556, 26.884349]]]}}, {"type": "Feature", "properties": {"addr:city": "Jaipur", "addr:postcode": "302016", "amenity": "school", "name": "Children's Academy", "osm_id": 262856167, "osm_type": "way"}, "geometry": {"type": "Polygon", "coordinates": [[[75.7956567, 26.9308989], [75.7958445, 26.9305864], [75.7962584, 26.9307841], [75.7960705, 26.9310966], [75.7956567, 26.9308989]]]}}, {"type": "Feature", "properties": {"amenity": "school", "name": "Nindad School Compound", "osm_id": 370945542, "osm_type": "way"}, "geometry": {"type": "Polygon", "coordinates": [[[75.7485816, 27.0156289], [75.7492336, 27.0156289], [75.7492439, 27.0152149], [75.7492451, 27.0151676], [75.7491545, 27.0151662], [75.7485969, 27.0151574], [75.7485816, 27.0156289]]]}}, {"type": "Feature", "properties": {"amenity": "school", "name": "St. Xavier Sr. Sec. School", "osm_id": 374811875, "osm_type": "way"}, "geometry": {"type": "Polygon", "coordinates": [[[75.8089266, 26.9130482], [75.8087104, 26.9125945], [75.808333, 26.9127375], [75.8085491, 26.9131912], [75.8089266, 26.9130482]]]}}, {"type": "Feature", "properties": {"amenity": "school", "name": "Tagore Public School", "osm_id": 458317708, "osm_type": "way"}, "geometry": {"type": "Polygon", "coordinates": [[[75.7995631, 26.9356678], [75.8001124, 26.9354379], [75.7997855, 26.9348174], [75.7992363, 26.9350473], [75.7995631, 26.9356678]]]}}, {"type": "Feature", "properties": {"amenity": "school", "name": "SAINT TERESA'S SCHOOL", "osm_id": 653339529, "osm_type": "way"}, "geometry": {"type": "Polygon", "coordinates": [[[75.7164095, 26.9656176], [75.7150255, 26.9653499], [75.7153903, 26.9669085], [75.7166456, 26.9666504], [75.7164095, 26.9656176]]]}}, {"type": "Feature", "properties": {"addr:city": "Jaipur", "addr:housenumber": "3, chitrakoot scheme", "addr:postcode": "302021", "addr:street": "Adjoining Stadium, Ajmer Road, Chitrakoot", "amenity": "school", "building:levels": "3", "email": "office@jphschool.com", "name": "JAYSHREE PERIWAL HIGH SCHOOL", "old_name": "step by step school", "phone": "0141-4132222", "osm_id": 665384542, "osm_type": "way"}, "geometry": {"type": "Polygon", "coordinates": [[[75.7349708, 26.8995276], [75.7349897, 26.8989381], [75.7354171, 26.898949], [75.7363049, 26.898966], [75.7362803, 26.8995564], [75.7349708, 26.8995276]]]}}, {"type": "Feature", "properties": {"amenity": "school", "osm_id": 724599683, "osm_type": "way"}, "geometry": {"type": "Polygon", "coordinates": [[[75.8036093, 26.9605844], [75.8035821, 26.9604071], [75.803538, 26.9604087], [75.8034955, 26.9604238], [75.8035006, 26.9604586], [75.8035042, 26.9605078], [75.8035142, 26.9605828], [75.8036093, 26.9605844]]]}}, {"type": "Feature", "properties": {"addr:city": "Jaipur", "addr:postcode": "302021", "addr:street": "Vaishali Nagar", "amenity": "school", "name": "Brightlands Girls Sr. Sec. School", "name:hi": "brightland school vaishali nagar", "website": "https://www.brightlandsjaipur.com/", "osm_id": 745235613, "osm_type": "way"}, "geometry": {"type": "Polygon", "coordinates": [[[75.7383671, 26.9145407], [75.7383746, 26.914575], [75.7383997, 26.9145929], [75.7390225, 26.9146345], [75.7395777, 26.9146743], [75.7396357, 26.9142041], [75.7396608, 26.9138312], [75.7389608, 26.9137858], [75.7384159, 26.9137537], [75.7383671, 26.9145407]]]}}, {"type": "Feature", "properties": {"addr:city": "Jaipur", "addr:postcode": "302021", "addr:street": "Dayanand Marg", "amenity": "school", "name": "D.A.V Centenary Public School", "name:hi": "डीएवी सेंटेनरी पब्लिक स्कूल", "phone": "+91141 235 1248", "website": "https://davjaipur.com/", "osm_id": 753671744, "osm_type": "way"}, "geometry": {"type": "Polygon", "coordinates": [[[75.7412554, 26.9102236], [75.7430864, 26.9099346], [75.7427187, 26.9084913], [75.7412462, 26.9089332], [75.7412554, 26.9102236]]]}}, {"type": "Feature", "properties": {"amenity": "school", "name": "Kendriya vidhyala Jothwara", "operator": "goverment", "operator:type": "government", "osm_id": 754523369, "osm_type": "way"}, "geometry": {"type": "Polygon", "coordinates": [[[75.7646686, 26.9360772], [75.7655591, 26.9366425], [75.7657682, 26.937268], [75.766092, 26.9380979], [75.7663551, 26.9385069], [75.7665845, 26.9386753], [75.7672653, 26.9384838], [75.7673076, 26.938138], [75.7673341, 26.9378488], [75.767394, 26.9372379], [75.7674632, 26.9367085], [75.7680603, 26.9367775], [75.7681547, 26.9359013], [75.7672385, 26.9357662], [75.7671994, 26.935728], [75.7671602, 26.9356716], [75.7670735, 26.9354169], [75.7661662, 26.9356321], [75.7646468, 26.9358785], [75.7646686, 26.9360772]]]}}, {"type": "Feature", "properties": {"addr:postcode": "302012", "amenity": "school", "email": "armypublicschooljaipur@gmail.com", "grades": "1-12", "name": "Army Public School, Jaipur", "name:en": "Army Public School, Jaipur", "operator": "Army welfare organization", "operator:type": "military", "phone": "0141-2249168", "website": "https://apsjaipur.edu.in/", "osm_id": 754523370, "osm_type": "way"}, "geometry": {"type": "Polygon", "coordinates": [[[75.7663582, 26.9270907], [75.7652421, 26.9241542], [75.7669047, 26.9236399], [75.7679929, 26.9264914], [75.7663582, 26.9270907]]]}}, {"type": "Feature", "properties": {"amenity": "school", "name": "Penguiens School", "osm_id": 758640352, "osm_type": "way"}, "geometry": {"type": "Polygon", "coordinates": [[[75.7392005, 26.8976116], [75.7392227, 26.8975029], [75.7393919, 26.8975536], [75.7393763, 26.89763], [75.7392005, 26.8976116]]]}}, {"type": "Feature", "properties": {"amenity": "school", "name": "Teoler High School", "osm_id": 758683163, "osm_type": "way"}, "geometry": {"type": "Polygon", "coordinates": [[[75.6924667, 26.9104385], [75.692365, 26.9096289], [75.6936195, 26.9095382], [75.6948552, 26.9094038], [75.6950963, 26.9103478], [75.6941585, 26.9103819], [75.6942362, 26.9114131], [75.6931127, 26.9114468], [75.6930536, 26.910881], [75.693024, 26.910402], [75.6924667, 26.9104385]]]}}, {"type": "Feature", "properties": {"addr:street": "Maharana Pratap Road", "amenity": "school", "name": "Oxford International Academy", "osm_id": 758683189, "osm_type": "way"}, "geometry": {"type": "Polygon", "coordinates": [[[75.7254167, 26.908962], [75.7255809, 26.908191], [75.7256486, 26.9078249], [75.7246391, 26.9078292], [75.7246012, 26.9081381], [75.7245473, 26.9085098], [75.7249579, 26.9085098], [75.7249868, 26.9088974], [75.7254167, 26.908962]]]}}, {"type": "Feature", "properties": {"addr:street": "Ganesh Mandir Marg", "amenity": "school", "name": "Sr. Sec. Girls Adarsh Vidya Mandir", "osm_id": 758907567, "osm_type": "way"}, "geometry": {"type": "Polygon", "coordinates": [[[75.7314488, 26.9169482], [75.731502, 26.9169446], [75.7315135, 26.9170803], [75.7319259, 26.9170526], [75.73192, 26.9169828], [75.7316029, 26.9170041], [75.7315862, 26.9168063], [75.7319119, 26.9167844], [75.7319049, 26.9167025], [75.7314917, 26.9167303], [75.7315042, 26.9168782], [75.7314433, 26.9168823], [75.7314488, 26.9169482]]]}}, {"type": "Feature", "properties": {"addr:city": "Jaipur", "addr:street": "Vaishali Marg", "amenity": "school", "name": "Sunstar School", "phone": "+9198290 67421", "website": "https://www.sunstarschool.com/", "osm_id": 758907574, "osm_type": "way"}, "geometry": {"type": "Polygon", "coordinates": [[[75.7347446, 26.915423], [75.7346368, 26.9151528], [75.7352618, 26.914957], [75.7353693, 26.9152481], [75.7347446, 26.915423]]]}}, {"type": "Feature", "properties": {"addr:street": "Sirsi Road", "amenity": "school", "name": "Aurbindo International School", "osm_id": 758907721, "osm_type": "way"}, "geometry": {"type": "Polygon", "coordinates": [[[75.6833293, 26.9240547], [75.6847168, 26.923748], [75.6850764, 26.9237201], [75.6847715, 26.9222948], [75.6837761, 26.9220514], [75.6827625, 26.9218034], [75.6828759, 26.9223192], [75.6832042, 26.9235772], [75.6833293, 26.9240547]]]}}, {"type": "Feature", "properties": {"addr:city": "Jaipur", "addr:postcode": "302017", "addr:street": "Block-A, Malviya Nagar, Near Satkar Shopping Center", "amenity": "school", "name": "St.Edmund’s School Malviya Nagar", "name:hi": "सेंट एडमंड्स स्कूल", "website": "https://stedmundsjaipur.com/", "osm_id": 799511398, "osm_type": "way"}, "geometry": {"type": "Polygon", "coordinates": [[[75.817911, 26.8546975], [75.8183865, 26.85457], [75.8181925, 26.8539269], [75.8176956, 26.854102], [75.817911, 26.8546975]]]}}, {"type": "Feature", "properties": {"addr:city": "Jaipur", "addr:street": "Ajmer Road, Sodala", "amenity": "school", "name": "Government Senior Secondary School Sodala", "operator": "Goverment", "operator:type": "government", "osm_id": 862568921, "osm_type": "way"}, "geometry": {"type": "Polygon", "coordinates": [[[75.7699417, 26.9002787], [75.7701715, 26.8999212], [75.7707008, 26.9001594], [75.7705884, 26.9003486], [75.7706184, 26.9003687], [75.7704831, 26.900564], [75.7699417, 26.9002787]]]}}, {"type": "Feature", "properties": {"amenity": "school", "name": "VSPK International School", "osm_id": 863037859, "osm_type": "way"}, "geometry": {"type": "Polygon", "coordinates": [[[75.8347752, 26.7974777], [75.8359385, 26.797139], [75.8358986, 26.7965998], [75.8347752, 26.796836], [75.8347752, 26.7974777]]]}}, {"type": "Feature", "properties": {"amenity": "school", "name": "Air Force School", "osm_id": 863494838, "osm_type": "way"}, "geometry": {"type": "Polygon", "coordinates": [[[75.844452, 26.9595041], [75.8445342, 26.9596109], [75.8446985, 26.9599893], [75.8447944, 26.9604715], [75.844541, 26.9605112], [75.844202, 26.9601358], [75.8443527, 26.959971], [75.8443904, 26.9598856], [75.8442705, 26.959733], [75.8441712, 26.959614], [75.844452, 26.9595041]]]}}, {"type": "Feature", "properties": {"amenity": "school", "osm_id": 865638246, "osm_type": "way"}, "geometry": {"type": "Polygon", "coordinates": [[[75.8134895, 26.8581105], [75.8137329, 26.8589317], [75.8151766, 26.858946], [75.8151569, 26.8580216], [75.8150763, 26.8577619], [75.8149864, 26.8574243], [75.8134041, 26.857844], [75.8134895, 26.8581105]]]}}, {"type": "Feature", "properties": {"addr:street": "Kanakpura", "amenity": "school", "name": "School Ground", "operator": "EL Wood International School", "osm_id": 954797913, "osm_type": "way"}, "geometry": {"type": "Polygon", "coordinates": [[[75.6973577, 26.9343417], [75.6972554, 26.9340399], [75.6977276, 26.9339136], [75.6978692, 26.9343954], [75.6975859, 26.9344656], [75.6973577, 26.9343417]]]}}, {"type": "Feature", "properties": {"amenity": "school", "grades": "1-12", "name": "Maharaja Sawai Man Singh Vidyalaya", "name:etymology:wikidata": "Q3634394", "osm_id": 976725648, "osm_type": "way"}, "geometry": {"type": "Polygon", "coordinates": [[[75.8106982, 26.8970241], [75.8115951, 26.8966077], [75.8125252, 26.8981904], [75.8118605, 26.8985215], [75.8110784, 26.897518], [75.8113081, 26.8974008], [75.8111851, 26.8972097], [75.8111001, 26.8970776], [75.8108373, 26.8972051], [75.8106982, 26.8970241]]]}}, {"type": "Feature", "properties": {"amenity": "school", "name": "St. Xavier's School", "name:hi": "सेंट जेवियर्स स्कूल", "osm_id": 1008772931, "osm_type": "way"}, "geometry": {"type": "Polygon", "coordinates": [[[75.6760919, 26.8040777], [75.680244, 26.8048725], [75.6787312, 26.807707], [75.6765532, 26.8073814], [75.6765425, 26.8072091], [75.6746757, 26.8072952], [75.6760919, 26.8040777]]]}}, {"type": "Feature", "properties": {"amenity": "school", "name": "Candlewick Public School", "osm_id": 1034878425, "osm_type": "way"}, "geometry": {"type": "Polygon", "coordinates": [[[75.7768853, 26.9580433], [75.7755389, 26.9586984], [75.7758634, 26.9591335], [75.7771696, 26.9585334], [75.7768853, 26.9580433]]]}}, {"type": "Feature", "properties": {"addr:city": "Jaipur Municipal Corporation", "addr:postcode": "303905", "addr:street": "VIT Road", "amenity": "school", "name": "Vivek Techno School", "osm_id": 1156213753, "osm_type": "way"}, "geometry": {"type": "Polygon", "coordinates": [[[75.899021, 26.8158016], [75.8990559, 26.814417], [75.9000698, 26.8140986], [75.9007055, 26.8139861], [75.9014189, 26.8137108], [75.9015343, 26.8137156], [75.9015101, 26.8145678], [75.9009334, 26.8147091], [75.9009469, 26.8148216], [75.900051, 26.8149053], [75.9000832, 26.8153027], [75.9001315, 26.8155517], [75.9001878, 26.8158892], [75.8991739, 26.8158964], [75.8990774, 26.8158868], [75.8990371, 26.8158533], [75.899021, 26.8158016]]]}}, {"type": "Feature", "properties": {"amenity": "school", "name": "PARAMOUNT PUBLIC SCHOOL GROUND", "osm_id": 1180025745, "osm_type": "way"}, "geometry": {"type": "Polygon", "coordinates": [[[75.7000029, 26.9559261], [75.7008003, 26.9555707], [75.7009693, 26.9559725], [75.7001762, 26.9562815], [75.7000029, 26.9559261]]]}}, {"type": "Feature", "properties": {"amenity": "school", "name": "SCHOLARS PUBLIC SCHOOL GROUND", "osm_id": 1180025746, "osm_type": "way"}, "geometry": {"type": "Polygon", "coordinates": [[[75.6992095, 26.9572261], [75.699872, 26.9570531], [75.6997112, 26.9565169], [75.6990875, 26.9567566], [75.6992095, 26.9572261]]]}}, {"type": "Feature", "properties": {"amenity": "school", "name": "BASKETBALL GROUND", "osm_id": 1257407342, "osm_type": "way"}, "geometry": {"type": "Polygon", "coordinates": [[[75.6997626, 26.9576853], [75.6997226, 26.957555], [75.6998106, 26.9575389], [75.6998687, 26.9574533], [75.7000269, 26.9574212], [75.7000729, 26.9576032], [75.6999268, 26.9576407], [75.6997626, 26.9576853]]]}}, {"type": "Feature", "properties": {"amenity": "school", "name": "Prabhat Public School", "osm_id": 1421893728, "osm_type": "way"}, "geometry": {"type": "Polygon", "coordinates": [[[75.7615314, 26.8433539], [75.7613549, 26.8430089], [75.7613343, 26.8429713], [75.7616237, 26.8428526], [75.7618209, 26.8432352], [75.7615314, 26.8433539]]]}}, {"type": "Feature", "properties": {"amenity": "school", "building": "yes", "education": "school", "osm_id": 1484058590, "osm_type": "way"}, "geometry": {"type": "Polygon", "coordinates": [[[75.8171418, 26.9350228], [75.8172143, 26.9349521], [75.8170673, 26.9348432], [75.8169144, 26.9350255], [75.8169753, 26.9350723], [75.8170756, 26.934976], [75.8171418, 26.9350228]]]}}]}