{"type": "FeatureCollection", "crs": {"type": "name", "properties": {"name": "urn:ogc:def:crs:OGC:1.3:CRS84"}}, "features": [{"type": "Feature", "properties": {"bus": "yes", "bus_routes": "27", "highway": "bus_stop", "name": "Ghat ki guni", "public_transport": "platform", "osm_id": 315733720, "osm_type": "node"}, "geometry": {"type": "Point", "coordinates": [75.8612266, 26.8947988]}}, {"type": "Feature", "properties": {"bench": "yes", "bus": "yes", "highway": "bus_stop", "name": "Ramgarh Mod", "public_transport": "platform", "shelter": "yes", "osm_id": 316420529, "osm_type": "node"}, "geometry": {"type": "Point", "coordinates": [75.8395104, 26.944099]}}, {"type": "Feature", "properties": {"bus": "yes", "highway": "bus_stop", "name": "Harmada", "public_transport": "platform", "osm_id": 316649829, "osm_type": "node"}, "geometry": {"type": "Point", "coordinates": [75.7693282, 27.0150482]}}, {"type": "Feature", "properties": {"bus": "yes", "highway": "bus_stop", "name": "Kalyan Nagar", "public_transport": "platform", "osm_id": 316742605, "osm_type": "node"}, "geometry": {"type": "Point", "coordinates": [75.7942958, 26.8262837]}}, {"type": "Feature", "properties": {"bus": "yes", "highway": "bus_stop", "name": "Maharani College", "public_transport": "platform", "osm_id": 316742974, "osm_type": "node"}, "geometry": {"type": "Point", "coordinates": [75.8161415, 26.9123361]}}, {"type": "Feature", "properties": {"bus": "yes", "bus_routes": "7, 32, 23, AC 5", "highway": "bus_stop", "name": "Gujar Ki thadi", "public_transport": "platform", "osm_id": 316799662, "osm_type": "node"}, "geometry": {"type": "Point", "coordinates": [75.7671598, 26.88064]}}, {"type": "Feature", "properties": {"bus": "yes", "highway": "bus_stop", "name": "Choti Chaupar", "public_transport": "platform", "osm_id": 316943439, "osm_type": "node"}, "geometry": {"type": "Point", "coordinates": [75.8186598, 26.9244477]}}, {"type": "Feature", "properties": {"bus": "yes", "highway": "bus_stop", "name": "Chandpole", "public_transport": "platform", "osm_id": 316957401, "osm_type": "node"}, "geometry": {"type": "Point", "coordinates": [75.8072209, 26.9249499]}}, {"type": "Feature", "properties": {"bus": "yes", "highway": "bus_stop", "name": "Pratap Nagar Sector 5", "public_transport": "platform", "osm_id": 317402422, "osm_type": "node"}, "geometry": {"type": "Point", "coordinates": [75.8087116, 26.8033502]}}, {"type": "Feature", "properties": {"bus": "yes", "highway": "bus_stop", "name": "Shiv Nagar", "public_transport": "platform", "osm_id": 317402426, "osm_type": "node"}, "geometry": {"type": "Point", "coordinates": [75.7998768, 26.815204]}}, {"type": "Feature", "properties": {"bus": "yes", "highway": "bus_stop", "name": "RBI", "public_transport": "platform", "osm_id": 321194335, "osm_type": "node"}, "geometry": {"type": "Point", "coordinates": [75.8105061, 26.8969848]}}, {"type": "Feature", "properties": {"bus": "yes", "bus_routes": "18, 26", "highway": "bus_stop", "name": "Power House", "public_transport": "platform", "osm_id": 1405214578, "osm_type": "node"}, "geometry": {"type": "Point", "coordinates": [75.7287008, 26.8846963]}}, {"type": "Feature", "properties": {"bus": "yes", "bus_routes": "14, 10B, Mini 38", "highway": "bus_stop", "name": "Bais Godam circle", "public_transport": "platform", "osm_id": 1467000141, "osm_type": "node"}, "geometry": {"type": "Point", "coordinates": [75.7939081, 26.9018905]}}, {"type": "Feature", "properties": {"bus": "yes", "highway": "bus_stop", "name": "Hathroi", "public_transport": "platform", "osm_id": 1751224304, "osm_type": "node"}, "geometry": {"type": "Point", "coordinates": [75.7934114, 26.9142683]}}, {"type": "Feature", "properties": {"bus": "yes", "highway": "bus_stop", "name": "Choti Chopad", "public_transport": "platform", "osm_id": 1812532483, "osm_type": "node"}, "geometry": {"type": "Point", "coordinates": [75.8190096, 26.9246247]}}, {"type": "Feature", "properties": {"bus": "yes", "highway": "bus_stop", "name": "Ajmeri Gate", "public_transport": "platform", "osm_id": 1812540125, "osm_type": "node"}, "geometry": {"type": "Point", "coordinates": [75.8169299, 26.9153191]}}, {"type": "Feature", "properties": {"bus": "yes", "highway": "bus_stop", "name": "Narayan Singh Circle", "public_transport": "platform", "osm_id": 1812540126, "osm_type": "node"}, "geometry": {"type": "Point", "coordinates": [75.8121466, 26.8991808]}}, {"type": "Feature", "properties": {"bus": "yes", "highway": "bus_stop", "name": "Kamla Nehru", "public_transport": "platform", "osm_id": 2105397604, "osm_type": "node"}, "geometry": {"type": "Point", "coordinates": [75.7159806, 26.8782866]}}, {"type": "Feature", "properties": {"bus": "yes", "highway": "bus_stop", "name": "200ft Bypass", "network": "JCTSL", "public_transport": "platform", "osm_id": 2105397654, "osm_type": "node"}, "geometry": {"type": "Point", "coordinates": [75.7370806, 26.8881782]}}, {"type": "Feature", "properties": {"bus": "yes", "bus_routes": "7, 9B", "highway": "bus_stop", "name": "Hirapura (200ft Bypass)", "public_transport": "platform", "osm_id": 2105397685, "osm_type": "node"}, "geometry": {"type": "Point", "coordinates": [75.7374418, 26.8882616]}}, {"type": "Feature", "properties": {"bus": "yes", "highway": "bus_stop", "name": "Hirapura (200ft bypass)", "public_transport": "platform", "osm_id": 2105397707, "osm_type": "node"}, "geometry": {"type": "Point", "coordinates": [75.7373521, 26.8890532]}}, {"type": "Feature", "properties": {"bus": "yes", "highway": "bus_stop", "name": "DCM Tagore Nagar", "public_transport": "platform", "osm_id": 2105397838, "osm_type": "node"}, "geometry": {"type": "Point", "coordinates": [75.7461945, 26.8933872]}}, {"type": "Feature", "properties": {"bus": "yes", "highway": "bus_stop", "name": "Tagore Nagar", "network": "JCTSL", "public_transport": "platform", "osm_id": 2105397854, "osm_type": "node"}, "geometry": {"type": "Point", "coordinates": [75.7334549, 26.8949767]}}, {"type": "Feature", "properties": {"bus": "yes", "highway": "bus_stop", "name": "Kings Road", "public_transport": "platform", "osm_id": 2105800435, "osm_type": "node"}, "geometry": {"type": "Point", "coordinates": [75.751122, 26.895833]}}, {"type": "Feature", "properties": {"bus": "yes", "bus_routes": "14, 10B, Mini 38", "highway": "bus_stop", "name": "Ram mandir", "public_transport": "platform", "osm_id": 2105800556, "osm_type": "node"}, "geometry": {"type": "Point", "coordinates": [75.7861663, 26.9027248]}}, {"type": "Feature", "properties": {"bus": "yes", "highway": "bus_stop", "name": "Hathroi", "public_transport": "platform", "osm_id": 2105800673, "osm_type": "node"}, "geometry": {"type": "Point", "coordinates": [75.7933792, 26.9143693]}}, {"type": "Feature", "properties": {"bus": "yes", "bus_routes": "3, 3B, 14, 27, 32, AC 1, AC 2, AC 5, Mini 34, Mini 38", "highway": "bus_stop", "name": "Sanganeri Gate", "public_transport": "platform", "osm_id": 2106256089, "osm_type": "node"}, "geometry": {"type": "Point", "coordinates": [75.8242565, 26.9153051]}}, {"type": "Feature", "properties": {"bus": "yes", "highway": "bus_stop", "name": "Power House", "public_transport": "platform", "osm_id": 2106256191, "osm_type": "node"}, "geometry": {"type": "Point", "coordinates": [75.8017904, 26.9303085]}}, {"type": "Feature", "properties": {"bus": "yes", "bus_routes": "27, 10B", "highway": "bus_stop", "name": "Transport Nagar", "public_transport": "platform", "osm_id": 2106291593, "osm_type": "node"}, "geometry": {"type": "Point", "coordinates": [75.8444409, 26.9040357]}}, {"type": "Feature", "properties": {"bus": "yes", "highway": "bus_stop", "name": "Boring Chauraha", "public_transport": "platform", "osm_id": 2106355852, "osm_type": "node"}, "geometry": {"type": "Point", "coordinates": [75.7471628, 26.9437193]}}, {"type": "Feature", "properties": {"bus": "yes", "highway": "bus_stop", "name": "Dher ke Balaji", "public_transport": "platform", "shelter": "yes", "osm_id": 2106355947, "osm_type": "node"}, "geometry": {"type": "Point", "coordinates": [75.7715169, 26.9506521]}}, {"type": "Feature", "properties": {"bus": "yes", "highway": "bus_stop", "name": "Karbala", "public_transport": "platform", "osm_id": 2106392969, "osm_type": "node"}, "geometry": {"type": "Point", "coordinates": [75.8402911, 26.9466897]}}, {"type": "Feature", "properties": {"bus": "yes", "bus_routes": "14", "highway": "bus_stop", "name": "Vaishali Circle", "public_transport": "platform", "osm_id": 2393622938, "osm_type": "node"}, "geometry": {"type": "Point", "coordinates": [75.742984, 26.914925]}}, {"type": "Feature", "properties": {"bus": "yes", "highway": "bus_stop", "name": "Karni Palace", "public_transport": "platform", "osm_id": 2393625634, "osm_type": "node"}, "geometry": {"type": "Point", "coordinates": [75.7296181, 26.9113432]}}, {"type": "Feature", "properties": {"bus": "yes", "highway": "bus_stop", "name": "Taron ki Koot", "public_transport": "platform", "osm_id": 2663060604, "osm_type": "node"}, "geometry": {"type": "Point", "coordinates": [75.7937657, 26.836068]}}, {"type": "Feature", "properties": {"bus": "yes", "highway": "bus_stop", "name": "Power House", "public_transport": "platform", "osm_id": 2830752722, "osm_type": "node"}, "geometry": {"type": "Point", "coordinates": [75.7301679, 26.8852177]}}, {"type": "Feature", "properties": {"bus": "yes", "bus_routes": "7, 9B", "highway": "bus_stop", "name": "Vardhaman Nagar", "public_transport": "platform", "osm_id": 2891846126, "osm_type": "node"}, "geometry": {"type": "Point", "coordinates": [75.7401215, 26.8841622]}}, {"type": "Feature", "properties": {"addr:city": "Jaipur", "addr:country": "IN", "addr:district": "Jaipur", "addr:state": "Rajasthan", "highway": "bus_stop", "name": "Agarwal Farm Bus stop", "osm_id": 3078037745, "osm_type": "node"}, "geometry": {"type": "Point", "coordinates": [75.7700029, 26.8413127]}}, {"type": "Feature", "properties": {"highway": "bus_stop", "name": "Statue circle", "osm_id": 3258246733, "osm_type": "node"}, "geometry": {"type": "Point", "coordinates": [75.8042984, 26.90816]}}, {"type": "Feature", "properties": {"bus": "yes", "bus_routes": "3, 3B, 14", "highway": "bus_stop", "name": "Ajmeri Gate", "public_transport": "platform", "osm_id": 3266671377, "osm_type": "node"}, "geometry": {"type": "Point", "coordinates": [75.8186365, 26.9164568]}}, {"type": "Feature", "properties": {"bus": "yes", "highway": "bus_stop", "name": "Taru Chaya Nagar", "public_transport": "platform", "osm_id": 3476201217, "osm_type": "node"}, "geometry": {"type": "Point", "coordinates": [75.7938833, 26.8325051]}}, {"type": "Feature", "properties": {"bus": "yes", "highway": "bus_stop", "name": "Sanganer Puliya", "public_transport": "platform", "osm_id": 3476240559, "osm_type": "node"}, "geometry": {"type": "Point", "coordinates": [75.7889622, 26.8184964]}}, {"type": "Feature", "properties": {"bus": "yes", "highway": "bus_stop", "name": "Chitrakoot Vaishali Nagar", "public_transport": "platform", "osm_id": 3659486234, "osm_type": "node"}, "geometry": {"type": "Point", "coordinates": [75.7410373, 26.8908981]}}, {"type": "Feature", "properties": {"bus": "yes", "highway": "bus_stop", "public_transport": "platform", "osm_id": 3747102055, "osm_type": "node"}, "geometry": {"type": "Point", "coordinates": [75.7531364, 27.0142199]}}, {"type": "Feature", "properties": {"bus": "yes", "highway": "bus_stop", "name": "Taru Chaya Nagar", "public_transport": "platform", "osm_id": 3778252970, "osm_type": "node"}, "geometry": {"type": "Point", "coordinates": [75.7940085, 26.8324898]}}, {"type": "Feature", "properties": {"bus": "yes", "highway": "bus_stop", "name": "B2 Bypass Circle", "public_transport": "platform", "osm_id": 3778252985, "osm_type": "node"}, "geometry": {"type": "Point", "coordinates": [75.7938899, 26.8384984]}}, {"type": "Feature", "properties": {"bus": "yes", "highway": "bus_stop", "name": "B2 Bypass Circle", "public_transport": "platform", "osm_id": 3778252986, "osm_type": "node"}, "geometry": {"type": "Point", "coordinates": [75.7937575, 26.8384552]}}, {"type": "Feature", "properties": {"bus": "yes", "departures_board": "no", "highway": "bus_stop", "name": "Airport", "network": "6A", "public_transport": "platform", "shelter": "yes", "osm_id": 3778270223, "osm_type": "node"}, "geometry": {"type": "Point", "coordinates": [75.8051632, 26.8299663]}}, {"type": "Feature", "properties": {"bus": "yes", "highway": "bus_stop", "name": "Sector 2 - Malviya Nagar", "public_transport": "platform", "osm_id": 3779498272, "osm_type": "node"}, "geometry": {"type": "Point", "coordinates": [75.8174763, 26.8507738]}}, {"type": "Feature", "properties": {"bus": "yes", "highway": "bus_stop", "name": "Mahesh Nagar", "public_transport": "platform", "osm_id": 3783098185, "osm_type": "node"}, "geometry": {"type": "Point", "coordinates": [75.7728737, 26.8772478]}}, {"type": "Feature", "properties": {"bus": "yes", "bus_routes": "7, 32, 23, AC 5", "highway": "bus_stop", "name": "Mahesh Nagar", "public_transport": "platform", "osm_id": 3783098186, "osm_type": "node"}, "geometry": {"type": "Point", "coordinates": [75.7729526, 26.8773464]}}, {"type": "Feature", "properties": {"bus": "yes", "bus_routes": "7, 32, 23. AC5", "highway": "bus_stop", "name": "Ganga Jamuna", "public_transport": "platform", "osm_id": 3783103796, "osm_type": "node"}, "geometry": {"type": "Point", "coordinates": [75.7578789, 26.8802877]}}, {"type": "Feature", "properties": {"bus": "yes", "highway": "bus_stop", "name": "Gujar Ki Thadi", "public_transport": "platform", "osm_id": 3783103804, "osm_type": "node"}, "geometry": {"type": "Point", "coordinates": [75.7669262, 26.8804716]}}, {"type": "Feature", "properties": {"bus": "yes", "highway": "bus_stop", "name": "Mahaveer Nagar", "public_transport": "platform", "osm_id": 3783217169, "osm_type": "node"}, "geometry": {"type": "Point", "coordinates": [75.795152, 26.8571892]}}, {"type": "Feature", "properties": {"bus": "yes", "highway": "bus_stop", "name": "Bhaironji Mandir Pratap Nagar", "public_transport": "platform", "osm_id": 3785883980, "osm_type": "node"}, "geometry": {"type": "Point", "coordinates": [75.8254266, 26.8021657]}}, {"type": "Feature", "properties": {"bus": "yes", "highway": "bus_stop", "name": "Mahaveer Nagar", "public_transport": "platform", "osm_id": 3787809626, "osm_type": "node"}, "geometry": {"type": "Point", "coordinates": [75.7953196, 26.8572519]}}, {"type": "Feature", "properties": {"bus": "yes", "highway": "bus_stop", "name": "Sushilpura", "public_transport": "platform", "osm_id": 3788703296, "osm_type": "node"}, "geometry": {"type": "Point", "coordinates": [75.7659022, 26.8986707]}}, {"type": "Feature", "properties": {"bus": "yes", "highway": "bus_stop", "name": "Ram Nagar Extension", "public_transport": "platform", "osm_id": 3788703316, "osm_type": "node"}, "geometry": {"type": "Point", "coordinates": [75.7722181, 26.9016359]}}, {"type": "Feature", "properties": {"bus": "yes", "highway": "bus_stop", "name": "Ram Nagar Extension", "public_transport": "platform", "osm_id": 3788703320, "osm_type": "node"}, "geometry": {"type": "Point", "coordinates": [75.7721152, 26.901838]}}, {"type": "Feature", "properties": {"bus": "yes", "highway": "bus_stop", "name": "Sodala Thana", "public_transport": "platform", "osm_id": 3788703333, "osm_type": "node"}, "geometry": {"type": "Point", "coordinates": [75.7745237, 26.9030098]}}, {"type": "Feature", "properties": {"bus": "yes", "highway": "bus_stop", "name": "ESIC Hospital", "public_transport": "platform", "osm_id": 3788703352, "osm_type": "node"}, "geometry": {"type": "Point", "coordinates": [75.777057, 26.9060211]}}, {"type": "Feature", "properties": {"bus": "yes", "highway": "bus_stop", "name": "ESIC Hospital", "public_transport": "platform", "osm_id": 3788703354, "osm_type": "node"}, "geometry": {"type": "Point", "coordinates": [75.7769599, 26.9062401]}}, {"type": "Feature", "properties": {"bus": "yes", "highway": "bus_stop", "name": "Civil Lines", "public_transport": "platform", "osm_id": 3788703677, "osm_type": "node"}, "geometry": {"type": "Point", "coordinates": [75.7809175, 26.909479]}}, {"type": "Feature", "properties": {"bus": "yes", "highway": "bus_stop", "name": "Civil Lines", "public_transport": "platform", "osm_id": 3788703679, "osm_type": "node"}, "geometry": {"type": "Point", "coordinates": [75.7817687, 26.9096335]}}, {"type": "Feature", "properties": {"bus": "yes", "highway": "bus_stop", "name": "DCM - Tagore Nagar", "public_transport": "platform", "osm_id": 3788831315, "osm_type": "node"}, "geometry": {"type": "Point", "coordinates": [75.7460432, 26.8934416]}}, {"type": "Feature", "properties": {"bus": "yes", "highway": "bus_stop", "name": "Kings Road", "public_transport": "platform", "osm_id": 3788831329, "osm_type": "node"}, "geometry": {"type": "Point", "coordinates": [75.7510463, 26.8959123]}}, {"type": "Feature", "properties": {"bus": "yes", "highway": "bus_stop", "name": "Purani Chungi", "public_transport": "platform", "osm_id": 3788831347, "osm_type": "node"}, "geometry": {"type": "Point", "coordinates": [75.7566259, 26.8984628]}}, {"type": "Feature", "properties": {"bus": "yes", "bus_routes": "14, 26, Mini 38", "highway": "bus_stop", "name": "DCM", "public_transport": "platform", "osm_id": 3788831358, "osm_type": "node"}, "geometry": {"type": "Point", "coordinates": [75.7582472, 26.8986966]}}, {"type": "Feature", "properties": {"bus": "yes", "highway": "bus_stop", "name": "Majdur Nagar", "public_transport": "platform", "osm_id": 3788852978, "osm_type": "node"}, "geometry": {"type": "Point", "coordinates": [75.7845438, 26.9108995]}}, {"type": "Feature", "properties": {"bus": "yes", "highway": "bus_stop", "name": "Majdur Nagar", "public_transport": "platform", "osm_id": 3788853454, "osm_type": "node"}, "geometry": {"type": "Point", "coordinates": [75.7843382, 26.9110785]}}, {"type": "Feature", "properties": {"bus": "yes", "highway": "bus_stop", "name": "Kalyan Nagar", "public_transport": "platform", "osm_id": 3793710236, "osm_type": "node"}, "geometry": {"type": "Point", "coordinates": [75.7945607, 26.8256564]}}, {"type": "Feature", "properties": {"bus": "yes", "highway": "bus_stop", "name": "Sita Badi", "public_transport": "platform", "osm_id": 3793717014, "osm_type": "node"}, "geometry": {"type": "Point", "coordinates": [75.7940811, 26.8294791]}}, {"type": "Feature", "properties": {"bus": "yes", "highway": "bus_stop", "name": "Sanganer Puliya", "public_transport": "platform", "osm_id": 3826701164, "osm_type": "node"}, "geometry": {"type": "Point", "coordinates": [75.7889264, 26.8185808]}}, {"type": "Feature", "properties": {"bus": "yes", "highway": "bus_stop", "name": "Pratap Nagar", "public_transport": "platform", "osm_id": 3939108380, "osm_type": "node"}, "geometry": {"type": "Point", "coordinates": [75.8120584, 26.7987728]}}, {"type": "Feature", "properties": {"bus": "yes", "highway": "bus_stop", "name": "Sanganer Stadium", "public_transport": "platform", "osm_id": 3954548679, "osm_type": "node"}, "geometry": {"type": "Point", "coordinates": [75.7837312, 26.8188445]}}, {"type": "Feature", "properties": {"bus": "yes", "highway": "bus_stop", "name": "Jai Ambay bus travel agency", "public_transport": "platform", "osm_id": 4030822336, "osm_type": "node"}, "geometry": {"type": "Point", "coordinates": [75.7953542, 26.9213177]}}, {"type": "Feature", "properties": {"bus": "yes", "bus_routes": "18, 26", "highway": "bus_stop", "name": "200ft Bypass", "public_transport": "platform", "osm_id": 4030838010, "osm_type": "node"}, "geometry": {"type": "Point", "coordinates": [75.7362708, 26.8881633]}}, {"type": "Feature", "properties": {"highway": "bus_stop", "name": "8 Number Bus Stand", "osm_id": 4225291290, "osm_type": "node"}, "geometry": {"type": "Point", "coordinates": [75.8505373, 26.8178791]}}, {"type": "Feature", "properties": {"highway": "bus_stop", "name": "Kukas, Jaipur, Rajasthan", "osm_id": 4229660308, "osm_type": "node"}, "geometry": {"type": "Point", "coordinates": [75.8987617, 27.0440169]}}, {"type": "Feature", "properties": {"amenity": "atm", "highway": "bus_stop", "osm_id": 4427307090, "osm_type": "node"}, "geometry": {"type": "Point", "coordinates": [75.7312005, 26.9399601]}}, {"type": "Feature", "properties": {"bus": "yes", "highway": "bus_stop", "name": "Pratap Nagar Sector 3", "public_transport": "platform", "osm_id": 4727570231, "osm_type": "node"}, "geometry": {"type": "Point", "coordinates": [75.8056353, 26.807277]}}, {"type": "Feature", "properties": {"bus": "yes", "highway": "bus_stop", "name": "Ajmeri Gate", "public_transport": "platform", "osm_id": 4727706596, "osm_type": "node"}, "geometry": {"type": "Point", "coordinates": [75.815879, 26.9168716]}}, {"type": "Feature", "properties": {"bus": "yes", "highway": "bus_stop", "name": "Sanganer Police Station", "public_transport": "platform", "osm_id": 4763964234, "osm_type": "node"}, "geometry": {"type": "Point", "coordinates": [75.7965337, 26.8192179]}}, {"type": "Feature", "properties": {"bus": "yes", "highway": "bus_stop", "name": "Pratap Nagar Sector 16", "public_transport": "platform", "osm_id": 4764032915, "osm_type": "node"}, "geometry": {"type": "Point", "coordinates": [75.8301941, 26.8043379]}}, {"type": "Feature", "properties": {"bus": "yes", "highway": "bus_stop", "name": "Badi Chaupar", "public_transport": "platform", "osm_id": 5403055418, "osm_type": "node"}, "geometry": {"type": "Point", "coordinates": [75.8266029, 26.9228478]}}, {"type": "Feature", "properties": {"bus": "yes", "highway": "bus_stop", "name": "Chitrakoot Vaishali Nagar", "public_transport": "platform", "osm_id": 5481705863, "osm_type": "node"}, "geometry": {"type": "Point", "coordinates": [75.7410772, 26.8908198]}}, {"type": "Feature", "properties": {"bus": "yes", "bus_routes": "3, 3A, 3B, 3C, 6A, 7, 9A, 11, 16, 23, 28, 32, AC 1, AC 2, AC 5, 27, AC3, 13A, 8A, 14", "highway": "bus_stop", "name": "Narayan Singh Circle", "public_transport": "platform", "osm_id": 5481842553, "osm_type": "node"}, "geometry": {"type": "Point", "coordinates": [75.8123853, 26.8997366]}}, {"type": "Feature", "properties": {"bus": "yes", "highway": "bus_stop", "name": "Amrapur Darbar", "public_transport": "platform", "osm_id": 5482393984, "osm_type": "node"}, "geometry": {"type": "Point", "coordinates": [75.8002081, 26.9182068]}}, {"type": "Feature", "properties": {"bus": "yes", "bus_routes": "14, 18", "highway": "bus_stop", "name": "Jothwara Pulia", "public_transport": "platform", "osm_id": 5482676844, "osm_type": "node"}, "geometry": {"type": "Point", "coordinates": [75.7623808, 26.9416594]}}, {"type": "Feature", "properties": {"bus": "yes", "highway": "bus_stop", "name:en": "ajmeri pulia", "public_transport": "platform", "osm_id": 6285691985, "osm_type": "node"}, "geometry": {"type": "Point", "coordinates": [75.7909439, 26.9139486]}}, {"type": "Feature", "properties": {"bus": "yes", "highway": "bus_stop", "name:en": "Gujarat Travels", "public_transport": "platform", "osm_id": 6285692885, "osm_type": "node"}, "geometry": {"type": "Point", "coordinates": [75.795611, 26.9212989]}}, {"type": "Feature", "properties": {"bus": "yes", "highway": "bus_stop", "name": "Shaheed Smarak", "public_transport": "platform", "osm_id": 6531980320, "osm_type": "node"}, "geometry": {"type": "Point", "coordinates": [75.8012368, 26.9175231]}}, {"type": "Feature", "properties": {"bus": "yes", "highway": "bus_stop", "name": "Sita Badi", "public_transport": "platform", "osm_id": 6726175022, "osm_type": "node"}, "geometry": {"type": "Point", "coordinates": [75.7941854, 26.8294815]}}, {"type": "Feature", "properties": {"bus": "yes", "highway": "bus_stop", "name": "Durgapura", "public_transport": "platform", "osm_id": 6876512280, "osm_type": "node"}, "geometry": {"type": "Point", "coordinates": [75.7941104, 26.8508651]}}, {"type": "Feature", "properties": {"bus": "yes", "highway": "bus_stop", "name": "Durgapura", "public_transport": "platform", "osm_id": 6876534944, "osm_type": "node"}, "geometry": {"type": "Point", "coordinates": [75.7943312, 26.8508262]}}, {"type": "Feature", "properties": {"bus": "yes", "bus_routes": "11", "highway": "bus_stop", "name": "Panchawala Pulia", "public_transport": "platform", "osm_id": 6968230703, "osm_type": "node"}, "geometry": {"type": "Point", "coordinates": [75.730597, 26.920953]}}, {"type": "Feature", "properties": {"bus": "yes", "departures_board": "no", "highway": "bus_stop", "name": "Gandhi path pulia", "public_transport": "platform", "shelter": "no", "osm_id": 6976242961, "osm_type": "node"}, "geometry": {"type": "Point", "coordinates": [75.7289947, 26.9056433]}}, {"type": "Feature", "properties": {"bus": "yes", "departures_board": "no", "highway": "bus_stop", "name": "Hirapura Puliya", "public_transport": "platform", "wikidata": "Q6124121", "wikipedia": "en:Jaipur City Transport Services Limited", "osm_id": 6976242963, "osm_type": "node"}, "geometry": {"type": "Point", "coordinates": [75.733884, 26.895145]}}, {"type": "Feature", "properties": {"bus": "yes", "highway": "bus_stop", "name": "Dharam Kanta", "public_transport": "platform", "osm_id": 6976242971, "osm_type": "node"}, "geometry": {"type": "Point", "coordinates": [75.743701, 26.8796142]}}, {"type": "Feature", "properties": {"bus": "yes", "bus_routes": "7, 32, AC 5", "highway": "bus_stop", "name": "Mansarovar Metro Station", "public_transport": "platform", "osm_id": 6976242973, "osm_type": "node"}, "geometry": {"type": "Point", "coordinates": [75.7496985, 26.8795876]}}, {"type": "Feature", "properties": {"bus": "yes", "bus_routes": "7, 32", "highway": "bus_stop", "name": "Mansarovar Metro Station", "public_transport": "platform", "osm_id": 6976242974, "osm_type": "node"}, "geometry": {"type": "Point", "coordinates": [75.7496303, 26.8793622]}}, {"type": "Feature", "properties": {"bus": "yes", "bus_routes": "7, 32", "highway": "bus_stop", "name": "Ganga Jamuna", "public_transport": "platform", "osm_id": 6976242975, "osm_type": "node"}, "geometry": {"type": "Point", "coordinates": [75.7574852, 26.8799991]}}, {"type": "Feature", "properties": {"bus": "yes", "bus_routes": "23, AC5", "highway": "bus_stop", "name": "Ganga Jamuna", "public_transport": "platform", "osm_id": 6976242976, "osm_type": "node"}, "geometry": {"type": "Point", "coordinates": [75.7577753, 26.8799455]}}, {"type": "Feature", "properties": {"bus": "yes", "bus_routes": "7, 23, 32, AC 5", "highway": "bus_stop", "name": "ganga jamuna", "public_transport": "platform", "osm_id": 6976242977, "osm_type": "node"}, "geometry": {"type": "Point", "coordinates": [75.761234, 26.8793672]}}, {"type": "Feature", "properties": {"bus": "yes", "bus_routes": "7, 32, 23, AC 5", "highway": "bus_stop", "name": "New aatish market metro station", "public_transport": "platform", "osm_id": 6976242978, "osm_type": "node"}, "geometry": {"type": "Point", "coordinates": [75.7652239, 26.8805737]}}, {"type": "Feature", "properties": {"bus": "yes", "bus_routes": "7, 32, 23, AC 5", "highway": "bus_stop", "name": "Param Hans Dham", "name:hi": "Riddhi siddhi circle bus stop", "public_transport": "platform", "osm_id": 6976242983, "osm_type": "node"}, "geometry": {"type": "Point", "coordinates": [75.7763159, 26.87398]}}, {"type": "Feature", "properties": {"bus": "yes", "bus_routes": "7, 32, 23, AC 5", "highway": "bus_stop", "name": "Nursing Home", "public_transport": "platform", "osm_id": 6976254787, "osm_type": "node"}, "geometry": {"type": "Point", "coordinates": [75.7808047, 26.871182]}}, {"type": "Feature", "properties": {"bus": "yes", "bus_routes": "7, 32, 23, AC 5", "highway": "bus_stop", "name": "Triveni Chauraha", "public_transport": "platform", "osm_id": 6976254789, "osm_type": "node"}, "geometry": {"type": "Point", "coordinates": [75.7840804, 26.868431]}}, {"type": "Feature", "properties": {"bus": "yes", "bus_routes": "3, 3A, 3B, 3C, 7, 9A, 11, 16, 23, 28, 32, AC 1, AC 2, AC 5,", "highway": "bus_stop", "name": "Gopalpura Mod", "public_transport": "platform", "osm_id": 6976254795, "osm_type": "node"}, "geometry": {"type": "Point", "coordinates": [75.7958578, 26.8626435]}}, {"type": "Feature", "properties": {"bus": "yes", "bus_routes": "3, 3A, 3B, 3C, 7, 9A, 11, 16, 23, 28, 32, AC 1, AC 2, AC 5, 27, AC 3", "highway": "bus_stop", "name": "Gopalpura mod", "public_transport": "platform", "osm_id": 6976254796, "osm_type": "node"}, "geometry": {"type": "Point", "coordinates": [75.7960839, 26.8641574]}}, {"type": "Feature", "properties": {"bus": "yes", "bus_routes": "3, 3A, 3B, 3C, 7, 9A, 11, 16, 23, 28, 32, AC 1, AC 2, AC 5, 27, AC3", "highway": "bus_stop", "name": "Gopalpura Mod", "public_transport": "platform", "osm_id": 6976254797, "osm_type": "node"}, "geometry": {"type": "Point", "coordinates": [75.7964033, 26.8650299]}}, {"type": "Feature", "properties": {"bus": "yes", "bus_routes": "3, 3A, 3B, 3C, 7, 9A, 11, 16, 23, 28, 32, AC 1, AC 2, AC 5, 27, AC3", "highway": "bus_stop", "name": "Gandhi Nagar Railway Station", "public_transport": "platform", "osm_id": 6976254798, "osm_type": "node"}, "geometry": {"type": "Point", "coordinates": [75.7973087, 26.8717995]}}, {"type": "Feature", "properties": {"bus": "yes", "bus_routes": "3, 3A, 3B, 3C, 7, 9A, 11, 16, 23, 28, 32, AC 1, AC 2, AC 5, 27, AC3", "highway": "bus_stop", "name": "Gandhi Nagar Railway Station", "public_transport": "platform", "osm_id": 6976254799, "osm_type": "node"}, "geometry": {"type": "Point", "coordinates": [75.7971889, 26.87174]}}, {"type": "Feature", "properties": {"bus": "yes", "bus_routes": "3, 3A, 3B, 3C, 6A, 7, 9A, 11, 16, 23, 28, 32, AC 1, AC 2, AC 5, 27, AC3, 13A", "highway": "bus_stop", "name": "Tonk Fatak", "public_transport": "platform", "osm_id": 6976254800, "osm_type": "node"}, "geometry": {"type": "Point", "coordinates": [75.7989073, 26.8794685]}}, {"type": "Feature", "properties": {"bus": "yes", "bus_routes": "3, 3A, 3B, 3C, 6A, 7, 9A, 11, 16, 23, 28, 32, AC 1, AC 2, AC 5, 27, AC3, 13A", "highway": "bus_stop", "name": "Tonk Fatak", "public_transport": "platform", "osm_id": 6976254801, "osm_type": "node"}, "geometry": {"type": "Point", "coordinates": [75.7990905, 26.8795752]}}, {"type": "Feature", "properties": {"bus": "yes", "bus_routes": "3, 3A, 3B, 3C, 6A, 7, 9A, 11, 16, 23, 28, 32, AC 1, AC 2, AC 5, 27, AC3, 13A", "highway": "bus_stop", "name": "Laxmi Mandir Tiraha", "public_transport": "platform", "osm_id": 6976254802, "osm_type": "node"}, "geometry": {"type": "Point", "coordinates": [75.7995794, 26.8811631]}}, {"type": "Feature", "properties": {"bus": "yes", "bus_routes": "3, 3A, 3B, 3C, 6A, 7, 9A, 11, 16, 23, 28, 32, AC 1, AC 2, AC 5, 27, AC3, 13A", "highway": "bus_stop", "name": "Laxmi Mandir Tiraha", "public_transport": "platform", "shelter": "yes", "osm_id": 6976254803, "osm_type": "node"}, "geometry": {"type": "Point", "coordinates": [75.7997038, 26.8811539]}}, {"type": "Feature", "properties": {"bus": "yes", "bus_routes": "3, 3A, 3B, 3C, 6A, 7, 9A, 11, 16, 23, 28, 32, AC 1, AC 2, AC 5, 27, AC3, 13A", "highway": "bus_stop", "name": "Nehru Palace", "public_transport": "platform", "osm_id": 6976254804, "osm_type": "node"}, "geometry": {"type": "Point", "coordinates": [75.8007607, 26.8835509]}}, {"type": "Feature", "properties": {"bus": "yes", "bus_routes": "3, 3A, 3B, 3C, 6A, 7, 9A, 11, 16, 23, 28, 32, AC 1, AC 2, AC 5, 27, AC3, 13A", "highway": "bus_stop", "name": "Nehru Garden", "public_transport": "platform", "osm_id": 6976254805, "osm_type": "node"}, "geometry": {"type": "Point", "coordinates": [75.8017054, 26.8851158]}}, {"type": "Feature", "properties": {"bus": "yes", "bus_routes": "3, 3A, 3B, 3C, 6A, 7, 9A, 11, 16, 23, 28, 32, AC 1, AC 2, AC 5, 27, AC3, 13A, 8A", "highway": "bus_stop", "name": "Gandhi Nagar Mod", "public_transport": "platform", "osm_id": 6976254806, "osm_type": "node"}, "geometry": {"type": "Point", "coordinates": [75.8027538, 26.8874749]}}, {"type": "Feature", "properties": {"bus": "yes", "bus_routes": "3, 3A, 3B, 3C, 6A, 7, 9A, 11, 16, 23, 28, 32, AC 1, AC 2, AC 5, 27, AC3, 13A, 8A", "highway": "bus_stop", "name": "Gandhi Nagar Mod", "public_transport": "platform", "osm_id": 6976254807, "osm_type": "node"}, "geometry": {"type": "Point", "coordinates": [75.8025794, 26.8868412]}}, {"type": "Feature", "properties": {"bus": "yes", "bus_routes": "3, 3A, 3B, 3C, 6A, 7, 9A, 11, 16, 23, 28, 32, AC 1, AC 2, AC 5, 27, AC3, 13A, 8A", "highway": "bus_stop", "name": "Nagar Nigam Lal kothi", "public_transport": "platform", "osm_id": 6976254808, "osm_type": "node"}, "geometry": {"type": "Point", "coordinates": [75.8060906, 26.8919108]}}, {"type": "Feature", "properties": {"bus": "yes", "bus_routes": "3, 3A, 3B, 3C, 6A, 7, 9A, 11, 16, 23, 28, 32, AC 1, AC 2, AC 5, 27, AC3, 13A, 8A", "highway": "bus_stop", "name": "Nagar Nigam Lal kothi", "public_transport": "platform", "osm_id": 6976254809, "osm_type": "node"}, "geometry": {"type": "Point", "coordinates": [75.8060242, 26.8916284]}}, {"type": "Feature", "properties": {"bus": "yes", "bus_routes": "3, 3A, 3B, 3C, 6A, 7, 9A, 11, 16, 23, 28, 32, AC 1, AC 2, AC 5, 27, AC3, 13A, 8A", "highway": "bus_stop", "name": "Rambagh Circle", "public_transport": "platform", "osm_id": 6976254810, "osm_type": "node"}, "geometry": {"type": "Point", "coordinates": [75.8084395, 26.8944404]}}, {"type": "Feature", "properties": {"bus": "yes", "bus_routes": "3, 3A, 3B, 3C, 6A, 7, 9A, 11, 16, 23, 28, 32, AC 1, AC 2, AC 5, 27, AC3, 13A, 8A", "highway": "bus_stop", "name": "Rambagh Circle", "public_transport": "platform", "osm_id": 6976254811, "osm_type": "node"}, "geometry": {"type": "Point", "coordinates": [75.8079616, 26.8941137]}}, {"type": "Feature", "properties": {"bus": "yes", "bus_routes": "10B, 14", "highway": "bus_stop", "name": "Rambagh Circle", "public_transport": "platform", "osm_id": 6976254812, "osm_type": "node"}, "geometry": {"type": "Point", "coordinates": [75.8076287, 26.8950009]}}, {"type": "Feature", "properties": {"bus": "yes", "bus_routes": "3, 3A, 3B, 3C, 6A, 7, 9A, 11, 16, 23, 28, 32, AC 1, AC 2, AC 5, 27, AC3, 13A, 8A, 14", "highway": "bus_stop", "name": "RBI", "public_transport": "platform", "osm_id": 6976254813, "osm_type": "node"}, "geometry": {"type": "Point", "coordinates": [75.8103258, 26.8969521]}}, {"type": "Feature", "properties": {"bus": "yes", "highway": "bus_stop", "name": "SMS hospital", "public_transport": "platform", "osm_id": 6976254819, "osm_type": "node"}, "geometry": {"type": "Point", "coordinates": [75.814687, 26.9051529]}}, {"type": "Feature", "properties": {"bus": "yes", "highway": "bus_stop", "name": "Maharani College", "public_transport": "platform", "osm_id": 6976254821, "osm_type": "node"}, "geometry": {"type": "Point", "coordinates": [75.815876, 26.9117553]}}, {"type": "Feature", "properties": {"bus": "yes", "bus_routes": "3, 3A, 3B, 27, 32, AC 1, AC 5", "highway": "bus_stop", "name": "Ajmeri Gate", "public_transport": "platform", "osm_id": 6976254823, "osm_type": "node"}, "geometry": {"type": "Point", "coordinates": [75.817055, 26.9161667]}}, {"type": "Feature", "properties": {"bus": "yes", "bus_routes": "7, 14, Mini 38", "highway": "bus_stop", "name": "Bajri Mandi", "public_transport": "platform", "wikidata": "Q6124121", "wikipedia": "en:Jaipur City Transport Services Limited", "osm_id": 6978725497, "osm_type": "node"}, "geometry": {"type": "Point", "coordinates": [75.7299855, 26.9150327]}}, {"type": "Feature", "properties": {"bus": "yes", "bus_routes": "11", "highway": "bus_stop", "name": "Panchawala", "public_transport": "platform", "osm_id": 6978725499, "osm_type": "node"}, "geometry": {"type": "Point", "coordinates": [75.726763, 26.9212936]}}, {"type": "Feature", "properties": {"bus": "yes", "bus_routes": "14,", "highway": "bus_stop", "name": "National Handloom", "public_transport": "platform", "osm_id": 6978725500, "osm_type": "node"}, "geometry": {"type": "Point", "coordinates": [75.7381254, 26.9146331]}}, {"type": "Feature", "properties": {"bus": "yes", "bus_routes": "7", "highway": "bus_stop", "name": "Teenmurti circle", "public_transport": "platform", "osm_id": 6978725502, "osm_type": "node"}, "geometry": {"type": "Point", "coordinates": [75.8167254, 26.898994]}}, {"type": "Feature", "properties": {"bus": "yes", "bus_routes": "7", "highway": "bus_stop", "name": "Teenmurti circle", "public_transport": "platform", "osm_id": 6978725503, "osm_type": "node"}, "geometry": {"type": "Point", "coordinates": [75.8167024, 26.8987582]}}, {"type": "Feature", "properties": {"bus": "yes", "bus_routes": "7", "highway": "bus_stop", "name": "Moti Dungri circle", "public_transport": "platform", "osm_id": 6978725504, "osm_type": "node"}, "geometry": {"type": "Point", "coordinates": [75.8195644, 26.8996848]}}, {"type": "Feature", "properties": {"bus": "yes", "bus_routes": "7", "highway": "bus_stop", "name": "Raja Park", "public_transport": "platform", "osm_id": 6978725505, "osm_type": "node"}, "geometry": {"type": "Point", "coordinates": [75.8271072, 26.8966396]}}, {"type": "Feature", "properties": {"bus": "yes", "bus_routes": "7, Mini 38", "highway": "bus_stop", "name": "Mental Hospital", "public_transport": "platform", "osm_id": 6978725507, "osm_type": "node"}, "geometry": {"type": "Point", "coordinates": [75.837072, 26.9029926]}}, {"type": "Feature", "properties": {"bus": "yes", "bus_routes": "14, 32, AC 5", "highway": "bus_stop", "name": "Transport Nagar", "public_transport": "platform", "osm_id": 6978725510, "osm_type": "node"}, "geometry": {"type": "Point", "coordinates": [75.8443328, 26.9045227]}}, {"type": "Feature", "properties": {"bus": "yes", "highway": "bus_stop", "name": "Ghat ki Guni Circle", "public_transport": "platform", "osm_id": 6978725512, "osm_type": "node"}, "geometry": {"type": "Point", "coordinates": [75.8437164, 26.9015405]}}, {"type": "Feature", "properties": {"bus": "yes", "bus_routes": "14, 32", "highway": "bus_stop", "name": "Dayal Hospital", "public_transport": "platform", "osm_id": 6978725515, "osm_type": "node"}, "geometry": {"type": "Point", "coordinates": [75.8678625, 26.8927562]}}, {"type": "Feature", "properties": {"bus": "yes", "bus_routes": "27", "highway": "bus_stop", "name": "Dayal Hospital", "public_transport": "platform", "osm_id": 6978725516, "osm_type": "node"}, "geometry": {"type": "Point", "coordinates": [75.866979, 26.8919996]}}, {"type": "Feature", "properties": {"bus": "yes", "bus_routes": "14, 32", "highway": "bus_stop", "name": "Kanota", "public_transport": "platform", "osm_id": 6978725517, "osm_type": "node"}, "geometry": {"type": "Point", "coordinates": [75.9492164, 26.8744243]}}, {"type": "Feature", "properties": {"bus": "yes", "bus_routes": "14, 32", "highway": "bus_stop", "name": "Kanota", "public_transport": "platform", "osm_id": 6978725518, "osm_type": "node"}, "geometry": {"type": "Point", "coordinates": [75.9488296, 26.8742569]}}, {"type": "Feature", "properties": {"bus": "yes", "bus_routes": "3, 14, 27, 32, AC 5, Mini 38", "highway": "bus_stop", "name": "Amratpuri", "public_transport": "platform", "osm_id": 6978725520, "osm_type": "node"}, "geometry": {"type": "Point", "coordinates": [75.8374766, 26.9097761]}}, {"type": "Feature", "properties": {"bus": "yes", "bus_routes": "3, 14, 27, 32, AC 5, Mini 38", "highway": "bus_stop", "name": "Ghat Darwaza", "public_transport": "platform", "osm_id": 6978725522, "osm_type": "node"}, "geometry": {"type": "Point", "coordinates": [75.8330205, 26.9134878]}}, {"type": "Feature", "properties": {"bus": "yes", "bus_routes": "14, 26, Mini 38", "highway": "bus_stop", "name": "Sodala Thana", "public_transport": "platform", "osm_id": 6978739446, "osm_type": "node"}, "geometry": {"type": "Point", "coordinates": [75.7744115, 26.9027246]}}, {"type": "Feature", "properties": {"bus": "yes", "bus_routes": "14, 26, Mini 38", "highway": "bus_stop", "name": "Sushilpura", "public_transport": "platform", "osm_id": 6978739447, "osm_type": "node"}, "geometry": {"type": "Point", "coordinates": [75.7654892, 26.8985199]}}, {"type": "Feature", "properties": {"bus": "yes", "bus_routes": "14, Mini 38", "highway": "bus_stop", "name": "Purani Chungi", "public_transport": "platform", "osm_id": 6978739450, "osm_type": "node"}, "geometry": {"type": "Point", "coordinates": [75.7588343, 26.8988405]}}, {"type": "Feature", "properties": {"bus": "yes", "bus_routes": "14, Mini 38", "highway": "bus_stop", "name": "Vijay Dwar", "public_transport": "platform", "osm_id": 6978739451, "osm_type": "node"}, "geometry": {"type": "Point", "coordinates": [75.752927, 26.9058332]}}, {"type": "Feature", "properties": {"bus": "yes", "bus_routes": "14, Mini 38, 18", "highway": "bus_stop", "name": "Gupta Store", "public_transport": "platform", "osm_id": 6978739453, "osm_type": "node"}, "geometry": {"type": "Point", "coordinates": [75.7436397, 26.9112084]}}, {"type": "Feature", "properties": {"bus": "yes", "bus_routes": "14, Mini 38", "highway": "bus_stop", "name": "Nursery Circle", "public_transport": "platform", "osm_id": 6978739454, "osm_type": "node"}, "geometry": {"type": "Point", "coordinates": [75.7390981, 26.9113676]}}, {"type": "Feature", "properties": {"bus": "yes", "highway": "bus_stop", "name": "Khatipura", "public_transport": "platform", "osm_id": 6979547396, "osm_type": "node"}, "geometry": {"type": "Point", "coordinates": [75.7486358, 26.9286957]}}, {"type": "Feature", "properties": {"bus": "yes", "bus_routes": "11", "highway": "bus_stop", "name": "Khatipura Mod", "public_transport": "platform", "osm_id": 6979547397, "osm_type": "node"}, "geometry": {"type": "Point", "coordinates": [75.745926, 26.9229131]}}, {"type": "Feature", "properties": {"bus": "yes", "bus_routes": "18", "highway": "bus_stop", "name": "Vaibhav tower", "public_transport": "platform", "osm_id": 6979547399, "osm_type": "node"}, "geometry": {"type": "Point", "coordinates": [75.743644, 26.9132866]}}, {"type": "Feature", "properties": {"bus": "yes", "bus_routes": "18", "highway": "bus_stop", "name": "Global hospital", "public_transport": "platform", "osm_id": 6979547400, "osm_type": "node"}, "geometry": {"type": "Point", "coordinates": [75.7390254, 26.9058326]}}, {"type": "Feature", "properties": {"bus": "yes", "bus_routes": "18", "highway": "bus_stop", "name": "Chitrakoot", "public_transport": "platform", "osm_id": 6979547401, "osm_type": "node"}, "geometry": {"type": "Point", "coordinates": [75.7390816, 26.8976342]}}, {"type": "Feature", "properties": {"bus": "yes", "bus_routes": "18", "highway": "bus_stop", "name": "Tagore Nagar", "public_transport": "platform", "osm_id": 6979547402, "osm_type": "node"}, "geometry": {"type": "Point", "coordinates": [75.7397435, 26.8928811]}}, {"type": "Feature", "properties": {"bus": "yes", "bus_routes": "18, 26", "highway": "bus_stop", "name": "Kamla Nehru", "public_transport": "platform", "osm_id": 6979547405, "osm_type": "node"}, "geometry": {"type": "Point", "coordinates": [75.7151958, 26.8776028]}}, {"type": "Feature", "properties": {"bus": "yes", "bus_routes": "32", "highway": "bus_stop", "name": "Narayan Vihar", "public_transport": "platform", "osm_id": 6979547406, "osm_type": "node"}, "geometry": {"type": "Point", "coordinates": [75.7170819, 26.8778513]}}, {"type": "Feature", "properties": {"bus": "yes", "bus_routes": "18, 26", "highway": "bus_stop", "name": "Keshrupura", "public_transport": "platform", "osm_id": 6979547407, "osm_type": "node"}, "geometry": {"type": "Point", "coordinates": [75.7099179, 26.8752026]}}, {"type": "Feature", "properties": {"bus": "yes", "bus_routes": "18, 26", "highway": "bus_stop", "name": "Bhankrota", "public_transport": "platform", "osm_id": 6979547408, "osm_type": "node"}, "geometry": {"type": "Point", "coordinates": [75.6941562, 26.8700908]}}, {"type": "Feature", "properties": {"bus": "yes", "bus_routes": "26", "highway": "bus_stop", "name": "Mahapura", "public_transport": "platform", "osm_id": 6979547409, "osm_type": "node"}, "geometry": {"type": "Point", "coordinates": [75.6610374, 26.8576463]}}, {"type": "Feature", "properties": {"bus": "yes", "highway": "bus_stop", "name": "Mahapura", "public_transport": "platform", "osm_id": 6979547410, "osm_type": "node"}, "geometry": {"type": "Point", "coordinates": [75.6616064, 26.8579596]}}, {"type": "Feature", "properties": {"bus": "yes", "bus_routes": "14, 10B, Mini 38", "highway": "bus_stop", "name": "High court circle", "public_transport": "platform", "osm_id": 6979547417, "osm_type": "node"}, "geometry": {"type": "Point", "coordinates": [75.8002444, 26.8986036]}}, {"type": "Feature", "properties": {"bus": "yes", "bus_routes": "10B", "highway": "bus_stop", "name": "JDA circle", "public_transport": "platform", "osm_id": 6979547418, "osm_type": "node"}, "geometry": {"type": "Point", "coordinates": [75.8137198, 26.8924446]}}, {"type": "Feature", "properties": {"bus": "yes", "bus_routes": "10B", "highway": "bus_stop", "name": "LBS College Mod", "public_transport": "platform", "osm_id": 6979547419, "osm_type": "node"}, "geometry": {"type": "Point", "coordinates": [75.8217713, 26.8892676]}}, {"type": "Feature", "properties": {"bus": "yes", "highway": "bus_stop", "name": "Chitrakoot stadium", "public_transport": "platform", "osm_id": 6980012967, "osm_type": "node"}, "geometry": {"type": "Point", "coordinates": [75.7300062, 26.9015977]}}, {"type": "Feature", "properties": {"bus": "yes", "highway": "bus_stop", "name": "Khatipura Mod", "public_transport": "platform", "osm_id": 7041913558, "osm_type": "node"}, "geometry": {"type": "Point", "coordinates": [75.744715, 26.9228574]}}, {"type": "Feature", "properties": {"bus": "yes", "bus_routes": "14, Mini 38", "highway": "bus_stop", "name": "Gautam Marg", "public_transport": "platform", "osm_id": 7041913559, "osm_type": "node"}, "geometry": {"type": "Point", "coordinates": [75.7428388, 26.9056287]}}, {"type": "Feature", "properties": {"bus": "yes", "highway": "bus_stop", "name": "Jagatpura jaipur", "public_transport": "platform", "shelter": "yes", "osm_id": 7048879932, "osm_type": "node"}, "geometry": {"type": "Point", "coordinates": [75.8348845, 26.835955]}}, {"type": "Feature", "properties": {"bus": "yes", "highway": "bus_stop", "name": "Bajri Mandi", "network": "JCTSL", "public_transport": "platform", "osm_id": 7069865244, "osm_type": "node"}, "geometry": {"type": "Point", "coordinates": [75.7294447, 26.9152529]}}, {"type": "Feature", "properties": {"bus": "yes", "highway": "bus_stop", "name": "Karni Palace", "network": "JCTSL", "public_transport": "platform", "osm_id": 7069865245, "osm_type": "node"}, "geometry": {"type": "Point", "coordinates": [75.7290402, 26.9112316]}}, {"type": "Feature", "properties": {"bus": "yes", "highway": "bus_stop", "name": "Gandhi Path Pulia", "network": "JCTSL", "public_transport": "platform", "osm_id": 7069865246, "osm_type": "node"}, "geometry": {"type": "Point", "coordinates": [75.7284148, 26.9056023]}}, {"type": "Feature", "properties": {"bus": "yes", "highway": "bus_stop", "name": "Dharam Kanta", "network": "JCTSL", "public_transport": "platform", "osm_id": 7069865247, "osm_type": "node"}, "geometry": {"type": "Point", "coordinates": [75.7438328, 26.8792463]}}, {"type": "Feature", "properties": {"bus": "yes", "highway": "bus_stop", "name": "Param Hans Dham", "network": "JCTSL", "public_transport": "platform", "osm_id": 7069865248, "osm_type": "node"}, "geometry": {"type": "Point", "coordinates": [75.7763259, 26.873737]}}, {"type": "Feature", "properties": {"bus": "yes", "highway": "bus_stop", "name": "Nursing Home", "public_transport": "platform", "osm_id": 7069865249, "osm_type": "node"}, "geometry": {"type": "Point", "coordinates": [75.7804698, 26.8712176]}}, {"type": "Feature", "properties": {"bus": "yes", "highway": "bus_stop", "name": "Triveni Chauraha", "public_transport": "platform", "osm_id": 7069865250, "osm_type": "node"}, "geometry": {"type": "Point", "coordinates": [75.7839204, 26.8683946]}}, {"type": "Feature", "properties": {"bus": "yes", "highway": "bus_stop", "name": "Gopalpura Mod", "public_transport": "platform", "osm_id": 7069865251, "osm_type": "node"}, "geometry": {"type": "Point", "coordinates": [75.7955857, 26.8624115]}}, {"type": "Feature", "properties": {"bus": "yes", "highway": "bus_stop", "name": "Mental Hospital", "public_transport": "platform", "osm_id": 7069865252, "osm_type": "node"}, "geometry": {"type": "Point", "coordinates": [75.8372395, 26.9028688]}}, {"type": "Feature", "properties": {"bus": "yes", "highway": "bus_stop", "name": "Bhankrota", "public_transport": "platform", "osm_id": 7083052883, "osm_type": "node"}, "geometry": {"type": "Point", "coordinates": [75.693588, 26.8701699]}}, {"type": "Feature", "properties": {"bus": "yes", "highway": "bus_stop", "name": "Keshrupura", "public_transport": "platform", "osm_id": 7083052884, "osm_type": "node"}, "geometry": {"type": "Point", "coordinates": [75.7104698, 26.8755645]}}, {"type": "Feature", "properties": {"bus": "yes", "highway": "bus_stop", "name": "Purani Chungi", "public_transport": "platform", "osm_id": 7083055189, "osm_type": "node"}, "geometry": {"type": "Point", "coordinates": [75.7564593, 26.8986253]}}, {"type": "Feature", "properties": {"bus": "yes", "highway": "bus_stop", "name": "Civil Lines Chauraha", "public_transport": "platform", "osm_id": 7083055210, "osm_type": "node"}, "geometry": {"type": "Point", "coordinates": [75.7874736, 26.9123142]}}, {"type": "Feature", "properties": {"bus": "yes", "highway": "bus_stop", "name": "Civil Lines Chauraha", "public_transport": "platform", "osm_id": 7083055211, "osm_type": "node"}, "geometry": {"type": "Point", "coordinates": [75.7874026, 26.9123768]}}, {"type": "Feature", "properties": {"bus": "yes", "check_date:shelter": "2023-10-25", "highway": "bus_stop", "name": "Shalimar", "public_transport": "platform", "shelter": "no", "osm_id": 7083055213, "osm_type": "node"}, "geometry": {"type": "Point", "coordinates": [75.7971825, 26.9155999]}}, {"type": "Feature", "properties": {"bus": "yes", "highway": "bus_stop", "name": "Chandpole", "public_transport": "platform", "osm_id": 7083055218, "osm_type": "node"}, "geometry": {"type": "Point", "coordinates": [75.807044, 26.9249077]}}, {"type": "Feature", "properties": {"bus": "yes", "highway": "bus_stop", "name": "Bus pour pushcar", "public_transport": "platform", "osm_id": 7177171785, "osm_type": "node"}, "geometry": {"type": "Point", "coordinates": [75.7989933, 26.92243]}}, {"type": "Feature", "properties": {"bus": "yes", "highway": "bus_stop", "name": "Bajaj Nagar Enclave", "public_transport": "platform", "osm_id": 7299085345, "osm_type": "node"}, "geometry": {"type": "Point", "coordinates": [75.800472, 26.8698145]}}, {"type": "Feature", "properties": {"bus": "yes", "highway": "bus_stop", "name": "Badi Chopad", "public_transport": "platform", "osm_id": 8035833208, "osm_type": "node"}, "geometry": {"type": "Point", "coordinates": [75.8274289, 26.9228801]}}, {"type": "Feature", "properties": {"bus": "yes", "highway": "bus_stop", "name": "Pratap Nagar", "public_transport": "platform", "osm_id": 8039144765, "osm_type": "node"}, "geometry": {"type": "Point", "coordinates": [75.8119057, 26.7991822]}}, {"type": "Feature", "properties": {"bus": "yes", "highway": "bus_stop", "name": "Pratap Nagar Sector 5", "public_transport": "platform", "osm_id": 8039144766, "osm_type": "node"}, "geometry": {"type": "Point", "coordinates": [75.8080001, 26.8041349]}}, {"type": "Feature", "properties": {"bus": "yes", "highway": "bus_stop", "name": "Pratap Nagar Sector 3", "public_transport": "platform", "osm_id": 8039144767, "osm_type": "node"}, "geometry": {"type": "Point", "coordinates": [75.8059222, 26.8070369]}}, {"type": "Feature", "properties": {"bus": "yes", "highway": "bus_stop", "name": "Goshala Shyopur Mod", "public_transport": "platform", "osm_id": 8039144769, "osm_type": "node"}, "geometry": {"type": "Point", "coordinates": [75.8027702, 26.811096]}}, {"type": "Feature", "properties": {"bus": "yes", "highway": "bus_stop", "name": "Goshala Shyopur Mod", "public_transport": "platform", "osm_id": 8039144770, "osm_type": "node"}, "geometry": {"type": "Point", "coordinates": [75.8029955, 26.810917]}}, {"type": "Feature", "properties": {"bus": "yes", "highway": "bus_stop", "name": "Shiv Nagar", "public_transport": "platform", "osm_id": 8039144776, "osm_type": "node"}, "geometry": {"type": "Point", "coordinates": [75.7998884, 26.815041]}}, {"type": "Feature", "properties": {"bus": "yes", "highway": "bus_stop", "name": "Sanganer Police Station", "public_transport": "platform", "osm_id": 8039165387, "osm_type": "node"}, "geometry": {"type": "Point", "coordinates": [75.7967733, 26.8193486]}}, {"type": "Feature", "properties": {"bus": "yes", "highway": "bus_stop", "name": "Taron ki Koot", "public_transport": "platform", "osm_id": 8039165426, "osm_type": "node"}, "geometry": {"type": "Point", "coordinates": [75.7938934, 26.8366638]}}, {"type": "Feature", "properties": {"bus": "yes", "highway": "bus_stop", "name": "New Gate Circle", "public_transport": "platform", "osm_id": 8039165440, "osm_type": "node"}, "geometry": {"type": "Point", "coordinates": [75.820333, 26.916051]}}, {"type": "Feature", "properties": {"bus": "yes", "highway": "bus_stop", "name": "New Gate Circle", "public_transport": "platform", "osm_id": 8039165441, "osm_type": "node"}, "geometry": {"type": "Point", "coordinates": [75.8208977, 26.9158205]}}, {"type": "Feature", "properties": {"bus": "yes", "highway": "bus_stop", "public_transport": "platform", "osm_id": 8039165456, "osm_type": "node"}, "geometry": {"type": "Point", "coordinates": [75.8269836, 26.9227816]}}, {"type": "Feature", "properties": {"bus": "yes", "highway": "bus_stop", "name": "Saganer Low Floor Bus Stop", "public_transport": "platform", "osm_id": 8039924145, "osm_type": "node"}, "geometry": {"type": "Point", "coordinates": [75.784094, 26.8156829]}}, {"type": "Feature", "properties": {"bus": "yes", "highway": "bus_stop", "name": "Sanganer Stadium", "public_transport": "platform", "osm_id": 8039924155, "osm_type": "node"}, "geometry": {"type": "Point", "coordinates": [75.7837371, 26.8187694]}}, {"type": "Feature", "properties": {"bus": "yes", "highway": "bus_stop", "name": "Tripolia Gate", "public_transport": "platform", "osm_id": 8039924156, "osm_type": "node"}, "geometry": {"type": "Point", "coordinates": [75.8231508, 26.9237773]}}, {"type": "Feature", "properties": {"bus": "yes", "highway": "bus_stop", "name": "Tripolia Gate", "public_transport": "platform", "osm_id": 8039924157, "osm_type": "node"}, "geometry": {"type": "Point", "coordinates": [75.8223385, 26.923847]}}, {"type": "Feature", "properties": {"bus": "yes", "highway": "bus_stop", "name": "Pratap Nagar Sector 10", "public_transport": "platform", "osm_id": 8039986516, "osm_type": "node"}, "geometry": {"type": "Point", "coordinates": [75.8180789, 26.799504]}}, {"type": "Feature", "properties": {"bus": "yes", "highway": "bus_stop", "name": "Pratap Nagar Sector 10", "public_transport": "platform", "osm_id": 8039986518, "osm_type": "node"}, "geometry": {"type": "Point", "coordinates": [75.8176253, 26.7990953]}}, {"type": "Feature", "properties": {"bus": "yes", "highway": "bus_stop", "name": "Sanganer Community Center", "public_transport": "platform", "osm_id": 8039986520, "osm_type": "node"}, "geometry": {"type": "Point", "coordinates": [75.8214052, 26.7997003]}}, {"type": "Feature", "properties": {"bus": "yes", "highway": "bus_stop", "name": "Pratap Nagar Sector 16", "public_transport": "platform", "osm_id": 8039986526, "osm_type": "node"}, "geometry": {"type": "Point", "coordinates": [75.8300597, 26.8041732]}}, {"type": "Feature", "properties": {"bus": "yes", "highway": "bus_stop", "name": "NRI Circle", "public_transport": "platform", "osm_id": 8039986527, "osm_type": "node"}, "geometry": {"type": "Point", "coordinates": [75.8358345, 26.8071459]}}, {"type": "Feature", "properties": {"bus": "yes", "highway": "bus_stop", "public_transport": "platform", "osm_id": 8039986528, "osm_type": "node"}, "geometry": {"type": "Point", "coordinates": [75.8357989, 26.8069931]}}, {"type": "Feature", "properties": {"bus": "yes", "highway": "bus_stop", "name": "Dwarka Puri", "public_transport": "platform", "osm_id": 8039986529, "osm_type": "node"}, "geometry": {"type": "Point", "coordinates": [75.8397962, 26.8009976]}}, {"type": "Feature", "properties": {"bus": "yes", "highway": "bus_stop", "name": "Dwarkapuri", "public_transport": "platform", "osm_id": 8039986530, "osm_type": "node"}, "geometry": {"type": "Point", "coordinates": [75.8396802, 26.8010011]}}, {"type": "Feature", "properties": {"bus": "yes", "highway": "bus_stop", "name": "Todi", "public_transport": "platform", "shelter": "no", "osm_id": 8041563554, "osm_type": "node"}, "geometry": {"type": "Point", "coordinates": [75.7687892, 27.0289388]}}, {"type": "Feature", "properties": {"bus": "yes", "highway": "bus_stop", "name": "Todi Bheem", "public_transport": "platform", "shelter": "no", "osm_id": 8041563555, "osm_type": "node"}, "geometry": {"type": "Point", "coordinates": [75.7689264, 27.028728]}}, {"type": "Feature", "properties": {"bus": "yes", "highway": "bus_stop", "name": "Harmada", "public_transport": "platform", "osm_id": 8041563556, "osm_type": "node"}, "geometry": {"type": "Point", "coordinates": [75.7692983, 27.0153956]}}, {"type": "Feature", "properties": {"bus": "yes", "highway": "bus_stop", "name": "Nindar mod", "public_transport": "platform", "osm_id": 8041563561, "osm_type": "node"}, "geometry": {"type": "Point", "coordinates": [75.7692418, 27.0120211]}}, {"type": "Feature", "properties": {"bus": "yes", "highway": "bus_stop", "name": "Nindar mod", "public_transport": "platform", "osm_id": 8041563562, "osm_type": "node"}, "geometry": {"type": "Point", "coordinates": [75.7693344, 27.0118587]}}, {"type": "Feature", "properties": {"bus": "yes", "highway": "bus_stop", "name": "Jodla", "public_transport": "platform", "osm_id": 8041563564, "osm_type": "node"}, "geometry": {"type": "Point", "coordinates": [75.7705125, 27.0063058]}}, {"type": "Feature", "properties": {"bus": "yes", "highway": "bus_stop", "name": "Jodrla", "public_transport": "platform", "osm_id": 8041563565, "osm_type": "node"}, "geometry": {"type": "Point", "coordinates": [75.770602, 27.0061599]}}, {"type": "Feature", "properties": {"bus": "yes", "highway": "bus_stop", "name": "Road Number 14", "public_transport": "platform", "osm_id": 8041563582, "osm_type": "node"}, "geometry": {"type": "Point", "coordinates": [75.7708979, 26.9971457]}}, {"type": "Feature", "properties": {"bus": "yes", "highway": "bus_stop", "name": "14 Number", "public_transport": "platform", "osm_id": 8041563583, "osm_type": "node"}, "geometry": {"type": "Point", "coordinates": [75.7706076, 26.9973991]}}, {"type": "Feature", "properties": {"bus": "yes", "highway": "bus_stop", "name": "12 Number", "public_transport": "platform", "osm_id": 8041577919, "osm_type": "node"}, "geometry": {"type": "Point", "coordinates": [75.7722917, 26.9920287]}}, {"type": "Feature", "properties": {"bus": "yes", "highway": "bus_stop", "name": "Road Number 12", "public_transport": "platform", "osm_id": 8041577920, "osm_type": "node"}, "geometry": {"type": "Point", "coordinates": [75.7719769, 26.9924901]}}, {"type": "Feature", "properties": {"bus": "yes", "highway": "bus_stop", "name": "9 Number", "public_transport": "platform", "osm_id": 8041578131, "osm_type": "node"}, "geometry": {"type": "Point", "coordinates": [75.7730561, 26.9871014]}}, {"type": "Feature", "properties": {"bus": "yes", "highway": "bus_stop", "name": "9 Number", "public_transport": "platform", "osm_id": 8041578132, "osm_type": "node"}, "geometry": {"type": "Point", "coordinates": [75.7732947, 26.9867976]}}, {"type": "Feature", "properties": {"bus": "yes", "highway": "bus_stop", "name": "8 Number", "public_transport": "platform", "shelter": "yes", "osm_id": 8041578134, "osm_type": "node"}, "geometry": {"type": "Point", "coordinates": [75.7741996, 26.9830998]}}, {"type": "Feature", "properties": {"bus": "yes", "highway": "bus_stop", "name": "8 Number", "public_transport": "platform", "shelter": "yes", "osm_id": 8041578135, "osm_type": "node"}, "geometry": {"type": "Point", "coordinates": [75.774146, 26.982519]}}, {"type": "Feature", "properties": {"bus": "yes", "highway": "bus_stop", "name": "6 Number", "public_transport": "platform", "shelter": "yes", "osm_id": 8041972715, "osm_type": "node"}, "geometry": {"type": "Point", "coordinates": [75.7741427, 26.9794231]}}, {"type": "Feature", "properties": {"bus": "yes", "highway": "bus_stop", "name": "6 Number", "public_transport": "platform", "shelter": "yes", "osm_id": 8041972716, "osm_type": "node"}, "geometry": {"type": "Point", "coordinates": [75.7737455, 26.9790145]}}, {"type": "Feature", "properties": {"bus": "yes", "highway": "bus_stop", "name": "2 Number", "public_transport": "platform", "osm_id": 8041972747, "osm_type": "node"}, "geometry": {"type": "Point", "coordinates": [75.7723269, 26.9747022]}}, {"type": "Feature", "properties": {"bus": "yes", "highway": "bus_stop", "name": "2 Number", "public_transport": "platform", "osm_id": 8041972748, "osm_type": "node"}, "geometry": {"type": "Point", "coordinates": [75.7721469, 26.9743134]}}, {"type": "Feature", "properties": {"bus": "yes", "highway": "bus_stop", "name": "1 Number", "public_transport": "platform", "osm_id": 8041972749, "osm_type": "node"}, "geometry": {"type": "Point", "coordinates": [75.7724771, 26.9712097]}}, {"type": "Feature", "properties": {"bus": "yes", "highway": "bus_stop", "name": "1 Number", "public_transport": "platform", "osm_id": 8041972750, "osm_type": "node"}, "geometry": {"type": "Point", "coordinates": [75.7722951, 26.9705377]}}, {"type": "Feature", "properties": {"bus": "yes", "highway": "bus_stop", "name": "9 Number (Alka Cinema )", "public_transport": "platform", "osm_id": 8041984308, "osm_type": "node"}, "geometry": {"type": "Point", "coordinates": [75.7724744, 26.9668494]}}, {"type": "Feature", "properties": {"bus": "yes", "highway": "bus_stop", "name": "Alka Cinema", "public_transport": "platform", "osm_id": 8041984309, "osm_type": "node"}, "geometry": {"type": "Point", "coordinates": [75.7721204, 26.965996]}}, {"type": "Feature", "properties": {"bus": "yes", "highway": "bus_stop", "name": "Vidhyadhar Nagar Depot", "public_transport": "platform", "osm_id": 8041984333, "osm_type": "node"}, "geometry": {"type": "Point", "coordinates": [75.7717623, 26.9622821]}}, {"type": "Feature", "properties": {"bus": "yes", "highway": "bus_stop", "name": "Vidhyadhar Nagar Depot", "public_transport": "platform", "osm_id": 8041984334, "osm_type": "node"}, "geometry": {"type": "Point", "coordinates": [75.7715479, 26.9621395]}}, {"type": "Feature", "properties": {"bus": "yes", "highway": "bus_stop", "name": "Khetan Hospital", "public_transport": "platform", "osm_id": 8041984339, "osm_type": "node"}, "geometry": {"type": "Point", "coordinates": [75.7715799, 26.9594528]}}, {"type": "Feature", "properties": {"bus": "yes", "highway": "bus_stop", "name": "Khetan Hospital", "public_transport": "platform", "osm_id": 8041984340, "osm_type": "node"}, "geometry": {"type": "Point", "coordinates": [75.7713707, 26.958983]}}, {"type": "Feature", "properties": {"bus": "yes", "highway": "bus_stop", "name": "Dher Ke Balaji", "public_transport": "platform", "shelter": "yes", "osm_id": 8041984341, "osm_type": "node"}, "geometry": {"type": "Point", "coordinates": [75.7715061, 26.9515487]}}, {"type": "Feature", "properties": {"bus": "yes", "highway": "bus_stop", "name": "Bhavani Niketan", "public_transport": "platform", "shelter": "yes", "osm_id": 8041984344, "osm_type": "node"}, "geometry": {"type": "Point", "coordinates": [75.7733175, 26.9467387]}}, {"type": "Feature", "properties": {"bus": "yes", "highway": "bus_stop", "name": "Bhavani Niketan", "public_transport": "platform", "shelter": "yes", "osm_id": 8041984345, "osm_type": "node"}, "geometry": {"type": "Point", "coordinates": [75.7731795, 26.9456465]}}, {"type": "Feature", "properties": {"bus": "yes", "highway": "bus_stop", "name": "Chomu Puliya", "public_transport": "platform", "osm_id": 8041984346, "osm_type": "node"}, "geometry": {"type": "Point", "coordinates": [75.7743042, 26.9402863]}}, {"type": "Feature", "properties": {"bus": "yes", "highway": "bus_stop", "name": "Chomu Pulia", "public_transport": "platform", "osm_id": 8041984347, "osm_type": "node"}, "geometry": {"type": "Point", "coordinates": [75.7736314, 26.9405257]}}, {"type": "Feature", "properties": {"bus": "yes", "highway": "bus_stop", "name": "Ambabadi", "public_transport": "platform", "osm_id": 8041984348, "osm_type": "node"}, "geometry": {"type": "Point", "coordinates": [75.778046, 26.939754]}}, {"type": "Feature", "properties": {"bus": "yes", "highway": "bus_stop", "name": "Ambabadi", "public_transport": "platform", "osm_id": 8041984350, "osm_type": "node"}, "geometry": {"type": "Point", "coordinates": [75.7771989, 26.9400444]}}, {"type": "Feature", "properties": {"bus": "yes", "highway": "bus_stop", "name": "Panipech", "public_transport": "platform", "osm_id": 8041984383, "osm_type": "node"}, "geometry": {"type": "Point", "coordinates": [75.7879767, 26.938584]}}, {"type": "Feature", "properties": {"bus": "yes", "highway": "bus_stop", "name": "Panipech", "public_transport": "platform", "osm_id": 8041984384, "osm_type": "node"}, "geometry": {"type": "Point", "coordinates": [75.7877577, 26.9386014]}}, {"type": "Feature", "properties": {"bus": "yes", "highway": "bus_stop", "name": "City Plaza", "public_transport": "platform", "osm_id": 8041984446, "osm_type": "node"}, "geometry": {"type": "Point", "coordinates": [75.7926306, 26.9356339]}}, {"type": "Feature", "properties": {"bus": "yes", "highway": "bus_stop", "name": "City Plaza", "public_transport": "platform", "osm_id": 8041984447, "osm_type": "node"}, "geometry": {"type": "Point", "coordinates": [75.7921574, 26.9358176]}}, {"type": "Feature", "properties": {"bus": "yes", "highway": "bus_stop", "name": "Pital Factory", "public_transport": "platform", "osm_id": 8041984478, "osm_type": "node"}, "geometry": {"type": "Point", "coordinates": [75.7975489, 26.9328943]}}, {"type": "Feature", "properties": {"bus": "yes", "highway": "bus_stop", "name": "Pital Factory", "public_transport": "platform", "osm_id": 8041984479, "osm_type": "node"}, "geometry": {"type": "Point", "coordinates": [75.7969822, 26.9330601]}}, {"type": "Feature", "properties": {"bus": "yes", "highway": "bus_stop", "name": "Power House", "public_transport": "platform", "osm_id": 8041984481, "osm_type": "node"}, "geometry": {"type": "Point", "coordinates": [75.8015415, 26.9306029]}}, {"type": "Feature", "properties": {"bus": "yes", "highway": "bus_stop", "name": "Kanti Nagar", "public_transport": "platform", "osm_id": 8041984482, "osm_type": "node"}, "geometry": {"type": "Point", "coordinates": [75.8037171, 26.9290045]}}, {"type": "Feature", "properties": {"bus": "yes", "highway": "bus_stop", "name": "Kanti Nagar , Jaipur", "public_transport": "platform", "osm_id": 8041984483, "osm_type": "node"}, "geometry": {"type": "Point", "coordinates": [75.8038897, 26.9287779]}}, {"type": "Feature", "properties": {"bus": "yes", "highway": "bus_stop", "name": "Chandpole", "public_transport": "platform", "osm_id": 8042126718, "osm_type": "node"}, "geometry": {"type": "Point", "coordinates": [75.8091334, 26.9266796]}}, {"type": "Feature", "properties": {"bus": "yes", "highway": "bus_stop", "name": "Ramganj", "public_transport": "platform", "osm_id": 8042126719, "osm_type": "node"}, "geometry": {"type": "Point", "coordinates": [75.8344956, 26.9213335]}}, {"type": "Feature", "properties": {"bus": "yes", "highway": "bus_stop", "name": "Ramganj", "public_transport": "platform", "osm_id": 8042126720, "osm_type": "node"}, "geometry": {"type": "Point", "coordinates": [75.8342678, 26.9213064]}}, {"type": "Feature", "properties": {"bus": "yes", "highway": "bus_stop", "name": "Surajpole Gate", "public_transport": "platform", "osm_id": 8042126721, "osm_type": "node"}, "geometry": {"type": "Point", "coordinates": [75.8444703, 26.9192175]}}, {"type": "Feature", "properties": {"bus": "yes", "highway": "bus_stop", "name": "Galta Gate", "public_transport": "platform", "osm_id": 8042166840, "osm_type": "node"}, "geometry": {"type": "Point", "coordinates": [75.8487008, 26.9183395]}}, {"type": "Feature", "properties": {"bus": "yes", "highway": "bus_stop", "name": "Pannadhaya Circle", "public_transport": "platform", "osm_id": 8043763852, "osm_type": "node"}, "geometry": {"type": "Point", "coordinates": [75.8216537, 26.8070339]}}, {"type": "Feature", "properties": {"bus": "yes", "highway": "bus_stop", "name": "Pannadhaya Circle", "public_transport": "platform", "osm_id": 8043763853, "osm_type": "node"}, "geometry": {"type": "Point", "coordinates": [75.8218614, 26.8069656]}}, {"type": "Feature", "properties": {"bus": "yes", "highway": "bus_stop", "name": "Shoupur", "public_transport": "platform", "osm_id": 8043763873, "osm_type": "node"}, "geometry": {"type": "Point", "coordinates": [75.8151593, 26.808133]}}, {"type": "Feature", "properties": {"bus": "yes", "highway": "bus_stop", "name": "Chandi ki Taksal", "public_transport": "platform", "osm_id": 8043797908, "osm_type": "node"}, "geometry": {"type": "Point", "coordinates": [75.8282641, 26.9283191]}}, {"type": "Feature", "properties": {"bus": "yes", "highway": "bus_stop", "public_transport": "platform", "osm_id": 8043797909, "osm_type": "node"}, "geometry": {"type": "Point", "coordinates": [75.8283541, 26.9282981]}}, {"type": "Feature", "properties": {"bus": "yes", "highway": "bus_stop", "name": "Subhash Chowk", "public_transport": "platform", "osm_id": 8043797914, "osm_type": "node"}, "geometry": {"type": "Point", "coordinates": [75.8306444, 26.929438]}}, {"type": "Feature", "properties": {"bus": "yes", "highway": "bus_stop", "name": "Subhash Chowk", "public_transport": "platform", "osm_id": 8043797915, "osm_type": "node"}, "geometry": {"type": "Point", "coordinates": [75.8309236, 26.9292783]}}, {"type": "Feature", "properties": {"bus": "yes", "highway": "bus_stop", "name": "Joravar Singh Gate", "public_transport": "platform", "osm_id": 8043797916, "osm_type": "node"}, "geometry": {"type": "Point", "coordinates": [75.833265, 26.9346259]}}, {"type": "Feature", "properties": {"bus": "yes", "highway": "bus_stop", "name": "Govind Nagar", "public_transport": "platform", "shelter": "no", "osm_id": 8043797918, "osm_type": "node"}, "geometry": {"type": "Point", "coordinates": [75.8370487, 26.9394182]}}, {"type": "Feature", "properties": {"bus": "yes", "highway": "bus_stop", "name": "Govind Nagar", "public_transport": "platform", "osm_id": 8043797919, "osm_type": "node"}, "geometry": {"type": "Point", "coordinates": [75.8374986, 26.9401121]}}, {"type": "Feature", "properties": {"bus": "yes", "highway": "bus_stop", "name": "Ramgarh Mod", "public_transport": "platform", "osm_id": 8043797921, "osm_type": "node"}, "geometry": {"type": "Point", "coordinates": [75.8396035, 26.9440494]}}, {"type": "Feature", "properties": {"bus": "yes", "highway": "bus_stop", "name": "Jal Mahal Bus Stop , Jaipur", "public_transport": "platform", "osm_id": 8043890744, "osm_type": "node"}, "geometry": {"type": "Point", "coordinates": [75.8421694, 26.9536509]}}, {"type": "Feature", "properties": {"bus": "yes", "highway": "bus_stop", "name": "Jal  Mahal Bus Stop , Jaipur", "public_transport": "platform", "osm_id": 8043890745, "osm_type": "node"}, "geometry": {"type": "Point", "coordinates": [75.842333, 26.9536728]}}, {"type": "Feature", "properties": {"bus": "yes", "highway": "bus_stop", "name": "Shahpura Bagh", "public_transport": "platform", "osm_id": 8043890746, "osm_type": "node"}, "geometry": {"type": "Point", "coordinates": [75.8429955, 26.9561131]}}, {"type": "Feature", "properties": {"bus": "yes", "highway": "bus_stop", "name": "Shahpura Bagh near Jal Mahal , Jaipur", "public_transport": "platform", "osm_id": 8043890747, "osm_type": "node"}, "geometry": {"type": "Point", "coordinates": [75.8432686, 26.9564553]}}, {"type": "Feature", "properties": {"bus": "yes", "highway": "bus_stop", "name": "Air Force School near Jal Mahal , Jaipur", "public_transport": "platform", "osm_id": 8043890758, "osm_type": "node"}, "geometry": {"type": "Point", "coordinates": [75.8448872, 26.9604462]}}, {"type": "Feature", "properties": {"bus": "yes", "highway": "bus_stop", "name": "Air Force School , Jaipur", "public_transport": "platform", "osm_id": 8043890759, "osm_type": "node"}, "geometry": {"type": "Point", "coordinates": [75.8452833, 26.961207]}}, {"type": "Feature", "properties": {"bus": "yes", "highway": "bus_stop", "name": "Kholeshwar Mahadev Temple", "public_transport": "platform", "osm_id": 8043906190, "osm_type": "node"}, "geometry": {"type": "Point", "coordinates": [75.8511864, 26.9756383]}}, {"type": "Feature", "properties": {"bus": "yes", "highway": "bus_stop", "name": "Amer Fort", "public_transport": "platform", "osm_id": 8043906202, "osm_type": "node"}, "geometry": {"type": "Point", "coordinates": [75.8539676, 26.9854705]}}, {"type": "Feature", "properties": {"bus": "yes", "highway": "bus_stop", "name": "Gandhi Chowk", "public_transport": "platform", "osm_id": 8043906204, "osm_type": "node"}, "geometry": {"type": "Point", "coordinates": [75.8552991, 26.9882503]}}, {"type": "Feature", "properties": {"bus": "yes", "highway": "bus_stop", "name": "Amer", "public_transport": "platform", "osm_id": 8043906205, "osm_type": "node"}, "geometry": {"type": "Point", "coordinates": [75.8594847, 26.9885137]}}, {"type": "Feature", "properties": {"bus": "yes", "highway": "bus_stop", "name": "Amer Stadium", "public_transport": "platform", "osm_id": 8043906215, "osm_type": "node"}, "geometry": {"type": "Point", "coordinates": [75.8653511, 26.9906158]}}, {"type": "Feature", "properties": {"bus": "yes", "highway": "bus_stop", "name": "Narad Ka Bagh", "public_transport": "platform", "osm_id": 8043906216, "osm_type": "node"}, "geometry": {"type": "Point", "coordinates": [75.8722243, 26.9919088]}}, {"type": "Feature", "properties": {"bus": "yes", "highway": "bus_stop", "name": "Kunda", "public_transport": "platform", "osm_id": 8043906219, "osm_type": "node"}, "geometry": {"type": "Point", "coordinates": [75.8760978, 26.9955477]}}, {"type": "Feature", "properties": {"bus": "yes", "highway": "bus_stop", "public_transport": "platform", "osm_id": 8043906220, "osm_type": "node"}, "geometry": {"type": "Point", "coordinates": [75.876394, 26.9960159]}}, {"type": "Feature", "properties": {"bus": "yes", "highway": "bus_stop", "name": "Mahatma Gandhi Hospital", "public_transport": "platform", "osm_id": 8044543700, "osm_type": "node"}, "geometry": {"type": "Point", "coordinates": [75.8528192, 26.7705364]}}, {"type": "Feature", "properties": {"bus": "yes", "highway": "bus_stop", "name": "Mahatma Gandhi Hospital", "public_transport": "platform", "osm_id": 8044543701, "osm_type": "node"}, "geometry": {"type": "Point", "coordinates": [75.8528822, 26.7701631]}}, {"type": "Feature", "properties": {"bus": "yes", "highway": "bus_stop", "name": "Poornima College", "public_transport": "platform", "osm_id": 8044543739, "osm_type": "node"}, "geometry": {"type": "Point", "coordinates": [75.8491165, 26.7691355]}}, {"type": "Feature", "properties": {"bus": "yes", "highway": "bus_stop", "name": "Poornima College", "public_transport": "platform", "osm_id": 8044543740, "osm_type": "node"}, "geometry": {"type": "Point", "coordinates": [75.8486118, 26.7694385]}}, {"type": "Feature", "properties": {"bus": "yes", "highway": "bus_stop", "name": "Goner Fatak", "public_transport": "platform", "osm_id": 8044543741, "osm_type": "node"}, "geometry": {"type": "Point", "coordinates": [75.8463412, 26.7694033]}}, {"type": "Feature", "properties": {"bus": "yes", "highway": "bus_stop", "name": "Goner Fatak", "public_transport": "platform", "osm_id": 8044543742, "osm_type": "node"}, "geometry": {"type": "Point", "coordinates": [75.8461984, 26.7694596]}}, {"type": "Feature", "properties": {"bus": "yes", "highway": "bus_stop", "name": "Chatrala Circle", "public_transport": "platform", "osm_id": 8044543750, "osm_type": "node"}, "geometry": {"type": "Point", "coordinates": [75.8413744, 26.779232]}}, {"type": "Feature", "properties": {"bus": "yes", "highway": "bus_stop", "name": "Chatrala Circle", "public_transport": "platform", "osm_id": 8044543751, "osm_type": "node"}, "geometry": {"type": "Point", "coordinates": [75.8413215, 26.7793234]}}, {"type": "Feature", "properties": {"bus": "yes", "highway": "bus_stop", "name": "Genpact Sitapura", "public_transport": "platform", "osm_id": 8044543828, "osm_type": "node"}, "geometry": {"type": "Point", "coordinates": [75.838761, 26.7796933]}}, {"type": "Feature", "properties": {"bus": "yes", "highway": "bus_stop", "name": "Genpact Sitapura", "public_transport": "platform", "osm_id": 8044543829, "osm_type": "node"}, "geometry": {"type": "Point", "coordinates": [75.8385229, 26.7796503]}}, {"type": "Feature", "properties": {"bus": "yes", "highway": "bus_stop", "name": "JECC - Sitapura Circle", "public_transport": "platform", "osm_id": 8044543836, "osm_type": "node"}, "geometry": {"type": "Point", "coordinates": [75.827764, 26.7840437]}}, {"type": "Feature", "properties": {"bus": "yes", "highway": "bus_stop", "name": "JECC - Sitapura Circle", "public_transport": "platform", "osm_id": 8044543837, "osm_type": "node"}, "geometry": {"type": "Point", "coordinates": [75.8280207, 26.7839934]}}, {"type": "Feature", "properties": {"bus": "yes", "highway": "bus_stop", "name": "Global Circle Sitapura", "public_transport": "platform", "osm_id": 8044543849, "osm_type": "node"}, "geometry": {"type": "Point", "coordinates": [75.8257715, 26.7879139]}}, {"type": "Feature", "properties": {"bus": "yes", "highway": "bus_stop", "name": "Global Circle Sitapura", "public_transport": "platform", "osm_id": 8044543850, "osm_type": "node"}, "geometry": {"type": "Point", "coordinates": [75.8258822, 26.7880754]}}, {"type": "Feature", "properties": {"bus": "yes", "highway": "bus_stop", "name": "India Gate - Sitapura", "public_transport": "platform", "osm_id": 8044543851, "osm_type": "node"}, "geometry": {"type": "Point", "coordinates": [75.8229304, 26.7855739]}}, {"type": "Feature", "properties": {"bus": "yes", "highway": "bus_stop", "name": "India Gate - Sitapura", "public_transport": "platform", "osm_id": 8044543852, "osm_type": "node"}, "geometry": {"type": "Point", "coordinates": [75.8228166, 26.7857162]}}, {"type": "Feature", "properties": {"bus": "yes", "highway": "bus_stop", "name": "Shatabdi Nagar", "public_transport": "platform", "osm_id": 8044658505, "osm_type": "node"}, "geometry": {"type": "Point", "coordinates": [75.8181137, 26.7909789]}}, {"type": "Feature", "properties": {"bus": "yes", "highway": "bus_stop", "name": "Shatabdi Nagar", "public_transport": "platform", "osm_id": 8044658506, "osm_type": "node"}, "geometry": {"type": "Point", "coordinates": [75.8177594, 26.7912103]}}, {"type": "Feature", "properties": {"bus": "yes", "highway": "bus_stop", "name": "Kumbha Marg", "public_transport": "platform", "osm_id": 8044658507, "osm_type": "node"}, "geometry": {"type": "Point", "coordinates": [75.8134022, 26.7969977]}}, {"type": "Feature", "properties": {"bus": "yes", "highway": "bus_stop", "name": "Airport", "network": "6A", "public_transport": "platform", "osm_id": 8058815237, "osm_type": "node"}, "geometry": {"type": "Point", "coordinates": [75.8053225, 26.8299754]}}, {"type": "Feature", "properties": {"bus": "yes", "highway": "bus_stop", "name": "Jawahar Circle", "public_transport": "platform", "osm_id": 8059662766, "osm_type": "node"}, "geometry": {"type": "Point", "coordinates": [75.8020999, 26.8417671]}}, {"type": "Feature", "properties": {"bus": "yes", "highway": "bus_stop", "name": "Jawahar Circle", "public_transport": "platform", "osm_id": 8059662767, "osm_type": "node"}, "geometry": {"type": "Point", "coordinates": [75.8038037, 26.8406354]}}, {"type": "Feature", "properties": {"bus": "yes", "highway": "bus_stop", "name": "Malviya Nagar Sector 10", "public_transport": "platform", "osm_id": 8059718196, "osm_type": "node"}, "geometry": {"type": "Point", "coordinates": [75.8091476, 26.8467571]}}, {"type": "Feature", "properties": {"bus": "yes", "highway": "bus_stop", "name": "Sector 11 Malviya nagar", "public_transport": "platform", "osm_id": 8059718197, "osm_type": "node"}, "geometry": {"type": "Point", "coordinates": [75.813, 26.8453506]}}, {"type": "Feature", "properties": {"bus": "yes", "highway": "bus_stop", "name": "Sector 15 Malviya Nagar", "public_transport": "platform", "shelter": "yes", "osm_id": 8059718198, "osm_type": "node"}, "geometry": {"type": "Point", "coordinates": [75.8157689, 26.8426167]}}, {"type": "Feature", "properties": {"bus": "yes", "highway": "bus_stop", "name": "Sector 15 Malviya Nagar", "public_transport": "platform", "osm_id": 8059718199, "osm_type": "node"}, "geometry": {"type": "Point", "coordinates": [75.8158567, 26.8425302]}}, {"type": "Feature", "properties": {"bus": "yes", "highway": "bus_stop", "name": "Sector 4 - Malviya Nagar", "public_transport": "platform", "osm_id": 8064849893, "osm_type": "node"}, "geometry": {"type": "Point", "coordinates": [75.8141212, 26.8487818]}}, {"type": "Feature", "properties": {"bus": "yes", "highway": "bus_stop", "name": "Calgiri Hospital Mod", "public_transport": "platform", "osm_id": 8068612444, "osm_type": "node"}, "geometry": {"type": "Point", "coordinates": [75.8202452, 26.8558353]}}, {"type": "Feature", "properties": {"bus": "yes", "highway": "bus_stop", "name": "Calgiri Hospital Mod", "public_transport": "platform", "osm_id": 8068612445, "osm_type": "node"}, "geometry": {"type": "Point", "coordinates": [75.8202526, 26.855911]}}, {"type": "Feature", "properties": {"bus": "yes", "highway": "bus_stop", "name": "Hari Marg", "public_transport": "platform", "osm_id": 8068612467, "osm_type": "node"}, "geometry": {"type": "Point", "coordinates": [75.8142122, 26.857425]}}, {"type": "Feature", "properties": {"bus": "yes", "highway": "bus_stop", "name": "Hari Marg", "public_transport": "platform", "osm_id": 8068612468, "osm_type": "node"}, "geometry": {"type": "Point", "coordinates": [75.8142363, 26.8575087]}}, {"type": "Feature", "properties": {"bus": "yes", "highway": "bus_stop", "name": "Pradhan Marg", "public_transport": "platform", "osm_id": 8068612481, "osm_type": "node"}, "geometry": {"type": "Point", "coordinates": [75.8092093, 26.8591779]}}, {"type": "Feature", "properties": {"bus": "yes", "highway": "bus_stop", "name": "Pradhan Marg", "public_transport": "platform", "osm_id": 8068612482, "osm_type": "node"}, "geometry": {"type": "Point", "coordinates": [75.8092506, 26.8592774]}}, {"type": "Feature", "properties": {"bus": "yes", "highway": "bus_stop", "name": "Mahaveer Cancer Hospital", "public_transport": "platform", "osm_id": 8068694587, "osm_type": "node"}, "geometry": {"type": "Point", "coordinates": [75.8067199, 26.8619936]}}, {"type": "Feature", "properties": {"bus": "yes", "highway": "bus_stop", "name": "Mahaveer Cancer Hospital", "public_transport": "platform", "osm_id": 8068694588, "osm_type": "node"}, "geometry": {"type": "Point", "coordinates": [75.8066949, 26.8623086]}}, {"type": "Feature", "properties": {"bus": "yes", "highway": "bus_stop", "name": "MNIT Jaipur", "public_transport": "platform", "osm_id": 8068694596, "osm_type": "node"}, "geometry": {"type": "Point", "coordinates": [75.8075078, 26.8655326]}}, {"type": "Feature", "properties": {"bus": "yes", "highway": "bus_stop", "name": "MNIT Jaipur", "public_transport": "platform", "osm_id": 8068694597, "osm_type": "node"}, "geometry": {"type": "Point", "coordinates": [75.8075331, 26.8649852]}}, {"type": "Feature", "properties": {"bus": "yes", "highway": "bus_stop", "name": "Dainik Bhaskar", "public_transport": "platform", "osm_id": 8068694599, "osm_type": "node"}, "geometry": {"type": "Point", "coordinates": [75.8050333, 26.8679028]}}, {"type": "Feature", "properties": {"bus": "yes", "highway": "bus_stop", "name": "Dainik Bhaskar", "public_transport": "platform", "osm_id": 8068694600, "osm_type": "node"}, "geometry": {"type": "Point", "coordinates": [75.8050347, 26.867781]}}, {"type": "Feature", "properties": {"bus": "yes", "highway": "bus_stop", "name": "Bajaj Nagar Enclave", "public_transport": "platform", "osm_id": 8075691732, "osm_type": "node"}, "geometry": {"type": "Point", "coordinates": [75.8003479, 26.8702177]}}, {"type": "Feature", "properties": {"bus": "yes", "highway": "bus_stop", "name": "Gandhi Nagar Railway station", "public_transport": "platform", "osm_id": 8075691733, "osm_type": "node"}, "geometry": {"type": "Point", "coordinates": [75.7996352, 26.8733325]}}, {"type": "Feature", "properties": {"bus": "yes", "highway": "bus_stop", "name": "Xavier School", "public_transport": "platform", "osm_id": 8075691853, "osm_type": "node"}, "geometry": {"type": "Point", "coordinates": [75.8088916, 26.9137985]}}, {"type": "Feature", "properties": {"bus": "yes", "highway": "bus_stop", "name": "Ahinsa Circle", "public_transport": "platform", "osm_id": 8075691854, "osm_type": "node"}, "geometry": {"type": "Point", "coordinates": [75.8060837, 26.9143563]}}, {"type": "Feature", "properties": {"bus": "yes", "highway": "bus_stop", "name": "Goverment Hostel", "public_transport": "platform", "osm_id": 8075691872, "osm_type": "node"}, "geometry": {"type": "Point", "coordinates": [75.8005268, 26.916871]}}, {"type": "Feature", "properties": {"bus": "yes", "highway": "bus_stop", "name": "Ganpati plaza", "public_transport": "stop_position", "osm_id": 8075691873, "osm_type": "node"}, "geometry": {"type": "Point", "coordinates": [75.7982521, 26.9188762]}}, {"type": "Feature", "properties": {"bus": "yes", "highway": "bus_stop", "name": "Ganpati plaza", "public_transport": "stop_position", "osm_id": 8075691874, "osm_type": "node"}, "geometry": {"type": "Point", "coordinates": [75.7983159, 26.9189549]}}, {"type": "Feature", "properties": {"bus": "yes", "highway": "bus_stop", "name": "Paach Batti", "public_transport": "platform", "osm_id": 8075691875, "osm_type": "node"}, "geometry": {"type": "Point", "coordinates": [75.8102777, 26.916275]}}, {"type": "Feature", "properties": {"bus": "yes", "highway": "bus_stop", "name": "Khasa kothi", "public_transport": "platform", "osm_id": 8075691893, "osm_type": "node"}, "geometry": {"type": "Point", "coordinates": [75.7939608, 26.9208932]}}, {"type": "Feature", "properties": {"bus": "yes", "highway": "bus_stop", "public_transport": "platform", "osm_id": 8075691894, "osm_type": "node"}, "geometry": {"type": "Point", "coordinates": [75.7940573, 26.9208965]}}, {"type": "Feature", "properties": {"bus": "yes", "highway": "bus_stop", "name": "Jaipur Collectorate", "public_transport": "platform", "osm_id": 8076910251, "osm_type": "node"}, "geometry": {"type": "Point", "coordinates": [75.7935615, 26.9260247]}}, {"type": "Feature", "properties": {"bus": "yes", "highway": "bus_stop", "name": "Collectorate", "public_transport": "platform", "osm_id": 8076910252, "osm_type": "node"}, "geometry": {"type": "Point", "coordinates": [75.7921648, 26.9264591]}}, {"type": "Feature", "properties": {"bus": "yes", "highway": "bus_stop", "name": "Sapta Shakti Canteen", "public_transport": "platform", "osm_id": 8076911202, "osm_type": "node"}, "geometry": {"type": "Point", "coordinates": [75.7852496, 26.9316227]}}, {"type": "Feature", "properties": {"bus": "yes", "highway": "bus_stop", "name": "Sapta Shakti Canteen", "public_transport": "platform", "osm_id": 8076911203, "osm_type": "node"}, "geometry": {"type": "Point", "coordinates": [75.7852447, 26.9315272]}}, {"type": "Feature", "properties": {"bus": "yes", "highway": "bus_stop", "name": "Panipech Circle", "public_transport": "platform", "osm_id": 8076911204, "osm_type": "node"}, "geometry": {"type": "Point", "coordinates": [75.7857996, 26.9381948]}}, {"type": "Feature", "properties": {"bus": "yes", "highway": "bus_stop", "name": "Lata Circle", "public_transport": "platform", "osm_id": 8076911245, "osm_type": "node"}, "geometry": {"type": "Point", "coordinates": [75.7618911, 26.9426724]}}, {"type": "Feature", "properties": {"bus": "yes", "highway": "bus_stop", "name": "Shilp Colony/ Medical Center", "public_transport": "platform", "osm_id": 8076911246, "osm_type": "node"}, "geometry": {"type": "Point", "coordinates": [75.7551018, 26.942986]}}, {"type": "Feature", "properties": {"bus": "yes", "highway": "bus_stop", "name": "Boring Chauraha", "public_transport": "platform", "osm_id": 8076911247, "osm_type": "node"}, "geometry": {"type": "Point", "coordinates": [75.7464719, 26.9437883]}}, {"type": "Feature", "properties": {"bus": "yes", "highway": "bus_stop", "name": "Kanta Jothwara", "public_transport": "platform", "osm_id": 8076911248, "osm_type": "node"}, "geometry": {"type": "Point", "coordinates": [75.7439081, 26.9443886]}}, {"type": "Feature", "properties": {"bus": "yes", "highway": "bus_stop", "name": "Kanta Jothwara", "public_transport": "platform", "osm_id": 8076911249, "osm_type": "node"}, "geometry": {"type": "Point", "coordinates": [75.7438778, 26.9443196]}}, {"type": "Feature", "properties": {"bus": "yes", "highway": "bus_stop", "name": "Maharana Pratap Chauraha", "public_transport": "platform", "osm_id": 8076911251, "osm_type": "node"}, "geometry": {"type": "Point", "coordinates": [75.7431527, 26.9409823]}}, {"type": "Feature", "properties": {"bus": "yes", "highway": "bus_stop", "name": "Lal Mandir", "public_transport": "platform", "osm_id": 8076911253, "osm_type": "node"}, "geometry": {"type": "Point", "coordinates": [75.7434588, 26.9343057]}}, {"type": "Feature", "properties": {"bus": "yes", "highway": "bus_stop", "name": "Kirni Fatak", "public_transport": "platform", "osm_id": 8076911257, "osm_type": "node"}, "geometry": {"type": "Point", "coordinates": [75.7363516, 26.9334361]}}, {"type": "Feature", "properties": {"bus": "yes", "highway": "bus_stop", "name": "Ram Mandir", "public_transport": "platform", "osm_id": 8083908944, "osm_type": "node"}, "geometry": {"type": "Point", "coordinates": [75.7862409, 26.9025066]}}, {"type": "Feature", "properties": {"bus": "yes", "highway": "bus_stop", "name": "Goverment Hostel", "public_transport": "platform", "osm_id": 8119003879, "osm_type": "node"}, "geometry": {"type": "Point", "coordinates": [75.800505, 26.916765]}}, {"type": "Feature", "properties": {"bus": "yes", "bus_routes": "7, 9B", "highway": "bus_stop", "name": "Vardhaman Nagar", "public_transport": "platform", "osm_id": 8125106434, "osm_type": "node"}, "geometry": {"type": "Point", "coordinates": [75.7398292, 26.8840392]}}, {"type": "Feature", "properties": {"bus": "yes", "highway": "bus_stop", "name": "New Aatish Market", "public_transport": "platform", "osm_id": 8125106440, "osm_type": "node"}, "geometry": {"type": "Point", "coordinates": [75.7612223, 26.8795933]}}, {"type": "Feature", "properties": {"bus": "yes", "highway": "bus_stop", "name": "New Aatish Market Metro Station", "public_transport": "platform", "osm_id": 8125106441, "osm_type": "node"}, "geometry": {"type": "Point", "coordinates": [75.7653084, 26.8802086]}}, {"type": "Feature", "properties": {"bus": "yes", "highway": "bus_stop", "name": "Sethi Colony", "public_transport": "platform", "osm_id": 8125106446, "osm_type": "node"}, "geometry": {"type": "Point", "coordinates": [75.8403095, 26.9059523]}}, {"type": "Feature", "properties": {"bus": "yes", "highway": "bus_stop", "name": "Sethi Colony", "public_transport": "platform", "osm_id": 8125106447, "osm_type": "node"}, "geometry": {"type": "Point", "coordinates": [75.840259, 26.9061812]}}, {"type": "Feature", "properties": {"bus": "yes", "highway": "bus_stop", "name": "Khatipura Fatak", "public_transport": "platform", "osm_id": 8137399225, "osm_type": "node"}, "geometry": {"type": "Point", "coordinates": [75.7566487, 26.9366297]}}, {"type": "Feature", "properties": {"bus": "yes", "highway": "bus_stop", "name": "Khatipura Fatak", "public_transport": "platform", "osm_id": 8137399226, "osm_type": "node"}, "geometry": {"type": "Point", "coordinates": [75.7568075, 26.9365835]}}, {"type": "Feature", "properties": {"bus": "yes", "highway": "bus_stop", "name": "Khatipura Pulia", "public_transport": "platform", "osm_id": 8137399227, "osm_type": "node"}, "geometry": {"type": "Point", "coordinates": [75.7514103, 26.9316]}}, {"type": "Feature", "properties": {"bus": "yes", "highway": "bus_stop", "name": "National Handloom", "public_transport": "platform", "osm_id": 8137399232, "osm_type": "node"}, "geometry": {"type": "Point", "coordinates": [75.7384555, 26.914757]}}, {"type": "Feature", "properties": {"bus": "yes", "bus_routes": "14, Mini 38, 18", "highway": "bus_stop", "name": "Gupta Store", "public_transport": "platform", "osm_id": 8137399235, "osm_type": "node"}, "geometry": {"type": "Point", "coordinates": [75.7438267, 26.9112015]}}, {"type": "Feature", "properties": {"bus": "yes", "highway": "bus_stop", "name": "Vijay Dwar", "public_transport": "platform", "osm_id": 8137399237, "osm_type": "node"}, "geometry": {"type": "Point", "coordinates": [75.752556, 26.9058151]}}, {"type": "Feature", "properties": {"bus": "yes", "highway": "bus_stop", "name": "Vidyut Nagar Bus Stop", "public_transport": "platform", "osm_id": 8137399239, "osm_type": "node"}, "geometry": {"type": "Point", "coordinates": [75.7534667, 26.902601]}}, {"type": "Feature", "properties": {"bus": "yes", "highway": "bus_stop", "name": "Vidyut Nagar Bus Stop", "public_transport": "platform", "osm_id": 8137399240, "osm_type": "node"}, "geometry": {"type": "Point", "coordinates": [75.7535891, 26.9031103]}}, {"type": "Feature", "properties": {"bus": "yes", "highway": "bus_stop", "name": "Nandpuri Mod", "public_transport": "platform", "osm_id": 8137399241, "osm_type": "node"}, "geometry": {"type": "Point", "coordinates": [75.7832123, 26.9013032]}}, {"type": "Feature", "properties": {"bus": "yes", "highway": "bus_stop", "name": "Nandpuri Mod", "public_transport": "platform", "osm_id": 8137399242, "osm_type": "node"}, "geometry": {"type": "Point", "coordinates": [75.7833521, 26.901609]}}, {"type": "Feature", "properties": {"bus": "yes", "highway": "bus_stop", "name": "High court circle", "public_transport": "platform", "osm_id": 8137399244, "osm_type": "node"}, "geometry": {"type": "Point", "coordinates": [75.7998844, 26.8990488]}}, {"type": "Feature", "properties": {"bus": "yes", "highway": "bus_stop", "name": "Rambagh Circle", "public_transport": "platform", "osm_id": 8137399247, "osm_type": "node"}, "geometry": {"type": "Point", "coordinates": [75.8077402, 26.8952886]}}, {"type": "Feature", "properties": {"bus": "yes", "highway": "bus_stop", "name": "Sanganeri Gate", "public_transport": "platform", "osm_id": 8137399286, "osm_type": "node"}, "geometry": {"type": "Point", "coordinates": [75.8235805, 26.9152105]}}, {"type": "Feature", "properties": {"bus": "yes", "highway": "bus_stop", "name": "New Transport Nagar", "public_transport": "platform", "osm_id": 8137399288, "osm_type": "node"}, "geometry": {"type": "Point", "coordinates": [75.8404101, 26.9072657]}}, {"type": "Feature", "properties": {"bus": "yes", "highway": "bus_stop", "name": "Ghat ki Guni Circle", "public_transport": "platform", "osm_id": 8137399289, "osm_type": "node"}, "geometry": {"type": "Point", "coordinates": [75.8434368, 26.9011462]}}, {"type": "Feature", "properties": {"bus": "yes", "highway": "bus_stop", "name": "Dayal Hospital", "public_transport": "platform", "osm_id": 8137399293, "osm_type": "node"}, "geometry": {"type": "Point", "coordinates": [75.8672142, 26.8928184]}}, {"type": "Feature", "properties": {"bus": "yes", "highway": "bus_stop", "name": "Karbala", "public_transport": "platform", "shelter": "yes", "osm_id": 8175950480, "osm_type": "node"}, "geometry": {"type": "Point", "coordinates": [75.8400912, 26.9467263]}}, {"type": "Feature", "properties": {"bus": "yes", "highway": "bus_stop", "name": "DCM", "public_transport": "platform", "osm_id": 8568606142, "osm_type": "node"}, "geometry": {"type": "Point", "coordinates": [75.7592028, 26.8985445]}}, {"type": "Feature", "properties": {"bus": "yes", "highway": "bus_stop", "name": "Chandpole Metro Station", "public_transport": "platform", "osm_id": 8643260432, "osm_type": "node"}, "geometry": {"type": "Point", "coordinates": [75.807802, 26.9257784]}}, {"type": "Feature", "properties": {"bus": "yes", "highway": "bus_stop", "public_transport": "platform", "osm_id": 10749905306, "osm_type": "node"}, "geometry": {"type": "Point", "coordinates": [75.7940976, 26.9201609]}}, {"type": "Feature", "properties": {"bus": "yes", "highway": "bus_stop", "name": "Nath ji ki thadi", "name:hi": "नाथ जी की थड़ी", "public_transport": "platform", "ref": "31", "shelter": "yes", "osm_id": 10756034635, "osm_type": "node"}, "geometry": {"type": "Point", "coordinates": [75.7275825, 26.9642415]}}, {"type": "Feature", "properties": {"bus": "yes", "highway": "bus_stop", "name": "GOVINDPURA MAIN BUS STAND", "public_transport": "platform", "osm_id": 10959797674, "osm_type": "node"}, "geometry": {"type": "Point", "coordinates": [75.7018168, 26.9516962]}}, {"type": "Feature", "properties": {"bus": "yes", "highway": "bus_stop", "name": "MANGLAM CITY BUS STAND", "public_transport": "platform", "osm_id": 10959824946, "osm_type": "node"}, "geometry": {"type": "Point", "coordinates": [75.6944401, 26.9547832]}}, {"type": "Feature", "properties": {"bus": "yes", "highway": "bus_stop", "name": "RAVAN GATE BUS STOP", "public_transport": "platform", "osm_id": 10959824953, "osm_type": "node"}, "geometry": {"type": "Point", "coordinates": [75.7108084, 26.9500361]}}, {"type": "Feature", "properties": {"bus": "yes", "highway": "bus_stop", "name": "PULIA BUS STAND", "public_transport": "platform", "osm_id": 10959824965, "osm_type": "node"}, "geometry": {"type": "Point", "coordinates": [75.7323654, 26.9455947]}}, {"type": "Feature", "properties": {"bus": "yes", "highway": "bus_stop", "name": "Ravan gate Bus Stop", "public_transport": "platform", "osm_id": 11697104524, "osm_type": "node"}, "geometry": {"type": "Point", "coordinates": [75.7207533, 26.9479675]}}, {"type": "Feature", "properties": {"bus": "yes", "highway": "bus_stop", "name:en": "SINDHI CAMP", "public_transport": "platform", "osm_id": 11745720170, "osm_type": "node"}, "geometry": {"type": "Point", "coordinates": [75.7957055, 26.9202546]}}, {"type": "Feature", "properties": {"highway": "bus_stop", "osm_id": 12361795403, "osm_type": "node"}, "geometry": {"type": "Point", "coordinates": [75.818116, 26.9245656]}}, {"type": "Feature", "properties": {"highway": "bus_stop", "osm_id": 12361795802, "osm_type": "node"}, "geometry": {"type": "Point", "coordinates": [75.8060597, 26.9274953]}}, {"type": "Feature", "properties": {"highway": "bus_stop", "osm_id": 12367918002, "osm_type": "node"}, "geometry": {"type": "Point", "coordinates": [75.8003325, 26.925912]}}, {"type": "Feature", "properties": {"highway": "bus_stop", "name": "bus to railway station", "osm_id": 12373720201, "osm_type": "node"}, "geometry": {"type": "Point", "coordinates": [75.8154693, 26.912353]}}, {"type": "Feature", "properties": {"highway": "bus_stop", "name": "bus to Amer", "osm_id": 12376557403, "osm_type": "node"}, "geometry": {"type": "Point", "coordinates": [75.8268592, 26.9234312]}}, {"type": "Feature", "properties": {"highway": "bus_stop", "name": "Kalyan Nagar Bus Stop", "name:hi": "कल्याण नगर बस स्टॉप", "osm_id": 13632990701, "osm_type": "node"}, "geometry": {"type": "Point", "coordinates": [75.7946058, 26.8250045]}}]}