{"type":"FeatureCollection","features":[{"type":"Feature","properties":{"stop_id":"WBTC_airport_gate_1","stop_name":"Airport Gate 1","stop_code":"","mode":"bus","operator":"West Bengal Transport Corporation","source_feed_id":"kolkata_wbtc_bus_unofficial_constructed"},"geometry":{"type":"Point","coordinates":[88.431454,22.641663]}},{"type":"Feature","properties":{"stop_id":"WBTC_airport_no_1_gate","stop_name":"Airport No. 1 Gate","stop_code":"","mode":"bus","operator":"West Bengal Transport Corporation","source_feed_id":"kolkata_wbtc_bus_unofficial_constructed"},"geometry":{"type":"Point","coordinates":[88.4312932,22.6415745]}},{"type":"Feature","properties":{"stop_id":"WBTC_airport_terminal","stop_name":"Airport Terminal","stop_code":"","mode":"bus","operator":"West Bengal Transport Corporation","source_feed_id":"kolkata_wbtc_bus_unofficial_constructed"},"geometry":{"type":"Point","coordinates":[88.4390509,22.6448932]}},{"type":"Feature","properties":{"stop_id":"WBTC_ajoynagar","stop_name":"Ajoynagar","stop_code":"","mode":"bus","operator":"West Bengal Transport Corporation","source_feed_id":"kolkata_wbtc_bus_unofficial_constructed"},"geometry":{"type":"Point","coordinates":[88.3953832,22.4902697]}},{"type":"Feature","properties":{"stop_id":"WBTC_aliah_university","stop_name":"Aliah University","stop_code":"","mode":"bus","operator":"West Bengal Transport Corporation","source_feed_id":"kolkata_wbtc_bus_unofficial_constructed"},"geometry":{"type":"Point","coordinates":[88.4809461,22.5931271]}},{"type":"Feature","properties":{"stop_id":"WBTC_alipore_zoo","stop_name":"Alipore Zoo","stop_code":"","mode":"bus","operator":"West Bengal Transport Corporation","source_feed_id":"kolkata_wbtc_bus_unofficial_constructed"},"geometry":{"type":"Point","coordinates":[88.3334448,22.5351149]}},{"type":"Feature","properties":{"stop_id":"WBTC_amtala","stop_name":"Amtala","stop_code":"","mode":"bus","operator":"West Bengal Transport Corporation","source_feed_id":"kolkata_wbtc_bus_unofficial_constructed"},"geometry":{"type":"Point","coordinates":[88.2739116,22.3864451]}},{"type":"Feature","properties":{"stop_id":"WBTC_ariadaha","stop_name":"Ariadaha","stop_code":"","mode":"bus","operator":"West Bengal Transport Corporation","source_feed_id":"kolkata_wbtc_bus_unofficial_constructed"},"geometry":{"type":"Point","coordinates":[88.3622552,22.6536483]}},{"type":"Feature","properties":{"stop_id":"WBTC_ashoknagar_road","stop_name":"Ashoknagar Road","stop_code":"","mode":"bus","operator":"West Bengal Transport Corporation","source_feed_id":"kolkata_wbtc_bus_unofficial_constructed"},"geometry":{"type":"Point","coordinates":[88.6286227,22.8267554]}},{"type":"Feature","properties":{"stop_id":"WBTC_bally_halt","stop_name":"BALLY HALT","stop_code":"","mode":"bus","operator":"West Bengal Transport Corporation","source_feed_id":"kolkata_wbtc_bus_unofficial_constructed"},"geometry":{"type":"Point","coordinates":[88.338318,22.652314]}},{"type":"Feature","properties":{"stop_id":"WBTC_bt_college","stop_name":"BT College","stop_code":"","mode":"bus","operator":"West Bengal Transport Corporation","source_feed_id":"kolkata_wbtc_bus_unofficial_constructed"},"geometry":{"type":"Point","coordinates":[88.4522498,22.6797961]}},{"type":"Feature","properties":{"stop_id":"WBTC_babughat","stop_name":"Babughat","stop_code":"","mode":"bus","operator":"West Bengal Transport Corporation","source_feed_id":"kolkata_wbtc_bus_unofficial_constructed"},"geometry":{"type":"Point","coordinates":[88.3399379,22.5653131]}},{"type":"Feature","properties":{"stop_id":"WBTC_bagbazar","stop_name":"Bagbazar","stop_code":"","mode":"bus","operator":"West Bengal Transport Corporation","source_feed_id":"kolkata_wbtc_bus_unofficial_constructed"},"geometry":{"type":"Point","coordinates":[88.3680389,22.603819]}},{"type":"Feature","properties":{"stop_id":"WBTC_baghajatin","stop_name":"Baghajatin","stop_code":"","mode":"bus","operator":"West Bengal Transport Corporation","source_feed_id":"kolkata_wbtc_bus_unofficial_constructed"},"geometry":{"type":"Point","coordinates":[88.3755826,22.4839937]}},{"type":"Feature","properties":{"stop_id":"WBTC_baguiati","stop_name":"Baguiati","stop_code":"","mode":"bus","operator":"West Bengal Transport Corporation","source_feed_id":"kolkata_wbtc_bus_unofficial_constructed"},"geometry":{"type":"Point","coordinates":[88.427972,22.6102177]}},{"type":"Feature","properties":{"stop_id":"WBTC_bakultala","stop_name":"Bakultala","stop_code":"","mode":"bus","operator":"West Bengal Transport Corporation","source_feed_id":"kolkata_wbtc_bus_unofficial_constructed"},"geometry":{"type":"Point","coordinates":[88.2860984,22.5641518]}},{"type":"Feature","properties":{"stop_id":"WBTC_bally_ghat","stop_name":"Bally Ghat","stop_code":"","mode":"bus","operator":"West Bengal Transport Corporation","source_feed_id":"kolkata_wbtc_bus_unofficial_constructed"},"geometry":{"type":"Point","coordinates":[88.3479091,22.6524304]}},{"type":"Feature","properties":{"stop_id":"WBTC_ballygunge_station","stop_name":"Ballygunge Station","stop_code":"","mode":"bus","operator":"West Bengal Transport Corporation","source_feed_id":"kolkata_wbtc_bus_unofficial_constructed"},"geometry":{"type":"Point","coordinates":[88.3712795,22.5207608]}},{"type":"Feature","properties":{"stop_id":"WBTC_bangur","stop_name":"Bangur","stop_code":"","mode":"bus","operator":"West Bengal Transport Corporation","source_feed_id":"kolkata_wbtc_bus_unofficial_constructed"},"geometry":{"type":"Point","coordinates":[88.4091751,22.6111306]}},{"type":"Feature","properties":{"stop_id":"WBTC_bankra","stop_name":"Bankra","stop_code":"","mode":"bus","operator":"West Bengal Transport Corporation","source_feed_id":"kolkata_wbtc_bus_unofficial_constructed"},"geometry":{"type":"Point","coordinates":[88.2870287,22.6066694]}},{"type":"Feature","properties":{"stop_id":"WBTC_barasat","stop_name":"Barasat","stop_code":"","mode":"bus","operator":"West Bengal Transport Corporation","source_feed_id":"kolkata_wbtc_bus_unofficial_constructed"},"geometry":{"type":"Point","coordinates":[88.4754872,22.7113893]}},{"type":"Feature","properties":{"stop_id":"WBTC_bargachia","stop_name":"Bargachia","stop_code":"","mode":"bus","operator":"West Bengal Transport Corporation","source_feed_id":"kolkata_wbtc_bus_unofficial_constructed"},"geometry":{"type":"Point","coordinates":[88.1380703,22.6667486]}},{"type":"Feature","properties":{"stop_id":"WBTC_barrackpore","stop_name":"Barrackpore","stop_code":"","mode":"bus","operator":"West Bengal Transport Corporation","source_feed_id":"kolkata_wbtc_bus_unofficial_constructed"},"geometry":{"type":"Point","coordinates":[88.366361,22.7612631]}},{"type":"Feature","properties":{"stop_id":"WBTC_barrackpore_court","stop_name":"Barrackpore Court","stop_code":"","mode":"bus","operator":"West Bengal Transport Corporation","source_feed_id":"kolkata_wbtc_bus_unofficial_constructed"},"geometry":{"type":"Point","coordinates":[88.3454194,22.7707987]}},{"type":"Feature","properties":{"stop_id":"WBTC_baruipur","stop_name":"Baruipur","stop_code":"","mode":"bus","operator":"West Bengal Transport Corporation","source_feed_id":"kolkata_wbtc_bus_unofficial_constructed"},"geometry":{"type":"Point","coordinates":[88.4391139,22.3482512]}},{"type":"Feature","properties":{"stop_id":"WBTC_beckbagan","stop_name":"Beckbagan","stop_code":"","mode":"bus","operator":"West Bengal Transport Corporation","source_feed_id":"kolkata_wbtc_bus_unofficial_constructed"},"geometry":{"type":"Point","coordinates":[88.3592162,22.5408326]}},{"type":"Feature","properties":{"stop_id":"WBTC_behala_14_no","stop_name":"Behala 14 No","stop_code":"","mode":"bus","operator":"West Bengal Transport Corporation","source_feed_id":"kolkata_wbtc_bus_unofficial_constructed"},"geometry":{"type":"Point","coordinates":[88.3180625,22.5022305]}},{"type":"Feature","properties":{"stop_id":"WBTC_behala_chowrasta","stop_name":"Behala Chowrasta","stop_code":"","mode":"bus","operator":"West Bengal Transport Corporation","source_feed_id":"kolkata_wbtc_bus_unofficial_constructed"},"geometry":{"type":"Point","coordinates":[88.3131057,22.4869894]}},{"type":"Feature","properties":{"stop_id":"WBTC_behala_tram_depot","stop_name":"Behala Tram Depot","stop_code":"","mode":"bus","operator":"West Bengal Transport Corporation","source_feed_id":"kolkata_wbtc_bus_unofficial_constructed"},"geometry":{"type":"Point","coordinates":[88.3177975,22.499411]}},{"type":"Feature","properties":{"stop_id":"WBTC_beliaghata_road","stop_name":"Beliaghata Road","stop_code":"","mode":"bus","operator":"West Bengal Transport Corporation","source_feed_id":"kolkata_wbtc_bus_unofficial_constructed"},"geometry":{"type":"Point","coordinates":[88.6076805,22.674796]}},{"type":"Feature","properties":{"stop_id":"WBTC_belur_math","stop_name":"Belur Math","stop_code":"","mode":"bus","operator":"West Bengal Transport Corporation","source_feed_id":"kolkata_wbtc_bus_unofficial_constructed"},"geometry":{"type":"Point","coordinates":[88.352083,22.6314878]}},{"type":"Feature","properties":{"stop_id":"WBTC_bengal_chemical","stop_name":"Bengal Chemical","stop_code":"","mode":"bus","operator":"West Bengal Transport Corporation","source_feed_id":"kolkata_wbtc_bus_unofficial_constructed"},"geometry":{"type":"Point","coordinates":[88.4012962,22.5800666]}},{"type":"Feature","properties":{"stop_id":"WBTC_bhattanagar","stop_name":"Bhattanagar","stop_code":"","mode":"bus","operator":"West Bengal Transport Corporation","source_feed_id":"kolkata_wbtc_bus_unofficial_constructed"},"geometry":{"type":"Point","coordinates":[88.3222438,22.6287944]}},{"type":"Feature","properties":{"stop_id":"WBTC_bira","stop_name":"Bira","stop_code":"","mode":"bus","operator":"West Bengal Transport Corporation","source_feed_id":"kolkata_wbtc_bus_unofficial_constructed"},"geometry":{"type":"Point","coordinates":[88.5722344,22.7897513]}},{"type":"Feature","properties":{"stop_id":"WBTC_birati","stop_name":"Birati","stop_code":"","mode":"bus","operator":"West Bengal Transport Corporation","source_feed_id":"kolkata_wbtc_bus_unofficial_constructed"},"geometry":{"type":"Point","coordinates":[88.4274959,22.6643198]}},{"type":"Feature","properties":{"stop_id":"WBTC_birati_station","stop_name":"Birati Station","stop_code":"","mode":"bus","operator":"West Bengal Transport Corporation","source_feed_id":"kolkata_wbtc_bus_unofficial_constructed"},"geometry":{"type":"Point","coordinates":[88.4346322,22.6615678]}},{"type":"Feature","properties":{"stop_id":"WBTC_central","stop_name":"Central","stop_code":"","mode":"bus","operator":"West Bengal Transport Corporation","source_feed_id":"kolkata_wbtc_bus_unofficial_constructed"},"geometry":{"type":"Point","coordinates":[88.3587427,22.5724857]}},{"type":"Feature","properties":{"stop_id":"WBTC_central_park","stop_name":"Central Park","stop_code":"","mode":"bus","operator":"West Bengal Transport Corporation","source_feed_id":"kolkata_wbtc_bus_unofficial_constructed"},"geometry":{"type":"Point","coordinates":[88.4156247,22.5904737]}},{"type":"Feature","properties":{"stop_id":"WBTC_champahati","stop_name":"Champahati","stop_code":"","mode":"bus","operator":"West Bengal Transport Corporation","source_feed_id":"kolkata_wbtc_bus_unofficial_constructed"},"geometry":{"type":"Point","coordinates":[88.4936425,22.4018828]}},{"type":"Feature","properties":{"stop_id":"WBTC_chetla","stop_name":"Chetla","stop_code":"","mode":"bus","operator":"West Bengal Transport Corporation","source_feed_id":"kolkata_wbtc_bus_unofficial_constructed"},"geometry":{"type":"Point","coordinates":[88.3374435,22.517396]}},{"type":"Feature","properties":{"stop_id":"WBTC_chinar_park","stop_name":"Chinar Park","stop_code":"","mode":"bus","operator":"West Bengal Transport Corporation","source_feed_id":"kolkata_wbtc_bus_unofficial_constructed"},"geometry":{"type":"Point","coordinates":[88.4410164,22.6236199]}},{"type":"Feature","properties":{"stop_id":"WBTC_chingrighata","stop_name":"Chingrighata","stop_code":"","mode":"bus","operator":"West Bengal Transport Corporation","source_feed_id":"kolkata_wbtc_bus_unofficial_constructed"},"geometry":{"type":"Point","coordinates":[88.4123496,22.5568433]}},{"type":"Feature","properties":{"stop_id":"WBTC_chiria_more","stop_name":"Chiria more","stop_code":"","mode":"bus","operator":"West Bengal Transport Corporation","source_feed_id":"kolkata_wbtc_bus_unofficial_constructed"},"geometry":{"type":"Point","coordinates":[88.3793002,22.6187242]}},{"type":"Feature","properties":{"stop_id":"WBTC_city_centre","stop_name":"City Centre","stop_code":"","mode":"bus","operator":"West Bengal Transport Corporation","source_feed_id":"kolkata_wbtc_bus_unofficial_constructed"},"geometry":{"type":"Point","coordinates":[88.4084144,22.5899519]}},{"type":"Feature","properties":{"stop_id":"WBTC_college_ghat","stop_name":"College Ghat","stop_code":"","mode":"bus","operator":"West Bengal Transport Corporation","source_feed_id":"kolkata_wbtc_bus_unofficial_constructed"},"geometry":{"type":"Point","coordinates":[88.3060728,22.5620415]}},{"type":"Feature","properties":{"stop_id":"WBTC_college_more","stop_name":"College More","stop_code":"","mode":"bus","operator":"West Bengal Transport Corporation","source_feed_id":"kolkata_wbtc_bus_unofficial_constructed"},"geometry":{"type":"Point","coordinates":[88.4264879,22.6072744]}},{"type":"Feature","properties":{"stop_id":"WBTC_college_street","stop_name":"College Street","stop_code":"","mode":"bus","operator":"West Bengal Transport Corporation","source_feed_id":"kolkata_wbtc_bus_unofficial_constructed"},"geometry":{"type":"Point","coordinates":[88.3641391,22.5770797]}},{"type":"Feature","properties":{"stop_id":"WBTC_dlf_1","stop_name":"DLF 1","stop_code":"","mode":"bus","operator":"West Bengal Transport Corporation","source_feed_id":"kolkata_wbtc_bus_unofficial_constructed"},"geometry":{"type":"Point","coordinates":[88.4507715,22.5813836]}},{"type":"Feature","properties":{"stop_id":"WBTC_dakshineswar","stop_name":"Dakshineswar","stop_code":"","mode":"bus","operator":"West Bengal Transport Corporation","source_feed_id":"kolkata_wbtc_bus_unofficial_constructed"},"geometry":{"type":"Point","coordinates":[88.3631643,22.6526986]}},{"type":"Feature","properties":{"stop_id":"WBTC_dankuni","stop_name":"Dankuni","stop_code":"","mode":"bus","operator":"West Bengal Transport Corporation","source_feed_id":"kolkata_wbtc_bus_unofficial_constructed"},"geometry":{"type":"Point","coordinates":[88.2907626,22.6779609]}},{"type":"Feature","properties":{"stop_id":"WBTC_deshapriya_park","stop_name":"Deshapriya Park","stop_code":"","mode":"bus","operator":"West Bengal Transport Corporation","source_feed_id":"kolkata_wbtc_bus_unofficial_constructed"},"geometry":{"type":"Point","coordinates":[88.3524248,22.5175341]}},{"type":"Feature","properties":{"stop_id":"WBTC_dhakuria","stop_name":"Dhakuria","stop_code":"","mode":"bus","operator":"West Bengal Transport Corporation","source_feed_id":"kolkata_wbtc_bus_unofficial_constructed"},"geometry":{"type":"Point","coordinates":[88.3670532,22.5078133]}},{"type":"Feature","properties":{"stop_id":"WBTC_dhamua","stop_name":"Dhamua","stop_code":"","mode":"bus","operator":"West Bengal Transport Corporation","source_feed_id":"kolkata_wbtc_bus_unofficial_constructed"},"geometry":{"type":"Point","coordinates":[88.3921686,22.2903279]}},{"type":"Feature","properties":{"stop_id":"WBTC_domjur","stop_name":"Domjur","stop_code":"","mode":"bus","operator":"West Bengal Transport Corporation","source_feed_id":"kolkata_wbtc_bus_unofficial_constructed"},"geometry":{"type":"Point","coordinates":[88.2095491,22.6431635]}},{"type":"Feature","properties":{"stop_id":"WBTC_dum_dum","stop_name":"Dum Dum","stop_code":"","mode":"bus","operator":"West Bengal Transport Corporation","source_feed_id":"kolkata_wbtc_bus_unofficial_constructed"},"geometry":{"type":"Point","coordinates":[88.3928973,22.6211141]}},{"type":"Feature","properties":{"stop_id":"WBTC_dum_dum_park","stop_name":"Dum Dum Park","stop_code":"","mode":"bus","operator":"West Bengal Transport Corporation","source_feed_id":"kolkata_wbtc_bus_unofficial_constructed"},"geometry":{"type":"Point","coordinates":[88.4101901,22.6114242]}},{"type":"Feature","properties":{"stop_id":"WBTC_dum_dum_station","stop_name":"Dum Dum Station","stop_code":"","mode":"bus","operator":"West Bengal Transport Corporation","source_feed_id":"kolkata_wbtc_bus_unofficial_constructed"},"geometry":{"type":"Point","coordinates":[88.3940702,22.6199389]}},{"type":"Feature","properties":{"stop_id":"WBTC_dumdum_metro","stop_name":"Dumdum Metro","stop_code":"","mode":"bus","operator":"West Bengal Transport Corporation","source_feed_id":"kolkata_wbtc_bus_unofficial_constructed"},"geometry":{"type":"Point","coordinates":[88.3927104,22.6198467]}},{"type":"Feature","properties":{"stop_id":"WBTC_dunlop","stop_name":"Dunlop","stop_code":"","mode":"bus","operator":"West Bengal Transport Corporation","source_feed_id":"kolkata_wbtc_bus_unofficial_constructed"},"geometry":{"type":"Point","coordinates":[88.3770355,22.652348]}},{"type":"Feature","properties":{"stop_id":"WBTC_dunlop_more","stop_name":"Dunlop More","stop_code":"","mode":"bus","operator":"West Bengal Transport Corporation","source_feed_id":"kolkata_wbtc_bus_unofficial_constructed"},"geometry":{"type":"Point","coordinates":[88.3773368,22.6525808]}},{"type":"Feature","properties":{"stop_id":"WBTC_durganagar","stop_name":"Durganagar","stop_code":"","mode":"bus","operator":"West Bengal Transport Corporation","source_feed_id":"kolkata_wbtc_bus_unofficial_constructed"},"geometry":{"type":"Point","coordinates":[88.4192153,22.6504966]}},{"type":"Feature","properties":{"stop_id":"WBTC_em_bypass","stop_name":"EM Bypass","stop_code":"","mode":"bus","operator":"West Bengal Transport Corporation","source_feed_id":"kolkata_wbtc_bus_unofficial_constructed"},"geometry":{"type":"Point","coordinates":[88.4043073,22.5713233]}},{"type":"Feature","properties":{"stop_id":"WBTC_ecospace","stop_name":"Ecospace","stop_code":"","mode":"bus","operator":"West Bengal Transport Corporation","source_feed_id":"kolkata_wbtc_bus_unofficial_constructed"},"geometry":{"type":"Point","coordinates":[88.4903856,22.5841333]}},{"type":"Feature","properties":{"stop_id":"WBTC_eden_city","stop_name":"Eden City","stop_code":"","mode":"bus","operator":"West Bengal Transport Corporation","source_feed_id":"kolkata_wbtc_bus_unofficial_constructed"},"geometry":{"type":"Point","coordinates":[88.2133508,22.4924762]}},{"type":"Feature","properties":{"stop_id":"WBTC_esplanade","stop_name":"Esplanade","stop_code":"","mode":"bus","operator":"West Bengal Transport Corporation","source_feed_id":"kolkata_wbtc_bus_unofficial_constructed"},"geometry":{"type":"Point","coordinates":[88.3507997,22.5634705]}},{"type":"Feature","properties":{"stop_id":"WBTC_exide","stop_name":"Exide","stop_code":"","mode":"bus","operator":"West Bengal Transport Corporation","source_feed_id":"kolkata_wbtc_bus_unofficial_constructed"},"geometry":{"type":"Point","coordinates":[88.3474426,22.5417517]}},{"type":"Feature","properties":{"stop_id":"WBTC_gd_island","stop_name":"GD Island","stop_code":"","mode":"bus","operator":"West Bengal Transport Corporation","source_feed_id":"kolkata_wbtc_bus_unofficial_constructed"},"geometry":{"type":"Point","coordinates":[88.4134121,22.5765668]}},{"type":"Feature","properties":{"stop_id":"WBTC_garia","stop_name":"Garia","stop_code":"","mode":"bus","operator":"West Bengal Transport Corporation","source_feed_id":"kolkata_wbtc_bus_unofficial_constructed"},"geometry":{"type":"Point","coordinates":[88.3773186,22.471248]}},{"type":"Feature","properties":{"stop_id":"WBTC_garia_station","stop_name":"Garia Station","stop_code":"","mode":"bus","operator":"West Bengal Transport Corporation","source_feed_id":"kolkata_wbtc_bus_unofficial_constructed"},"geometry":{"type":"Point","coordinates":[88.4036763,22.4672528]}},{"type":"Feature","properties":{"stop_id":"WBTC_gariahat","stop_name":"Gariahat","stop_code":"","mode":"bus","operator":"West Bengal Transport Corporation","source_feed_id":"kolkata_wbtc_bus_unofficial_constructed"},"geometry":{"type":"Point","coordinates":[88.365148,22.5194439]}},{"type":"Feature","properties":{"stop_id":"WBTC_ghatakpukur","stop_name":"Ghatakpukur","stop_code":"","mode":"bus","operator":"West Bengal Transport Corporation","source_feed_id":"kolkata_wbtc_bus_unofficial_constructed"},"geometry":{"type":"Point","coordinates":[88.5661568,22.4973993]}},{"type":"Feature","properties":{"stop_id":"WBTC_girish_park","stop_name":"Girish Park","stop_code":"","mode":"bus","operator":"West Bengal Transport Corporation","source_feed_id":"kolkata_wbtc_bus_unofficial_constructed"},"geometry":{"type":"Point","coordinates":[88.3629415,22.5871445]}},{"type":"Feature","properties":{"stop_id":"WBTC_golf_green","stop_name":"Golf Green","stop_code":"","mode":"bus","operator":"West Bengal Transport Corporation","source_feed_id":"kolkata_wbtc_bus_unofficial_constructed"},"geometry":{"type":"Point","coordinates":[88.3612716,22.4890167]}},{"type":"Feature","properties":{"stop_id":"WBTC_golpark","stop_name":"Golpark","stop_code":"","mode":"bus","operator":"West Bengal Transport Corporation","source_feed_id":"kolkata_wbtc_bus_unofficial_constructed"},"geometry":{"type":"Point","coordinates":[88.3667742,22.5155838]}},{"type":"Feature","properties":{"stop_id":"WBTC_gopalnagar","stop_name":"Gopalnagar","stop_code":"","mode":"bus","operator":"West Bengal Transport Corporation","source_feed_id":"kolkata_wbtc_bus_unofficial_constructed"},"geometry":{"type":"Point","coordinates":[88.7456858,23.0625847]}},{"type":"Feature","properties":{"stop_id":"WBTC_guma","stop_name":"Guma","stop_code":"","mode":"bus","operator":"West Bengal Transport Corporation","source_feed_id":"kolkata_wbtc_bus_unofficial_constructed"},"geometry":{"type":"Point","coordinates":[88.6008927,22.8085822]}},{"type":"Feature","properties":{"stop_id":"WBTC_habra","stop_name":"Habra","stop_code":"","mode":"bus","operator":"West Bengal Transport Corporation","source_feed_id":"kolkata_wbtc_bus_unofficial_constructed"},"geometry":{"type":"Point","coordinates":[88.657583,22.840869]}},{"type":"Feature","properties":{"stop_id":"WBTC_haldiram","stop_name":"Haldiram","stop_code":"","mode":"bus","operator":"West Bengal Transport Corporation","source_feed_id":"kolkata_wbtc_bus_unofficial_constructed"},"geometry":{"type":"Point","coordinates":[88.4335135,22.6277514]}},{"type":"Feature","properties":{"stop_id":"WBTC_haridevpur","stop_name":"Haridevpur","stop_code":"","mode":"bus","operator":"West Bengal Transport Corporation","source_feed_id":"kolkata_wbtc_bus_unofficial_constructed"},"geometry":{"type":"Point","coordinates":[88.3378038,22.4806943]}},{"type":"Feature","properties":{"stop_id":"WBTC_harinavi","stop_name":"Harinavi","stop_code":"","mode":"bus","operator":"West Bengal Transport Corporation","source_feed_id":"kolkata_wbtc_bus_unofficial_constructed"},"geometry":{"type":"Point","coordinates":[88.4154971,22.4165966]}},{"type":"Feature","properties":{"stop_id":"WBTC_howrah","stop_name":"Howrah","stop_code":"","mode":"bus","operator":"West Bengal Transport Corporation","source_feed_id":"kolkata_wbtc_bus_unofficial_constructed"},"geometry":{"type":"Point","coordinates":[88.3403452,22.5833648]}},{"type":"Feature","properties":{"stop_id":"WBTC_howrah_maidan","stop_name":"Howrah Maidan","stop_code":"","mode":"bus","operator":"West Bengal Transport Corporation","source_feed_id":"kolkata_wbtc_bus_unofficial_constructed"},"geometry":{"type":"Point","coordinates":[88.3326769,22.5817516]}},{"type":"Feature","properties":{"stop_id":"WBTC_howrah_station","stop_name":"Howrah Station","stop_code":"","mode":"bus","operator":"West Bengal Transport Corporation","source_feed_id":"kolkata_wbtc_bus_unofficial_constructed"},"geometry":{"type":"Point","coordinates":[88.3437613,22.5861351]}},{"type":"Feature","properties":{"stop_id":"WBTC_hridaypur","stop_name":"Hridaypur","stop_code":"","mode":"bus","operator":"West Bengal Transport Corporation","source_feed_id":"kolkata_wbtc_bus_unofficial_constructed"},"geometry":{"type":"Point","coordinates":[88.4699989,22.7109969]}},{"type":"Feature","properties":{"stop_id":"WBTC_hudco","stop_name":"Hudco","stop_code":"","mode":"bus","operator":"West Bengal Transport Corporation","source_feed_id":"kolkata_wbtc_bus_unofficial_constructed"},"geometry":{"type":"Point","coordinates":[88.3933015,22.5900243]}},{"type":"Feature","properties":{"stop_id":"WBTC_jadavpur","stop_name":"Jadavpur","stop_code":"","mode":"bus","operator":"West Bengal Transport Corporation","source_feed_id":"kolkata_wbtc_bus_unofficial_constructed"},"geometry":{"type":"Point","coordinates":[88.3714445,22.4941282]}},{"type":"Feature","properties":{"stop_id":"WBTC_jadavpur_8b","stop_name":"Jadavpur 8B","stop_code":"","mode":"bus","operator":"West Bengal Transport Corporation","source_feed_id":"kolkata_wbtc_bus_unofficial_constructed"},"geometry":{"type":"Point","coordinates":[88.3706122,22.4956536]}},{"type":"Feature","properties":{"stop_id":"WBTC_jadavpur_thana","stop_name":"Jadavpur Thana","stop_code":"","mode":"bus","operator":"West Bengal Transport Corporation","source_feed_id":"kolkata_wbtc_bus_unofficial_constructed"},"geometry":{"type":"Point","coordinates":[88.3677326,22.5029575]}},{"type":"Feature","properties":{"stop_id":"WBTC_joka","stop_name":"Joka","stop_code":"","mode":"bus","operator":"West Bengal Transport Corporation","source_feed_id":"kolkata_wbtc_bus_unofficial_constructed"},"geometry":{"type":"Point","coordinates":[88.3018236,22.452347]}},{"type":"Feature","properties":{"stop_id":"WBTC_joka_bridge","stop_name":"Joka Bridge","stop_code":"","mode":"bus","operator":"West Bengal Transport Corporation","source_feed_id":"kolkata_wbtc_bus_unofficial_constructed"},"geometry":{"type":"Point","coordinates":[88.299073,22.4482897]}},{"type":"Feature","properties":{"stop_id":"WBTC_kpc_hospital","stop_name":"KPC Hospital","stop_code":"","mode":"bus","operator":"West Bengal Transport Corporation","source_feed_id":"kolkata_wbtc_bus_unofficial_constructed"},"geometry":{"type":"Point","coordinates":[88.3717953,22.4934564]}},{"type":"Feature","properties":{"stop_id":"WBTC_kaikhali","stop_name":"Kaikhali","stop_code":"","mode":"bus","operator":"West Bengal Transport Corporation","source_feed_id":"kolkata_wbtc_bus_unofficial_constructed"},"geometry":{"type":"Point","coordinates":[88.4346171,22.6344209]}},{"type":"Feature","properties":{"stop_id":"WBTC_kalighat","stop_name":"Kalighat","stop_code":"","mode":"bus","operator":"West Bengal Transport Corporation","source_feed_id":"kolkata_wbtc_bus_unofficial_constructed"},"geometry":{"type":"Point","coordinates":[88.346226,22.5169434]}},{"type":"Feature","properties":{"stop_id":"WBTC_kalikapur","stop_name":"Kalikapur","stop_code":"","mode":"bus","operator":"West Bengal Transport Corporation","source_feed_id":"kolkata_wbtc_bus_unofficial_constructed"},"geometry":{"type":"Point","coordinates":[88.4006497,22.5046476]}},{"type":"Feature","properties":{"stop_id":"WBTC_kamalgazi","stop_name":"Kamalgazi","stop_code":"","mode":"bus","operator":"West Bengal Transport Corporation","source_feed_id":"kolkata_wbtc_bus_unofficial_constructed"},"geometry":{"type":"Point","coordinates":[88.3909569,22.4491938]}},{"type":"Feature","properties":{"stop_id":"WBTC_kamalgazi_more","stop_name":"Kamalgazi More","stop_code":"","mode":"bus","operator":"West Bengal Transport Corporation","source_feed_id":"kolkata_wbtc_bus_unofficial_constructed"},"geometry":{"type":"Point","coordinates":[88.3902624,22.4467803]}},{"type":"Feature","properties":{"stop_id":"WBTC_kamarhati","stop_name":"Kamarhati","stop_code":"","mode":"bus","operator":"West Bengal Transport Corporation","source_feed_id":"kolkata_wbtc_bus_unofficial_constructed"},"geometry":{"type":"Point","coordinates":[88.3760183,22.6777097]}},{"type":"Feature","properties":{"stop_id":"WBTC_kankurgachi","stop_name":"Kankurgachi","stop_code":"","mode":"bus","operator":"West Bengal Transport Corporation","source_feed_id":"kolkata_wbtc_bus_unofficial_constructed"},"geometry":{"type":"Point","coordinates":[88.3904444,22.5799405]}},{"type":"Feature","properties":{"stop_id":"WBTC_karunamoyee","stop_name":"Karunamoyee","stop_code":"","mode":"bus","operator":"West Bengal Transport Corporation","source_feed_id":"kolkata_wbtc_bus_unofficial_constructed"},"geometry":{"type":"Point","coordinates":[88.4209109,22.5859945]}},{"type":"Feature","properties":{"stop_id":"WBTC_kasba","stop_name":"Kasba","stop_code":"","mode":"bus","operator":"West Bengal Transport Corporation","source_feed_id":"kolkata_wbtc_bus_unofficial_constructed"},"geometry":{"type":"Point","coordinates":[88.3965876,22.5138432]}},{"type":"Feature","properties":{"stop_id":"WBTC_kasba_old_police_station","stop_name":"Kasba Old Police Station","stop_code":"","mode":"bus","operator":"West Bengal Transport Corporation","source_feed_id":"kolkata_wbtc_bus_unofficial_constructed"},"geometry":{"type":"Point","coordinates":[88.3754284,22.5197791]}},{"type":"Feature","properties":{"stop_id":"WBTC_kazipara","stop_name":"Kazipara","stop_code":"","mode":"bus","operator":"West Bengal Transport Corporation","source_feed_id":"kolkata_wbtc_bus_unofficial_constructed"},"geometry":{"type":"Point","coordinates":[88.5083659,22.7226496]}},{"type":"Feature","properties":{"stop_id":"WBTC_khidirpur","stop_name":"Khidirpur","stop_code":"","mode":"bus","operator":"West Bengal Transport Corporation","source_feed_id":"kolkata_wbtc_bus_unofficial_constructed"},"geometry":{"type":"Point","coordinates":[88.3178498,22.5386554]}},{"type":"Feature","properties":{"stop_id":"WBTC_kolkata_station","stop_name":"Kolkata Station","stop_code":"","mode":"bus","operator":"West Bengal Transport Corporation","source_feed_id":"kolkata_wbtc_bus_unofficial_constructed"},"geometry":{"type":"Point","coordinates":[88.3823408,22.6020836]}},{"type":"Feature","properties":{"stop_id":"WBTC_kudghat","stop_name":"Kudghat","stop_code":"","mode":"bus","operator":"West Bengal Transport Corporation","source_feed_id":"kolkata_wbtc_bus_unofficial_constructed"},"geometry":{"type":"Point","coordinates":[88.3458155,22.4813707]}},{"type":"Feature","properties":{"stop_id":"WBTC_labony","stop_name":"Labony","stop_code":"","mode":"bus","operator":"West Bengal Transport Corporation","source_feed_id":"kolkata_wbtc_bus_unofficial_constructed"},"geometry":{"type":"Point","coordinates":[88.4056169,22.5829732]}},{"type":"Feature","properties":{"stop_id":"WBTC_lake_gardens","stop_name":"Lake Gardens","stop_code":"","mode":"bus","operator":"West Bengal Transport Corporation","source_feed_id":"kolkata_wbtc_bus_unofficial_constructed"},"geometry":{"type":"Point","coordinates":[88.3533289,22.5080547]}},{"type":"Feature","properties":{"stop_id":"WBTC_lake_town","stop_name":"Lake town","stop_code":"","mode":"bus","operator":"West Bengal Transport Corporation","source_feed_id":"kolkata_wbtc_bus_unofficial_constructed"},"geometry":{"type":"Point","coordinates":[88.4026439,22.6097509]}},{"type":"Feature","properties":{"stop_id":"WBTC_liluah","stop_name":"Liluah","stop_code":"","mode":"bus","operator":"West Bengal Transport Corporation","source_feed_id":"kolkata_wbtc_bus_unofficial_constructed"},"geometry":{"type":"Point","coordinates":[88.3394035,22.6209027]}},{"type":"Feature","properties":{"stop_id":"WBTC_madhyamgram","stop_name":"Madhyamgram","stop_code":"","mode":"bus","operator":"West Bengal Transport Corporation","source_feed_id":"kolkata_wbtc_bus_unofficial_constructed"},"geometry":{"type":"Point","coordinates":[88.4530183,22.6947839]}},{"type":"Feature","properties":{"stop_id":"WBTC_maidan","stop_name":"Maidan","stop_code":"","mode":"bus","operator":"West Bengal Transport Corporation","source_feed_id":"kolkata_wbtc_bus_unofficial_constructed"},"geometry":{"type":"Point","coordinates":[88.3487883,22.5494672]}},{"type":"Feature","properties":{"stop_id":"WBTC_makardaha","stop_name":"Makardaha","stop_code":"","mode":"bus","operator":"West Bengal Transport Corporation","source_feed_id":"kolkata_wbtc_bus_unofficial_constructed"},"geometry":{"type":"Point","coordinates":[88.2422693,22.6187082]}},{"type":"Feature","properties":{"stop_id":"WBTC_mandirtala","stop_name":"Mandirtala","stop_code":"","mode":"bus","operator":"West Bengal Transport Corporation","source_feed_id":"kolkata_wbtc_bus_unofficial_constructed"},"geometry":{"type":"Point","coordinates":[88.3178157,22.5699137]}},{"type":"Feature","properties":{"stop_id":"WBTC_manton","stop_name":"Manton","stop_code":"","mode":"bus","operator":"West Bengal Transport Corporation","source_feed_id":"kolkata_wbtc_bus_unofficial_constructed"},"geometry":{"type":"Point","coordinates":[88.3166069,22.4948629]}},{"type":"Feature","properties":{"stop_id":"WBTC_mathpukur","stop_name":"Mathpukur","stop_code":"","mode":"bus","operator":"West Bengal Transport Corporation","source_feed_id":"kolkata_wbtc_bus_unofficial_constructed"},"geometry":{"type":"Point","coordinates":[88.4005204,22.5486688]}},{"type":"Feature","properties":{"stop_id":"WBTC_metiabruz","stop_name":"Metiabruz","stop_code":"","mode":"bus","operator":"West Bengal Transport Corporation","source_feed_id":"kolkata_wbtc_bus_unofficial_constructed"},"geometry":{"type":"Point","coordinates":[88.2825609,22.5495702]}},{"type":"Feature","properties":{"stop_id":"WBTC_metiabruz_ssp_hospital","stop_name":"Metiabruz SSP Hospital","stop_code":"","mode":"bus","operator":"West Bengal Transport Corporation","source_feed_id":"kolkata_wbtc_bus_unofficial_constructed"},"geometry":{"type":"Point","coordinates":[88.2611187,22.5557836]}},{"type":"Feature","properties":{"stop_id":"WBTC_metropolitan","stop_name":"Metropolitan","stop_code":"","mode":"bus","operator":"West Bengal Transport Corporation","source_feed_id":"kolkata_wbtc_bus_unofficial_constructed"},"geometry":{"type":"Point","coordinates":[88.4063762,22.5525577]}},{"type":"Feature","properties":{"stop_id":"WBTC_mint","stop_name":"Mint","stop_code":"","mode":"bus","operator":"West Bengal Transport Corporation","source_feed_id":"kolkata_wbtc_bus_unofficial_constructed"},"geometry":{"type":"Point","coordinates":[88.3229547,22.5159671]}},{"type":"Feature","properties":{"stop_id":"WBTC_mominpore","stop_name":"Mominpore","stop_code":"","mode":"bus","operator":"West Bengal Transport Corporation","source_feed_id":"kolkata_wbtc_bus_unofficial_constructed"},"geometry":{"type":"Point","coordinates":[88.3260988,22.5270528]}},{"type":"Feature","properties":{"stop_id":"WBTC_mukundapur","stop_name":"Mukundapur","stop_code":"","mode":"bus","operator":"West Bengal Transport Corporation","source_feed_id":"kolkata_wbtc_bus_unofficial_constructed"},"geometry":{"type":"Point","coordinates":[88.396436,22.4921407]}},{"type":"Feature","properties":{"stop_id":"WBTC_nabanna","stop_name":"Nabanna","stop_code":"","mode":"bus","operator":"West Bengal Transport Corporation","source_feed_id":"kolkata_wbtc_bus_unofficial_constructed"},"geometry":{"type":"Point","coordinates":[88.3171234,22.5693753]}},{"type":"Feature","properties":{"stop_id":"WBTC_naktala","stop_name":"Naktala","stop_code":"","mode":"bus","operator":"West Bengal Transport Corporation","source_feed_id":"kolkata_wbtc_bus_unofficial_constructed"},"geometry":{"type":"Point","coordinates":[88.3619683,22.4738701]}},{"type":"Feature","properties":{"stop_id":"WBTC_narendrapur","stop_name":"Narendrapur","stop_code":"","mode":"bus","operator":"West Bengal Transport Corporation","source_feed_id":"kolkata_wbtc_bus_unofficial_constructed"},"geometry":{"type":"Point","coordinates":[88.4184898,22.4539009]}},{"type":"Feature","properties":{"stop_id":"WBTC_nayabad","stop_name":"Nayabad","stop_code":"","mode":"bus","operator":"West Bengal Transport Corporation","source_feed_id":"kolkata_wbtc_bus_unofficial_constructed"},"geometry":{"type":"Point","coordinates":[88.4052924,22.4787008]}},{"type":"Feature","properties":{"stop_id":"WBTC_new_alipore","stop_name":"New Alipore","stop_code":"","mode":"bus","operator":"West Bengal Transport Corporation","source_feed_id":"kolkata_wbtc_bus_unofficial_constructed"},"geometry":{"type":"Point","coordinates":[88.3328864,22.5091928]}},{"type":"Feature","properties":{"stop_id":"WBTC_new_alipore_petrol_pump","stop_name":"New Alipore Petrol Pump","stop_code":"","mode":"bus","operator":"West Bengal Transport Corporation","source_feed_id":"kolkata_wbtc_bus_unofficial_constructed"},"geometry":{"type":"Point","coordinates":[88.3328437,22.5090261]}},{"type":"Feature","properties":{"stop_id":"WBTC_new_barrackpore","stop_name":"New Barrackpore","stop_code":"","mode":"bus","operator":"West Bengal Transport Corporation","source_feed_id":"kolkata_wbtc_bus_unofficial_constructed"},"geometry":{"type":"Point","coordinates":[88.4451656,22.6868792]}},{"type":"Feature","properties":{"stop_id":"WBTC_new_town","stop_name":"New Town","stop_code":"","mode":"bus","operator":"West Bengal Transport Corporation","source_feed_id":"kolkata_wbtc_bus_unofficial_constructed"},"geometry":{"type":"Point","coordinates":[88.4527297,22.5816091]}},{"type":"Feature","properties":{"stop_id":"WBTC_new_town_bus_stand","stop_name":"New Town Bus Stand","stop_code":"","mode":"bus","operator":"West Bengal Transport Corporation","source_feed_id":"kolkata_wbtc_bus_unofficial_constructed"},"geometry":{"type":"Point","coordinates":[88.4534064,22.5830823]}},{"type":"Feature","properties":{"stop_id":"WBTC_nicco_park","stop_name":"Nicco Park","stop_code":"","mode":"bus","operator":"West Bengal Transport Corporation","source_feed_id":"kolkata_wbtc_bus_unofficial_constructed"},"geometry":{"type":"Point","coordinates":[88.4208263,22.5721539]}},{"type":"Feature","properties":{"stop_id":"WBTC_nimta","stop_name":"Nimta","stop_code":"","mode":"bus","operator":"West Bengal Transport Corporation","source_feed_id":"kolkata_wbtc_bus_unofficial_constructed"},"geometry":{"type":"Point","coordinates":[88.4090107,22.662516]}},{"type":"Feature","properties":{"stop_id":"WBTC_princep_ghat","stop_name":"PRINCEP GHAT","stop_code":"","mode":"bus","operator":"West Bengal Transport Corporation","source_feed_id":"kolkata_wbtc_bus_unofficial_constructed"},"geometry":{"type":"Point","coordinates":[88.331602,22.556734]}},{"type":"Feature","properties":{"stop_id":"WBTC_padmapukur","stop_name":"Padmapukur","stop_code":"","mode":"bus","operator":"West Bengal Transport Corporation","source_feed_id":"kolkata_wbtc_bus_unofficial_constructed"},"geometry":{"type":"Point","coordinates":[88.3057431,22.5682566]}},{"type":"Feature","properties":{"stop_id":"WBTC_paikpara","stop_name":"Paikpara","stop_code":"","mode":"bus","operator":"West Bengal Transport Corporation","source_feed_id":"kolkata_wbtc_bus_unofficial_constructed"},"geometry":{"type":"Point","coordinates":[88.3852619,22.6119115]}},{"type":"Feature","properties":{"stop_id":"WBTC_pailan","stop_name":"Pailan","stop_code":"","mode":"bus","operator":"West Bengal Transport Corporation","source_feed_id":"kolkata_wbtc_bus_unofficial_constructed"},"geometry":{"type":"Point","coordinates":[88.2916615,22.4355457]}},{"type":"Feature","properties":{"stop_id":"WBTC_paribesh_bhavan","stop_name":"Paribesh Bhavan","stop_code":"","mode":"bus","operator":"West Bengal Transport Corporation","source_feed_id":"kolkata_wbtc_bus_unofficial_constructed"},"geometry":{"type":"Point","coordinates":[88.4088032,22.5614687]}},{"type":"Feature","properties":{"stop_id":"WBTC_park_circus","stop_name":"Park Circus","stop_code":"","mode":"bus","operator":"West Bengal Transport Corporation","source_feed_id":"kolkata_wbtc_bus_unofficial_constructed"},"geometry":{"type":"Point","coordinates":[88.3661202,22.5433189]}},{"type":"Feature","properties":{"stop_id":"WBTC_park_street","stop_name":"Park Street","stop_code":"","mode":"bus","operator":"West Bengal Transport Corporation","source_feed_id":"kolkata_wbtc_bus_unofficial_constructed"},"geometry":{"type":"Point","coordinates":[88.3502179,22.5548915]}},{"type":"Feature","properties":{"stop_id":"WBTC_parnasree","stop_name":"Parnasree","stop_code":"","mode":"bus","operator":"West Bengal Transport Corporation","source_feed_id":"kolkata_wbtc_bus_unofficial_constructed"},"geometry":{"type":"Point","coordinates":[88.3033065,22.5124123]}},{"type":"Feature","properties":{"stop_id":"WBTC_patipukur","stop_name":"Patipukur","stop_code":"","mode":"bus","operator":"West Bengal Transport Corporation","source_feed_id":"kolkata_wbtc_bus_unofficial_constructed"},"geometry":{"type":"Point","coordinates":[88.3952451,22.6065505]}},{"type":"Feature","properties":{"stop_id":"WBTC_patuli","stop_name":"Patuli","stop_code":"","mode":"bus","operator":"West Bengal Transport Corporation","source_feed_id":"kolkata_wbtc_bus_unofficial_constructed"},"geometry":{"type":"Point","coordinates":[88.3897463,22.4719281]}},{"type":"Feature","properties":{"stop_id":"WBTC_podra_more","stop_name":"Podra More","stop_code":"","mode":"bus","operator":"West Bengal Transport Corporation","source_feed_id":"kolkata_wbtc_bus_unofficial_constructed"},"geometry":{"type":"Point","coordinates":[88.2718642,22.5606413]}},{"type":"Feature","properties":{"stop_id":"WBTC_prince_anwar_shah_road","stop_name":"Prince Anwar Shah Road","stop_code":"","mode":"bus","operator":"West Bengal Transport Corporation","source_feed_id":"kolkata_wbtc_bus_unofficial_constructed"},"geometry":{"type":"Point","coordinates":[88.3449282,22.50135]}},{"type":"Feature","properties":{"stop_id":"WBTC_rs_software","stop_name":"RS Software","stop_code":"","mode":"bus","operator":"West Bengal Transport Corporation","source_feed_id":"kolkata_wbtc_bus_unofficial_constructed"},"geometry":{"type":"Point","coordinates":[88.4349264,22.5768631]}},{"type":"Feature","properties":{"stop_id":"WBTC_rabindra_sadan","stop_name":"Rabindra Sadan","stop_code":"","mode":"bus","operator":"West Bengal Transport Corporation","source_feed_id":"kolkata_wbtc_bus_unofficial_constructed"},"geometry":{"type":"Point","coordinates":[88.3472222,22.5417422]}},{"type":"Feature","properties":{"stop_id":"WBTC_raghunathpur","stop_name":"Raghunathpur","stop_code":"","mode":"bus","operator":"West Bengal Transport Corporation","source_feed_id":"kolkata_wbtc_bus_unofficial_constructed"},"geometry":{"type":"Point","coordinates":[88.4324255,22.6188262]}},{"type":"Feature","properties":{"stop_id":"WBTC_raidighi","stop_name":"Raidighi","stop_code":"","mode":"bus","operator":"West Bengal Transport Corporation","source_feed_id":"kolkata_wbtc_bus_unofficial_constructed"},"geometry":{"type":"Point","coordinates":[88.2959036,22.484609]}},{"type":"Feature","properties":{"stop_id":"WBTC_rajabazar","stop_name":"Rajabazar","stop_code":"","mode":"bus","operator":"West Bengal Transport Corporation","source_feed_id":"kolkata_wbtc_bus_unofficial_constructed"},"geometry":{"type":"Point","coordinates":[88.3723323,22.5730978]}},{"type":"Feature","properties":{"stop_id":"WBTC_rajarhat_police_station","stop_name":"Rajarhat Police Station","stop_code":"","mode":"bus","operator":"West Bengal Transport Corporation","source_feed_id":"kolkata_wbtc_bus_unofficial_constructed"},"geometry":{"type":"Point","coordinates":[88.484875,22.631234]}},{"type":"Feature","properties":{"stop_id":"WBTC_rajchandrapur","stop_name":"Rajchandrapur","stop_code":"","mode":"bus","operator":"West Bengal Transport Corporation","source_feed_id":"kolkata_wbtc_bus_unofficial_constructed"},"geometry":{"type":"Point","coordinates":[88.3401611,22.6527285]}},{"type":"Feature","properties":{"stop_id":"WBTC_ramnagar","stop_name":"Ramnagar","stop_code":"","mode":"bus","operator":"West Bengal Transport Corporation","source_feed_id":"kolkata_wbtc_bus_unofficial_constructed"},"geometry":{"type":"Point","coordinates":[88.2946783,22.543469]}},{"type":"Feature","properties":{"stop_id":"WBTC_rashbehari","stop_name":"Rashbehari","stop_code":"","mode":"bus","operator":"West Bengal Transport Corporation","source_feed_id":"kolkata_wbtc_bus_unofficial_constructed"},"geometry":{"type":"Point","coordinates":[88.3455638,22.5171723]}},{"type":"Feature","properties":{"stop_id":"WBTC_rashmoni_bazar","stop_name":"Rashmoni Bazar","stop_code":"","mode":"bus","operator":"West Bengal Transport Corporation","source_feed_id":"kolkata_wbtc_bus_unofficial_constructed"},"geometry":{"type":"Point","coordinates":[88.3921864,22.5636583]}},{"type":"Feature","properties":{"stop_id":"WBTC_ruby","stop_name":"Ruby","stop_code":"","mode":"bus","operator":"West Bengal Transport Corporation","source_feed_id":"kolkata_wbtc_bus_unofficial_constructed"},"geometry":{"type":"Point","coordinates":[88.4013174,22.5133156]}},{"type":"Feature","properties":{"stop_id":"WBTC_ruby_hospital","stop_name":"Ruby Hospital","stop_code":"","mode":"bus","operator":"West Bengal Transport Corporation","source_feed_id":"kolkata_wbtc_bus_unofficial_constructed"},"geometry":{"type":"Point","coordinates":[88.401791,22.5127692]}},{"type":"Feature","properties":{"stop_id":"WBTC_sodpur","stop_name":"SODPUR","stop_code":"","mode":"bus","operator":"West Bengal Transport Corporation","source_feed_id":"kolkata_wbtc_bus_unofficial_constructed"},"geometry":{"type":"Point","coordinates":[88.3822,22.6989]}},{"type":"Feature","properties":{"stop_id":"WBTC_sakher_bazar","stop_name":"Sakher Bazar","stop_code":"","mode":"bus","operator":"West Bengal Transport Corporation","source_feed_id":"kolkata_wbtc_bus_unofficial_constructed"},"geometry":{"type":"Point","coordinates":[88.3106171,22.4815335]}},{"type":"Feature","properties":{"stop_id":"WBTC_salt_lake","stop_name":"Salt Lake","stop_code":"","mode":"bus","operator":"West Bengal Transport Corporation","source_feed_id":"kolkata_wbtc_bus_unofficial_constructed"},"geometry":{"type":"Point","coordinates":[88.4163496,22.5903499]}},{"type":"Feature","properties":{"stop_id":"WBTC_salt_lake_gate","stop_name":"Salt Lake Gate","stop_code":"","mode":"bus","operator":"West Bengal Transport Corporation","source_feed_id":"kolkata_wbtc_bus_unofficial_constructed"},"geometry":{"type":"Point","coordinates":[88.3967956,22.5898561]}},{"type":"Feature","properties":{"stop_id":"WBTC_salt_lake_karunamoyee","stop_name":"Salt Lake Karunamoyee","stop_code":"","mode":"bus","operator":"West Bengal Transport Corporation","source_feed_id":"kolkata_wbtc_bus_unofficial_constructed"},"geometry":{"type":"Point","coordinates":[88.4219948,22.585506]}},{"type":"Feature","properties":{"stop_id":"WBTC_sankrail","stop_name":"Sankrail","stop_code":"","mode":"bus","operator":"West Bengal Transport Corporation","source_feed_id":"kolkata_wbtc_bus_unofficial_constructed"},"geometry":{"type":"Point","coordinates":[88.2116348,22.5627587]}},{"type":"Feature","properties":{"stop_id":"WBTC_santoshpur","stop_name":"Santoshpur","stop_code":"","mode":"bus","operator":"West Bengal Transport Corporation","source_feed_id":"kolkata_wbtc_bus_unofficial_constructed"},"geometry":{"type":"Point","coordinates":[88.2710655,22.5240566]}},{"type":"Feature","properties":{"stop_id":"WBTC_santragachi","stop_name":"Santragachi","stop_code":"","mode":"bus","operator":"West Bengal Transport Corporation","source_feed_id":"kolkata_wbtc_bus_unofficial_constructed"},"geometry":{"type":"Point","coordinates":[88.28384,22.5853103]}},{"type":"Feature","properties":{"stop_id":"WBTC_sarsuna","stop_name":"Sarsuna","stop_code":"","mode":"bus","operator":"West Bengal Transport Corporation","source_feed_id":"kolkata_wbtc_bus_unofficial_constructed"},"geometry":{"type":"Point","coordinates":[88.2937843,22.4751735]}},{"type":"Feature","properties":{"stop_id":"WBTC_science_city","stop_name":"Science City","stop_code":"","mode":"bus","operator":"West Bengal Transport Corporation","source_feed_id":"kolkata_wbtc_bus_unofficial_constructed"},"geometry":{"type":"Point","coordinates":[88.3981365,22.5411554]}},{"type":"Feature","properties":{"stop_id":"WBTC_sealdah","stop_name":"Sealdah","stop_code":"","mode":"bus","operator":"West Bengal Transport Corporation","source_feed_id":"kolkata_wbtc_bus_unofficial_constructed"},"geometry":{"type":"Point","coordinates":[88.3694101,22.5700193]}},{"type":"Feature","properties":{"stop_id":"WBTC_sector_v_2","stop_name":"Sector - V (2)","stop_code":"","mode":"bus","operator":"West Bengal Transport Corporation","source_feed_id":"kolkata_wbtc_bus_unofficial_constructed"},"geometry":{"type":"Point","coordinates":[88.4380277,22.5727651]}},{"type":"Feature","properties":{"stop_id":"WBTC_shibrampur","stop_name":"Shibrampur","stop_code":"","mode":"bus","operator":"West Bengal Transport Corporation","source_feed_id":"kolkata_wbtc_bus_unofficial_constructed"},"geometry":{"type":"Point","coordinates":[88.2890333,22.4852701]}},{"type":"Feature","properties":{"stop_id":"WBTC_shyambazar","stop_name":"Shyambazar","stop_code":"","mode":"bus","operator":"West Bengal Transport Corporation","source_feed_id":"kolkata_wbtc_bus_unofficial_constructed"},"geometry":{"type":"Point","coordinates":[88.3735792,22.6017945]}},{"type":"Feature","properties":{"stop_id":"WBTC_shyamnagar","stop_name":"Shyamnagar","stop_code":"","mode":"bus","operator":"West Bengal Transport Corporation","source_feed_id":"kolkata_wbtc_bus_unofficial_constructed"},"geometry":{"type":"Point","coordinates":[88.3801893,22.8285164]}},{"type":"Feature","properties":{"stop_id":"WBTC_silpara","stop_name":"Silpara","stop_code":"","mode":"bus","operator":"West Bengal Transport Corporation","source_feed_id":"kolkata_wbtc_bus_unofficial_constructed"},"geometry":{"type":"Point","coordinates":[88.3097138,22.4698579]}},{"type":"Feature","properties":{"stop_id":"WBTC_sinthee","stop_name":"Sinthee","stop_code":"","mode":"bus","operator":"West Bengal Transport Corporation","source_feed_id":"kolkata_wbtc_bus_unofficial_constructed"},"geometry":{"type":"Point","coordinates":[88.3885539,22.6289116]}},{"type":"Feature","properties":{"stop_id":"WBTC_sodepur_girja","stop_name":"Sodepur Girja","stop_code":"","mode":"bus","operator":"West Bengal Transport Corporation","source_feed_id":"kolkata_wbtc_bus_unofficial_constructed"},"geometry":{"type":"Point","coordinates":[88.3743865,22.7097092]}},{"type":"Feature","properties":{"stop_id":"WBTC_sukanta_setu","stop_name":"Sukanta Setu","stop_code":"","mode":"bus","operator":"West Bengal Transport Corporation","source_feed_id":"kolkata_wbtc_bus_unofficial_constructed"},"geometry":{"type":"Point","coordinates":[88.3723103,22.4912303]}},{"type":"Feature","properties":{"stop_id":"WBTC_swasthya_bhawan","stop_name":"Swasthya Bhawan","stop_code":"","mode":"bus","operator":"West Bengal Transport Corporation","source_feed_id":"kolkata_wbtc_bus_unofficial_constructed"},"geometry":{"type":"Point","coordinates":[88.426408,22.5706379]}},{"type":"Feature","properties":{"stop_id":"WBTC_tank_no_4","stop_name":"Tank No. 4","stop_code":"","mode":"bus","operator":"West Bengal Transport Corporation","source_feed_id":"kolkata_wbtc_bus_unofficial_constructed"},"geometry":{"type":"Point","coordinates":[88.4088718,22.5970338]}},{"type":"Feature","properties":{"stop_id":"WBTC_taratala","stop_name":"Taratala","stop_code":"","mode":"bus","operator":"West Bengal Transport Corporation","source_feed_id":"kolkata_wbtc_bus_unofficial_constructed"},"geometry":{"type":"Point","coordinates":[88.3203842,22.5076863]}},{"type":"Feature","properties":{"stop_id":"WBTC_tata_medical","stop_name":"Tata Medical","stop_code":"","mode":"bus","operator":"West Bengal Transport Corporation","source_feed_id":"kolkata_wbtc_bus_unofficial_constructed"},"geometry":{"type":"Point","coordinates":[88.4791145,22.576353]}},{"type":"Feature","properties":{"stop_id":"WBTC_technopolis","stop_name":"Technopolis","stop_code":"","mode":"bus","operator":"West Bengal Transport Corporation","source_feed_id":"kolkata_wbtc_bus_unofficial_constructed"},"geometry":{"type":"Point","coordinates":[88.438056,22.5804274]}},{"type":"Feature","properties":{"stop_id":"WBTC_tegharia","stop_name":"Tegharia","stop_code":"","mode":"bus","operator":"West Bengal Transport Corporation","source_feed_id":"kolkata_wbtc_bus_unofficial_constructed"},"geometry":{"type":"Point","coordinates":[88.4327698,22.6213954]}},{"type":"Feature","properties":{"stop_id":"WBTC_teghoria","stop_name":"Teghoria","stop_code":"","mode":"bus","operator":"West Bengal Transport Corporation","source_feed_id":"kolkata_wbtc_bus_unofficial_constructed"},"geometry":{"type":"Point","coordinates":[88.4332411,22.6258949]}},{"type":"Feature","properties":{"stop_id":"WBTC_thakurpukur","stop_name":"Thakurpukur","stop_code":"","mode":"bus","operator":"West Bengal Transport Corporation","source_feed_id":"kolkata_wbtc_bus_unofficial_constructed"},"geometry":{"type":"Point","coordinates":[88.3051409,22.4570489]}},{"type":"Feature","properties":{"stop_id":"WBTC_tikiapara","stop_name":"Tikiapara","stop_code":"","mode":"bus","operator":"West Bengal Transport Corporation","source_feed_id":"kolkata_wbtc_bus_unofficial_constructed"},"geometry":{"type":"Point","coordinates":[88.3244881,22.5980998]}},{"type":"Feature","properties":{"stop_id":"WBTC_titagarh","stop_name":"Titagarh","stop_code":"","mode":"bus","operator":"West Bengal Transport Corporation","source_feed_id":"kolkata_wbtc_bus_unofficial_constructed"},"geometry":{"type":"Point","coordinates":[88.3745843,22.7411261]}},{"type":"Feature","properties":{"stop_id":"WBTC_tollygunge","stop_name":"Tollygunge","stop_code":"","mode":"bus","operator":"West Bengal Transport Corporation","source_feed_id":"kolkata_wbtc_bus_unofficial_constructed"},"geometry":{"type":"Point","coordinates":[88.341332,22.4867023]}},{"type":"Feature","properties":{"stop_id":"WBTC_topsia","stop_name":"Topsia","stop_code":"","mode":"bus","operator":"West Bengal Transport Corporation","source_feed_id":"kolkata_wbtc_bus_unofficial_constructed"},"geometry":{"type":"Point","coordinates":[88.3869552,22.5418017]}},{"type":"Feature","properties":{"stop_id":"WBTC_unitech_gate_1","stop_name":"Unitech Gate 1","stop_code":"","mode":"bus","operator":"West Bengal Transport Corporation","source_feed_id":"kolkata_wbtc_bus_unofficial_constructed"},"geometry":{"type":"Point","coordinates":[88.4799563,22.574454]}},{"type":"Feature","properties":{"stop_id":"WBTC_v_i_p_bazar","stop_name":"V.I.P. Bazar","stop_code":"","mode":"bus","operator":"West Bengal Transport Corporation","source_feed_id":"kolkata_wbtc_bus_unofficial_constructed"},"geometry":{"type":"Point","coordinates":[88.3921512,22.5260891]}},{"type":"Feature","properties":{"stop_id":"WBTC_vip_bazar","stop_name":"VIP Bazar","stop_code":"","mode":"bus","operator":"West Bengal Transport Corporation","source_feed_id":"kolkata_wbtc_bus_unofficial_constructed"},"geometry":{"type":"Point","coordinates":[88.3956743,22.5260927]}},{"type":"Feature","properties":{"stop_id":"WBTC_vivekananda_park","stop_name":"Vivekananda Park","stop_code":"","mode":"bus","operator":"West Bengal Transport Corporation","source_feed_id":"kolkata_wbtc_bus_unofficial_constructed"},"geometry":{"type":"Point","coordinates":[88.3592993,22.5137208]}},{"type":"Feature","properties":{"stop_id":"WBTC_wipro","stop_name":"Wipro","stop_code":"","mode":"bus","operator":"West Bengal Transport Corporation","source_feed_id":"kolkata_wbtc_bus_unofficial_constructed"},"geometry":{"type":"Point","coordinates":[88.4266991,22.5789982]}}]}