{"type":"FeatureCollection","features":[{"type":"Feature","properties":{"route_id":"wbtc_3","route_short_name":"3","route_long_name":"Dahighat - Sealdah","agency_id":"WBTC","mode":"bus","operator":"West Bengal Transport Corporation","source_feed_id":"kolkata_wbtc_bus_unofficial_constructed"},"geometry":{"type":"LineString","coordinates":[[88.3502179,22.5548915],[88.3507997,22.5634705],[88.3694101,22.5700193]]}},{"type":"Feature","properties":{"route_id":"wbtc_15","route_short_name":"15","route_long_name":"Ultadanga - Howrah","agency_id":"WBTC","mode":"bus","operator":"West Bengal Transport Corporation","source_feed_id":"kolkata_wbtc_bus_unofficial_constructed"},"geometry":{"type":"LineString","coordinates":[[88.3437613,22.5861351],[88.3403452,22.5833648]]}},{"type":"Feature","properties":{"route_id":"wbtc_33","route_short_name":"33","route_long_name":"Chetla - Paikpara","agency_id":"WBTC","mode":"bus","operator":"West Bengal Transport Corporation","source_feed_id":"kolkata_wbtc_bus_unofficial_constructed"},"geometry":{"type":"LineString","coordinates":[[88.3374435,22.517396],[88.3852619,22.6119115],[88.3735792,22.6017945],[88.3057431,22.5682566],[88.346226,22.5169434]]}},{"type":"Feature","properties":{"route_id":"wbtc_7a","route_short_name":"7A","route_long_name":"Sarsuna - Howrah","agency_id":"WBTC","mode":"bus","operator":"West Bengal Transport Corporation","source_feed_id":"kolkata_wbtc_bus_unofficial_constructed"},"geometry":{"type":"LineString","coordinates":[[88.2937843,22.4751735],[88.2860984,22.5641518],[88.3177975,22.499411],[88.3507997,22.5634705],[88.3437613,22.5861351],[88.3403452,22.5833648]]}},{"type":"Feature","properties":{"route_id":"wbtc_11a","route_short_name":"11A","route_long_name":"Dum Dum - Howrah","agency_id":"WBTC","mode":"bus","operator":"West Bengal Transport Corporation","source_feed_id":"kolkata_wbtc_bus_unofficial_constructed"},"geometry":{"type":"LineString","coordinates":[[88.3928973,22.6211141],[88.3940702,22.6199389],[88.3735792,22.6017945],[88.3437613,22.5861351],[88.3403452,22.5833648]]}},{"type":"Feature","properties":{"route_id":"wbtc_14a","route_short_name":"14A","route_long_name":"Bichalighat - Bikash Bhavan","agency_id":"WBTC","mode":"bus","operator":"West Bengal Transport Corporation","source_feed_id":"kolkata_wbtc_bus_unofficial_constructed"},"geometry":{"type":"LineString","coordinates":[[88.4264879,22.6072744],[88.2946783,22.543469],[88.4134121,22.5765668],[88.3507997,22.5634705],[88.3694101,22.5700193],[88.3921864,22.5636583],[88.4156247,22.5904737]]}},{"type":"Feature","properties":{"route_id":"wbtc_5_n","route_short_name":"5-N","route_long_name":"Garia - Nabanna","agency_id":"WBTC","mode":"bus","operator":"West Bengal Transport Corporation","source_feed_id":"kolkata_wbtc_bus_unofficial_constructed"},"geometry":{"type":"LineString","coordinates":[[88.3773186,22.471248],[88.3755826,22.4839937],[88.3714445,22.4941282],[88.3670532,22.5078133],[88.3667742,22.5155838],[88.3474426,22.5417517],[88.3171234,22.5693753]]}},{"type":"Feature","properties":{"route_id":"wbtc_6_n","route_short_name":"6-N","route_long_name":"Garia - Nabanna","agency_id":"WBTC","mode":"bus","operator":"West Bengal Transport Corporation","source_feed_id":"kolkata_wbtc_bus_unofficial_constructed"},"geometry":{"type":"LineString","coordinates":[[88.3773186,22.471248],[88.3619683,22.4738701],[88.3474426,22.5417517],[88.3171234,22.5693753]]}},{"type":"Feature","properties":{"route_id":"wbtc_12n","route_short_name":"12N","route_long_name":"Thakurpukur - Nabanna","agency_id":"WBTC","mode":"bus","operator":"West Bengal Transport Corporation","source_feed_id":"kolkata_wbtc_bus_unofficial_constructed"},"geometry":{"type":"LineString","coordinates":[[88.3051409,22.4570489],[88.3171234,22.5693753]]}},{"type":"Feature","properties":{"route_id":"wbtc_ac_1","route_short_name":"AC-1","route_long_name":"Jadavpore - Howrah","agency_id":"WBTC","mode":"bus","operator":"West Bengal Transport Corporation","source_feed_id":"kolkata_wbtc_bus_unofficial_constructed"},"geometry":{"type":"LineString","coordinates":[[88.3706122,22.4956536],[88.3403452,22.5833648]]}},{"type":"Feature","properties":{"route_id":"wbtc_ac_2","route_short_name":"AC-2","route_long_name":"Barasat - Howrah Station","agency_id":"WBTC","mode":"bus","operator":"West Bengal Transport Corporation","source_feed_id":"kolkata_wbtc_bus_unofficial_constructed"},"geometry":{"type":"LineString","coordinates":[[88.4754872,22.7113893],[88.4699989,22.7109969],[88.2870287,22.6066694],[88.4346322,22.6615678],[88.4312932,22.6415745],[88.4346171,22.6344209],[88.4335135,22.6277514],[88.4332411,22.6258949],[88.4091751,22.6111306],[88.4101901,22.6114242],[88.4026439,22.6097509],[88.3933015,22.5900243],[88.3904444,22.5799405],[88.3629415,22.5871445],[88.3437613,22.5861351]]}},{"type":"Feature","properties":{"route_id":"wbtc_ac_4","route_short_name":"AC-4","route_long_name":"Parnasree - Howrah","agency_id":"WBTC","mode":"bus","operator":"West Bengal Transport Corporation","source_feed_id":"kolkata_wbtc_bus_unofficial_constructed"},"geometry":{"type":"LineString","coordinates":[[88.3033065,22.5124123],[88.3472222,22.5417422],[88.3502179,22.5548915],[88.3507997,22.5634705],[88.3403452,22.5833648]]}},{"type":"Feature","properties":{"route_id":"wbtc_ac_4a","route_short_name":"AC-4A","route_long_name":"Parnashri - Sapoorji","agency_id":"WBTC","mode":"bus","operator":"West Bengal Transport Corporation","source_feed_id":"kolkata_wbtc_bus_unofficial_constructed"},"geometry":{"type":"LineString","coordinates":[[88.3033065,22.5124123],[88.3533289,22.5080547],[88.3706122,22.4956536],[88.4006497,22.5046476],[88.4013174,22.5133156],[88.4123496,22.5568433],[88.4208263,22.5721539],[88.4264879,22.6072744],[88.4799563,22.574454]]}},{"type":"Feature","properties":{"route_id":"wbtc_ac_4b","route_short_name":"AC-4B","route_long_name":"Joka - New Town","agency_id":"WBTC","mode":"bus","operator":"West Bengal Transport Corporation","source_feed_id":"kolkata_wbtc_bus_unofficial_constructed"},"geometry":{"type":"LineString","coordinates":[[88.3018236,22.452347],[88.3051409,22.4570489],[88.3378038,22.4806943],[88.4209109,22.5859945],[88.341332,22.4867023],[88.365148,22.5194439],[88.4013174,22.5133156],[88.4264879,22.6072744],[88.438056,22.5804274],[88.4527297,22.5816091]]}},{"type":"Feature","properties":{"route_id":"wbtc_ac_5","route_short_name":"AC-5","route_long_name":"Garia - Howrah","agency_id":"WBTC","mode":"bus","operator":"West Bengal Transport Corporation","source_feed_id":"kolkata_wbtc_bus_unofficial_constructed"},"geometry":{"type":"LineString","coordinates":[[88.3773186,22.471248],[88.3755826,22.4839937],[88.3714445,22.4941282],[88.3667742,22.5155838],[88.365148,22.5194439],[88.3403452,22.5833648]]}},{"type":"Feature","properties":{"route_id":"wbtc_ac_6","route_short_name":"AC-6","route_long_name":"Garia - Howrah","agency_id":"WBTC","mode":"bus","operator":"West Bengal Transport Corporation","source_feed_id":"kolkata_wbtc_bus_unofficial_constructed"},"geometry":{"type":"LineString","coordinates":[[88.3773186,22.471248],[88.3437613,22.5861351],[88.3619683,22.4738701],[88.3403452,22.5833648]]}},{"type":"Feature","properties":{"route_id":"wbtc_ac_9","route_short_name":"AC-9","route_long_name":"Jadavpore - Karunamoyee","agency_id":"WBTC","mode":"bus","operator":"West Bengal Transport Corporation","source_feed_id":"kolkata_wbtc_bus_unofficial_constructed"},"geometry":{"type":"LineString","coordinates":[[88.3953832,22.4902697],[88.4013174,22.5133156],[88.6076805,22.674796],[88.4156247,22.5904737],[88.4209109,22.5859945]]}},{"type":"Feature","properties":{"route_id":"wbtc_ac_9b","route_short_name":"AC-9B","route_long_name":"Jadavpore - Eco Space","agency_id":"WBTC","mode":"bus","operator":"West Bengal Transport Corporation","source_feed_id":"kolkata_wbtc_bus_unofficial_constructed"},"geometry":{"type":"LineString","coordinates":[[88.3723103,22.4912303],[88.3953832,22.4902697],[88.4264879,22.6072744],[88.4527297,22.5816091]]}},{"type":"Feature","properties":{"route_id":"wbtc_ac_12","route_short_name":"AC-12","route_long_name":"New Town (Sapoorji) - Howrah","agency_id":"WBTC","mode":"bus","operator":"West Bengal Transport Corporation","source_feed_id":"kolkata_wbtc_bus_unofficial_constructed"},"geometry":{"type":"LineString","coordinates":[[88.3869552,22.5418017],[88.3474426,22.5417517],[88.3507997,22.5634705],[88.3403452,22.5833648]]}},{"type":"Feature","properties":{"route_id":"wbtc_ac_12d","route_short_name":"AC-12D","route_long_name":"Joka - Howrah","agency_id":"WBTC","mode":"bus","operator":"West Bengal Transport Corporation","source_feed_id":"kolkata_wbtc_bus_unofficial_constructed"},"geometry":{"type":"LineString","coordinates":[[88.3018236,22.452347],[88.3051409,22.4570489],[88.3180625,22.5022305],[88.3472222,22.5417422],[88.3507997,22.5634705],[88.3403452,22.5833648]]}},{"type":"Feature","properties":{"route_id":"wbtc_ac_14","route_short_name":"AC-14","route_long_name":"Baruipur New Terminus - Karunamoyee (Salt Lake)","agency_id":"WBTC","mode":"bus","operator":"West Bengal Transport Corporation","source_feed_id":"kolkata_wbtc_bus_unofficial_constructed"},"geometry":{"type":"LineString","coordinates":[[88.4391139,22.3482512],[88.3057431,22.5682566],[88.4154971,22.4165966],[88.3902624,22.4467803],[88.3897463,22.4719281],[88.4013174,22.5133156],[88.4063762,22.5525577],[88.4156247,22.5904737],[88.4219948,22.585506]]}},{"type":"Feature","properties":{"route_id":"wbtc_ac_20","route_short_name":"AC-20","route_long_name":"Santragachi - Barrackpore","agency_id":"WBTC","mode":"bus","operator":"West Bengal Transport Corporation","source_feed_id":"kolkata_wbtc_bus_unofficial_constructed"},"geometry":{"type":"LineString","coordinates":[[88.28384,22.5853103],[88.3507997,22.5634705],[88.3735792,22.6017945],[88.3770355,22.652348],[88.3822,22.6989],[88.3745843,22.7411261],[88.366361,22.7612631]]}},{"type":"Feature","properties":{"route_id":"wbtc_ac_23a","route_short_name":"AC-23A","route_long_name":"Salt Lake Depot Gate - Rajchandrapur","agency_id":"WBTC","mode":"bus","operator":"West Bengal Transport Corporation","source_feed_id":"kolkata_wbtc_bus_unofficial_constructed"},"geometry":{"type":"LineString","coordinates":[[88.3967956,22.5898561],[88.4264879,22.6072744],[88.4527297,22.5816091],[88.4799563,22.574454],[88.4809461,22.5931271],[88.4084144,22.5899519],[88.4335135,22.6277514],[88.4312932,22.6415745],[88.3631643,22.6526986],[88.3401611,22.6527285]]}},{"type":"Feature","properties":{"route_id":"wbtc_ac_24","route_short_name":"AC-24","route_long_name":"Patuli - Howrah","agency_id":"WBTC","mode":"bus","operator":"West Bengal Transport Corporation","source_feed_id":"kolkata_wbtc_bus_unofficial_constructed"},"geometry":{"type":"LineString","coordinates":[[88.3897463,22.4719281],[88.4013174,22.5133156],[88.365148,22.5194439],[88.3474426,22.5417517],[88.3502179,22.5548915],[88.3403452,22.5833648]]}},{"type":"Feature","properties":{"route_id":"wbtc_ac_24a","route_short_name":"AC-24A","route_long_name":"Kamalgazi - Howrah Station","agency_id":"WBTC","mode":"bus","operator":"West Bengal Transport Corporation","source_feed_id":"kolkata_wbtc_bus_unofficial_constructed"},"geometry":{"type":"LineString","coordinates":[[88.3909569,22.4491938],[88.3897463,22.4719281],[88.4006497,22.5046476],[88.401791,22.5127692],[88.365148,22.5194439],[88.3502179,22.5548915],[88.3507997,22.5634705],[88.3437613,22.5861351]]}},{"type":"Feature","properties":{"route_id":"wbtc_ac_30","route_short_name":"AC-30","route_long_name":"Lake Town (Jaya Cinema) - Howrah Station","agency_id":"WBTC","mode":"bus","operator":"West Bengal Transport Corporation","source_feed_id":"kolkata_wbtc_bus_unofficial_constructed"},"geometry":{"type":"LineString","coordinates":[[88.4026439,22.6097509],[88.3933015,22.5900243],[88.3904444,22.5799405],[88.3629415,22.5871445],[88.3437613,22.5861351]]}},{"type":"Feature","properties":{"route_id":"wbtc_ac_30s_it_spl","route_short_name":"AC-30S (IT Spl.)","route_long_name":"Ultadanga - Sapoorji","agency_id":"WBTC","mode":"bus","operator":"West Bengal Transport Corporation","source_feed_id":"kolkata_wbtc_bus_unofficial_constructed"},"geometry":{"type":"LineString","coordinates":[[88.4264879,22.6072744],[88.4799563,22.574454]]}},{"type":"Feature","properties":{"route_id":"wbtc_ac_31","route_short_name":"AC-31","route_long_name":"Behala Chowrastha - Jadavpur","agency_id":"WBTC","mode":"bus","operator":"West Bengal Transport Corporation","source_feed_id":"kolkata_wbtc_bus_unofficial_constructed"},"geometry":{"type":"LineString","coordinates":[[88.4209109,22.5859945],[88.3533289,22.5080547],[88.3714445,22.4941282]]}},{"type":"Feature","properties":{"route_id":"wbtc_ac_37","route_short_name":"AC-37","route_long_name":"Garia - Barasat","agency_id":"WBTC","mode":"bus","operator":"West Bengal Transport Corporation","source_feed_id":"kolkata_wbtc_bus_unofficial_constructed"},"geometry":{"type":"LineString","coordinates":[[88.3773186,22.471248],[88.3897463,22.4719281],[88.3981365,22.5411554],[88.3933015,22.5900243],[88.4312932,22.6415745],[88.4699989,22.7109969],[88.4754872,22.7113893]]}},{"type":"Feature","properties":{"route_id":"wbtc_ac_37a","route_short_name":"AC-37A","route_long_name":"Garia - Air Port","agency_id":"WBTC","mode":"bus","operator":"West Bengal Transport Corporation","source_feed_id":"kolkata_wbtc_bus_unofficial_constructed"},"geometry":{"type":"LineString","coordinates":[[88.3773186,22.471248],[88.3897463,22.4719281],[88.4006497,22.5046476],[88.4013174,22.5133156],[88.3956743,22.5260927],[88.4123496,22.5568433],[88.4208263,22.5721539],[88.438056,22.5804274],[88.4527297,22.5816091],[88.4410164,22.6236199],[88.4312932,22.6415745]]}},{"type":"Feature","properties":{"route_id":"wbtc_ac_38","route_short_name":"AC-38","route_long_name":"Dum Dum 11A Stand - Karunamoyee","agency_id":"WBTC","mode":"bus","operator":"West Bengal Transport Corporation","source_feed_id":"kolkata_wbtc_bus_unofficial_constructed"},"geometry":{"type":"LineString","coordinates":[[88.4312932,22.6415745],[88.4264879,22.6072744],[88.4266991,22.5789982],[88.4209109,22.5859945]]}},{"type":"Feature","properties":{"route_id":"wbtc_ac_39","route_short_name":"AC-39","route_long_name":"Howrah - Air Port","agency_id":"WBTC","mode":"bus","operator":"West Bengal Transport Corporation","source_feed_id":"kolkata_wbtc_bus_unofficial_constructed"},"geometry":{"type":"LineString","coordinates":[[88.3403452,22.5833648],[88.3437613,22.5861351],[88.3629415,22.5871445],[88.3904444,22.5799405],[88.4346171,22.6344209],[88.4312932,22.6415745]]}},{"type":"Feature","properties":{"route_id":"wbtc_ac_40","route_short_name":"AC-40","route_long_name":"Airport Gate No. 1 - Howrah Maidan","agency_id":"WBTC","mode":"bus","operator":"West Bengal Transport Corporation","source_feed_id":"kolkata_wbtc_bus_unofficial_constructed"},"geometry":{"type":"LineString","coordinates":[[88.4312932,22.6415745],[88.3952451,22.6065505],[88.3735792,22.6017945],[88.3629415,22.5871445],[88.3437613,22.5861351],[88.3326769,22.5817516]]}},{"type":"Feature","properties":{"route_id":"wbtc_ac_43","route_short_name":"AC-43","route_long_name":"Golf Green - Air Port","agency_id":"WBTC","mode":"bus","operator":"West Bengal Transport Corporation","source_feed_id":"kolkata_wbtc_bus_unofficial_constructed"},"geometry":{"type":"LineString","coordinates":[[88.3612716,22.4890167],[88.3533289,22.5080547],[88.3706122,22.4956536],[88.4013174,22.5133156],[88.4208263,22.5721539],[88.4264879,22.6072744],[88.4527297,22.5816091],[88.4346171,22.6344209],[88.4312932,22.6415745]]}},{"type":"Feature","properties":{"route_id":"wbtc_ac_47","route_short_name":"AC-47","route_long_name":"Kundghat - Sapoorji","agency_id":"WBTC","mode":"bus","operator":"West Bengal Transport Corporation","source_feed_id":"kolkata_wbtc_bus_unofficial_constructed"},"geometry":{"type":"LineString","coordinates":[[88.3177975,22.499411],[88.365148,22.5194439],[88.4013174,22.5133156],[88.3981365,22.5411554],[88.426408,22.5706379],[88.4527297,22.5816091],[88.4799563,22.574454]]}},{"type":"Feature","properties":{"route_id":"wbtc_ac_50a","route_short_name":"AC-50A","route_long_name":"Garia - Rajchandra- pur","agency_id":"WBTC","mode":"bus","operator":"West Bengal Transport Corporation","source_feed_id":"kolkata_wbtc_bus_unofficial_constructed"},"geometry":{"type":"LineString","coordinates":[[88.3773186,22.471248],[88.3897463,22.4719281],[88.3933015,22.5900243],[88.4346171,22.6344209],[88.4312932,22.6415745],[88.4192153,22.6504966],[88.3631643,22.6526986]]}},{"type":"Feature","properties":{"route_id":"wbtc_ac_52","route_short_name":"AC-52","route_long_name":"Amtala - Howrah","agency_id":"WBTC","mode":"bus","operator":"West Bengal Transport Corporation","source_feed_id":"kolkata_wbtc_bus_unofficial_constructed"},"geometry":{"type":"LineString","coordinates":[[88.2739116,22.3864451],[88.2916615,22.4355457],[88.3018236,22.452347],[88.3051409,22.4570489],[88.3180625,22.5022305],[88.3403452,22.5833648]]}},{"type":"Feature","properties":{"route_id":"wbtc_c2a","route_short_name":"C2A","route_long_name":"Tollygunge - Ghatatkpukur","agency_id":"WBTC","mode":"bus","operator":"West Bengal Transport Corporation","source_feed_id":"kolkata_wbtc_bus_unofficial_constructed"},"geometry":{"type":"LineString","coordinates":[[88.341332,22.4867023],[88.3455638,22.5171723],[88.3524248,22.5175341],[88.365148,22.5194439],[88.3712795,22.5207608],[88.3965876,22.5138432],[88.401791,22.5127692],[88.3956743,22.5260927],[88.3981365,22.5411554]]}},{"type":"Feature","properties":{"route_id":"wbtc_c7","route_short_name":"C7","route_long_name":"Howrah - H M Ghosh College","agency_id":"WBTC","mode":"bus","operator":"West Bengal Transport Corporation","source_feed_id":"kolkata_wbtc_bus_unofficial_constructed"},"geometry":{"type":"LineString","coordinates":[[88.3403452,22.5833648],[88.3507997,22.5634705],[88.3399379,22.5653131],[88.331602,22.556734],[88.2946783,22.543469]]}},{"type":"Feature","properties":{"route_id":"wbtc_c8","route_short_name":"C8","route_long_name":"Barasat - Joka","agency_id":"WBTC","mode":"bus","operator":"West Bengal Transport Corporation","source_feed_id":"kolkata_wbtc_bus_unofficial_constructed"},"geometry":{"type":"LineString","coordinates":[[88.4754872,22.7113893],[88.4530183,22.6947839],[88.4274959,22.6643198],[88.4410164,22.6236199],[88.4123496,22.5568433],[88.3981365,22.5411554],[88.4013174,22.5133156],[88.341332,22.4867023],[88.3018236,22.452347]]}},{"type":"Feature","properties":{"route_id":"wbtc_c23","route_short_name":"C23","route_long_name":"Park Circus - Dankuni","agency_id":"WBTC","mode":"bus","operator":"West Bengal Transport Corporation","source_feed_id":"kolkata_wbtc_bus_unofficial_constructed"},"geometry":{"type":"LineString","coordinates":[[88.3661202,22.5433189],[88.3981365,22.5411554],[88.4123496,22.5568433],[88.438056,22.5804274],[88.4312932,22.6415745],[88.4192153,22.6504966],[88.4090107,22.662516],[88.3631643,22.6526986],[88.338318,22.652314],[88.3401611,22.6527285],[88.2907626,22.6779609]]}},{"type":"Feature","properties":{"route_id":"wbtc_c24","route_short_name":"C24","route_long_name":"Rajabazar - Howrah","agency_id":"WBTC","mode":"bus","operator":"West Bengal Transport Corporation","source_feed_id":"kolkata_wbtc_bus_unofficial_constructed"},"geometry":{"type":"LineString","coordinates":[[88.3723323,22.5730978],[88.3641391,22.5770797],[88.3587427,22.5724857],[88.3403452,22.5833648]]}},{"type":"Feature","properties":{"route_id":"wbtc_c26","route_short_name":"C26","route_long_name":"Baruipur - Howrah","agency_id":"WBTC","mode":"bus","operator":"West Bengal Transport Corporation","source_feed_id":"kolkata_wbtc_bus_unofficial_constructed"},"geometry":{"type":"LineString","coordinates":[[88.4391139,22.3482512],[88.3057431,22.5682566],[88.4154971,22.4165966],[88.4184898,22.4539009],[88.3909569,22.4491938],[88.3897463,22.4719281],[88.4043073,22.5713233],[88.396436,22.4921407],[88.4006497,22.5046476],[88.401791,22.5127692],[88.3981365,22.5411554],[88.3869552,22.5418017],[88.3507997,22.5634705],[88.3403452,22.5833648]]}},{"type":"Feature","properties":{"route_id":"wbtc_c28","route_short_name":"C28","route_long_name":"Barrackpur - Howrah","agency_id":"WBTC","mode":"bus","operator":"West Bengal Transport Corporation","source_feed_id":"kolkata_wbtc_bus_unofficial_constructed"},"geometry":{"type":"LineString","coordinates":[[88.3745843,22.7411261],[88.3743865,22.7097092],[88.3760183,22.6777097],[88.3773368,22.6525808],[88.3885539,22.6289116],[88.3793002,22.6187242],[88.3735792,22.6017945],[88.3629415,22.5871445],[88.3403452,22.5833648]]}},{"type":"Feature","properties":{"route_id":"wbtc_c29","route_short_name":"C29","route_long_name":"Barrackpur - Barasat","agency_id":"WBTC","mode":"bus","operator":"West Bengal Transport Corporation","source_feed_id":"kolkata_wbtc_bus_unofficial_constructed"},"geometry":{"type":"LineString","coordinates":[[88.4451656,22.6868792],[88.4754872,22.7113893]]}},{"type":"Feature","properties":{"route_id":"wbtc_c31","route_short_name":"C31","route_long_name":"Karunamoyee - Bhattanagar","agency_id":"WBTC","mode":"bus","operator":"West Bengal Transport Corporation","source_feed_id":"kolkata_wbtc_bus_unofficial_constructed"},"geometry":{"type":"LineString","coordinates":[[88.4209109,22.5859945],[88.438056,22.5804274],[88.4312932,22.6415745],[88.4192153,22.6504966],[88.4090107,22.662516],[88.3631643,22.6526986],[88.3479091,22.6524304],[88.3222438,22.6287944]]}},{"type":"Feature","properties":{"route_id":"wbtc_c36","route_short_name":"C36","route_long_name":"Rajabazar - Hanskhali","agency_id":"WBTC","mode":"bus","operator":"West Bengal Transport Corporation","source_feed_id":"kolkata_wbtc_bus_unofficial_constructed"},"geometry":{"type":"LineString","coordinates":[[88.3723323,22.5730978],[88.3507997,22.5634705],[88.3472222,22.5417422],[88.3060728,22.5620415]]}},{"type":"Feature","properties":{"route_id":"wbtc_c37","route_short_name":"C37","route_long_name":"Amtala - Howrah","agency_id":"WBTC","mode":"bus","operator":"West Bengal Transport Corporation","source_feed_id":"kolkata_wbtc_bus_unofficial_constructed"},"geometry":{"type":"LineString","coordinates":[[88.2739116,22.3864451],[88.2916615,22.4355457],[88.299073,22.4482897],[88.3051409,22.4570489],[88.3106171,22.4815335],[88.3180625,22.5022305],[88.3260988,22.5270528],[88.3507997,22.5634705],[88.3403452,22.5833648]]}},{"type":"Feature","properties":{"route_id":"wbtc_c42","route_short_name":"C42","route_long_name":"Ganganagar - Howrah","agency_id":"WBTC","mode":"bus","operator":"West Bengal Transport Corporation","source_feed_id":"kolkata_wbtc_bus_unofficial_constructed"},"geometry":{"type":"LineString","coordinates":[[88.4522498,22.6797961],[88.4274959,22.6643198],[88.4312932,22.6415745],[88.4346171,22.6344209],[88.427972,22.6102177],[88.3904444,22.5799405],[88.3723323,22.5730978],[88.3403452,22.5833648]]}},{"type":"Feature","properties":{"route_id":"wbtc_c43","route_short_name":"C43","route_long_name":"Habra - Garia","agency_id":"WBTC","mode":"bus","operator":"West Bengal Transport Corporation","source_feed_id":"kolkata_wbtc_bus_unofficial_constructed"},"geometry":{"type":"LineString","coordinates":[[88.657583,22.840869],[88.6286227,22.8267554],[88.6008927,22.8085822],[88.5722344,22.7897513],[88.4754872,22.7113893],[88.4530183,22.6947839],[88.4312932,22.6415745],[88.4410164,22.6236199],[88.4123496,22.5568433],[88.3981365,22.5411554],[88.4013174,22.5133156],[88.3897463,22.4719281],[88.3773186,22.471248]]}},{"type":"Feature","properties":{"route_id":"wbtc_c46","route_short_name":"C46","route_long_name":"Baruipur - Nabanna","agency_id":"WBTC","mode":"bus","operator":"West Bengal Transport Corporation","source_feed_id":"kolkata_wbtc_bus_unofficial_constructed"},"geometry":{"type":"LineString","coordinates":[[88.4391139,22.3482512],[88.3203842,22.5076863],[88.3177975,22.499411],[88.2739116,22.3864451],[88.484875,22.631234],[88.3921686,22.2903279],[88.3171234,22.5693753]]}},{"type":"Feature","properties":{"route_id":"wbtc_c48","route_short_name":"C48","route_long_name":"Barasat/ Ecospace - Baruipur","agency_id":"WBTC","mode":"bus","operator":"West Bengal Transport Corporation","source_feed_id":"kolkata_wbtc_bus_unofficial_constructed"},"geometry":{"type":"LineString","coordinates":[[88.4530183,22.6947839],[88.4312932,22.6415745],[88.4410164,22.6236199],[88.4903856,22.5841333],[88.4380277,22.5727651],[88.4123496,22.5568433],[88.3981365,22.5411554],[88.4013174,22.5133156],[88.3897463,22.4719281],[88.3773186,22.471248],[88.4184898,22.4539009],[88.4154971,22.4165966],[88.3057431,22.5682566],[88.4391139,22.3482512]]}},{"type":"Feature","properties":{"route_id":"wbtc_d17","route_short_name":"D17","route_long_name":"Garia - KWIC","agency_id":"WBTC","mode":"bus","operator":"West Bengal Transport Corporation","source_feed_id":"kolkata_wbtc_bus_unofficial_constructed"},"geometry":{"type":"LineString","coordinates":[[88.3773186,22.471248],[88.3449282,22.50135],[88.3472222,22.5417422],[88.28384,22.5853103]]}},{"type":"Feature","properties":{"route_id":"wbtc_d1a","route_short_name":"D1A","route_long_name":"Barasat - Tollygunge","agency_id":"WBTC","mode":"bus","operator":"West Bengal Transport Corporation","source_feed_id":"kolkata_wbtc_bus_unofficial_constructed"},"geometry":{"type":"LineString","coordinates":[[88.4754872,22.7113893],[88.4530183,22.6947839],[88.4264879,22.6072744],[88.4312932,22.6415745],[88.427972,22.6102177],[88.4274959,22.6643198],[88.3981365,22.5411554],[88.4013174,22.5133156],[88.341332,22.4867023]]}},{"type":"Feature","properties":{"route_id":"wbtc_e_1","route_short_name":"E-1","route_long_name":"Jadavpore - Howrah","agency_id":"WBTC","mode":"bus","operator":"West Bengal Transport Corporation","source_feed_id":"kolkata_wbtc_bus_unofficial_constructed"},"geometry":{"type":"LineString","coordinates":[[88.3714445,22.4941282],[88.3670532,22.5078133],[88.3667742,22.5155838],[88.3472222,22.5417422],[88.3507997,22.5634705],[88.3403452,22.5833648]]}},{"type":"Feature","properties":{"route_id":"wbtc_e_4","route_short_name":"E-4","route_long_name":"Parnasree - Howrah","agency_id":"WBTC","mode":"bus","operator":"West Bengal Transport Corporation","source_feed_id":"kolkata_wbtc_bus_unofficial_constructed"},"geometry":{"type":"LineString","coordinates":[[88.3033065,22.5124123],[88.3507997,22.5634705],[88.3437613,22.5861351],[88.3403452,22.5833648]]}},{"type":"Feature","properties":{"route_id":"wbtc_e_32","route_short_name":"E-32","route_long_name":"Neilgunj - Howrah","agency_id":"WBTC","mode":"bus","operator":"West Bengal Transport Corporation","source_feed_id":"kolkata_wbtc_bus_unofficial_constructed"},"geometry":{"type":"LineString","coordinates":[[88.3745843,22.7411261],[88.3760183,22.6777097],[88.3770355,22.652348],[88.3735792,22.6017945],[88.3592993,22.5137208],[88.3437613,22.5861351],[88.3403452,22.5833648]]}},{"type":"Feature","properties":{"route_id":"wbtc_e36","route_short_name":"E36","route_long_name":"Habra - Santragachi","agency_id":"WBTC","mode":"bus","operator":"West Bengal Transport Corporation","source_feed_id":"kolkata_wbtc_bus_unofficial_constructed"},"geometry":{"type":"LineString","coordinates":[[88.657583,22.840869],[88.6286227,22.8267554],[88.6008927,22.8085822],[88.5722344,22.7897513],[88.4754872,22.7113893],[88.4530183,22.6947839],[88.4264879,22.6072744],[88.4312932,22.6415745],[88.427972,22.6102177],[88.3629415,22.5871445],[88.3507997,22.5634705],[88.28384,22.5853103]]}},{"type":"Feature","properties":{"route_id":"wbtc_e_36_spl","route_short_name":"E 36 Spl","route_long_name":"Barasat - Santragachi","agency_id":"WBTC","mode":"bus","operator":"West Bengal Transport Corporation","source_feed_id":"kolkata_wbtc_bus_unofficial_constructed"},"geometry":{"type":"LineString","coordinates":[[88.4754872,22.7113893],[88.4530183,22.6947839],[88.4264879,22.6072744],[88.4274959,22.6643198],[88.4312932,22.6415745],[88.427972,22.6102177],[88.3629415,22.5871445],[88.3507997,22.5634705],[88.28384,22.5853103]]}},{"type":"Feature","properties":{"route_id":"wbtc_e_37a","route_short_name":"E 37A","route_long_name":"Barasat - Esplanade","agency_id":"WBTC","mode":"bus","operator":"West Bengal Transport Corporation","source_feed_id":"kolkata_wbtc_bus_unofficial_constructed"},"geometry":{"type":"LineString","coordinates":[[88.4754872,22.7113893],[88.4530183,22.6947839],[88.4264879,22.6072744],[88.4274959,22.6643198],[88.4312932,22.6415745],[88.427972,22.6102177],[88.3629415,22.5871445],[88.3507997,22.5634705]]}},{"type":"Feature","properties":{"route_id":"wbtc_e43a","route_short_name":"E43A","route_long_name":"Howrah - Bhebia","agency_id":"WBTC","mode":"bus","operator":"West Bengal Transport Corporation","source_feed_id":"kolkata_wbtc_bus_unofficial_constructed"},"geometry":{"type":"LineString","coordinates":[[88.3403452,22.5833648],[88.3507997,22.5634705],[88.3661202,22.5433189],[88.3869552,22.5418017],[88.3981365,22.5411554],[88.5661568,22.4973993]]}},{"type":"Feature","properties":{"route_id":"wbtc_e75","route_short_name":"E75","route_long_name":"Barasat - Baruipur","agency_id":"WBTC","mode":"bus","operator":"West Bengal Transport Corporation","source_feed_id":"kolkata_wbtc_bus_unofficial_constructed"},"geometry":{"type":"LineString","coordinates":[[88.4754872,22.7113893],[88.4530183,22.6947839],[88.4264879,22.6072744],[88.4274959,22.6643198],[88.4410164,22.6236199],[88.4123496,22.5568433],[88.3981365,22.5411554],[88.5661568,22.4973993],[88.4936425,22.4018828],[88.4391139,22.3482512]]}},{"type":"Feature","properties":{"route_id":"wbtc_e77","route_short_name":"E77","route_long_name":"Esplanade - Sukanta Park","agency_id":"WBTC","mode":"bus","operator":"West Bengal Transport Corporation","source_feed_id":"kolkata_wbtc_bus_unofficial_constructed"},"geometry":{"type":"LineString","coordinates":[[88.3507997,22.5634705],[88.3472222,22.5417422],[88.28384,22.5853103],[88.2422693,22.6187082],[88.2095491,22.6431635],[88.1380703,22.6667486]]}},{"type":"Feature","properties":{"route_id":"wbtc_eb1","route_short_name":"EB1","route_long_name":"Nabanna - Newtown","agency_id":"WBTC","mode":"bus","operator":"West Bengal Transport Corporation","source_feed_id":"kolkata_wbtc_bus_unofficial_constructed"},"geometry":{"type":"LineString","coordinates":[[88.3171234,22.5693753],[88.3178157,22.5699137],[88.3472222,22.5417422],[88.3592162,22.5408326],[88.3661202,22.5433189],[88.3981365,22.5411554],[88.4123496,22.5568433],[88.4266991,22.5789982],[88.4264879,22.6072744],[88.4507715,22.5813836]]}},{"type":"Feature","properties":{"route_id":"wbtc_eb3","route_short_name":"EB3","route_long_name":"Tollygunge - Eco space","agency_id":"WBTC","mode":"bus","operator":"West Bengal Transport Corporation","source_feed_id":"kolkata_wbtc_bus_unofficial_constructed"},"geometry":{"type":"LineString","coordinates":[[88.341332,22.4867023],[88.3455638,22.5171723],[88.3524248,22.5175341],[88.365148,22.5194439],[88.401791,22.5127692],[88.3981365,22.5411554],[88.4005204,22.5486688],[88.4123496,22.5568433],[88.4208263,22.5721539],[88.4266991,22.5789982],[88.4264879,22.6072744],[88.4507715,22.5813836],[88.4799563,22.574454]]}},{"type":"Feature","properties":{"route_id":"wbtc_eb_12","route_short_name":"EB-12","route_long_name":"Barasat - Sapoorji","agency_id":"WBTC","mode":"bus","operator":"West Bengal Transport Corporation","source_feed_id":"kolkata_wbtc_bus_unofficial_constructed"},"geometry":{"type":"LineString","coordinates":[[88.4754872,22.7113893],[88.4699989,22.7109969],[88.2870287,22.6066694],[88.431454,22.641663],[88.4084144,22.5899519],[88.4809461,22.5931271]]}},{"type":"Feature","properties":{"route_id":"wbtc_eb_14","route_short_name":"EB-14","route_long_name":"Santragachi - Eco Space","agency_id":"WBTC","mode":"bus","operator":"West Bengal Transport Corporation","source_feed_id":"kolkata_wbtc_bus_unofficial_constructed"},"geometry":{"type":"LineString","coordinates":[[88.28384,22.5853103],[88.3178157,22.5699137],[88.3472222,22.5417422],[88.3592162,22.5408326],[88.4208263,22.5721539],[88.4264879,22.6072744],[88.4527297,22.5816091],[88.4799563,22.574454]]}},{"type":"Feature","properties":{"route_id":"wbtc_m_7b","route_short_name":"M-7B","route_long_name":"Shibrampur - Howrah Station","agency_id":"WBTC","mode":"bus","operator":"West Bengal Transport Corporation","source_feed_id":"kolkata_wbtc_bus_unofficial_constructed"},"geometry":{"type":"LineString","coordinates":[[88.2890333,22.4852701],[88.2860984,22.5641518],[88.4209109,22.5859945],[88.341332,22.4867023],[88.3474426,22.5417517],[88.3502179,22.5548915],[88.3507997,22.5634705],[88.3437613,22.5861351]]}},{"type":"Feature","properties":{"route_id":"wbtc_m_7c","route_short_name":"M-7C","route_long_name":"Sasthir More - Howrah","agency_id":"WBTC","mode":"bus","operator":"West Bengal Transport Corporation","source_feed_id":"kolkata_wbtc_bus_unofficial_constructed"},"geometry":{"type":"LineString","coordinates":[[88.2860984,22.5641518],[88.3166069,22.4948629],[88.3180625,22.5022305],[88.3507997,22.5634705],[88.3437613,22.5861351],[88.3403452,22.5833648]]}},{"type":"Feature","properties":{"route_id":"wbtc_m_7d","route_short_name":"M-7D","route_long_name":"Sonamukhi Bazar - Kankurgachi","agency_id":"WBTC","mode":"bus","operator":"West Bengal Transport Corporation","source_feed_id":"kolkata_wbtc_bus_unofficial_constructed"},"geometry":{"type":"LineString","coordinates":[[88.2937843,22.4751735],[88.3131057,22.4869894],[88.3177975,22.499411],[88.3229547,22.5159671],[88.7456858,23.0625847],[88.3502179,22.5548915],[88.3507997,22.5634705],[88.3694101,22.5700193],[88.3921864,22.5636583],[88.6076805,22.674796],[88.3904444,22.5799405]]}},{"type":"Feature","properties":{"route_id":"wbtc_m_7e","route_short_name":"M-7E","route_long_name":"Bagpota - Howrah","agency_id":"WBTC","mode":"bus","operator":"West Bengal Transport Corporation","source_feed_id":"kolkata_wbtc_bus_unofficial_constructed"},"geometry":{"type":"LineString","coordinates":[[88.2937843,22.4751735],[88.3180625,22.5022305],[88.3260988,22.5270528],[88.3507997,22.5634705],[88.3437613,22.5861351],[88.3403452,22.5833648]]}},{"type":"Feature","properties":{"route_id":"wbtc_m_7k","route_short_name":"M-7K","route_long_name":"Khudiram Park (Sarsuna) - Sealdah (Rajabazar T.D. )","agency_id":"WBTC","mode":"bus","operator":"West Bengal Transport Corporation","source_feed_id":"kolkata_wbtc_bus_unofficial_constructed"},"geometry":{"type":"LineString","coordinates":[[88.2937843,22.4751735],[88.4209109,22.5859945],[88.341332,22.4867023],[88.3502179,22.5548915],[88.3507997,22.5634705]]}},{"type":"Feature","properties":{"route_id":"wbtc_m_14","route_short_name":"M-14","route_long_name":"Behala - New Town","agency_id":"WBTC","mode":"bus","operator":"West Bengal Transport Corporation","source_feed_id":"kolkata_wbtc_bus_unofficial_constructed"},"geometry":{"type":"LineString","coordinates":[[88.3180625,22.5022305],[88.3328437,22.5090261],[88.3374435,22.517396],[88.365148,22.5194439],[88.4013174,22.5133156],[88.3981365,22.5411554],[88.4264879,22.6072744],[88.4527297,22.5816091]]}},{"type":"Feature","properties":{"route_id":"wbtc_m_24","route_short_name":"M-24","route_long_name":"Shibtala Math - Howrah Station","agency_id":"WBTC","mode":"bus","operator":"West Bengal Transport Corporation","source_feed_id":"kolkata_wbtc_bus_unofficial_constructed"},"geometry":{"type":"LineString","coordinates":[[88.3694101,22.5700193],[88.3641391,22.5770797],[88.3437613,22.5861351]]}},{"type":"Feature","properties":{"route_id":"wbtc_midi_1","route_short_name":"MIDI - 1","route_long_name":"Howrah Maidan - Rajabazar Tram Depot","agency_id":"WBTC","mode":"bus","operator":"West Bengal Transport Corporation","source_feed_id":"kolkata_wbtc_bus_unofficial_constructed"},"geometry":{"type":"LineString","coordinates":[[88.3326769,22.5817516],[88.3437613,22.5861351],[88.3641391,22.5770797],[88.3694101,22.5700193],[88.3177975,22.499411]]}},{"type":"Feature","properties":{"route_id":"wbtc_s_2","route_short_name":"S-2","route_long_name":"Kundghat - Howrah","agency_id":"WBTC","mode":"bus","operator":"West Bengal Transport Corporation","source_feed_id":"kolkata_wbtc_bus_unofficial_constructed"},"geometry":{"type":"LineString","coordinates":[[88.3177975,22.499411],[88.3403452,22.5833648]]}},{"type":"Feature","properties":{"route_id":"wbtc_s_3a","route_short_name":"S-3A","route_long_name":"Thakurpukur - Sealdah","agency_id":"WBTC","mode":"bus","operator":"West Bengal Transport Corporation","source_feed_id":"kolkata_wbtc_bus_unofficial_constructed"},"geometry":{"type":"LineString","coordinates":[[88.3051409,22.4570489],[88.3097138,22.4698579],[88.3177975,22.499411],[88.3203842,22.5076863],[88.3694101,22.5700193]]}},{"type":"Feature","properties":{"route_id":"wbtc_s_3b","route_short_name":"S-3B","route_long_name":"Behala - Kankurgachi","agency_id":"WBTC","mode":"bus","operator":"West Bengal Transport Corporation","source_feed_id":"kolkata_wbtc_bus_unofficial_constructed"},"geometry":{"type":"LineString","coordinates":[[88.3180625,22.5022305],[88.3203842,22.5076863],[88.3178498,22.5386554],[88.3507997,22.5634705],[88.3723323,22.5730978],[88.3904444,22.5799405]]}},{"type":"Feature","properties":{"route_id":"wbtc_s_3w","route_short_name":"S-3W","route_long_name":"Joka - Eco Space","agency_id":"WBTC","mode":"bus","operator":"West Bengal Transport Corporation","source_feed_id":"kolkata_wbtc_bus_unofficial_constructed"},"geometry":{"type":"LineString","coordinates":[[88.3018236,22.452347],[88.3051409,22.4570489],[88.3177975,22.499411],[88.3328864,22.5091928],[88.3374435,22.517396],[88.365148,22.5194439],[88.3754284,22.5197791],[88.4013174,22.5133156],[88.3956743,22.5260927],[88.4208263,22.5721539],[88.4264879,22.6072744],[88.4527297,22.5816091]]}},{"type":"Feature","properties":{"route_id":"wbtc_s_4","route_short_name":"S-4","route_long_name":"Parnashree - Karunamoyee","agency_id":"WBTC","mode":"bus","operator":"West Bengal Transport Corporation","source_feed_id":"kolkata_wbtc_bus_unofficial_constructed"},"geometry":{"type":"LineString","coordinates":[[88.3455638,22.5171723],[88.365148,22.5194439],[88.3956743,22.5260927],[88.3933015,22.5900243],[88.4209109,22.5859945]]}},{"type":"Feature","properties":{"route_id":"wbtc_s_4c","route_short_name":"S-4C","route_long_name":"Haridebpur - Howrah","agency_id":"WBTC","mode":"bus","operator":"West Bengal Transport Corporation","source_feed_id":"kolkata_wbtc_bus_unofficial_constructed"},"geometry":{"type":"LineString","coordinates":[[88.3378038,22.4806943],[88.4209109,22.5859945],[88.3177975,22.499411],[88.3472222,22.5417422],[88.3502179,22.5548915],[88.3507997,22.5634705],[88.3437613,22.5861351],[88.3403452,22.5833648]]}},{"type":"Feature","properties":{"route_id":"wbtc_s_4d","route_short_name":"S-4D","route_long_name":"Parnashri - Eco Space","agency_id":"WBTC","mode":"bus","operator":"West Bengal Transport Corporation","source_feed_id":"kolkata_wbtc_bus_unofficial_constructed"},"geometry":{"type":"LineString","coordinates":[[88.3033065,22.5124123],[88.3328864,22.5091928],[88.3714445,22.4941282],[88.4006497,22.5046476],[88.401791,22.5127692],[88.4208263,22.5721539],[88.438056,22.5804274],[88.4534064,22.5830823]]}},{"type":"Feature","properties":{"route_id":"wbtc_s_5","route_short_name":"S-5","route_long_name":"Garia - Howrah","agency_id":"WBTC","mode":"bus","operator":"West Bengal Transport Corporation","source_feed_id":"kolkata_wbtc_bus_unofficial_constructed"},"geometry":{"type":"LineString","coordinates":[[88.3773186,22.471248],[88.3755826,22.4839937],[88.3714445,22.4941282],[88.3670532,22.5078133],[88.3667742,22.5155838],[88.3502179,22.5548915],[88.3437613,22.5861351],[88.3403452,22.5833648]]}},{"type":"Feature","properties":{"route_id":"wbtc_s_7","route_short_name":"S-7","route_long_name":"Garia - Howrah","agency_id":"WBTC","mode":"bus","operator":"West Bengal Transport Corporation","source_feed_id":"kolkata_wbtc_bus_unofficial_constructed"},"geometry":{"type":"LineString","coordinates":[[88.3773186,22.471248],[88.3619683,22.4738701],[88.3507997,22.5634705],[88.3437613,22.5861351],[88.3403452,22.5833648]]}},{"type":"Feature","properties":{"route_id":"wbtc_s_9","route_short_name":"S-9","route_long_name":"Jadavpore - Karunamoyee","agency_id":"WBTC","mode":"bus","operator":"West Bengal Transport Corporation","source_feed_id":"kolkata_wbtc_bus_unofficial_constructed"},"geometry":{"type":"LineString","coordinates":[[88.3723103,22.4912303],[88.2710655,22.5240566],[88.401791,22.5127692],[88.4156247,22.5904737],[88.4209109,22.5859945]]}},{"type":"Feature","properties":{"route_id":"wbtc_s_9a","route_short_name":"S-9A","route_long_name":"Dunlop - Ballygunge","agency_id":"WBTC","mode":"bus","operator":"West Bengal Transport Corporation","source_feed_id":"kolkata_wbtc_bus_unofficial_constructed"},"geometry":{"type":"LineString","coordinates":[[88.3770355,22.652348],[88.3735792,22.6017945],[88.3592993,22.5137208],[88.3502179,22.5548915],[88.3524248,22.5175341],[88.365148,22.5194439],[88.3712795,22.5207608]]}},{"type":"Feature","properties":{"route_id":"wbtc_s_9c","route_short_name":"S-9C","route_long_name":"Kamalgazi - Eco Space","agency_id":"WBTC","mode":"bus","operator":"West Bengal Transport Corporation","source_feed_id":"kolkata_wbtc_bus_unofficial_constructed"},"geometry":{"type":"LineString","coordinates":[[88.3909569,22.4491938],[88.3897463,22.4719281],[88.4006497,22.5046476],[88.3921512,22.5260891],[88.3981365,22.5411554],[88.4063762,22.5525577],[88.4123496,22.5568433],[88.4208263,22.5721539],[88.4264879,22.6072744],[88.438056,22.5804274],[88.4527297,22.5816091],[88.4791145,22.576353]]}},{"type":"Feature","properties":{"route_id":"wbtc_s_10","route_short_name":"S-10","route_long_name":"Airport - Nabanna","agency_id":"WBTC","mode":"bus","operator":"West Bengal Transport Corporation","source_feed_id":"kolkata_wbtc_bus_unofficial_constructed"},"geometry":{"type":"LineString","coordinates":[[88.4312932,22.6415745],[88.3940702,22.6199389],[88.3793002,22.6187242],[88.3592993,22.5137208],[88.3507997,22.5634705],[88.3171234,22.5693753]]}},{"type":"Feature","properties":{"route_id":"wbtc_s_10a","route_short_name":"S-10A","route_long_name":"Ballygunge - Howrah","agency_id":"WBTC","mode":"bus","operator":"West Bengal Transport Corporation","source_feed_id":"kolkata_wbtc_bus_unofficial_constructed"},"geometry":{"type":"LineString","coordinates":[[88.3712795,22.5207608],[88.365148,22.5194439],[88.3524248,22.5175341],[88.3507997,22.5634705],[88.3437613,22.5861351],[88.3403452,22.5833648]]}},{"type":"Feature","properties":{"route_id":"wbtc_s_11","route_short_name":"S-11","route_long_name":"Neilgunj - Esplanade","agency_id":"WBTC","mode":"bus","operator":"West Bengal Transport Corporation","source_feed_id":"kolkata_wbtc_bus_unofficial_constructed"},"geometry":{"type":"LineString","coordinates":[[88.3745843,22.7411261],[88.3770355,22.652348],[88.3735792,22.6017945],[88.3592993,22.5137208],[88.3507997,22.5634705]]}},{"type":"Feature","properties":{"route_id":"wbtc_s_12","route_short_name":"S-12","route_long_name":"New Town - Howrah","agency_id":"WBTC","mode":"bus","operator":"West Bengal Transport Corporation","source_feed_id":"kolkata_wbtc_bus_unofficial_constructed"},"geometry":{"type":"LineString","coordinates":[[88.4527297,22.5816091],[88.4208263,22.5721539],[88.3507997,22.5634705],[88.3437613,22.5861351],[88.3403452,22.5833648]]}},{"type":"Feature","properties":{"route_id":"wbtc_s_12d","route_short_name":"S-12D","route_long_name":"Thakurpukur - Howrah","agency_id":"WBTC","mode":"bus","operator":"West Bengal Transport Corporation","source_feed_id":"kolkata_wbtc_bus_unofficial_constructed"},"geometry":{"type":"LineString","coordinates":[[88.3051409,22.4570489],[88.3097138,22.4698579],[88.3437613,22.5861351],[88.3403452,22.5833648]]}},{"type":"Feature","properties":{"route_id":"wbtc_s_12e","route_short_name":"S-12E","route_long_name":"Howrah Station to - Hiland Willow/ Picnic Park","agency_id":"WBTC","mode":"bus","operator":"West Bengal Transport Corporation","source_feed_id":"kolkata_wbtc_bus_unofficial_constructed"},"geometry":{"type":"LineString","coordinates":[[88.3437613,22.5861351],[88.3507997,22.5634705],[88.3694101,22.5700193],[88.3921864,22.5636583],[88.4088032,22.5614687],[88.4088718,22.5970338],[88.4527297,22.5816091],[88.4809461,22.5931271]]}},{"type":"Feature","properties":{"route_id":"wbtc_s_14","route_short_name":"S-14","route_long_name":"Garia - Karunamoyee","agency_id":"WBTC","mode":"bus","operator":"West Bengal Transport Corporation","source_feed_id":"kolkata_wbtc_bus_unofficial_constructed"},"geometry":{"type":"LineString","coordinates":[[88.3773186,22.471248],[88.3897463,22.4719281],[88.4346171,22.6344209],[88.4013174,22.5133156],[88.3956743,22.5260927],[88.4063762,22.5525577],[88.4156247,22.5904737],[88.4209109,22.5859945]]}},{"type":"Feature","properties":{"route_id":"wbtc_s_16","route_short_name":"S-16","route_long_name":"Thakurpukur - Salt Lake","agency_id":"WBTC","mode":"bus","operator":"West Bengal Transport Corporation","source_feed_id":"kolkata_wbtc_bus_unofficial_constructed"},"geometry":{"type":"LineString","coordinates":[[88.3051409,22.4570489],[88.3097138,22.4698579],[88.3177975,22.499411],[88.3203842,22.5076863],[88.3260988,22.5270528],[88.3723323,22.5730978],[88.3904444,22.5799405],[88.3933015,22.5900243],[88.4134121,22.5765668],[88.4056169,22.5829732],[88.4209109,22.5859945],[88.4163496,22.5903499]]}},{"type":"Feature","properties":{"route_id":"wbtc_s_17a","route_short_name":"S-17A","route_long_name":"Ariadaha - Kundghat","agency_id":"WBTC","mode":"bus","operator":"West Bengal Transport Corporation","source_feed_id":"kolkata_wbtc_bus_unofficial_constructed"},"geometry":{"type":"LineString","coordinates":[[88.3622552,22.6536483],[88.3631643,22.6526986],[88.3755826,22.4839937],[88.3956743,22.5260927],[88.3177975,22.499411],[88.3458155,22.4813707]]}},{"type":"Feature","properties":{"route_id":"wbtc_s_21","route_short_name":"S-21","route_long_name":"Garia - Baghbazar","agency_id":"WBTC","mode":"bus","operator":"West Bengal Transport Corporation","source_feed_id":"kolkata_wbtc_bus_unofficial_constructed"},"geometry":{"type":"LineString","coordinates":[[88.3773186,22.471248],[88.3680389,22.603819],[88.3735792,22.6017945],[88.3933015,22.5900243],[88.4043073,22.5713233],[88.4013174,22.5133156],[88.4006497,22.5046476],[88.3953832,22.4902697],[88.3897463,22.4719281]]}},{"type":"Feature","properties":{"route_id":"wbtc_s_22","route_short_name":"S-22","route_long_name":"Karunamoyee - Sakuntala Park","agency_id":"WBTC","mode":"bus","operator":"West Bengal Transport Corporation","source_feed_id":"kolkata_wbtc_bus_unofficial_constructed"},"geometry":{"type":"LineString","coordinates":[[88.4209109,22.5859945],[88.2959036,22.484609],[88.2860984,22.5641518],[88.3131057,22.4869894],[88.3166069,22.4948629],[88.3180625,22.5022305],[88.3328864,22.5091928],[88.3374435,22.517396],[88.365148,22.5194439],[88.3754284,22.5197791],[88.3981365,22.5411554],[88.4123496,22.5568433],[88.4208263,22.5721539],[88.4264879,22.6072744]]}},{"type":"Feature","properties":{"route_id":"wbtc_s_23a","route_short_name":"S-23A","route_long_name":"Rajchandrapur - Karunamoyee","agency_id":"WBTC","mode":"bus","operator":"West Bengal Transport Corporation","source_feed_id":"kolkata_wbtc_bus_unofficial_constructed"},"geometry":{"type":"LineString","coordinates":[[88.3401611,22.6527285],[88.3631643,22.6526986],[88.3770355,22.652348],[88.4192153,22.6504966],[88.4312932,22.6415745],[88.4410164,22.6236199],[88.438056,22.5804274],[88.4264879,22.6072744],[88.4208263,22.5721539],[88.4209109,22.5859945]]}},{"type":"Feature","properties":{"route_id":"wbtc_s_24","route_short_name":"S-24","route_long_name":"Kamalgazi - Howrah","agency_id":"WBTC","mode":"bus","operator":"West Bengal Transport Corporation","source_feed_id":"kolkata_wbtc_bus_unofficial_constructed"},"geometry":{"type":"LineString","coordinates":[[88.3909569,22.4491938],[88.3897463,22.4719281],[88.3953832,22.4902697],[88.4006497,22.5046476],[88.4013174,22.5133156],[88.3507997,22.5634705],[88.3437613,22.5861351],[88.3403452,22.5833648]]}},{"type":"Feature","properties":{"route_id":"wbtc_s_24n","route_short_name":"S-24N","route_long_name":"Patuli - Nabanna","agency_id":"WBTC","mode":"bus","operator":"West Bengal Transport Corporation","source_feed_id":"kolkata_wbtc_bus_unofficial_constructed"},"geometry":{"type":"LineString","coordinates":[[88.3897463,22.4719281],[88.3953832,22.4902697],[88.4006497,22.5046476],[88.4013174,22.5133156],[88.3507997,22.5634705],[88.3472222,22.5417422],[88.3171234,22.5693753]]}},{"type":"Feature","properties":{"route_id":"wbtc_s_30_it_spl","route_short_name":"S-30 (IT. Spl.)","route_long_name":"Ultadanga - Eco Space","agency_id":"WBTC","mode":"bus","operator":"West Bengal Transport Corporation","source_feed_id":"kolkata_wbtc_bus_unofficial_constructed"},"geometry":{"type":"LineString","coordinates":[[88.4123496,22.5568433],[88.4208263,22.5721539],[88.4534064,22.5830823],[88.4791145,22.576353]]}},{"type":"Feature","properties":{"route_id":"wbtc_s_30a","route_short_name":"S-30A","route_long_name":"Ultadanga - Salt Lake-Ultadanga - Circuitous Service","agency_id":"WBTC","mode":"bus","operator":"West Bengal Transport Corporation","source_feed_id":"kolkata_wbtc_bus_unofficial_constructed"},"geometry":{"type":"LineString","coordinates":[[88.3967956,22.5898561],[88.3933015,22.5900243],[88.4134121,22.5765668],[88.4084144,22.5899519],[88.4088718,22.5970338],[88.4266991,22.5789982],[88.438056,22.5804274],[88.4349264,22.5768631],[88.4264879,22.6072744],[88.4208263,22.5721539]]}},{"type":"Feature","properties":{"route_id":"wbtc_s_31","route_short_name":"S-31","route_long_name":"Jadavpore - Janakalyan","agency_id":"WBTC","mode":"bus","operator":"West Bengal Transport Corporation","source_feed_id":"kolkata_wbtc_bus_unofficial_constructed"},"geometry":{"type":"LineString","coordinates":[[88.4209109,22.5859945],[88.3533289,22.5080547],[88.3714445,22.4941282]]}},{"type":"Feature","properties":{"route_id":"wbtc_s_32","route_short_name":"S-32","route_long_name":"Barrackpore - Howrah","agency_id":"WBTC","mode":"bus","operator":"West Bengal Transport Corporation","source_feed_id":"kolkata_wbtc_bus_unofficial_constructed"},"geometry":{"type":"LineString","coordinates":[[88.366361,22.7612631],[88.3454194,22.7707987],[88.3745843,22.7411261],[88.3760183,22.6777097],[88.3793002,22.6187242],[88.3735792,22.6017945],[88.3592993,22.5137208],[88.3437613,22.5861351],[88.3403452,22.5833648]]}},{"type":"Feature","properties":{"route_id":"wbtc_s_32a","route_short_name":"S-32A","route_long_name":"Dunlop - Howrah Station","agency_id":"WBTC","mode":"bus","operator":"West Bengal Transport Corporation","source_feed_id":"kolkata_wbtc_bus_unofficial_constructed"},"geometry":{"type":"LineString","coordinates":[[88.3770355,22.652348],[88.3631643,22.6526986],[88.352083,22.6314878],[88.3394035,22.6209027],[88.3326769,22.5817516],[88.3437613,22.5861351]]}},{"type":"Feature","properties":{"route_id":"wbtc_s_34c","route_short_name":"S-34C","route_long_name":"State University - Nager Bazar","agency_id":"WBTC","mode":"bus","operator":"West Bengal Transport Corporation","source_feed_id":"kolkata_wbtc_bus_unofficial_constructed"},"geometry":{"type":"LineString","coordinates":[[88.4451656,22.6868792],[88.3770355,22.652348],[88.3885539,22.6289116],[88.3927104,22.6198467]]}},{"type":"Feature","properties":{"route_id":"wbtc_s_37","route_short_name":"S - 37","route_long_name":"Garia - Barasat","agency_id":"WBTC","mode":"bus","operator":"West Bengal Transport Corporation","source_feed_id":"kolkata_wbtc_bus_unofficial_constructed"},"geometry":{"type":"LineString","coordinates":[[88.3773186,22.471248],[88.3897463,22.4719281],[88.4013174,22.5133156],[88.3933015,22.5900243],[88.431454,22.641663],[88.4530183,22.6947839],[88.5083659,22.7226496],[88.4754872,22.7113893]]}},{"type":"Feature","properties":{"route_id":"wbtc_s_45","route_short_name":"S-45","route_long_name":"Sakuntala Park - Kolkata Stn.","agency_id":"WBTC","mode":"bus","operator":"West Bengal Transport Corporation","source_feed_id":"kolkata_wbtc_bus_unofficial_constructed"},"geometry":{"type":"LineString","coordinates":[[88.2959036,22.484609],[88.2860984,22.5641518],[88.3166069,22.4948629],[88.3180625,22.5022305],[88.3334448,22.5351149],[88.3472222,22.5417422],[88.3507997,22.5634705],[88.3694101,22.5700193],[88.3723323,22.5730978],[88.3735792,22.6017945],[88.3717953,22.4934564],[88.3823408,22.6020836]]}},{"type":"Feature","properties":{"route_id":"wbtc_s_46","route_short_name":"S-46","route_long_name":"Karunamoyee - Akra Rabindranagar","agency_id":"WBTC","mode":"bus","operator":"West Bengal Transport Corporation","source_feed_id":"kolkata_wbtc_bus_unofficial_constructed"},"geometry":{"type":"LineString","coordinates":[[88.4209109,22.5859945],[88.2710655,22.5240566],[88.3374435,22.517396],[88.365148,22.5194439],[88.3981365,22.5411554],[88.4156247,22.5904737]]}},{"type":"Feature","properties":{"route_id":"wbtc_s_47","route_short_name":"S-47","route_long_name":"Eden City - Howrah","agency_id":"WBTC","mode":"bus","operator":"West Bengal Transport Corporation","source_feed_id":"kolkata_wbtc_bus_unofficial_constructed"},"geometry":{"type":"LineString","coordinates":[[88.2133508,22.4924762],[88.3437613,22.5861351],[88.3403452,22.5833648]]}},{"type":"Feature","properties":{"route_id":"wbtc_s_47a","route_short_name":"S-47A","route_long_name":"Behala Airport - Howrah","agency_id":"WBTC","mode":"bus","operator":"West Bengal Transport Corporation","source_feed_id":"kolkata_wbtc_bus_unofficial_constructed"},"geometry":{"type":"LineString","coordinates":[[88.3033065,22.5124123],[88.3507997,22.5634705],[88.3437613,22.5861351],[88.3403452,22.5833648]]}},{"type":"Feature","properties":{"route_id":"wbtc_s_57","route_short_name":"S-57","route_long_name":"Ariadaha - Nabanna","agency_id":"WBTC","mode":"bus","operator":"West Bengal Transport Corporation","source_feed_id":"kolkata_wbtc_bus_unofficial_constructed"},"geometry":{"type":"LineString","coordinates":[[88.3622552,22.6536483],[88.3770355,22.652348],[88.3735792,22.6017945],[88.3587427,22.5724857],[88.3507997,22.5634705],[88.3171234,22.5693753]]}},{"type":"Feature","properties":{"route_id":"wbtc_s_58","route_short_name":"S-58","route_long_name":"Barrackpur Court - Karunamoyee","agency_id":"WBTC","mode":"bus","operator":"West Bengal Transport Corporation","source_feed_id":"kolkata_wbtc_bus_unofficial_constructed"},"geometry":{"type":"LineString","coordinates":[[88.3745843,22.7411261],[88.3770355,22.652348],[88.3735792,22.6017945],[88.3933015,22.5900243],[88.4084144,22.5899519],[88.4209109,22.5859945]]}},{"type":"Feature","properties":{"route_id":"wbtc_s_5c","route_short_name":"S-5C","route_long_name":"Nayabad - Howrah","agency_id":"WBTC","mode":"bus","operator":"West Bengal Transport Corporation","source_feed_id":"kolkata_wbtc_bus_unofficial_constructed"},"geometry":{"type":"LineString","coordinates":[[88.4052924,22.4787008],[88.4036763,22.4672528],[88.3953832,22.4902697],[88.3723103,22.4912303],[88.3670532,22.5078133],[88.365148,22.5194439],[88.3507997,22.5634705],[88.3437613,22.5861351],[88.3403452,22.5833648]]}},{"type":"Feature","properties":{"route_id":"wbtc_s_61","route_short_name":"S-61","route_long_name":"Taratala - Achipur","agency_id":"WBTC","mode":"bus","operator":"West Bengal Transport Corporation","source_feed_id":"kolkata_wbtc_bus_unofficial_constructed"},"geometry":{"type":"LineString","coordinates":[[88.3203842,22.5076863],[88.2133508,22.4924762]]}},{"type":"Feature","properties":{"route_id":"wbtc_s_62","route_short_name":"S - 62","route_long_name":"Patuli - Metiabruz","agency_id":"WBTC","mode":"bus","operator":"West Bengal Transport Corporation","source_feed_id":"kolkata_wbtc_bus_unofficial_constructed"},"geometry":{"type":"LineString","coordinates":[[88.3897463,22.4719281],[88.4013174,22.5133156],[88.3754284,22.5197791],[88.365148,22.5194439],[88.3374435,22.517396],[88.2946783,22.543469],[88.2825609,22.5495702]]}},{"type":"Feature","properties":{"route_id":"wbtc_s_63","route_short_name":"S-63","route_long_name":"Metiabruz S.S. Hospital - Behala 14 No. B.T.","agency_id":"WBTC","mode":"bus","operator":"West Bengal Transport Corporation","source_feed_id":"kolkata_wbtc_bus_unofficial_constructed"},"geometry":{"type":"LineString","coordinates":[[88.2611187,22.5557836],[88.3180625,22.5022305]]}},{"type":"Feature","properties":{"route_id":"wbtc_s_64","route_short_name":"S-64","route_long_name":"Naihati Bus Terminus - New Town Bus Terminus","agency_id":"WBTC","mode":"bus","operator":"West Bengal Transport Corporation","source_feed_id":"kolkata_wbtc_bus_unofficial_constructed"},"geometry":{"type":"LineString","coordinates":[[88.3801893,22.8285164],[88.4699989,22.7109969],[88.4312932,22.6415745],[88.4209109,22.5859945],[88.4264879,22.6072744]]}},{"type":"Feature","properties":{"route_id":"wbtc_s_65","route_short_name":"S-65","route_long_name":"Sealdah - Sankrail Bharat Co-Op","agency_id":"WBTC","mode":"bus","operator":"West Bengal Transport Corporation","source_feed_id":"kolkata_wbtc_bus_unofficial_constructed"},"geometry":{"type":"LineString","coordinates":[[88.3694101,22.5700193],[88.3507997,22.5634705],[88.3472222,22.5417422],[88.2860984,22.5641518],[88.2718642,22.5606413],[88.2116348,22.5627587]]}},{"type":"Feature","properties":{"route_id":"wbtc_st_16","route_short_name":"ST-16","route_long_name":"Sapoorjee - Joinpur","agency_id":"WBTC","mode":"bus","operator":"West Bengal Transport Corporation","source_feed_id":"kolkata_wbtc_bus_unofficial_constructed"},"geometry":{"type":"LineString","coordinates":[[88.438056,22.5804274],[88.4123496,22.5568433],[88.3981365,22.5411554],[88.4013174,22.5133156],[88.3773186,22.471248]]}},{"type":"Feature","properties":{"route_id":"wbtc_st_6","route_short_name":"ST-6","route_long_name":"Salt Lake - Tollygunge Karunamoyee","agency_id":"WBTC","mode":"bus","operator":"West Bengal Transport Corporation","source_feed_id":"kolkata_wbtc_bus_unofficial_constructed"},"geometry":{"type":"LineString","coordinates":[[88.4163496,22.5903499],[88.4123496,22.5568433],[88.3981365,22.5411554],[88.4013174,22.5133156],[88.3677326,22.5029575],[88.3449282,22.50135],[88.341332,22.4867023]]}},{"type":"Feature","properties":{"route_id":"wbtc_t12","route_short_name":"T12","route_long_name":"Howrah - Malancha","agency_id":"WBTC","mode":"bus","operator":"West Bengal Transport Corporation","source_feed_id":"kolkata_wbtc_bus_unofficial_constructed"},"geometry":{"type":"LineString","coordinates":[[88.3403452,22.5833648],[88.3507997,22.5634705],[88.3661202,22.5433189],[88.3869552,22.5418017],[88.3981365,22.5411554],[88.5661568,22.4973993]]}},{"type":"Feature","properties":{"route_id":"wbtc_t2","route_short_name":"T2","route_long_name":"BBD Bag - Madirtala","agency_id":"WBTC","mode":"bus","operator":"West Bengal Transport Corporation","source_feed_id":"kolkata_wbtc_bus_unofficial_constructed"},"geometry":{"type":"LineString","coordinates":[[88.3507997,22.5634705],[88.3502179,22.5548915],[88.3487883,22.5494672],[88.3472222,22.5417422]]}},{"type":"Feature","properties":{"route_id":"wbtc_t8","route_short_name":"T8","route_long_name":"Tikiapara - BBD Bag","agency_id":"WBTC","mode":"bus","operator":"West Bengal Transport Corporation","source_feed_id":"kolkata_wbtc_bus_unofficial_constructed"},"geometry":{"type":"LineString","coordinates":[[88.3244881,22.5980998],[88.3507997,22.5634705],[88.3502179,22.5548915],[88.3487883,22.5494672],[88.3472222,22.5417422]]}},{"type":"Feature","properties":{"route_id":"wbtc_v1","route_short_name":"V1","route_long_name":"Tollygunge - Airport","agency_id":"WBTC","mode":"bus","operator":"West Bengal Transport Corporation","source_feed_id":"kolkata_wbtc_bus_unofficial_constructed"},"geometry":{"type":"LineString","coordinates":[[88.341332,22.4867023],[88.3455638,22.5171723],[88.365148,22.5194439],[88.3712795,22.5207608],[88.401791,22.5127692],[88.3981365,22.5411554],[88.4123496,22.5568433],[88.427972,22.6102177],[88.4327698,22.6213954],[88.4346171,22.6344209],[88.4312932,22.6415745]]}},{"type":"Feature","properties":{"route_id":"wbtc_v_1_l","route_short_name":"V-1 (L)","route_long_name":"Tollygunge - Airport Terminal","agency_id":"WBTC","mode":"bus","operator":"West Bengal Transport Corporation","source_feed_id":"kolkata_wbtc_bus_unofficial_constructed"},"geometry":{"type":"LineString","coordinates":[[88.341332,22.4867023],[88.365148,22.5194439],[88.4013174,22.5133156],[88.3956743,22.5260927],[88.3981365,22.5411554],[88.4012962,22.5800666],[88.3933015,22.5900243],[88.4091751,22.6111306],[88.4324255,22.6188262],[88.4346171,22.6344209],[88.4390509,22.6448932]]}},{"type":"Feature","properties":{"route_id":"wbtc_vs_1","route_short_name":"VS-1","route_long_name":"Airport - Dharmatala","agency_id":"WBTC","mode":"bus","operator":"West Bengal Transport Corporation","source_feed_id":"kolkata_wbtc_bus_unofficial_constructed"},"geometry":{"type":"LineString","coordinates":[[88.4312932,22.6415745],[88.3904444,22.5799405]]}},{"type":"Feature","properties":{"route_id":"wbtc_vs_12","route_short_name":"VS-12","route_long_name":"New Town - Santragachi","agency_id":"WBTC","mode":"bus","operator":"West Bengal Transport Corporation","source_feed_id":"kolkata_wbtc_bus_unofficial_constructed"},"geometry":{"type":"LineString","coordinates":[[88.4527297,22.5816091],[88.28384,22.5853103]]}},{"type":"Feature","properties":{"route_id":"wbtc_vs_2","route_short_name":"VS-2","route_long_name":"Airport - Howrah","agency_id":"WBTC","mode":"bus","operator":"West Bengal Transport Corporation","source_feed_id":"kolkata_wbtc_bus_unofficial_constructed"},"geometry":{"type":"LineString","coordinates":[[88.4312932,22.6415745],[88.3904444,22.5799405],[88.3403452,22.5833648]]}}]}