{"type": "FeatureCollection", "crs": {"type": "name", "properties": {"name": "urn:ogc:def:crs:OGC:1.3:CRS84"}}, "features": [{"type": "Feature", "properties": {"addr:housenumber": "1", "addr:street": "Sarat Ghosh Garden Road", "amenity": "library", "name": "Dhakuria Public Library", "osm_id": 1331027621}, "geometry": {"type": "Point", "coordinates": [88.3969102, 22.4986616]}}, {"type": "Feature", "properties": {"amenity": "library", "name": "University Library", "osm_id": 2461204980}, "geometry": {"type": "Point", "coordinates": [88.4109544, 22.5624051]}}, {"type": "Feature", "properties": {"addr:housenumber": "100A", "addr:postcode": "700029", "addr:street": "Motilal Nehru Road", "amenity": "library", "internet_access": "wlan", "name": "Gita Bhavan", "tourism": "hotel", "osm_id": 3251622461}, "geometry": {"type": "Point", "coordinates": [88.3544555, 22.5228061]}}, {"type": "Feature", "properties": {"amenity": "library", "name": "Commercial Library of India", "name:en": "Commercial Library of India", "osm_id": 5297233121}, "geometry": {"type": "Point", "coordinates": [88.3469122, 22.570631]}}, {"type": "Feature", "properties": {"addr:housenumber": "112", "addr:postcode": "700016", "addr:street": "Ripon Street", "amenity": "library", "check_date": "2023-10-28", "name": "Kolkata Police Library", "opening_hours": "Tu-Su 11:00-20:00", "osm_id": 7053793929}, "geometry": {"type": "Point", "coordinates": [88.3556576, 22.5541624]}}, {"type": "Feature", "properties": {"addr:postcode": "700037", "addr:street": "Belgachia Road", "amenity": "library", "name": "Belgachia Muslim Library", "opening_hours": "Mo-Su 16:00-22:00", "osm_id": 10968140205}, "geometry": {"type": "Point", "coordinates": [88.3847424, 22.6051582]}}, {"type": "Feature", "properties": {"amenity": "library", "check_date": "2023-10-05", "name": "Ram mohan Library", "osm_id": 11240950423}, "geometry": {"type": "Point", "coordinates": [88.3745553, 22.5819021]}}]}