{"type": "FeatureCollection", "crs": {"type": "name", "properties": {"name": "urn:ogc:def:crs:OGC:1.3:CRS84"}}, "features": [{"type": "Feature", "properties": {"name": "Central", "name:bn": "সেন্ট্রাল", "name:en": "Central", "name:hi": "सेंट्रल", "network": "Kolkata Metro", "network:wikidata": "Q1048849", "operator": "Metro Railway, Kolkata", "public_transport": "station", "railway": "station", "station": "subway", "subway": "yes", "wikidata": "Q5061425", "wikipedia": "en:Central metro station (Kolkata)", "osm_id": 5421528426}, "geometry": {"type": "Point", "coordinates": [88.3587427, 22.5724857]}}, {"type": "Feature", "properties": {"name": "Park Street", "name:bn": "পার্ক স্ট্রীট", "name:hi": "पार्क स्ट्रीट", "network": "Kolkata Metro", "network:wikidata": "Q1048849", "operator": "Metro Railway, Kolkata", "public_transport": "station", "railway": "station", "ref": "KPSK", "station": "subway", "subway": "yes", "wikidata": "Q7138060", "wikipedia": "en:Park Street metro station (Kolkata)", "osm_id": 5421528503}, "geometry": {"type": "Point", "coordinates": [88.3501171, 22.5551591]}}, {"type": "Feature", "properties": {"name": "Kavi Nazrul", "name:bn": "কবি নজরুল", "network": "Kolkata Metro", "network:wikidata": "Q1048849", "operator": "Metro Railway, Kolkata", "public_transport": "station", "railway": "station", "station": "subway", "subway": "yes", "wikidata": "Q6379214", "wikipedia": "en:Kavi Nazrul metro station", "osm_id": 5421533465}, "geometry": {"type": "Point", "coordinates": [88.3804604, 22.4642505]}}, {"type": "Feature", "properties": {"name": "Shahid Khudiram", "name:bn": "শহিদ ক্ষুদিরাম", "name:hi": "शहीद खुदीराम", "network": "Kolkata Metro", "network:wikidata": "Q1048849", "operator": "Metro Railway, Kolkata", "public_transport": "station", "railway": "station", "station": "subway", "subway": "yes", "wikidata": "Q7461685", "wikipedia": "en:Shahid Khudiram metro station", "osm_id": 5421533466}, "geometry": {"type": "Point", "coordinates": [88.3915408, 22.4659847]}}, {"type": "Feature", "properties": {"alt_name": "New Garia", "name": "Kavi Subhash (Blue Line)", "name:bn": "কবি সুভাষ", "network": "Kolkata Metro", "network:wikidata": "Q1048849", "operator": "Metro Railway, Kolkata", "public_transport": "station", "railway": "station", "ref": "KKVS", "station": "subway", "subway": "yes", "wikidata": "Q6379216", "wikipedia": "en:Kavi Subhash metro station", "osm_id": 5421533467}, "geometry": {"type": "Point", "coordinates": [88.397961, 22.4721697]}}, {"type": "Feature", "properties": {"name": "Netaji", "name:bn": "নেতাজি", "name:hi": "नेताजी", "network": "Kolkata Metro", "network:wikidata": "Q1048849", "operator": "Metro Railway, Kolkata", "public_transport": "station", "railway": "station", "ref": "KNTJ", "station": "subway", "subway": "yes", "wikidata": "Q6998636", "wikipedia": "en:Netaji metro station", "osm_id": 5421533468}, "geometry": {"type": "Point", "coordinates": [88.3460002, 22.4809928]}}, {"type": "Feature", "properties": {"name": "Mahanayak Uttam Kumar", "name:bn": "মহানায়ক উত্তমকুমার", "name:hi": "महानायक उत्तम कुमार", "network": "Kolkata Metro", "network:wikidata": "Q1048849", "operator": "Metro Railway, Kolkata", "public_transport": "station", "railway": "station", "station": "subway", "subway": "yes", "wikidata": "Q6733119", "wikipedia": "en:Mahanayak Uttam Kumar metro station", "osm_id": 5421536497}, "geometry": {"type": "Point", "coordinates": [88.3450879, 22.4947692]}}, {"type": "Feature", "properties": {"name": "Dum Dum", "name:bn": "দমদম", "network": "Kolkata Metro", "network:wikidata": "Q1048849", "operator": "Metro Railway, Kolkata", "public_transport": "station", "railway": "station", "station": "subway", "subway": "yes", "wheelchair": "limited", "wikidata": "Q5313576", "wikipedia": "en:Dum Dum metro station", "osm_id": 5421537963}, "geometry": {"type": "Point", "coordinates": [88.3928973, 22.6211141]}}, {"type": "Feature", "properties": {"name": "Rabindra Sarobar", "name:bn": "রবীন্দ্র সরোবর", "name:hi": "रविन्द्र सरोवर", "network": "Kolkata Metro", "network:wikidata": "Q1048849", "operator": "Metro Railway, Kolkata", "public_transport": "station", "railway": "station", "station": "subway", "subway": "yes", "wikidata": "Q7278757", "wikipedia": "en:Rabindra Sarobar metro station", "osm_id": 5421538365}, "geometry": {"type": "Point", "coordinates": [88.3454936, 22.5072216]}}, {"type": "Feature", "properties": {"name": "Kalighat", "name:bn": "কালীঘাট", "network": "Kolkata Metro", "network:wikidata": "Q1048849", "operator": "Metro Railway, Kolkata", "public_transport": "station", "railway": "station", "station": "subway", "subway": "yes", "wikidata": "Q15041932", "wikipedia": "en:Kalighat metro station", "osm_id": 5421539684}, "geometry": {"type": "Point", "coordinates": [88.3458448, 22.5168752]}}, {"type": "Feature", "properties": {"name": "Jatin Das Park", "name:bn": "যতীন দাস পার্ক", "name:hi": "जतिन दास पार्क", "network": "Kolkata Metro", "network:wikidata": "Q1048849", "operator": "Metro Railway, Kolkata", "public_transport": "station", "railway": "station", "ref": "KJPK", "station": "subway", "subway": "yes", "wikidata": "Q6164578", "wikipedia": "en:Jatin Das Park metro station", "osm_id": 5421540159}, "geometry": {"type": "Point", "coordinates": [88.3464729, 22.5241535]}}, {"type": "Feature", "properties": {"name": "Netaji Bhavan", "name:bn": "নেতাজি ভবন", "name:hi": "नेताजी भवन", "network": "Kolkata Metro", "network:wikidata": "Q1048849", "operator": "Metro Railway, Kolkata", "public_transport": "station", "railway": "station", "ref": "KNBN", "station": "subway", "subway": "yes", "wheelchair": "limited", "wikidata": "Q6998599", "wikipedia": "en:Netaji Bhavan metro station", "osm_id": 5421541284}, "geometry": {"type": "Point", "coordinates": [88.3459269, 22.5331821]}}, {"type": "Feature", "properties": {"name": "Rabindra Sadan", "name:bn": "রবীন্দ্র সদন", "name:hi": "रविंद्र सदन", "network": "Kolkata Metro", "network:wikidata": "Q1048849", "operator": "Metro Railway, Kolkata", "public_transport": "station", "railway": "station", "ref": "KRSD", "station": "subway", "subway": "yes", "wikidata": "Q7278756", "wikipedia": "en:Rabindra Sadan metro station", "osm_id": 5421542551}, "geometry": {"type": "Point", "coordinates": [88.3473493, 22.5414899]}}, {"type": "Feature", "properties": {"name": "Maidan", "name:bn": "ময়দান", "name:hi": "मैदान", "name:ur": "مَیدَان", "network": "Kolkata Metro", "network:wikidata": "Q1048849", "operator": "Metro Railway, Kolkata", "public_transport": "station", "railway": "station", "station": "subway", "subway": "yes", "wikidata": "Q6735340", "wikipedia": "en:Maidan metro station", "osm_id": 5421543288}, "geometry": {"type": "Point", "coordinates": [88.3487883, 22.5494672]}}, {"type": "Feature", "properties": {"addr:city": "चाँदनी चौक", "name": "Chandni Chowk", "name:bn": "চাঁদনি চক", "network": "Kolkata Metro", "operator": "Metro Railway, Kolkata", "public_transport": "station", "railway": "station", "ref": "KCWC", "station": "subway", "subway": "yes", "wikidata": "Q5071229", "wikipedia": "en:Chandni Chowk metro station (Kolkata)", "osm_id": 5421543316}, "geometry": {"type": "Point", "coordinates": [88.3541581, 22.5670118]}}, {"type": "Feature", "properties": {"name": "Esplanade (Line 1)", "name:bn": "এসপ্ল্যানেড", "network": "Kolkata Metro", "network:wikidata": "Q1048849", "operator": "Metro Railway, Kolkata", "public_transport": "station", "railway": "station", "station": "subway", "subway": "yes", "wikidata": "Q5399030", "wikipedia": "en:Esplanade metro station", "osm_id": 5421545051}, "geometry": {"type": "Point", "coordinates": [88.3512099, 22.5636143]}}, {"type": "Feature", "properties": {"name": "Mahatma Gandhi Road", "name:bn": "মহাত্মা গান্ধী রোড", "name:hi": "महात्मा गांधी रोड", "network": "Kolkata Metro", "network:wikidata": "Q1048849", "operator": "Metro Railway, Kolkata", "public_transport": "station", "railway": "station", "ref": "KMHR", "station": "subway", "subway": "yes", "wikidata": "Q6733523", "wikipedia": "en:Mahatma Gandhi Road metro station (Kolkata)", "osm_id": 5421545390}, "geometry": {"type": "Point", "coordinates": [88.3613271, 22.5809206]}}, {"type": "Feature", "properties": {"name": "Girish Park", "name:bn": "গিরিশ পার্ক", "name:hi": "गिरीश पार्क", "network": "Kolkata Metro", "network:wikidata": "Q1048849", "operator": "Metro Railway, Kolkata", "public_transport": "station", "railway": "station", "ref": "KGPK", "station": "subway", "subway": "yes", "wikidata": "Q5564298", "wikipedia": "en:Girish Park metro station", "osm_id": 5421546475}, "geometry": {"type": "Point", "coordinates": [88.3629415, 22.5871445]}}, {"type": "Feature", "properties": {"name": "Shobhabazar Sutanuti", "name:bn": "শোভাবাজার সুতানুটি", "network": "Kolkata Metro", "network:wikidata": "Q1048849", "operator": "Metro Railway, Kolkata", "public_transport": "station", "railway": "station", "station": "subway", "subway": "yes", "wikidata": "Q7499796", "wikipedia": "en:Sovabazar Sutanuti metro station", "osm_id": 5421546940}, "geometry": {"type": "Point", "coordinates": [88.3651996, 22.595881]}}, {"type": "Feature", "properties": {"name": "Shyambazar", "name:bn": "শ্যামবাজার", "name:hi": "श्याम बाज़ार", "network": "Kolkata Metro", "network:wikidata": "Q1048849", "operator": "Metro Railway, Kolkata", "public_transport": "station", "railway": "station", "station": "subway", "subway": "yes", "wikidata": "Q7505976", "wikipedia": "en:Shyambazar metro station", "osm_id": 5421546974}, "geometry": {"type": "Point", "coordinates": [88.3724974, 22.601335]}}, {"type": "Feature", "properties": {"name": "Belgachia", "name:bn": "বেলগাছিয়া", "network": "Kolkata Metro", "network:wikidata": "Q1048849", "official_name": "Theism Belgachia", "operator": "Metro Railway, Kolkata", "public_transport": "station", "railway": "station", "station": "subway", "subway": "yes", "wikidata": "Q4882396", "wikipedia": "en:Belgachia metro station", "osm_id": 5421548359}, "geometry": {"type": "Point", "coordinates": [88.3863913, 22.6059241]}}, {"type": "Feature", "properties": {"name": "Noapara", "name:bn": "নোয়াপাড়া", "network": "Kolkata Metro", "network:wikidata": "Q1048849", "operator": "Metro Railway, Kolkata", "public_transport": "station", "railway": "station", "station": "subway", "subway": "yes", "wikidata": "Q14942939", "wikipedia": "en:Noapara metro station and depot", "osm_id": 5421551283}, "geometry": {"type": "Point", "coordinates": [88.3941343, 22.6398418]}}, {"type": "Feature", "properties": {"name": "Nalban Metro Station", "public_transport": "station", "railway": "station", "station": "subway", "subway": "yes", "osm_id": 7944684393}, "geometry": {"type": "Point", "coordinates": [88.4212209, 22.5733404]}}, {"type": "Feature", "properties": {"name": "Karunamoyee", "name:bn": "করুণাময়ী", "network": "Kolkata Metro", "network:wikidata": "Q1048849", "operator": "Kolkata Metro Rail Corporation Limited (KMRCL)", "public_transport": "station", "railway": "station", "ref": "KESA", "station": "subway", "subway": "yes", "wikidata": "Q62019524", "wikipedia": "en:Karunamoyee metro station", "osm_id": 7976140059}, "geometry": {"type": "Point", "coordinates": [88.4215312, 22.58638]}}, {"type": "Feature", "properties": {"name": "Central Park", "name:bn": "সেন্ট্রাল পার্ক", "name:hi": "सेंट्रल पार्क", "network": "Kolkata Metro", "network:wikidata": "Q1048849", "operator": "Kolkata Metro Rail Corporation Limited (KMRCL)", "public_transport": "station", "railway": "station", "ref": "CPSA", "station": "subway", "subway": "yes", "wikidata": "Q30632539", "wikipedia": "en:Central Park metro station", "osm_id": 7976140060}, "geometry": {"type": "Point", "coordinates": [88.4156247, 22.5904737]}}, {"type": "Feature", "properties": {"name": "City Centre", "name:bn": "সিটি সেন্টার", "name:hi": "सिटी सेंटर", "network": "Kolkata Metro", "network:wikidata": "Q1048849", "operator": "Kolkata Metro Rail Corporation Limited (KMRCL)", "public_transport": "station", "railway": "station", "ref": "CCSC", "station": "subway", "subway": "yes", "wikidata": "Q63256235", "wikipedia": "en:City Center metro station", "osm_id": 7976140063}, "geometry": {"type": "Point", "coordinates": [88.4078908, 22.5870993]}}, {"type": "Feature", "properties": {"name": "Bengal Chemical", "name:bn": "বেঙ্গল কেমিক্যালস", "network": "Kolkata Metro", "network:wikidata": "Q1048849", "public_transport": "station", "railway": "station", "ref": "BCSD", "station": "subway", "subway": "yes", "wikidata": "Q63256245", "wikipedia": "en:Bengal Chemical metro station", "osm_id": 7976140066}, "geometry": {"type": "Point", "coordinates": [88.4012962, 22.5800666]}}, {"type": "Feature", "properties": {"name": "Salt Lake Stadium", "name:bn": "সল্ট লেক স্টেডিয়াম", "network": "Kolkata Metro", "network:wikidata": "Q1048849", "public_transport": "station", "railway": "station", "ref": "SSSA", "station": "subway", "subway": "yes", "wikidata": "Q65090392", "wikipedia": "en:Salt Lake Stadium metro station", "osm_id": 7976140069}, "geometry": {"type": "Point", "coordinates": [88.4030891, 22.5731115]}}, {"type": "Feature", "properties": {"name": "Phoolbagan", "name:bn": "ফুলবাগান", "name:hi": "फूलबगान", "network": "Kolkata Metro", "network:wikidata": "Q1048849", "public_transport": "station", "railway": "station", "ref": "PBGB", "station": "subway", "subway": "yes", "wikidata": "Q30632551", "wikipedia": "en:Phoolbagan metro station", "osm_id": 7976140072}, "geometry": {"type": "Point", "coordinates": [88.3902408, 22.5721268]}}, {"type": "Feature", "properties": {"name": "Salt Lake Sector V", "name:bn": "সল্টলেক সেক্টর V", "name:hi": "सॉल्ट लेक सेक्टर ५", "network": "Kolkata Metro", "network:wikidata": "Q1048849", "operator": "Kolkata Metro Rail Corporation Limited (KMRCL)", "public_transport": "station", "railway": "station", "ref": "SVSA", "station": "subway", "subway": "yes", "wheelchair": "limited", "wikidata": "Q55632405", "wikipedia": "en:Salt Lake Sector-V metro station", "osm_id": 7976140073}, "geometry": {"type": "Point", "coordinates": [88.4290872, 22.5809434]}}, {"type": "Feature", "properties": {"name": "Baranagar", "name:bn": "বরাহনগর", "network": "Kolkata Metro", "network:wikidata": "Q1048849", "operator": "Metro Railway, Kolkata", "public_transport": "station", "railway": "station", "station": "subway", "subway": "yes", "wikidata": "Q63092244", "wikipedia": "en:Baranagar metro station", "osm_id": 8475640176}, "geometry": {"type": "Point", "coordinates": [88.3805962, 22.6530765]}}, {"type": "Feature", "properties": {"name": "Behala Bazar", "name:bn": "বেহালা বাজার", "network": "Kolkata Metro", "network:wikidata": "Q1048849", "operator": "Metro Railway, Kolkata", "public_transport": "station", "railway": "station", "station": "subway", "subway": "yes", "wikidata": "Q84996197", "wikipedia": "en:Behala Bazar metro station", "osm_id": 9321290815}, "geometry": {"type": "Point", "coordinates": [88.3173872, 22.4987585]}}, {"type": "Feature", "properties": {"name": "Behala Chowrasta", "name:bn": "বেহালা চৌরাস্তা", "network": "Kolkata Metro", "network:wikidata": "Q1048849", "operator": "Metro Railway, Kolkata", "public_transport": "station", "railway": "station", "station": "subway", "subway": "yes", "wikidata": "Q85273870", "wikipedia": "en:Behala Chowrasta metro station", "osm_id": 9321292345}, "geometry": {"type": "Point", "coordinates": [88.3133794, 22.4873548]}}, {"type": "Feature", "properties": {"name": "Sealdah", "name:bn": "শিয়ালদহ মেট্রো স্টেশন", "name:en": "Sealdah", "name:hi": "सियालदाह", "network": "Kolkata Metro", "network:wikidata": "Q1048849", "public_transport": "station", "railway": "station", "ref": "SDHM", "station": "subway", "subway": "yes", "wikidata": "Q30278708", "wikipedia": "en:Sealdah metro station", "osm_id": 9884790401}, "geometry": {"type": "Point", "coordinates": [88.3697815, 22.5666059]}}, {"type": "Feature", "properties": {"name": "Dakshineshwar", "name:bn": "দক্ষিণেশ্বর", "name:hi": "दक्षिणेश्वर", "network": "Kolkata Metro", "network:wikidata": "Q1048849", "operator": "Metro Railway, Kolkata", "public_transport": "station", "railway": "station", "station": "subway", "subway": "yes", "wikidata": "Q63092256", "wikipedia": "en:Dakshineswar metro station", "osm_id": 10036655361}, "geometry": {"type": "Point", "coordinates": [88.3637533, 22.6540325]}}, {"type": "Feature", "properties": {"name": "Thakurpukur", "name:bn": "ঠাকুরপুকুর", "network": "Kolkata Metro", "network:wikidata": "Q1048849", "operator": "Metro Railway, Kolkata", "public_transport": "station", "railway": "station", "ref": "KTKP", "station": "subway", "subway": "yes", "wikidata": "Q30634511", "wikipedia": "en:Thakurpukur metro station", "osm_id": 10296539469}, "geometry": {"type": "Point", "coordinates": [88.3075322, 22.4643677]}}, {"type": "Feature", "properties": {"name": "Sakher Bazar", "name:bn": "সখের বাজার", "network": "Kolkata Metro", "network:wikidata": "Q1048849", "operator": "Metro Railway, Kolkata", "public_transport": "station", "railway": "station", "station": "subway", "subway": "yes", "wikidata": "Q84716021", "wikipedia": "en:Sakher Bazar metro station", "osm_id": 10296539474}, "geometry": {"type": "Point", "coordinates": [88.3099593, 22.4748533]}}, {"type": "Feature", "properties": {"name": "Taratala", "name:bn": "তারাতলা", "network": "Kolkata Metro", "network:wikidata": "Q1048849", "operator": "Metro Railway, Kolkata", "public_transport": "station", "railway": "station", "ref": "KTRT", "station": "subway", "subway": "yes", "wikidata": "Q85069094", "wikipedia": "bn:তারাতলা মেট্রো স্টেশন", "osm_id": 10296539476}, "geometry": {"type": "Point", "coordinates": [88.3203842, 22.5076863]}}, {"type": "Feature", "properties": {"name": "Joka", "name:bn": "জোকা", "network": "Kolkata Metro", "network:wikidata": "Q1048849", "operator": "Metro Railway, Kolkata", "public_transport": "station", "railway": "station", "station": "subway", "subway": "yes", "wikidata": "Q30634510", "wikipedia": "en:Joka metro station", "osm_id": 10296539478}, "geometry": {"type": "Point", "coordinates": [88.3018236, 22.452347]}}, {"type": "Feature", "properties": {"alt_name": "Ruby Hospital", "name": "Hemanta Mukhopadhyay", "name:bn": "হেমন্ত মুখোপাধ্যায়", "name:hi": "हेमन्त मुखोपाध्याय", "network": "Kolkata Metro", "network:wikidata": "Q1048849", "operator": "Metro Railway, Kolkata", "public_transport": "station", "railway": "station", "station": "subway", "subway": "yes", "wikidata": "Q30632588", "wikipedia": "en:Hemanta Mukhopadhyay metro station", "osm_id": 11447425091}, "geometry": {"type": "Point", "coordinates": [88.4014276, 22.5148514]}}, {"type": "Feature", "properties": {"alt_name": "Kalikapur", "name": "Kavi Sukanta", "name:bn": "কবি সুকান্ত", "network": "Kolkata Metro", "network:wikidata": "Q1048849", "operator": "Metro Railway, Kolkata", "public_transport": "station", "railway": "station", "station": "subway", "subway": "yes", "wikidata": "Q30632590", "wikipedia": "en:Kavi Sukanta metro station", "osm_id": 11447425092}, "geometry": {"type": "Point", "coordinates": [88.4009957, 22.5053017]}}, {"type": "Feature", "properties": {"alt_name": "Mukundapur", "name": "Jyotirindra Nandi", "name:bn": "জ্যোতিরিন্দ্র নন্দী", "network": "Kolkata Metro", "network:wikidata": "Q1048849", "operator": "Metro Railway, Kolkata", "public_transport": "station", "railway": "station", "station": "subway", "subway": "yes", "wikidata": "Q65090385", "wikipedia": "en:Jyotirindra Nandi metro station", "osm_id": 11447425095}, "geometry": {"type": "Point", "coordinates": [88.398449, 22.4956263]}}, {"type": "Feature", "properties": {"name": "Satyajit Ray", "name:bn": "সত্যজিৎ রায়", "network": "Kolkata Metro", "network:wikidata": "Q1048849", "operator": "Metro Railway, Kolkata", "public_transport": "station", "railway": "station", "station": "subway", "subway": "yes", "wikidata": "Q30632540", "wikipedia": "en:Satyajit Ray metro station", "osm_id": 11447425096}, "geometry": {"type": "Point", "coordinates": [88.3926447, 22.4846775]}}, {"type": "Feature", "properties": {"alt_name": "New Mahakaran", "alt_name:en": "New Mahakaran", "name": "Mahakaran", "name:bn": "মহাকরণ", "name:en": "Mahakaran", "network": "Kolkata Metro", "network:wikidata": "Q1048849", "operator": "Metro Railway, Kolkata", "public_transport": "station", "railway": "station", "ref": "MKNA", "station": "subway", "subway": "yes", "wikidata": "Q30632550", "wikipedia": "bn:মহাকরণ মেট্রো স্টেশন", "osm_id": 11699268223}, "geometry": {"type": "Point", "coordinates": [88.3505275, 22.5720777]}}, {"type": "Feature", "properties": {"name": "Howrah", "name:bn": "হাওড়া", "network": "Kolkata Metro", "network:wikidata": "Q1048849", "operator": "Metro Railway, Kolkata", "public_transport": "station", "railway": "station", "ref": "HWHM", "station": "subway", "subway": "yes", "wikidata": "Q30632554", "wikipedia": "bn:হাওড়া মেট্রো স্টেশন", "osm_id": 11699268224}, "geometry": {"type": "Point", "coordinates": [88.3403452, 22.5833648]}}, {"type": "Feature", "properties": {"name": "Howrah Maidan", "name:bn": "হাওড়া ময়দান", "name:hi": "हावड़ा मैदान", "network": "Kolkata Metro", "network:wikidata": "Q1048849", "operator": "Metro Railway, Kolkata", "public_transport": "station", "railway": "station", "ref": "HWMM", "station": "subway", "subway": "yes", "wikidata": "Q30632544", "wikipedia": "bn:হাওড়া ময়দান মেট্রো স্টেশন", "osm_id": 11699268225}, "geometry": {"type": "Point", "coordinates": [88.3339983, 22.5838585]}}, {"type": "Feature", "properties": {"name": "Majerhat", "name:bn": "মাঝেরহাট", "network": "Kolkata Metro", "network:wikidata": "Q1048849", "operator": "Metro Railway, Kolkata", "public_transport": "station", "railway": "station", "station": "subway", "subway": "yes", "wikidata": "Q85214864", "wikipedia": "en:Majerhat metro station", "osm_id": 11699268226}, "geometry": {"type": "Point", "coordinates": [88.3236555, 22.5191466]}}, {"type": "Feature", "properties": {"name": "Esplanade (Line 2)", "name:bn": "এসপ্ল্যানেড", "network": "Kolkata Metro", "network:wikidata": "Q1048849", "operator": "Metro Railway, Kolkata", "public_transport": "station", "railway": "station", "ref": "KESP", "station": "subway", "subway": "yes", "wikidata": "Q5399030", "wikipedia": "en:Esplanade metro station", "osm_id": 11703282685}, "geometry": {"type": "Point", "coordinates": [88.3502752, 22.5641292]}}, {"type": "Feature", "properties": {"alt_name": "New Garia", "name": "Kavi Subhash", "name:bn": "কবি সুভাষ", "network": "Kolkata Metro", "network:wikidata": "Q1048849", "operator": "Metro Railway, Kolkata", "public_transport": "station", "railway": "station", "station": "subway", "subway": "yes", "wikidata": "Q6379216", "wikipedia": "en:Kavi Subhash metro station", "osm_id": 11703389776}, "geometry": {"type": "Point", "coordinates": [88.3980989, 22.4711093]}}, {"type": "Feature", "properties": {"name": "Beleghata", "name:bn": "বেলেঘাটা", "network": "Kolkata Metro", "network:wikidata": "Q1048849", "operator": "Metro Railway, Kolkata", "public_transport": "station", "railway": "station", "station": "subway", "subway": "yes", "wikidata": "Q109968614", "wikipedia": "en:Beleghata metro station", "osm_id": 13088458999}, "geometry": {"type": "Point", "coordinates": [88.4039852, 22.5507084]}}, {"type": "Feature", "properties": {"alt_name": "Science City", "name": "Barun Sengupta", "name:bn": "বরুণ সেনগুপ্ত", "name:hi": "वरुण सेन गुप्ता", "network": "Kolkata Metro", "network:wikidata": "Q1048849", "operator": "Metro Railway, Kolkata", "public_transport": "station", "railway": "station", "station": "subway", "subway": "yes", "wikidata": "Q30632591", "wikipedia": "en:Barun Sengupta metro station", "osm_id": 13088485701}, "geometry": {"type": "Point", "coordinates": [88.3992762, 22.5438072]}}, {"type": "Feature", "properties": {"alt_name": "Bantala Road", "name": "Ritwik Ghatak", "name:bn": "ঋত্বিক ঘটক", "name:hi": "ऋत्विक घटक", "network": "Kolkata Metro", "network:wikidata": "Q1048849", "old_name": "Topsia", "operator": "Metro Railway, Kolkata", "public_transport": "station", "railway": "station", "station": "subway", "subway": "yes", "wikidata": "Q109524252", "wikipedia": "en:Ritwik Ghatak metro station", "osm_id": 13088485704}, "geometry": {"type": "Point", "coordinates": [88.3964191, 22.5329995]}}, {"type": "Feature", "properties": {"name": "VIP Bazar", "name:bn": "ভি আই পি বাজার", "name:hi": "वी.आई.पी. बाज़ार", "network": "Kolkata Metro", "network:wikidata": "Q1048849", "operator": "Metro Railway, Kolkata", "public_transport": "station", "railway": "station", "station": "subway", "subway": "yes", "wikidata": "Q30632589", "wikipedia": "en:VIP Bazar metro station", "osm_id": 13088485707}, "geometry": {"type": "Point", "coordinates": [88.3962331, 22.5246847]}}, {"type": "Feature", "properties": {"alt_name": "Biman Bandar", "alt_name:hi": "विमान बंदर", "name": "Jai Hind", "name:bn": "জয় হিন্দ", "name:hi": "जय हिंद", "network": "Kolkata Metro", "network:wikidata": "Q1048849", "operator": "Metro Railway, Kolkata", "public_transport": "station", "railway": "station", "station": "subway", "subway": "yes", "wikidata": "Q65090394", "wikipedia": "en:Jai Hind metro station", "osm_id": 13088491840}, "geometry": {"type": "Point", "coordinates": [88.4373029, 22.6473058]}}, {"type": "Feature", "properties": {"name": "Jessore Road", "name:bn": "যশোহর রোড", "network": "Kolkata Metro", "network:wikidata": "Q1048849", "operator": "Metro Railway, Kolkata", "public_transport": "station", "railway": "station", "ref": "KJRO", "station": "subway", "subway": "yes", "wikidata": "Q76741320", "wikipedia": "en:Jessore Road metro station", "osm_id": 13088491871}, "geometry": {"type": "Point", "coordinates": [88.4297701, 22.6392646]}}, {"type": "Feature", "properties": {"name": "Dum Dum Cantonment", "name:bn": "দমদম ক্যান্টনমেন্ট", "network": "Kolkata Metro", "network:wikidata": "Q1048849", "operator": "Metro Railway, Kolkata", "public_transport": "station", "railway": "station", "station": "subway", "subway": "yes", "wikidata": "Q31725714", "wikipedia": "en:Dum Dum Cantonment metro station", "osm_id": 13088491874}, "geometry": {"type": "Point", "coordinates": [88.4121618, 22.6375936]}}]}