{"type":"FeatureCollection","features":[{"type":"Feature","properties":{"stop_id":"KOLMETRO_baranagar","stop_name":"Baranagar","stop_code":"","mode":"metro","operator":"Metro Railway, Kolkata","source_feed_id":"kolkata_metro_unofficial_constructed"},"geometry":{"type":"Point","coordinates":[88.3805962,22.6530765]}},{"type":"Feature","properties":{"stop_id":"KOLMETRO_barun_sengupta","stop_name":"Barun Sengupta","stop_code":"","mode":"metro","operator":"Metro Railway, Kolkata","source_feed_id":"kolkata_metro_unofficial_constructed"},"geometry":{"type":"Point","coordinates":[88.3992762,22.5438072]}},{"type":"Feature","properties":{"stop_id":"KOLMETRO_behala_bazar","stop_name":"Behala Bazar","stop_code":"","mode":"metro","operator":"Metro Railway, Kolkata","source_feed_id":"kolkata_metro_unofficial_constructed"},"geometry":{"type":"Point","coordinates":[88.3173872,22.4987585]}},{"type":"Feature","properties":{"stop_id":"KOLMETRO_behala_chowrasta","stop_name":"Behala Chowrasta","stop_code":"","mode":"metro","operator":"Metro Railway, Kolkata","source_feed_id":"kolkata_metro_unofficial_constructed"},"geometry":{"type":"Point","coordinates":[88.3133794,22.4873548]}},{"type":"Feature","properties":{"stop_id":"KOLMETRO_beleghata","stop_name":"Beleghata","stop_code":"","mode":"metro","operator":"Metro Railway, Kolkata","source_feed_id":"kolkata_metro_unofficial_constructed"},"geometry":{"type":"Point","coordinates":[88.4039852,22.5507084]}},{"type":"Feature","properties":{"stop_id":"KOLMETRO_belgachia","stop_name":"Belgachia","stop_code":"","mode":"metro","operator":"Metro Railway, Kolkata","source_feed_id":"kolkata_metro_unofficial_constructed"},"geometry":{"type":"Point","coordinates":[88.3863913,22.6059241]}},{"type":"Feature","properties":{"stop_id":"KOLMETRO_bengal_chemical","stop_name":"Bengal Chemical","stop_code":"","mode":"metro","operator":"Metro Railway, Kolkata","source_feed_id":"kolkata_metro_unofficial_constructed"},"geometry":{"type":"Point","coordinates":[88.4012962,22.5800666]}},{"type":"Feature","properties":{"stop_id":"KOLMETRO_central","stop_name":"Central","stop_code":"","mode":"metro","operator":"Metro Railway, Kolkata","source_feed_id":"kolkata_metro_unofficial_constructed"},"geometry":{"type":"Point","coordinates":[88.3587427,22.5724857]}},{"type":"Feature","properties":{"stop_id":"KOLMETRO_central_park","stop_name":"Central Park","stop_code":"","mode":"metro","operator":"Metro Railway, Kolkata","source_feed_id":"kolkata_metro_unofficial_constructed"},"geometry":{"type":"Point","coordinates":[88.4156247,22.5904737]}},{"type":"Feature","properties":{"stop_id":"KOLMETRO_chandni_chowk","stop_name":"Chandni Chowk","stop_code":"","mode":"metro","operator":"Metro Railway, Kolkata","source_feed_id":"kolkata_metro_unofficial_constructed"},"geometry":{"type":"Point","coordinates":[88.3541581,22.5670118]}},{"type":"Feature","properties":{"stop_id":"KOLMETRO_city_centre","stop_name":"City Centre","stop_code":"","mode":"metro","operator":"Metro Railway, Kolkata","source_feed_id":"kolkata_metro_unofficial_constructed"},"geometry":{"type":"Point","coordinates":[88.4078908,22.5870993]}},{"type":"Feature","properties":{"stop_id":"KOLMETRO_dakshineshwar","stop_name":"Dakshineshwar","stop_code":"","mode":"metro","operator":"Metro Railway, Kolkata","source_feed_id":"kolkata_metro_unofficial_constructed"},"geometry":{"type":"Point","coordinates":[88.3637533,22.6540325]}},{"type":"Feature","properties":{"stop_id":"KOLMETRO_dum_dum","stop_name":"Dum Dum","stop_code":"","mode":"metro","operator":"Metro Railway, Kolkata","source_feed_id":"kolkata_metro_unofficial_constructed"},"geometry":{"type":"Point","coordinates":[88.3928973,22.6211141]}},{"type":"Feature","properties":{"stop_id":"KOLMETRO_dum_dum_cantonment","stop_name":"Dum Dum Cantonment","stop_code":"","mode":"metro","operator":"Metro Railway, Kolkata","source_feed_id":"kolkata_metro_unofficial_constructed"},"geometry":{"type":"Point","coordinates":[88.4121618,22.6375936]}},{"type":"Feature","properties":{"stop_id":"KOLMETRO_esplanade_line_1","stop_name":"Esplanade (Line 1)","stop_code":"","mode":"metro","operator":"Metro Railway, Kolkata","source_feed_id":"kolkata_metro_unofficial_constructed"},"geometry":{"type":"Point","coordinates":[88.3512099,22.5636143]}},{"type":"Feature","properties":{"stop_id":"KOLMETRO_esplanade_line_2","stop_name":"Esplanade (Line 2)","stop_code":"","mode":"metro","operator":"Metro Railway, Kolkata","source_feed_id":"kolkata_metro_unofficial_constructed"},"geometry":{"type":"Point","coordinates":[88.3502752,22.5641292]}},{"type":"Feature","properties":{"stop_id":"KOLMETRO_girish_park","stop_name":"Girish Park","stop_code":"","mode":"metro","operator":"Metro Railway, Kolkata","source_feed_id":"kolkata_metro_unofficial_constructed"},"geometry":{"type":"Point","coordinates":[88.3629415,22.5871445]}},{"type":"Feature","properties":{"stop_id":"KOLMETRO_gitanjali","stop_name":"Gitanjali","stop_code":"","mode":"metro","operator":"Metro Railway, Kolkata","source_feed_id":"kolkata_metro_unofficial_constructed"},"geometry":{"type":"Point","coordinates":[88.369985,22.469426]}},{"type":"Feature","properties":{"stop_id":"KOLMETRO_hemanta_mukhopadhyay","stop_name":"Hemanta Mukhopadhyay","stop_code":"","mode":"metro","operator":"Metro Railway, Kolkata","source_feed_id":"kolkata_metro_unofficial_constructed"},"geometry":{"type":"Point","coordinates":[88.4014276,22.5148514]}},{"type":"Feature","properties":{"stop_id":"KOLMETRO_howrah","stop_name":"Howrah","stop_code":"","mode":"metro","operator":"Metro Railway, Kolkata","source_feed_id":"kolkata_metro_unofficial_constructed"},"geometry":{"type":"Point","coordinates":[88.3403452,22.5833648]}},{"type":"Feature","properties":{"stop_id":"KOLMETRO_howrah_maidan","stop_name":"Howrah Maidan","stop_code":"","mode":"metro","operator":"Metro Railway, Kolkata","source_feed_id":"kolkata_metro_unofficial_constructed"},"geometry":{"type":"Point","coordinates":[88.3339983,22.5838585]}},{"type":"Feature","properties":{"stop_id":"KOLMETRO_jai_hind","stop_name":"Jai Hind","stop_code":"","mode":"metro","operator":"Metro Railway, Kolkata","source_feed_id":"kolkata_metro_unofficial_constructed"},"geometry":{"type":"Point","coordinates":[88.4373029,22.6473058]}},{"type":"Feature","properties":{"stop_id":"KOLMETRO_jatin_das_park","stop_name":"Jatin Das Park","stop_code":"","mode":"metro","operator":"Metro Railway, Kolkata","source_feed_id":"kolkata_metro_unofficial_constructed"},"geometry":{"type":"Point","coordinates":[88.3464729,22.5241535]}},{"type":"Feature","properties":{"stop_id":"KOLMETRO_jessore_road","stop_name":"Jessore Road","stop_code":"","mode":"metro","operator":"Metro Railway, Kolkata","source_feed_id":"kolkata_metro_unofficial_constructed"},"geometry":{"type":"Point","coordinates":[88.4297701,22.6392646]}},{"type":"Feature","properties":{"stop_id":"KOLMETRO_joka","stop_name":"Joka","stop_code":"","mode":"metro","operator":"Metro Railway, Kolkata","source_feed_id":"kolkata_metro_unofficial_constructed"},"geometry":{"type":"Point","coordinates":[88.3018236,22.452347]}},{"type":"Feature","properties":{"stop_id":"KOLMETRO_jyotirindra_nandi","stop_name":"Jyotirindra Nandi","stop_code":"","mode":"metro","operator":"Metro Railway, Kolkata","source_feed_id":"kolkata_metro_unofficial_constructed"},"geometry":{"type":"Point","coordinates":[88.398449,22.4956263]}},{"type":"Feature","properties":{"stop_id":"KOLMETRO_kalighat","stop_name":"Kalighat","stop_code":"","mode":"metro","operator":"Metro Railway, Kolkata","source_feed_id":"kolkata_metro_unofficial_constructed"},"geometry":{"type":"Point","coordinates":[88.3458448,22.5168752]}},{"type":"Feature","properties":{"stop_id":"KOLMETRO_karunamoyee","stop_name":"Karunamoyee","stop_code":"","mode":"metro","operator":"Metro Railway, Kolkata","source_feed_id":"kolkata_metro_unofficial_constructed"},"geometry":{"type":"Point","coordinates":[88.4215312,22.58638]}},{"type":"Feature","properties":{"stop_id":"KOLMETRO_kavi_nazrul","stop_name":"Kavi Nazrul","stop_code":"","mode":"metro","operator":"Metro Railway, Kolkata","source_feed_id":"kolkata_metro_unofficial_constructed"},"geometry":{"type":"Point","coordinates":[88.3804604,22.4642505]}},{"type":"Feature","properties":{"stop_id":"KOLMETRO_kavi_subhash","stop_name":"Kavi Subhash","stop_code":"","mode":"metro","operator":"Metro Railway, Kolkata","source_feed_id":"kolkata_metro_unofficial_constructed"},"geometry":{"type":"Point","coordinates":[88.3980989,22.4711093]}},{"type":"Feature","properties":{"stop_id":"KOLMETRO_kavi_subhash_blue_line","stop_name":"Kavi Subhash (Blue Line)","stop_code":"","mode":"metro","operator":"Metro Railway, Kolkata","source_feed_id":"kolkata_metro_unofficial_constructed"},"geometry":{"type":"Point","coordinates":[88.397961,22.4721697]}},{"type":"Feature","properties":{"stop_id":"KOLMETRO_kavi_sukanta","stop_name":"Kavi Sukanta","stop_code":"","mode":"metro","operator":"Metro Railway, Kolkata","source_feed_id":"kolkata_metro_unofficial_constructed"},"geometry":{"type":"Point","coordinates":[88.4009957,22.5053017]}},{"type":"Feature","properties":{"stop_id":"KOLMETRO_mahakaran","stop_name":"Mahakaran","stop_code":"","mode":"metro","operator":"Metro Railway, Kolkata","source_feed_id":"kolkata_metro_unofficial_constructed"},"geometry":{"type":"Point","coordinates":[88.3505275,22.5720777]}},{"type":"Feature","properties":{"stop_id":"KOLMETRO_mahanayak_uttam_kumar","stop_name":"Mahanayak Uttam Kumar","stop_code":"","mode":"metro","operator":"Metro Railway, Kolkata","source_feed_id":"kolkata_metro_unofficial_constructed"},"geometry":{"type":"Point","coordinates":[88.3450879,22.4947692]}},{"type":"Feature","properties":{"stop_id":"KOLMETRO_mahatma_gandhi_road","stop_name":"Mahatma Gandhi Road","stop_code":"","mode":"metro","operator":"Metro Railway, Kolkata","source_feed_id":"kolkata_metro_unofficial_constructed"},"geometry":{"type":"Point","coordinates":[88.3613271,22.5809206]}},{"type":"Feature","properties":{"stop_id":"KOLMETRO_maidan","stop_name":"Maidan","stop_code":"","mode":"metro","operator":"Metro Railway, Kolkata","source_feed_id":"kolkata_metro_unofficial_constructed"},"geometry":{"type":"Point","coordinates":[88.3487883,22.5494672]}},{"type":"Feature","properties":{"stop_id":"KOLMETRO_majerhat","stop_name":"Majerhat","stop_code":"","mode":"metro","operator":"Metro Railway, Kolkata","source_feed_id":"kolkata_metro_unofficial_constructed"},"geometry":{"type":"Point","coordinates":[88.3236555,22.5191466]}},{"type":"Feature","properties":{"stop_id":"KOLMETRO_masterda_surya_sen","stop_name":"Masterda Surya Sen","stop_code":"","mode":"metro","operator":"Metro Railway, Kolkata","source_feed_id":"kolkata_metro_unofficial_constructed"},"geometry":{"type":"Point","coordinates":[88.360871,22.473521]}},{"type":"Feature","properties":{"stop_id":"KOLMETRO_netaji","stop_name":"Netaji","stop_code":"","mode":"metro","operator":"Metro Railway, Kolkata","source_feed_id":"kolkata_metro_unofficial_constructed"},"geometry":{"type":"Point","coordinates":[88.3460002,22.4809928]}},{"type":"Feature","properties":{"stop_id":"KOLMETRO_netaji_bhavan","stop_name":"Netaji Bhavan","stop_code":"","mode":"metro","operator":"Metro Railway, Kolkata","source_feed_id":"kolkata_metro_unofficial_constructed"},"geometry":{"type":"Point","coordinates":[88.3459269,22.5331821]}},{"type":"Feature","properties":{"stop_id":"KOLMETRO_noapara","stop_name":"Noapara","stop_code":"","mode":"metro","operator":"Metro Railway, Kolkata","source_feed_id":"kolkata_metro_unofficial_constructed"},"geometry":{"type":"Point","coordinates":[88.3941343,22.6398418]}},{"type":"Feature","properties":{"stop_id":"KOLMETRO_park_street","stop_name":"Park Street","stop_code":"","mode":"metro","operator":"Metro Railway, Kolkata","source_feed_id":"kolkata_metro_unofficial_constructed"},"geometry":{"type":"Point","coordinates":[88.3501171,22.5551591]}},{"type":"Feature","properties":{"stop_id":"KOLMETRO_phoolbagan","stop_name":"Phoolbagan","stop_code":"","mode":"metro","operator":"Metro Railway, Kolkata","source_feed_id":"kolkata_metro_unofficial_constructed"},"geometry":{"type":"Point","coordinates":[88.3902408,22.5721268]}},{"type":"Feature","properties":{"stop_id":"KOLMETRO_rabindra_sadan","stop_name":"Rabindra Sadan","stop_code":"","mode":"metro","operator":"Metro Railway, Kolkata","source_feed_id":"kolkata_metro_unofficial_constructed"},"geometry":{"type":"Point","coordinates":[88.3473493,22.5414899]}},{"type":"Feature","properties":{"stop_id":"KOLMETRO_rabindra_sarobar","stop_name":"Rabindra Sarobar","stop_code":"","mode":"metro","operator":"Metro Railway, Kolkata","source_feed_id":"kolkata_metro_unofficial_constructed"},"geometry":{"type":"Point","coordinates":[88.3454936,22.5072216]}},{"type":"Feature","properties":{"stop_id":"KOLMETRO_ritwik_ghatak","stop_name":"Ritwik Ghatak","stop_code":"","mode":"metro","operator":"Metro Railway, Kolkata","source_feed_id":"kolkata_metro_unofficial_constructed"},"geometry":{"type":"Point","coordinates":[88.3964191,22.5329995]}},{"type":"Feature","properties":{"stop_id":"KOLMETRO_sakher_bazar","stop_name":"Sakher Bazar","stop_code":"","mode":"metro","operator":"Metro Railway, Kolkata","source_feed_id":"kolkata_metro_unofficial_constructed"},"geometry":{"type":"Point","coordinates":[88.3099593,22.4748533]}},{"type":"Feature","properties":{"stop_id":"KOLMETRO_salt_lake_sector_v","stop_name":"Salt Lake Sector V","stop_code":"","mode":"metro","operator":"Metro Railway, Kolkata","source_feed_id":"kolkata_metro_unofficial_constructed"},"geometry":{"type":"Point","coordinates":[88.4290872,22.5809434]}},{"type":"Feature","properties":{"stop_id":"KOLMETRO_salt_lake_stadium","stop_name":"Salt Lake Stadium","stop_code":"","mode":"metro","operator":"Metro Railway, Kolkata","source_feed_id":"kolkata_metro_unofficial_constructed"},"geometry":{"type":"Point","coordinates":[88.4030891,22.5731115]}},{"type":"Feature","properties":{"stop_id":"KOLMETRO_satyajit_ray","stop_name":"Satyajit Ray","stop_code":"","mode":"metro","operator":"Metro Railway, Kolkata","source_feed_id":"kolkata_metro_unofficial_constructed"},"geometry":{"type":"Point","coordinates":[88.3926447,22.4846775]}},{"type":"Feature","properties":{"stop_id":"KOLMETRO_sealdah","stop_name":"Sealdah","stop_code":"","mode":"metro","operator":"Metro Railway, Kolkata","source_feed_id":"kolkata_metro_unofficial_constructed"},"geometry":{"type":"Point","coordinates":[88.3697815,22.5666059]}},{"type":"Feature","properties":{"stop_id":"KOLMETRO_shahid_khudiram","stop_name":"Shahid Khudiram","stop_code":"","mode":"metro","operator":"Metro Railway, Kolkata","source_feed_id":"kolkata_metro_unofficial_constructed"},"geometry":{"type":"Point","coordinates":[88.3915408,22.4659847]}},{"type":"Feature","properties":{"stop_id":"KOLMETRO_shobhabazar_sutanuti","stop_name":"Shobhabazar Sutanuti","stop_code":"","mode":"metro","operator":"Metro Railway, Kolkata","source_feed_id":"kolkata_metro_unofficial_constructed"},"geometry":{"type":"Point","coordinates":[88.3651996,22.595881]}},{"type":"Feature","properties":{"stop_id":"KOLMETRO_shyambazar","stop_name":"Shyambazar","stop_code":"","mode":"metro","operator":"Metro Railway, Kolkata","source_feed_id":"kolkata_metro_unofficial_constructed"},"geometry":{"type":"Point","coordinates":[88.3724974,22.601335]}},{"type":"Feature","properties":{"stop_id":"KOLMETRO_taratala","stop_name":"Taratala","stop_code":"","mode":"metro","operator":"Metro Railway, Kolkata","source_feed_id":"kolkata_metro_unofficial_constructed"},"geometry":{"type":"Point","coordinates":[88.3203842,22.5076863]}},{"type":"Feature","properties":{"stop_id":"KOLMETRO_thakurpukur","stop_name":"Thakurpukur","stop_code":"","mode":"metro","operator":"Metro Railway, Kolkata","source_feed_id":"kolkata_metro_unofficial_constructed"},"geometry":{"type":"Point","coordinates":[88.3075322,22.4643677]}},{"type":"Feature","properties":{"stop_id":"KOLMETRO_vip_bazar","stop_name":"VIP Bazar","stop_code":"","mode":"metro","operator":"Metro Railway, Kolkata","source_feed_id":"kolkata_metro_unofficial_constructed"},"geometry":{"type":"Point","coordinates":[88.3962331,22.5246847]}}]}