{"type":"FeatureCollection","features":[{"type":"Feature","properties":{"route_id":"kolkata_blue","route_short_name":"Blue","route_long_name":"Kolkata Metro Blue Line","agency_id":"KOLMETRO","mode":"metro","operator":"Metro Railway, Kolkata","source_feed_id":"kolkata_metro_unofficial_constructed"},"geometry":{"type":"LineString","coordinates":[[88.3637533,22.6540325],[88.3805962,22.6530765],[88.3941343,22.6398418],[88.3928973,22.6211141],[88.3863913,22.6059241],[88.3724974,22.601335],[88.3651996,22.595881],[88.3629415,22.5871445],[88.3613271,22.5809206],[88.3587427,22.5724857],[88.3541581,22.5670118],[88.3512099,22.5636143],[88.3501171,22.5551591],[88.3487883,22.5494672],[88.3473493,22.5414899],[88.3459269,22.5331821],[88.3464729,22.5241535],[88.3458448,22.5168752],[88.3454936,22.5072216],[88.3450879,22.4947692],[88.3460002,22.4809928],[88.360871,22.473521],[88.369985,22.469426],[88.3804604,22.4642505],[88.3915408,22.4659847],[88.397961,22.4721697]]}},{"type":"Feature","properties":{"route_id":"kolkata_green","route_short_name":"Green","route_long_name":"Kolkata Metro Green Line","agency_id":"KOLMETRO","mode":"metro","operator":"Metro Railway, Kolkata","source_feed_id":"kolkata_metro_unofficial_constructed"},"geometry":{"type":"LineString","coordinates":[[88.3339983,22.5838585],[88.3403452,22.5833648],[88.3505275,22.5720777],[88.3502752,22.5641292],[88.3697815,22.5666059],[88.3902408,22.5721268],[88.4030891,22.5731115],[88.4012962,22.5800666],[88.4078908,22.5870993],[88.4156247,22.5904737],[88.4215312,22.58638],[88.4290872,22.5809434]]}},{"type":"Feature","properties":{"route_id":"kolkata_purple","route_short_name":"Purple","route_long_name":"Kolkata Metro Purple Line","agency_id":"KOLMETRO","mode":"metro","operator":"Metro Railway, Kolkata","source_feed_id":"kolkata_metro_unofficial_constructed"},"geometry":{"type":"LineString","coordinates":[[88.3018236,22.452347],[88.3075322,22.4643677],[88.3099593,22.4748533],[88.3133794,22.4873548],[88.3173872,22.4987585],[88.3203842,22.5076863],[88.3236555,22.5191466]]}},{"type":"Feature","properties":{"route_id":"kolkata_orange","route_short_name":"Orange","route_long_name":"Kolkata Metro Orange Line","agency_id":"KOLMETRO","mode":"metro","operator":"Metro Railway, Kolkata","source_feed_id":"kolkata_metro_unofficial_constructed"},"geometry":{"type":"LineString","coordinates":[[88.3980989,22.4711093],[88.3926447,22.4846775],[88.398449,22.4956263],[88.4009957,22.5053017],[88.4014276,22.5148514],[88.3962331,22.5246847],[88.3964191,22.5329995],[88.3992762,22.5438072],[88.4039852,22.5507084]]}},{"type":"Feature","properties":{"route_id":"kolkata_yellow","route_short_name":"Yellow","route_long_name":"Kolkata Metro Yellow Line","agency_id":"KOLMETRO","mode":"metro","operator":"Metro Railway, Kolkata","source_feed_id":"kolkata_metro_unofficial_constructed"},"geometry":{"type":"LineString","coordinates":[[88.3941343,22.6398418],[88.4121618,22.6375936],[88.4297701,22.6392646],[88.4373029,22.6473058]]}}]}