{"type": "FeatureCollection", "crs": {"type": "name", "properties": {"name": "urn:ogc:def:crs:OGC:1.3:CRS84"}}, "features": [{"type": "Feature", "properties": {"amenity": "police", "name": "Jadavpur Police Station", "osm_id": 651795823}, "geometry": {"type": "Point", "coordinates": [88.3677291, 22.5027682]}}, {"type": "Feature", "properties": {"amenity": "police", "check_date": "2026-03-22", "name": "Gokhale Road Police Quarters", "osm_id": 663943188}, "geometry": {"type": "Point", "coordinates": [88.344409, 22.5393378]}}, {"type": "Feature", "properties": {"amenity": "police", "name": "Kolkata Police Headquarters", "name:en": "Kolkata Police Headquarters", "osm_id": 1186025286}, "geometry": {"type": "Point", "coordinates": [88.3524126, 22.5725398]}}, {"type": "Feature", "properties": {"amenity": "police", "designation": "Police Station", "name": "Sonarpur Police Station", "osm_id": 1579176040}, "geometry": {"type": "Point", "coordinates": [88.4305142, 22.4424481]}}, {"type": "Feature", "properties": {"amenity": "police", "name": "Manicktala P.S", "osm_id": 2168547540}, "geometry": {"type": "Point", "coordinates": [88.3788957, 22.5841465]}}, {"type": "Feature", "properties": {"amenity": "police", "check_date": "2026-03-22", "name": "Muchipara Police Station", "osm_id": 2266850257}, "geometry": {"type": "Point", "coordinates": [88.3653411, 22.566664]}}, {"type": "Feature", "properties": {"amenity": "police", "name": "Baguiati Police Station", "osm_id": 2454270956}, "geometry": {"type": "Point", "coordinates": [88.4254168, 22.6203718]}}, {"type": "Feature", "properties": {"amenity": "police", "name": "Tiljala Traffic Guard", "osm_id": 2461251766}, "geometry": {"type": "Point", "coordinates": [88.3989293, 22.5425798]}}, {"type": "Feature", "properties": {"amenity": "police", "name": "Parama - Police Station", "osm_id": 2461251777}, "geometry": {"type": "Point", "coordinates": [88.3988261, 22.5418694]}}, {"type": "Feature", "properties": {"amenity": "police", "check_date": "2025-01-19", "name": "Sector - V Police Station", "osm_id": 2461308616}, "geometry": {"type": "Point", "coordinates": [88.4298724, 22.5767793]}}, {"type": "Feature", "properties": {"amenity": "police", "check_date": "2023-09-30", "internet_access": "wlan", "internet_access:fee": "customers", "name": "Bhowanipore Police Station", "osm_id": 2471894120}, "geometry": {"type": "Point", "coordinates": [88.3459941, 22.5266453]}}, {"type": "Feature", "properties": {"addr:city": "Kolkata", "addr:housenumber": "133/2", "addr:postcode": "700013", "addr:street": "Surendra Nath Banerjee Road", "amenity": "police", "check_date": "2026-03-22", "name": "New Market Police Station", "phone": "+913322177397", "source": "http://www.kolkatapolice.gov.in/", "website": "http://www.kolkatapolice.gov.in/", "osm_id": 2813667209}, "geometry": {"type": "Point", "coordinates": [88.3541137, 22.5627183]}}, {"type": "Feature", "properties": {"amenity": "police", "name": "Jorabagan Police Station", "osm_id": 3324142934}, "geometry": {"type": "Point", "coordinates": [88.356043, 22.5931156]}}, {"type": "Feature", "properties": {"amenity": "police", "name": "Behala Thana", "operator": "Kolkata Police", "osm_id": 3363195847}, "geometry": {"type": "Point", "coordinates": [88.3190032, 22.5035284]}}, {"type": "Feature", "properties": {"amenity": "police", "check_date": "2025-12-28", "name": "Parnasree Police Station", "osm_id": 3961003585}, "geometry": {"type": "Point", "coordinates": [88.3068201, 22.5088819]}}, {"type": "Feature", "properties": {"addr:housenumber": "47", "addr:postcode": "700014", "addr:street": "Gora Chand Rd", "amenity": "police", "name": "beniapukur police station", "phone": "03322844770", "osm_id": 4356781089}, "geometry": {"type": "Point", "coordinates": [88.3680459, 22.547021]}}, {"type": "Feature", "properties": {"amenity": "police", "check_date": "2023-10-04", "name": "Phoolbagan Police Sation", "name:bn": "ফুলবাগান থানা", "osm_id": 5253366364}, "geometry": {"type": "Point", "coordinates": [88.3920651, 22.5753874]}}, {"type": "Feature", "properties": {"addr:city": "Kolkata", "addr:street": "Park Street", "amenity": "police", "name": "Park Street Police Station", "osm_id": 6147021003}, "geometry": {"type": "Point", "coordinates": [88.3564067, 22.5516265]}}, {"type": "Feature", "properties": {"amenity": "police", "name": "Sinthee Police Station", "osm_id": 6207419685}, "geometry": {"type": "Point", "coordinates": [88.3827397, 22.6252145]}}, {"type": "Feature", "properties": {"amenity": "police", "name": "Nadial Police Station", "osm_id": 7202548451}, "geometry": {"type": "Point", "coordinates": [88.2605445, 22.5551465]}}, {"type": "Feature", "properties": {"addr:housenumber": "1", "amenity": "police", "check_date": "2023-09-30", "internet_access": "wlan", "internet_access:fee": "customers", "name": "Burtolla Police Station", "osm_id": 8185335386}, "geometry": {"type": "Point", "coordinates": [88.3711427, 22.5925126]}}, {"type": "Feature", "properties": {"amenity": "police", "name": "Kolkata Armed Police, 5th Battalion", "website": "https://www.kolkatapolice.gov.in/", "osm_id": 9570240617}, "geometry": {"type": "Point", "coordinates": [88.391005, 22.5888343]}}, {"type": "Feature", "properties": {"addr:housenumber": "13", "addr:postcode": "700012", "addr:street": "Kapilatola Ln", "amenity": "police", "name": "Bowbazar police station", "opening_hours": "24/7", "phone": "8100796446", "osm_id": 9609217317}, "geometry": {"type": "Point", "coordinates": [88.3566114, 22.569139]}}, {"type": "Feature", "properties": {"addr:housenumber": "42", "addr:postcode": "700054", "addr:street": "Chittaranjan Avenue", "amenity": "police", "check_date": "2026-03-22", "name": "Hare Police Station", "name:en": "Hare Police Station", "phone": "03322118760,03322150100", "osm_id": 9609217417}, "geometry": {"type": "Point", "coordinates": [88.356961, 22.5688343]}}, {"type": "Feature", "properties": {"amenity": "police", "name": "Ultadanga traffic guard", "osm_id": 9641103817}, "geometry": {"type": "Point", "coordinates": [88.3951013, 22.5893923]}}, {"type": "Feature", "properties": {"amenity": "police", "name": "Exide South Traffic Guard Police Station", "osm_id": 9911020517}, "geometry": {"type": "Point", "coordinates": [88.3469829, 22.5420398]}}, {"type": "Feature", "properties": {"amenity": "police", "check_date": "2026-03-22", "name": "Maidan police station", "osm_id": 9911020617}, "geometry": {"type": "Point", "coordinates": [88.3471124, 22.5420279]}}, {"type": "Feature", "properties": {"addr:postcode": "700037", "addr:street": "Tala Park Path", "amenity": "police", "name": "Tala Police Station", "osm_id": 11436646870}, "geometry": {"type": "Point", "coordinates": [88.3817952, 22.6074097]}}, {"type": "Feature", "properties": {"amenity": "police", "name": "गरियाहाट पुलिस थाना", "name:en": "Gariahat Police Station", "osm_id": 11867113269}, "geometry": {"type": "Point", "coordinates": [88.3646919, 22.5210534]}}, {"type": "Feature", "properties": {"amenity": "police", "name": "Ghugudanga O.P.", "osm_id": 12606460874}, "geometry": {"type": "Point", "coordinates": [88.4001483, 22.6210025]}}]}