{"type": "FeatureCollection", "features": [{"type": "Feature", "geometry": {"type": "Point", "coordinates": [88.2907626, 22.6779609]}, "properties": {"name": "Dankuni", "operator": "ER", "source": "OpenStreetMap", "line": "Eastern LineChord link Line", "membership_source": "Wikipedia station list"}}, {"type": "Feature", "geometry": {"type": "Point", "coordinates": [88.3711047, 22.5679661]}, "properties": {"name": "Sealdah", "operator": "ER", "source": "OpenStreetMap", "line": "Eastern LineSouth LinesChord link Line", "membership_source": "Wikipedia station list"}}, {"type": "Feature", "geometry": {"type": "Point", "coordinates": [88.3745843, 22.7411261]}, "properties": {"name": "Titagarh", "operator": "ER", "source": "OpenStreetMap", "line": "Eastern Line", "membership_source": "Wikipedia station list"}}, {"type": "Feature", "geometry": {"type": "Point", "coordinates": [88.3801893, 22.8285164]}, "properties": {"name": "Shyamnagar", "operator": "ER", "source": "OpenStreetMap", "line": "Eastern Line", "membership_source": "Wikipedia station list"}}, {"type": "Feature", "geometry": {"type": "Point", "coordinates": [88.4176531, 22.8870061]}, "properties": {"name": "Naihati Junction", "operator": "ER", "source": "OpenStreetMap", "line": "Eastern Line", "membership_source": "Wikipedia station list"}}, {"type": "Feature", "geometry": {"type": "Point", "coordinates": [88.436979, 22.9209659]}, "properties": {"name": "Halisahar", "operator": "ER", "source": "OpenStreetMap", "line": "Eastern Line", "membership_source": "Wikipedia station list"}}, {"type": "Feature", "geometry": {"type": "Point", "coordinates": [88.4448113, 22.9347119]}, "properties": {"name": "Kanchrapara Workshop Gate", "operator": "ER", "source": "OpenStreetMap", "line": "Eastern Line", "membership_source": "Wikipedia station list"}}, {"type": "Feature", "geometry": {"type": "Point", "coordinates": [88.3982606, 22.990303]}, "properties": {"name": "Tribeni", "operator": "ER", "source": "OpenStreetMap", "line": "Eastern Line", "membership_source": "Wikipedia station list"}}, {"type": "Feature", "geometry": {"type": "Point", "coordinates": [88.2636731, 22.8046405]}, "properties": {"name": "Nasibpur", "operator": "ER", "source": "OpenStreetMap", "line": "Eastern Line", "membership_source": "Wikipedia station list"}}, {"type": "Feature", "geometry": {"type": "Point", "coordinates": [88.3411458, 22.6670459]}, "properties": {"name": "Uttarpara", "operator": "ER", "source": "OpenStreetMap", "line": "Eastern Line", "membership_source": "Wikipedia station list"}}, {"type": "Feature", "geometry": {"type": "Point", "coordinates": [88.5083659, 22.7226496]}, "properties": {"name": "Kazipara", "operator": "ER", "source": "OpenStreetMap", "line": "Eastern Line", "membership_source": "Wikipedia station list"}}, {"type": "Feature", "geometry": {"type": "Point", "coordinates": [88.5648945, 22.6859708]}, "properties": {"name": "Bahira Kalibari", "operator": "ER", "source": "OpenStreetMap", "line": "Eastern Line", "membership_source": "Wikipedia station list"}}, {"type": "Feature", "geometry": {"type": "Point", "coordinates": [88.0142006, 22.8823987]}, "properties": {"name": "Tarakeswar", "operator": "ER", "source": "OpenStreetMap", "line": "Eastern Line", "membership_source": "Wikipedia station list"}}, {"type": "Feature", "geometry": {"type": "Point", "coordinates": [87.8327068, 22.404157]}, "properties": {"name": "Nandaigajan", "operator": "SER", "source": "OpenStreetMap", "line": "South Eastern Line", "membership_source": "Wikipedia station list"}}, {"type": "Feature", "geometry": {"type": "Point", "coordinates": [88.2830722, 22.5846995]}, "properties": {"name": "Santragachi Junction", "operator": "SER", "source": "OpenStreetMap", "line": "South Eastern Line", "membership_source": "Wikipedia station list"}}, {"type": "Feature", "geometry": {"type": "Point", "coordinates": [88.3866708, 22.4827391]}, "properties": {"name": "Baghajatin", "operator": "ER", "source": "OpenStreetMap", "line": "South Lines", "membership_source": "Wikipedia station list"}}, {"type": "Feature", "geometry": {"type": "Point", "coordinates": [88.3719778, 22.5193414]}, "properties": {"name": "Ballygunge Junction", "operator": "ER", "source": "OpenStreetMap", "line": "South LinesCircular Line", "membership_source": "Wikipedia station list"}}, {"type": "Feature", "geometry": {"type": "Point", "coordinates": [88.3965631, 22.9049023]}, "properties": {"name": "Hooghly Ghat", "operator": "ER", "source": "OpenStreetMap", "line": "Eastern Line", "membership_source": "Wikipedia station list"}}, {"type": "Feature", "geometry": {"type": "Point", "coordinates": [88.3760639, 22.9052114]}, "properties": {"name": "Hooghly", "operator": "ER", "source": "OpenStreetMap", "line": "Eastern Line", "membership_source": "Wikipedia station list"}}, {"type": "Feature", "geometry": {"type": "Point", "coordinates": [88.2966655, 22.5886606]}, "properties": {"name": "Ramrajatala", "operator": "SER", "source": "OpenStreetMap", "line": "South Eastern Line", "membership_source": "Wikipedia station list"}}, {"type": "Feature", "geometry": {"type": "Point", "coordinates": [88.3403033, 22.6550647]}, "properties": {"name": "Bally", "operator": "ER", "source": "OpenStreetMap", "line": "Chord link Line", "membership_source": "Wikipedia station list"}}, {"type": "Feature", "geometry": {"type": "Point", "coordinates": [88.3394035, 22.6209027]}, "properties": {"name": "Liluah", "operator": "ER", "source": "OpenStreetMap", "line": "Eastern Line", "membership_source": "Wikipedia station list"}}, {"type": "Feature", "geometry": {"type": "Point", "coordinates": [88.3398223, 22.6357323]}, "properties": {"name": "Belur", "operator": "ER", "source": "OpenStreetMap", "line": "Eastern Line", "membership_source": "Wikipedia station list"}}, {"type": "Feature", "geometry": {"type": "Point", "coordinates": [88.3417989, 22.6836507]}, "properties": {"name": "Hind Motor", "operator": "ER", "source": "OpenStreetMap", "line": "Eastern Line", "membership_source": "Wikipedia station list"}}, {"type": "Feature", "geometry": {"type": "Point", "coordinates": [88.3425107, 22.70126]}, "properties": {"name": "Konnagar", "operator": "ER", "source": "OpenStreetMap", "line": "Eastern Line", "membership_source": "Wikipedia station list"}}, {"type": "Feature", "geometry": {"type": "Point", "coordinates": [88.3434353, 22.7247059]}, "properties": {"name": "Rishra", "operator": "ER", "source": "OpenStreetMap", "line": "Eastern Line", "membership_source": "Wikipedia station list"}}, {"type": "Feature", "geometry": {"type": "Point", "coordinates": [88.2290714, 22.814569]}, "properties": {"name": "Singur", "operator": "ER", "source": "OpenStreetMap", "line": "Eastern Line", "membership_source": "Wikipedia station list"}}, {"type": "Feature", "geometry": {"type": "Point", "coordinates": [88.0938448, 22.4722227]}, "properties": {"name": "Uluberia", "operator": "SER", "source": "OpenStreetMap", "line": "South Eastern Line", "membership_source": "Wikipedia station list"}}, {"type": "Feature", "geometry": {"type": "Point", "coordinates": [88.1632882, 22.5025222]}, "properties": {"name": "Bauria", "operator": "SER", "source": "OpenStreetMap", "line": "South Eastern Line", "membership_source": "Wikipedia station list"}}, {"type": "Feature", "geometry": {"type": "Point", "coordinates": [88.1860611, 22.529101]}, "properties": {"name": "Nalpur", "operator": "SER", "source": "OpenStreetMap", "line": "South Eastern Line", "membership_source": "Wikipedia station list"}}, {"type": "Feature", "geometry": {"type": "Point", "coordinates": [88.1995212, 22.5478712]}, "properties": {"name": "Abada", "operator": "SER", "source": "OpenStreetMap", "line": "South Eastern Line", "membership_source": "Wikipedia station list"}}, {"type": "Feature", "geometry": {"type": "Point", "coordinates": [88.2104459, 22.5623444]}, "properties": {"name": "Sankrail", "operator": "SER", "source": "OpenStreetMap", "line": "South Eastern Line", "membership_source": "Wikipedia station list"}}, {"type": "Feature", "geometry": {"type": "Point", "coordinates": [87.8809072, 22.4351414]}, "properties": {"name": "Kolaghat", "operator": "SER", "source": "OpenStreetMap", "line": "South Eastern Line", "membership_source": "Wikipedia station list"}}, {"type": "Feature", "geometry": {"type": "Point", "coordinates": [87.7339077, 21.7884623]}, "properties": {"name": "Kanthi", "operator": "SER", "source": "OpenStreetMap", "line": "South Eastern Line", "membership_source": "Wikipedia station list"}}, {"type": "Feature", "geometry": {"type": "Point", "coordinates": [88.3314074, 22.5565925]}, "properties": {"name": "Prinsep Ghat", "operator": "ER", "source": "OpenStreetMap", "line": "Circular Line", "membership_source": "Wikipedia station list"}}, {"type": "Feature", "geometry": {"type": "Point", "coordinates": [88.3788583, 22.6534856]}, "properties": {"name": "Baranagar Road", "operator": "ER", "source": "OpenStreetMap", "line": "Chord link Line", "membership_source": "Wikipedia station list"}}, {"type": "Feature", "geometry": {"type": "Point", "coordinates": [88.4120228, 22.6364899]}, "properties": {"name": "Dum Dum Cantonment", "operator": "ER", "source": "OpenStreetMap", "line": "Eastern Line", "membership_source": "Wikipedia station list"}}, {"type": "Feature", "geometry": {"type": "Point", "coordinates": [88.2047303, 22.8216769]}, "properties": {"name": "Kamarkundu", "operator": "ER", "source": "OpenStreetMap", "line": "Eastern Line", "membership_source": "Wikipedia station list"}}, {"type": "Feature", "geometry": {"type": "Point", "coordinates": [88.3549336, 22.5975289]}, "properties": {"name": "Sovabazar Ahiritola", "operator": "ER", "source": "OpenStreetMap", "line": "Circular Line", "membership_source": "Wikipedia station list"}}, {"type": "Feature", "geometry": {"type": "Point", "coordinates": [88.3383211, 22.5639153]}, "properties": {"name": "Eden Gardens", "operator": "ER", "source": "OpenStreetMap", "line": "Circular Line", "membership_source": "Wikipedia station list"}}, {"type": "Feature", "geometry": {"type": "Point", "coordinates": [88.3738814, 22.5407799]}, "properties": {"name": "Park Circus", "operator": "ER", "source": "OpenStreetMap", "line": "South LinesCircular line", "membership_source": "Wikipedia station list"}}, {"type": "Feature", "geometry": {"type": "Point", "coordinates": [87.3076852, 22.425139]}, "properties": {"name": "Midnapore", "operator": "SER", "source": "OpenStreetMap", "line": "South Eastern Line", "membership_source": "Wikipedia station list"}}, {"type": "Feature", "geometry": {"type": "Point", "coordinates": [88.3711314, 22.5091067]}, "properties": {"name": "Dhakuria", "operator": "ER", "source": "OpenStreetMap", "line": "South Lines", "membership_source": "Wikipedia station list"}}, {"type": "Feature", "geometry": {"type": "Point", "coordinates": [88.0188847, 22.5744025]}, "properties": {"name": "Amta", "operator": "SER", "source": "OpenStreetMap", "line": "South Eastern Line", "membership_source": "Wikipedia station list"}}, {"type": "Feature", "geometry": {"type": "Point", "coordinates": [88.0788343, 22.6160083]}, "properties": {"name": "Maju", "operator": "SER", "source": "OpenStreetMap", "line": "South Eastern Line", "membership_source": "Wikipedia station list"}}, {"type": "Feature", "geometry": {"type": "Point", "coordinates": [88.2661126, 22.6221236]}, "properties": {"name": "Dansi", "operator": "SER", "source": "OpenStreetMap", "line": "South Eastern Line", "membership_source": "Wikipedia station list"}}, {"type": "Feature", "geometry": {"type": "Point", "coordinates": [88.2521723, 22.6275266]}, "properties": {"name": "Jhaluarbar", "operator": "SER", "source": "OpenStreetMap", "line": "South Eastern Line", "membership_source": "Wikipedia station list"}}, {"type": "Feature", "geometry": {"type": "Point", "coordinates": [88.2095491, 22.6431635]}, "properties": {"name": "Domjur", "operator": "SER", "source": "OpenStreetMap", "line": "South Eastern Line", "membership_source": "Wikipedia station list"}}, {"type": "Feature", "geometry": {"type": "Point", "coordinates": [88.0954532, 22.6490336]}, "properties": {"name": "Munsirhat", "operator": "SER", "source": "OpenStreetMap", "line": "South Eastern Line", "membership_source": "Wikipedia station list"}}, {"type": "Feature", "geometry": {"type": "Point", "coordinates": [88.1134609, 22.6588954]}, "properties": {"name": "Pantihal", "operator": "SER", "source": "OpenStreetMap", "line": "South Eastern Line", "membership_source": "Wikipedia station list"}}, {"type": "Feature", "geometry": {"type": "Point", "coordinates": [88.1380703, 22.6667486]}, "properties": {"name": "Bargachia", "operator": "SER", "source": "OpenStreetMap", "line": "South Eastern Line", "membership_source": "Wikipedia station list"}}, {"type": "Feature", "geometry": {"type": "Point", "coordinates": [87.9746461, 22.8752724]}, "properties": {"name": "Talpur Halt", "operator": "ER", "source": "OpenStreetMap", "line": "Eastern Line", "membership_source": "Wikipedia station list"}}, {"type": "Feature", "geometry": {"type": "Point", "coordinates": [88.5140173, 23.3471478]}, "properties": {"name": "Jalal Khali", "operator": "ER", "source": "OpenStreetMap", "line": "Eastern Line", "membership_source": "Wikipedia station list"}}, {"type": "Feature", "geometry": {"type": "Point", "coordinates": [87.3069565, 22.3409156]}, "properties": {"name": "Girimaidan", "operator": "SER", "source": "OpenStreetMap", "line": "South Eastern Line", "membership_source": "Wikipedia station list"}}, {"type": "Feature", "geometry": {"type": "Point", "coordinates": [88.3739103, 22.7998264]}, "properties": {"name": "Ichhapur", "operator": "ER", "source": "OpenStreetMap", "line": "Eastern Line", "membership_source": "Wikipedia station list"}}, {"type": "Feature", "geometry": {"type": "Point", "coordinates": [88.2560296, 22.5802652]}, "properties": {"name": "Mourigram", "operator": "SER", "source": "OpenStreetMap", "line": "South Eastern Line", "membership_source": "Wikipedia station list"}}, {"type": "Feature", "geometry": {"type": "Point", "coordinates": [88.1911115, 22.1925802]}, "properties": {"name": "Diamond Harbour", "operator": "ER", "source": "OpenStreetMap", "line": "South Lines", "membership_source": "Wikipedia station list"}}, {"type": "Feature", "geometry": {"type": "Point", "coordinates": [88.3702748, 22.7826288]}, "properties": {"name": "Palta", "operator": "ER", "source": "OpenStreetMap", "line": "Eastern Line", "membership_source": "Wikipedia station list"}}, {"type": "Feature", "geometry": {"type": "Point", "coordinates": [87.8892104, 23.330259]}, "properties": {"name": "Karjana", "operator": "ER", "source": "OpenStreetMap", "line": "Eastern Line", "membership_source": "Wikipedia station list"}}, {"type": "Feature", "geometry": {"type": "Point", "coordinates": [87.8922744, 23.3446329]}, "properties": {"name": "Karjanagram", "operator": "ER", "source": "OpenStreetMap", "line": "Eastern Line", "membership_source": "Wikipedia station list"}}, {"type": "Feature", "geometry": {"type": "Point", "coordinates": [87.950407, 23.458066]}, "properties": {"name": "Balgona", "operator": "ER", "source": "OpenStreetMap", "line": "Eastern Line", "membership_source": "Wikipedia station list"}}, {"type": "Feature", "geometry": {"type": "Point", "coordinates": [88.0115578, 23.5368167]}, "properties": {"name": "Kaichar", "operator": "ER", "source": "OpenStreetMap", "line": "Eastern Line", "membership_source": "Wikipedia station list"}}, {"type": "Feature", "geometry": {"type": "Point", "coordinates": [88.0697735, 23.6038156]}, "properties": {"name": "Shripat Shrikhanda", "operator": "ER", "source": "OpenStreetMap", "line": "Eastern Line", "membership_source": "Wikipedia station list"}}, {"type": "Feature", "geometry": {"type": "Point", "coordinates": [88.0616835, 23.5956814]}, "properties": {"name": "Shrikhanda", "operator": "ER", "source": "OpenStreetMap", "line": "Eastern Line", "membership_source": "Wikipedia station list"}}, {"type": "Feature", "geometry": {"type": "Point", "coordinates": [88.2811686, 22.7985261]}, "properties": {"name": "Diara", "operator": "ER", "source": "OpenStreetMap", "line": "Eastern Line", "membership_source": "Wikipedia station list"}}, {"type": "Feature", "geometry": {"type": "Point", "coordinates": [88.9135311, 22.571082]}, "properties": {"name": "Hasnabad", "operator": "ER", "source": "OpenStreetMap", "line": "Eastern Line", "membership_source": "Wikipedia station list"}}, {"type": "Feature", "geometry": {"type": "Point", "coordinates": [88.915932, 22.5879479]}, "properties": {"name": "Taki Road", "operator": "ER", "source": "OpenStreetMap", "line": "Eastern Line", "membership_source": "Wikipedia station list"}}, {"type": "Feature", "geometry": {"type": "Point", "coordinates": [88.8966647, 22.6203636]}, "properties": {"name": "Madhyampur", "operator": "ER", "source": "OpenStreetMap", "line": "Eastern Line", "membership_source": "Wikipedia station list"}}, {"type": "Feature", "geometry": {"type": "Point", "coordinates": [88.3119217, 23.2779708]}, "properties": {"name": "Dhatrigram", "operator": "ER", "source": "OpenStreetMap", "line": "Eastern Line", "membership_source": "Wikipedia station list"}}, {"type": "Feature", "geometry": {"type": "Point", "coordinates": [88.3359081, 23.3658885]}, "properties": {"name": "Kalinagar", "operator": "ER", "source": "OpenStreetMap", "line": "Eastern Line", "membership_source": "Wikipedia station list"}}, {"type": "Feature", "geometry": {"type": "Point", "coordinates": [88.3540804, 22.8670713]}, "properties": {"name": "Chandannagar", "operator": "ER", "source": "OpenStreetMap", "line": "Eastern Line", "membership_source": "Wikipedia station list"}}, {"type": "Feature", "geometry": {"type": "Point", "coordinates": [88.3954065, 22.8516789]}, "properties": {"name": "Jagaddal", "operator": "ER", "source": "OpenStreetMap", "line": "Eastern Line", "membership_source": "Wikipedia station list"}}, {"type": "Feature", "geometry": {"type": "Point", "coordinates": [88.3471304, 22.847312]}, "properties": {"name": "Mankundu", "operator": "ER", "source": "OpenStreetMap", "line": "Eastern Line", "membership_source": "Wikipedia station list"}}, {"type": "Feature", "geometry": {"type": "Point", "coordinates": [88.3777096, 22.7248499]}, "properties": {"name": "Khardaha", "operator": "ER", "source": "OpenStreetMap", "line": "Eastern Line", "membership_source": "Wikipedia station list"}}, {"type": "Feature", "geometry": {"type": "Point", "coordinates": [88.4135873, 23.0171023]}, "properties": {"name": "Kuntighat", "operator": "ER", "source": "OpenStreetMap", "line": "Eastern Line", "membership_source": "Wikipedia station list"}}, {"type": "Feature", "geometry": {"type": "Point", "coordinates": [88.4182167, 23.1969311]}, "properties": {"name": "Guptipara", "operator": "ER", "source": "OpenStreetMap", "line": "Eastern Line", "membership_source": "Wikipedia station list"}}, {"type": "Feature", "geometry": {"type": "Point", "coordinates": [88.3538695, 23.2126373]}, "properties": {"name": "Ambika Kalna", "operator": "ER", "source": "OpenStreetMap", "line": "Eastern Line", "membership_source": "Wikipedia station list"}}, {"type": "Feature", "geometry": {"type": "Point", "coordinates": [88.3289884, 23.2421852]}, "properties": {"name": "Baghnapara", "operator": "ER", "source": "OpenStreetMap", "line": "Eastern Line", "membership_source": "Wikipedia station list"}}, {"type": "Feature", "geometry": {"type": "Point", "coordinates": [88.8329731, 23.0305715]}, "properties": {"name": "Bangaon Junction", "operator": "ER", "source": "OpenStreetMap", "line": "Eastern Line", "membership_source": "Wikipedia station list"}}, {"type": "Feature", "geometry": {"type": "Point", "coordinates": [88.7869355, 23.4909986]}, "properties": {"name": "Gede", "operator": "ER", "source": "OpenStreetMap", "line": "Eastern Line", "membership_source": "Wikipedia station list"}}, {"type": "Feature", "geometry": {"type": "Point", "coordinates": [88.7615195, 23.4515674]}, "properties": {"name": "Banpur", "operator": "ER", "source": "OpenStreetMap", "line": "Eastern Line", "membership_source": "Wikipedia station list"}}, {"type": "Feature", "geometry": {"type": "Point", "coordinates": [88.4837829, 22.7241945]}, "properties": {"name": "Barasat Junction", "operator": "ER", "source": "OpenStreetMap", "line": "Eastern Line", "membership_source": "Wikipedia station list"}}, {"type": "Feature", "geometry": {"type": "Point", "coordinates": [88.3892144, 22.6613608]}, "properties": {"name": "Belgharia", "operator": "ER", "source": "OpenStreetMap", "line": "Eastern Line", "membership_source": "Wikipedia station list"}}, {"type": "Feature", "geometry": {"type": "Point", "coordinates": [88.3283582, 22.7748045]}, "properties": {"name": "Seoraphuli Jn", "operator": "ER", "source": "OpenStreetMap", "line": "Eastern Line", "membership_source": "Wikipedia station list"}}, {"type": "Feature", "geometry": {"type": "Point", "coordinates": [88.3317725, 22.7949104]}, "properties": {"name": "Baidyabati", "operator": "ER", "source": "OpenStreetMap", "line": "Eastern Line", "membership_source": "Wikipedia station list"}}, {"type": "Feature", "geometry": {"type": "Point", "coordinates": [88.3414937, 22.8282019]}, "properties": {"name": "Bhadreshwar", "operator": "ER", "source": "OpenStreetMap", "line": "Eastern Line", "membership_source": "Wikipedia station list"}}, {"type": "Feature", "geometry": {"type": "Point", "coordinates": [88.5298004, 23.0787191]}, "properties": {"name": "Chakdaha", "operator": "ER", "source": "OpenStreetMap", "line": "Eastern Line", "membership_source": "Wikipedia station list"}}, {"type": "Feature", "geometry": {"type": "Point", "coordinates": [88.4898057, 23.0054108]}, "properties": {"name": "Madanpur", "operator": "ER", "source": "OpenStreetMap", "line": "Eastern Line", "membership_source": "Wikipedia station list"}}, {"type": "Feature", "geometry": {"type": "Point", "coordinates": [88.5212976, 23.0604693]}, "properties": {"name": "Palpara", "operator": "ER", "source": "OpenStreetMap", "line": "Eastern Line", "membership_source": "Wikipedia station list"}}, {"type": "Feature", "geometry": {"type": "Point", "coordinates": [88.5731871, 23.2080551]}, "properties": {"name": "Kalinarayanpur Junction", "operator": "ER", "source": "OpenStreetMap", "line": "Eastern Line", "membership_source": "Wikipedia station list"}}, {"type": "Feature", "geometry": {"type": "Point", "coordinates": [88.5389626, 23.2117444]}, "properties": {"name": "Habibpur", "operator": "ER", "source": "OpenStreetMap", "line": "Eastern Line", "membership_source": "Wikipedia station list"}}, {"type": "Feature", "geometry": {"type": "Point", "coordinates": [88.3554758, 23.4140447]}, "properties": {"name": "Bishnupriya", "operator": "ER", "source": "OpenStreetMap", "line": "Eastern Line", "membership_source": "Wikipedia station list"}}, {"type": "Feature", "geometry": {"type": "Point", "coordinates": [88.3300268, 23.4328985]}, "properties": {"name": "Bhandartikuri", "operator": "ER", "source": "OpenStreetMap", "line": "Eastern Line", "membership_source": "Wikipedia station list"}}, {"type": "Feature", "geometry": {"type": "Point", "coordinates": [88.3248629, 23.4525979]}, "properties": {"name": "Purbasthali", "operator": "ER", "source": "OpenStreetMap", "line": "Eastern Line", "membership_source": "Wikipedia station list"}}, {"type": "Feature", "geometry": {"type": "Point", "coordinates": [88.3207921, 23.4795785]}, "properties": {"name": "Mertala Phaleya", "operator": "ER", "source": "OpenStreetMap", "line": "Eastern Line", "membership_source": "Wikipedia station list"}}, {"type": "Feature", "geometry": {"type": "Point", "coordinates": [88.2844126, 23.520854]}, "properties": {"name": "Belerhat", "operator": "ER", "source": "OpenStreetMap", "line": "Eastern Line", "membership_source": "Wikipedia station list"}}, {"type": "Feature", "geometry": {"type": "Point", "coordinates": [88.2521117, 23.5473858]}, "properties": {"name": "Patuli", "operator": "ER", "source": "OpenStreetMap", "line": "Eastern Line", "membership_source": "Wikipedia station list"}}, {"type": "Feature", "geometry": {"type": "Point", "coordinates": [88.2262877, 23.5812168]}, "properties": {"name": "Agradwip", "operator": "ER", "source": "OpenStreetMap", "line": "Eastern Line", "membership_source": "Wikipedia station list"}}, {"type": "Feature", "geometry": {"type": "Point", "coordinates": [88.1716364, 23.6007563]}, "properties": {"name": "Dainhat", "operator": "ER", "source": "OpenStreetMap", "line": "Eastern Line", "membership_source": "Wikipedia station list"}}, {"type": "Feature", "geometry": {"type": "Point", "coordinates": [88.6135185, 23.2421729]}, "properties": {"name": "Aranghata", "operator": "ER", "source": "OpenStreetMap", "line": "Eastern Line", "membership_source": "Wikipedia station list"}}, {"type": "Feature", "geometry": {"type": "Point", "coordinates": [88.5188879, 22.3873131]}, "properties": {"name": "Piali", "operator": "ER", "source": "OpenStreetMap", "line": "South Lines", "membership_source": "Wikipedia station list"}}, {"type": "Feature", "geometry": {"type": "Point", "coordinates": [88.2389909, 21.7717651]}, "properties": {"name": "Namkhana", "operator": "ER", "source": "OpenStreetMap", "line": "South Lines", "membership_source": "Wikipedia station list"}}, {"type": "Feature", "geometry": {"type": "Point", "coordinates": [88.2008022, 21.9050064]}, "properties": {"name": "Kashinagar", "operator": "ER", "source": "OpenStreetMap", "line": "South Lines", "membership_source": "Wikipedia station list"}}, {"type": "Feature", "geometry": {"type": "Point", "coordinates": [88.2194608, 21.9375495]}, "properties": {"name": "Madhabnagar", "operator": "ER", "source": "OpenStreetMap", "line": "South Lines", "membership_source": "Wikipedia station list"}}, {"type": "Feature", "geometry": {"type": "Point", "coordinates": [88.3853645, 22.6828782]}, "properties": {"name": "Agarpara", "operator": "ER", "source": "OpenStreetMap", "line": "Eastern Line", "membership_source": "Wikipedia station list"}}, {"type": "Feature", "geometry": {"type": "Point", "coordinates": [88.3218971, 22.1100523]}, "properties": {"name": "Lakshmikantapur", "operator": "ER", "source": "OpenStreetMap", "line": "South Lines", "membership_source": "Wikipedia station list"}}, {"type": "Feature", "geometry": {"type": "Point", "coordinates": [88.4441839, 22.204738]}, "properties": {"name": "Baharu", "operator": "ER", "source": "OpenStreetMap", "line": "South Lines", "membership_source": "Wikipedia station list"}}, {"type": "Feature", "geometry": {"type": "Point", "coordinates": [88.2813672, 22.2145597]}, "properties": {"name": "Deula", "operator": "ER", "source": "OpenStreetMap", "line": "South Lines", "membership_source": "Wikipedia station list"}}, {"type": "Feature", "geometry": {"type": "Point", "coordinates": [87.7427409, 22.3926941]}, "properties": {"name": "Panskura Junction", "operator": "SER", "source": "OpenStreetMap", "line": "South Eastern Line", "membership_source": "Wikipedia station list"}}, {"type": "Feature", "geometry": {"type": "Point", "coordinates": [87.9276362, 22.1906591]}, "properties": {"name": "Nandakumar", "operator": "SER", "source": "OpenStreetMap", "line": "South Eastern Line", "membership_source": "Wikipedia station list"}}, {"type": "Feature", "geometry": {"type": "Point", "coordinates": [87.7079497, 22.8987215]}, "properties": {"name": "Goghat", "operator": "ER", "source": "OpenStreetMap", "line": "Eastern Line", "membership_source": "Wikipedia station list"}}, {"type": "Feature", "geometry": {"type": "Point", "coordinates": [88.3909641, 22.5912601]}, "properties": {"name": "Bidhannagar Road", "operator": "ER", "source": "OpenStreetMap", "line": "Eastern LineChord link Line", "membership_source": "Wikipedia station list"}}, {"type": "Feature", "geometry": {"type": "Point", "coordinates": [88.3077224, 23.6885527]}, "properties": {"name": "Debagram", "operator": "ER", "source": "OpenStreetMap", "line": "Eastern Line", "membership_source": "Wikipedia station list"}}, {"type": "Feature", "geometry": {"type": "Point", "coordinates": [88.2416238, 23.9869493]}, "properties": {"name": "Bhabta", "operator": "ER", "source": "OpenStreetMap", "line": "Eastern Line", "membership_source": "Wikipedia station list"}}, {"type": "Feature", "geometry": {"type": "Point", "coordinates": [88.4640623, 23.4388336]}, "properties": {"name": "Bahadurpur", "operator": "ER", "source": "OpenStreetMap", "line": "Eastern Line", "membership_source": "Wikipedia station list"}}, {"type": "Feature", "geometry": {"type": "Point", "coordinates": [88.4312776, 22.3663286]}, "properties": {"name": "Baruipur Junction", "operator": "ER", "source": "OpenStreetMap", "line": "South Lines", "membership_source": "Wikipedia station list"}}, {"type": "Feature", "geometry": {"type": "Point", "coordinates": [88.4055149, 22.4656393]}, "properties": {"name": "Garia", "operator": "ER", "source": "OpenStreetMap", "line": "South Lines", "membership_source": "Wikipedia station list"}}, {"type": "Feature", "geometry": {"type": "Point", "coordinates": [88.4331223, 22.3965862]}, "properties": {"name": "Mallikpur", "operator": "ER", "source": "OpenStreetMap", "line": "South Lines", "membership_source": "Wikipedia station list"}}, {"type": "Feature", "geometry": {"type": "Point", "coordinates": [88.4505893, 22.3295398]}, "properties": {"name": "Krishna Mohan", "operator": "ER", "source": "OpenStreetMap", "line": "South Lines", "membership_source": "Wikipedia station list"}}, {"type": "Feature", "geometry": {"type": "Point", "coordinates": [88.4349016, 22.3471565]}, "properties": {"name": "Shasan Road", "operator": "ER", "source": "OpenStreetMap", "line": "South Lines", "membership_source": "Wikipedia station list"}}, {"type": "Feature", "geometry": {"type": "Point", "coordinates": [88.4603013, 22.3159388]}, "properties": {"name": "Dhapdhapi", "operator": "ER", "source": "OpenStreetMap", "line": "South Lines", "membership_source": "Wikipedia station list"}}, {"type": "Feature", "geometry": {"type": "Point", "coordinates": [88.4666882, 22.2934899]}, "properties": {"name": "Surjyapur", "operator": "ER", "source": "OpenStreetMap", "line": "South Lines", "membership_source": "Wikipedia station list"}}, {"type": "Feature", "geometry": {"type": "Point", "coordinates": [88.2746863, 22.1000006]}, "properties": {"name": "Udairampur", "operator": "ER", "source": "OpenStreetMap", "line": "South Lines", "membership_source": "Wikipedia station list"}}, {"type": "Feature", "geometry": {"type": "Point", "coordinates": [88.2557596, 22.0765213]}, "properties": {"name": "Kulpi", "operator": "ER", "source": "OpenStreetMap", "line": "South Lines", "membership_source": "Wikipedia station list"}}, {"type": "Feature", "geometry": {"type": "Point", "coordinates": [88.245697, 22.0348168]}, "properties": {"name": "Karanjali", "operator": "ER", "source": "OpenStreetMap", "line": "South Lines", "membership_source": "Wikipedia station list"}}, {"type": "Feature", "geometry": {"type": "Point", "coordinates": [88.2175551, 21.9879093]}, "properties": {"name": "Nischintapur Market", "operator": "ER", "source": "OpenStreetMap", "line": "South Lines", "membership_source": "Wikipedia station list"}}, {"type": "Feature", "geometry": {"type": "Point", "coordinates": [88.4540125, 22.4246986]}, "properties": {"name": "Bidyadharpur", "operator": "ER", "source": "OpenStreetMap", "line": "South Lines", "membership_source": "Wikipedia station list"}}, {"type": "Feature", "geometry": {"type": "Point", "coordinates": [88.4760309, 22.412052]}, "properties": {"name": "Kalikapur", "operator": "ER", "source": "OpenStreetMap", "line": "South Lines", "membership_source": "Wikipedia station list"}}, {"type": "Feature", "geometry": {"type": "Point", "coordinates": [88.4936425, 22.4018828]}, "properties": {"name": "Champahati", "operator": "ER", "source": "OpenStreetMap", "line": "South Lines", "membership_source": "Wikipedia station list"}}, {"type": "Feature", "geometry": {"type": "Point", "coordinates": [88.5527713, 22.3679011]}, "properties": {"name": "Ghutiari Sharif", "operator": "ER", "source": "OpenStreetMap", "line": "South Lines", "membership_source": "Wikipedia station list"}}, {"type": "Feature", "geometry": {"type": "Point", "coordinates": [88.4192153, 22.6504966]}, "properties": {"name": "Durganagar", "operator": "ER", "source": "OpenStreetMap", "line": "Eastern Line", "membership_source": "Wikipedia station list"}}, {"type": "Feature", "geometry": {"type": "Point", "coordinates": [88.4274959, 22.6643198]}, "properties": {"name": "Birati", "operator": "ER", "source": "OpenStreetMap", "line": "Eastern Line", "membership_source": "Wikipedia station list"}}, {"type": "Feature", "geometry": {"type": "Point", "coordinates": [88.444617, 22.6867642]}, "properties": {"name": "New Barrackpore", "operator": "ER", "source": "OpenStreetMap", "line": "Eastern Line", "membership_source": "Wikipedia station list"}}, {"type": "Feature", "geometry": {"type": "Point", "coordinates": [88.4530183, 22.6947839]}, "properties": {"name": "Madhyamgram", "operator": "ER", "source": "OpenStreetMap", "line": "Eastern Line", "membership_source": "Wikipedia station list"}}, {"type": "Feature", "geometry": {"type": "Point", "coordinates": [88.4699989, 22.7109969]}, "properties": {"name": "Hridaypur", "operator": "ER", "source": "OpenStreetMap", "line": "Eastern Line", "membership_source": "Wikipedia station list"}}, {"type": "Feature", "geometry": {"type": "Point", "coordinates": [87.8179844, 22.0298506]}, "properties": {"name": "Deshapran", "operator": "SER", "source": "OpenStreetMap", "line": "South Eastern Line", "membership_source": "Wikipedia station list"}}, {"type": "Feature", "geometry": {"type": "Point", "coordinates": [88.2233537, 22.5002134]}, "properties": {"name": "Nangi", "operator": "ER", "source": "OpenStreetMap", "line": "South Lines", "membership_source": "Wikipedia station list"}}, {"type": "Feature", "geometry": {"type": "Point", "coordinates": [88.2492787, 22.5147366]}, "properties": {"name": "Akra", "operator": "ER", "source": "OpenStreetMap", "line": "South Lines", "membership_source": "Wikipedia station list"}}, {"type": "Feature", "geometry": {"type": "Point", "coordinates": [88.2710655, 22.5240566]}, "properties": {"name": "Santoshpur", "operator": "ER", "source": "OpenStreetMap", "line": "South Lines", "membership_source": "Wikipedia station list"}}, {"type": "Feature", "geometry": {"type": "Point", "coordinates": [88.3011366, 22.5179206]}, "properties": {"name": "Brace Bridge", "operator": "ER", "source": "OpenStreetMap", "line": "South Lines", "membership_source": "Wikipedia station list"}}, {"type": "Feature", "geometry": {"type": "Point", "coordinates": [87.87813, 23.2925557]}, "properties": {"name": "Kamnara", "operator": "ER", "source": "OpenStreetMap", "line": "Eastern Line", "membership_source": "Wikipedia station list"}}, {"type": "Feature", "geometry": {"type": "Point", "coordinates": [87.8850698, 23.313686]}, "properties": {"name": "Khetia", "operator": "ER", "source": "OpenStreetMap", "line": "Eastern Line", "membership_source": "Wikipedia station list"}}, {"type": "Feature", "geometry": {"type": "Point", "coordinates": [88.3057431, 22.5682566]}, "properties": {"name": "Padmapukur", "operator": "SER", "source": "OpenStreetMap", "line": "South Eastern Line", "membership_source": "Wikipedia station list"}}, {"type": "Feature", "geometry": {"type": "Point", "coordinates": [88.3566997, 23.3975459]}, "properties": {"name": "Nabadwip Dham", "operator": "ER", "source": "OpenStreetMap", "line": "Eastern Line", "membership_source": "Wikipedia station list"}}, {"type": "Feature", "geometry": {"type": "Point", "coordinates": [87.3250048, 22.3399404]}, "properties": {"name": "Kharagpur Junction", "operator": "SER", "source": "OpenStreetMap", "line": "South Eastern Line", "membership_source": "Wikipedia station list"}}, {"type": "Feature", "geometry": {"type": "Point", "coordinates": [87.5849584, 22.3547622]}, "properties": {"name": "Duan", "operator": "SER", "source": "OpenStreetMap", "line": "South Eastern Line", "membership_source": "Wikipedia station list"}}, {"type": "Feature", "geometry": {"type": "Point", "coordinates": [88.4359454, 23.2629545]}, "properties": {"name": "Shantipur Junction", "operator": "ER", "source": "OpenStreetMap", "line": "Eastern Line", "membership_source": "Wikipedia station list"}}, {"type": "Feature", "geometry": {"type": "Point", "coordinates": [88.5823002, 22.6818162]}, "properties": {"name": "Sondalia", "operator": "ER", "source": "OpenStreetMap", "line": "Eastern Line", "membership_source": "Wikipedia station list"}}, {"type": "Feature", "geometry": {"type": "Point", "coordinates": [88.3428112, 22.5828709]}, "properties": {"name": "Howrah Junction", "operator": "ER", "source": "OpenStreetMap", "line": "South Eastern LineEastern Line", "membership_source": "Wikipedia station list"}}, {"type": "Feature", "geometry": {"type": "Point", "coordinates": [87.9250677, 23.4067917]}, "properties": {"name": "Bhatar", "operator": "ER", "source": "OpenStreetMap", "line": "Eastern Line", "membership_source": "Wikipedia station list"}}, {"type": "Feature", "geometry": {"type": "Point", "coordinates": [88.3153898, 22.5551538]}, "properties": {"name": "Shalimar", "operator": "SER", "source": "OpenStreetMap", "line": "South Eastern Line", "membership_source": "Wikipedia station list"}}, {"type": "Feature", "geometry": {"type": "Point", "coordinates": [88.0885372, 22.0529567]}, "properties": {"name": "Bandar", "operator": "SER", "source": "OpenStreetMap", "line": "South Eastern Line", "membership_source": "Wikipedia station list"}}, {"type": "Feature", "geometry": {"type": "Point", "coordinates": [88.4394197, 22.9819264]}, "properties": {"name": "Kalyani Ghoshpara", "operator": "ER", "source": "OpenStreetMap", "line": "Eastern Line", "membership_source": "Wikipedia station list"}}, {"type": "Feature", "geometry": {"type": "Point", "coordinates": [88.2394462, 22.5757025]}, "properties": {"name": "Andul", "operator": "SER", "source": "OpenStreetMap", "line": "South Eastern LineChord link Line", "membership_source": "Wikipedia station list"}}, {"type": "Feature", "geometry": {"type": "Point", "coordinates": [88.2968751, 22.6184662]}, "properties": {"name": "Kona", "operator": "SER", "source": "OpenStreetMap", "line": "South Eastern Line", "membership_source": "Wikipedia station list"}}, {"type": "Feature", "geometry": {"type": "Point", "coordinates": [88.2366824, 22.6286882]}, "properties": {"name": "Makardaha", "operator": "SER", "source": "OpenStreetMap", "line": "Eastern Line", "membership_source": "Wikipedia station list"}}, {"type": "Feature", "geometry": {"type": "Point", "coordinates": [87.9900093, 22.1930923]}, "properties": {"name": "Satish Samanta", "operator": "SER", "source": "OpenStreetMap", "line": "South Eastern Line", "membership_source": "Wikipedia station list"}}, {"type": "Feature", "geometry": {"type": "Point", "coordinates": [88.0875809, 22.152392]}, "properties": {"name": "Barda", "operator": "SER", "source": "OpenStreetMap", "line": "South Eastern Line", "membership_source": "Wikipedia station list"}}, {"type": "Feature", "geometry": {"type": "Point", "coordinates": [88.6686942, 22.3136166]}, "properties": {"name": "Canning", "operator": "ER", "source": "OpenStreetMap", "line": "South Lines", "membership_source": "Wikipedia station list"}}, {"type": "Feature", "geometry": {"type": "Point", "coordinates": [88.0031395, 23.1963766]}, "properties": {"name": "Palsit", "operator": "ER", "source": "OpenStreetMap", "line": "Eastern Line", "membership_source": "Wikipedia station list"}}, {"type": "Feature", "geometry": {"type": "Point", "coordinates": [88.0093611, 23.1790736]}, "properties": {"name": "Palla Road Station", "operator": "ER", "source": "OpenStreetMap", "line": "Eastern Line", "membership_source": "Wikipedia station list"}}, {"type": "Feature", "geometry": {"type": "Point", "coordinates": [88.2551099, 22.7384088]}, "properties": {"name": "Begampur", "operator": "ER", "source": "OpenStreetMap", "line": "Eastern Line", "membership_source": "Wikipedia station list"}}, {"type": "Feature", "geometry": {"type": "Point", "coordinates": [88.2370465, 22.7668969]}, "properties": {"name": "Baruipara", "operator": "ER", "source": "OpenStreetMap", "line": "Eastern Line", "membership_source": "Wikipedia station list"}}, {"type": "Feature", "geometry": {"type": "Point", "coordinates": [88.2224446, 22.7908021]}, "properties": {"name": "Mirzapur Bankipur", "operator": "ER", "source": "OpenStreetMap", "line": "Eastern Line", "membership_source": "Wikipedia station list"}}, {"type": "Feature", "geometry": {"type": "Point", "coordinates": [88.2116836, 22.8080526]}, "properties": {"name": "Balarambati", "operator": "ER", "source": "OpenStreetMap", "line": "Eastern Line", "membership_source": "Wikipedia station list"}}, {"type": "Feature", "geometry": {"type": "Point", "coordinates": [87.926521, 23.2236194]}, "properties": {"name": "Gangpur", "operator": "ER", "source": "OpenStreetMap", "line": "Eastern Line", "membership_source": "Wikipedia station list"}}, {"type": "Feature", "geometry": {"type": "Point", "coordinates": [87.5082534, 21.623077]}, "properties": {"name": "Digha", "operator": "SER", "source": "OpenStreetMap", "line": "South Eastern Line", "membership_source": "Wikipedia station list"}}, {"type": "Feature", "geometry": {"type": "Point", "coordinates": [88.0914836, 22.6435085]}, "properties": {"name": "Mahendralalnagar", "operator": "SER", "source": "OpenStreetMap", "line": "South Eastern Line", "membership_source": "Wikipedia station list"}}, {"type": "Feature", "geometry": {"type": "Point", "coordinates": [88.324035, 22.598577]}, "properties": {"name": "Tikiapara", "operator": "SER", "source": "OpenStreetMap", "line": "South Eastern Line", "membership_source": "Wikipedia station list"}}, {"type": "Feature", "geometry": {"type": "Point", "coordinates": [88.6076805, 22.674796]}, "properties": {"name": "Beliaghata Road", "operator": "ER", "source": "OpenStreetMap", "line": "Eastern Line", "membership_source": "Wikipedia station list"}}, {"type": "Feature", "geometry": {"type": "Point", "coordinates": [88.534992, 22.7046413]}, "properties": {"name": "Karea Kadambagachhi", "operator": "ER", "source": "OpenStreetMap", "line": "Eastern Line", "membership_source": "Wikipedia station list"}}, {"type": "Feature", "geometry": {"type": "Point", "coordinates": [88.4974018, 23.2299617]}, "properties": {"name": "Phulia", "operator": "ER", "source": "OpenStreetMap", "line": "Eastern Line", "membership_source": "Wikipedia station list"}}, {"type": "Feature", "geometry": {"type": "Point", "coordinates": [88.4630152, 23.2465092]}, "properties": {"name": "Bathna Krittibas", "operator": "ER", "source": "OpenStreetMap", "line": "Eastern Line", "membership_source": "Wikipedia station list"}}, {"type": "Feature", "geometry": {"type": "Point", "coordinates": [88.6457993, 23.3349696]}, "properties": {"name": "Bagula", "operator": "ER", "source": "OpenStreetMap", "line": "Eastern Line", "membership_source": "Wikipedia station list"}}, {"type": "Feature", "geometry": {"type": "Point", "coordinates": [87.774236, 22.399867]}, "properties": {"name": "Narayan Pakuria Murail", "operator": "SER", "source": "OpenStreetMap", "line": "South Eastern Line", "membership_source": "Wikipedia station list"}}, {"type": "Feature", "geometry": {"type": "Point", "coordinates": [87.5529121, 22.3577056]}, "properties": {"name": "Balichak", "operator": "SER", "source": "OpenStreetMap", "line": "South Eastern Line", "membership_source": "Wikipedia station list"}}, {"type": "Feature", "geometry": {"type": "Point", "coordinates": [87.8091441, 22.4022611]}, "properties": {"name": "Bhogpur", "operator": "SER", "source": "OpenStreetMap", "line": "South Eastern Line", "membership_source": "Wikipedia station list"}}, {"type": "Feature", "geometry": {"type": "Point", "coordinates": [87.5347259, 21.6671266]}, "properties": {"name": "Tikra", "operator": "SER", "source": "OpenStreetMap", "line": "South Eastern Line", "membership_source": "Wikipedia station list"}}, {"type": "Feature", "geometry": {"type": "Point", "coordinates": [88.42796, 22.9876888]}, "properties": {"name": "Kalyani Simanta", "operator": "ER", "source": "OpenStreetMap", "line": "Eastern Line", "membership_source": "Wikipedia station list"}}, {"type": "Feature", "geometry": {"type": "Point", "coordinates": [88.1191461, 22.8316205]}, "properties": {"name": "Haripal", "operator": "ER", "source": "OpenStreetMap", "line": "Eastern Line", "membership_source": "Wikipedia station list"}}, {"type": "Feature", "geometry": {"type": "Point", "coordinates": [88.0908377, 22.8409505]}, "properties": {"name": "Kaikala", "operator": "ER", "source": "OpenStreetMap", "line": "Eastern Line", "membership_source": "Wikipedia station list"}}, {"type": "Feature", "geometry": {"type": "Point", "coordinates": [88.1668229, 22.8304705]}, "properties": {"name": "Nalikul", "operator": "ER", "source": "OpenStreetMap", "line": "Eastern Line", "membership_source": "Wikipedia station list"}}, {"type": "Feature", "geometry": {"type": "Point", "coordinates": [87.9201158, 22.2746481]}, "properties": {"name": "Tamluk", "operator": "SER", "source": "OpenStreetMap", "line": "South Eastern Line", "membership_source": "Wikipedia station list"}}, {"type": "Feature", "geometry": {"type": "Point", "coordinates": [87.5008825, 22.3636901]}, "properties": {"name": "Shyam Chak", "operator": "SER", "source": "OpenStreetMap", "line": "South Eastern Line", "membership_source": "Wikipedia station list"}}, {"type": "Feature", "geometry": {"type": "Point", "coordinates": [87.6134579, 22.357034]}, "properties": {"name": "Radhamohanpur", "operator": "SER", "source": "OpenStreetMap", "line": "South Eastern Line", "membership_source": "Wikipedia station list"}}, {"type": "Feature", "geometry": {"type": "Point", "coordinates": [87.6969259, 22.3749138]}, "properties": {"name": "Khirai", "operator": "SER", "source": "OpenStreetMap", "line": "South Eastern Line", "membership_source": "Wikipedia station list"}}, {"type": "Feature", "geometry": {"type": "Point", "coordinates": [87.6556867, 22.3656582]}, "properties": {"name": "Haur", "operator": "SER", "source": "OpenStreetMap", "line": "South Eastern Line", "membership_source": "Wikipedia station list"}}, {"type": "Feature", "geometry": {"type": "Point", "coordinates": [87.4430916, 22.3692521]}, "properties": {"name": "Madpur", "operator": "SER", "source": "OpenStreetMap", "line": "South Eastern Line", "membership_source": "Wikipedia station list"}}, {"type": "Feature", "geometry": {"type": "Point", "coordinates": [87.2938059, 22.3756681]}, "properties": {"name": "Gokulpur", "operator": "SER", "source": "OpenStreetMap", "line": "South Eastern Line", "membership_source": "Wikipedia station list"}}, {"type": "Feature", "geometry": {"type": "Point", "coordinates": [88.4289358, 23.1807071]}, "properties": {"name": "Behula", "operator": "ER", "source": "OpenStreetMap", "line": "Eastern Line", "membership_source": "Wikipedia station list"}}, {"type": "Feature", "geometry": {"type": "Point", "coordinates": [88.3953371, 22.957871]}, "properties": {"name": "Bansh Baria", "operator": "ER", "source": "OpenStreetMap", "line": "Eastern Line", "membership_source": "Wikipedia station list"}}, {"type": "Feature", "geometry": {"type": "Point", "coordinates": [88.4330295, 23.040696]}, "properties": {"name": "Dumurdaha", "operator": "ER", "source": "OpenStreetMap", "line": "Eastern Line", "membership_source": "Wikipedia station list"}}, {"type": "Feature", "geometry": {"type": "Point", "coordinates": [88.0260605, 23.158228]}, "properties": {"name": "Chanchai", "operator": "ER", "source": "OpenStreetMap", "line": "Eastern Line", "membership_source": "Wikipedia station list"}}, {"type": "Feature", "geometry": {"type": "Point", "coordinates": [88.2316357, 23.0963051]}, "properties": {"name": "Simlagarh", "operator": "ER", "source": "OpenStreetMap", "line": "Eastern Line", "membership_source": "Wikipedia station list"}}, {"type": "Feature", "geometry": {"type": "Point", "coordinates": [88.4513783, 22.9462392]}, "properties": {"name": "Kanchrapara", "operator": "ER", "source": "OpenStreetMap", "line": "Eastern Line", "membership_source": "Wikipedia station list"}}, {"type": "Feature", "geometry": {"type": "Point", "coordinates": [88.0959803, 23.1726833]}, "properties": {"name": "Memari", "operator": "ER", "source": "OpenStreetMap", "line": "Eastern Line", "membership_source": "Wikipedia station list"}}, {"type": "Feature", "geometry": {"type": "Point", "coordinates": [88.2156743, 23.106842]}, "properties": {"name": "Bainchigram", "operator": "ER", "source": "OpenStreetMap", "line": "Eastern Line", "membership_source": "Wikipedia station list"}}, {"type": "Feature", "geometry": {"type": "Point", "coordinates": [88.1967576, 23.1196627]}, "properties": {"name": "Bainchi", "operator": "ER", "source": "OpenStreetMap", "line": "Eastern Line", "membership_source": "Wikipedia station list"}}, {"type": "Feature", "geometry": {"type": "Point", "coordinates": [88.1573731, 23.1435428]}, "properties": {"name": "Debipur", "operator": "ER", "source": "OpenStreetMap", "line": "Eastern Line", "membership_source": "Wikipedia station list"}}, {"type": "Feature", "geometry": {"type": "Point", "coordinates": [88.8864028, 22.6359662]}, "properties": {"name": "Matania Anantapur", "operator": "ER", "source": "OpenStreetMap", "line": "Eastern Line", "membership_source": "Wikipedia station list"}}, {"type": "Feature", "geometry": {"type": "Point", "coordinates": [88.8537454, 22.655344]}, "properties": {"name": "Bhyabla Halt", "operator": "ER", "source": "OpenStreetMap", "line": "Eastern Line", "membership_source": "Wikipedia station list"}}, {"type": "Feature", "geometry": {"type": "Point", "coordinates": [88.3784257, 22.6063508]}, "properties": {"name": "Tala", "operator": "ER", "source": "OpenStreetMap", "line": "Circular Line", "membership_source": "Wikipedia station list"}}, {"type": "Feature", "geometry": {"type": "Point", "coordinates": [88.3850451, 22.5741753]}, "properties": {"name": "Sir Gurudas Banerjee Halt", "operator": "ER", "source": "OpenStreetMap", "line": "Circular Line", "membership_source": "Wikipedia station list"}}, {"type": "Feature", "geometry": {"type": "Point", "coordinates": [88.6286227, 22.8267554]}, "properties": {"name": "Ashoknagar Road", "operator": "ER", "source": "OpenStreetMap", "line": "Eastern Line", "membership_source": "Wikipedia station list"}}, {"type": "Feature", "geometry": {"type": "Point", "coordinates": [88.8077644, 22.6563508]}, "properties": {"name": "Champapukur", "operator": "ER", "source": "OpenStreetMap", "line": "Eastern Line", "membership_source": "Wikipedia station list"}}, {"type": "Feature", "geometry": {"type": "Point", "coordinates": [88.7823931, 22.6517759]}, "properties": {"name": "Ghora Ras Ghona", "operator": "ER", "source": "OpenStreetMap", "line": "Eastern Line", "membership_source": "Wikipedia station list"}}, {"type": "Feature", "geometry": {"type": "Point", "coordinates": [88.7626022, 22.6516782]}, "properties": {"name": "Malatipur", "operator": "ER", "source": "OpenStreetMap", "line": "Eastern Line", "membership_source": "Wikipedia station list"}}, {"type": "Feature", "geometry": {"type": "Point", "coordinates": [88.7218297, 22.6583709]}, "properties": {"name": "Kankra Mirzanagar", "operator": "ER", "source": "OpenStreetMap", "line": "Eastern Line", "membership_source": "Wikipedia station list"}}, {"type": "Feature", "geometry": {"type": "Point", "coordinates": [88.69057, 22.6619333]}, "properties": {"name": "Harua Road", "operator": "ER", "source": "OpenStreetMap", "line": "Eastern Line", "membership_source": "Wikipedia station list"}}, {"type": "Feature", "geometry": {"type": "Point", "coordinates": [88.658274, 22.6652713]}, "properties": {"name": "Bhasila", "operator": "ER", "source": "OpenStreetMap", "line": "Eastern Line", "membership_source": "Wikipedia station list"}}, {"type": "Feature", "geometry": {"type": "Point", "coordinates": [88.63994, 22.6666962]}, "properties": {"name": "Lebutala", "operator": "ER", "source": "OpenStreetMap", "line": "Eastern Line", "membership_source": "Wikipedia station list"}}, {"type": "Feature", "geometry": {"type": "Point", "coordinates": [88.3723549, 22.240443]}, "properties": {"name": "Magra Hat", "operator": "ER", "source": "OpenStreetMap", "line": "South Lines", "membership_source": "Wikipedia station list"}}, {"type": "Feature", "geometry": {"type": "Point", "coordinates": [88.3298599, 22.2255328]}, "properties": {"name": "Sangrampur", "operator": "ER", "source": "OpenStreetMap", "line": "South Lines", "membership_source": "Wikipedia station list"}}, {"type": "Feature", "geometry": {"type": "Point", "coordinates": [88.4160045, 22.1694729]}, "properties": {"name": "Jaynagar Majilpur", "operator": "ER", "source": "OpenStreetMap", "line": "South Lines", "membership_source": "Wikipedia station list"}}, {"type": "Feature", "geometry": {"type": "Point", "coordinates": [88.3905683, 22.1405391]}, "properties": {"name": "Mathurapur Road", "operator": "ER", "source": "OpenStreetMap", "line": "South Lines", "membership_source": "Wikipedia station list"}}, {"type": "Feature", "geometry": {"type": "Point", "coordinates": [88.3487168, 22.1202297]}, "properties": {"name": "Madhabpur", "operator": "ER", "source": "OpenStreetMap", "line": "South Lines", "membership_source": "Wikipedia station list"}}, {"type": "Feature", "geometry": {"type": "Point", "coordinates": [88.4586126, 22.2781335]}, "properties": {"name": "Gocharan", "operator": "ER", "source": "OpenStreetMap", "line": "South Lines", "membership_source": "Wikipedia station list"}}, {"type": "Feature", "geometry": {"type": "Point", "coordinates": [88.4520098, 22.2550212]}, "properties": {"name": "Hogla", "operator": "ER", "source": "OpenStreetMap", "line": "South Lines", "membership_source": "Wikipedia station list"}}, {"type": "Feature", "geometry": {"type": "Point", "coordinates": [88.4525378, 22.2264378]}, "properties": {"name": "Dakshin Barasat‎", "operator": "ER", "source": "OpenStreetMap", "line": "South Lines", "membership_source": "Wikipedia station list"}}, {"type": "Feature", "geometry": {"type": "Point", "coordinates": [88.374971, 22.4950517]}, "properties": {"name": "Jadavpur", "operator": "ER", "source": "OpenStreetMap", "line": "South Lines", "membership_source": "Wikipedia station list"}}, {"type": "Feature", "geometry": {"type": "Point", "coordinates": [88.3977506, 22.4726577]}, "properties": {"name": "New Garia", "operator": "ER", "source": "OpenStreetMap", "line": "South Lines", "membership_source": "Wikipedia station list"}}, {"type": "Feature", "geometry": {"type": "Point", "coordinates": [88.6111557, 22.3427949]}, "properties": {"name": "Taldi", "operator": "ER", "source": "OpenStreetMap", "line": "South Lines", "membership_source": "Wikipedia station list"}}, {"type": "Feature", "geometry": {"type": "Point", "coordinates": [88.5347717, 22.3783007]}, "properties": {"name": "Gourdaha Halt", "operator": "ER", "source": "OpenStreetMap", "line": "South Lines", "membership_source": "Wikipedia station list"}}, {"type": "Feature", "geometry": {"type": "Point", "coordinates": [88.869347, 22.6501854]}, "properties": {"name": "Basirhat", "operator": "ER", "source": "OpenStreetMap", "line": "Eastern Line", "membership_source": "Wikipedia station list"}}, {"type": "Feature", "geometry": {"type": "Point", "coordinates": [88.2564913, 24.4065266]}, "properties": {"name": "Krishnapur", "operator": "ER", "source": "OpenStreetMap", "line": "Eastern Line", "membership_source": "Wikipedia station list"}}, {"type": "Feature", "geometry": {"type": "Point", "coordinates": [88.2810639, 24.3597512]}, "properties": {"name": "Pirtala", "operator": "ER", "source": "OpenStreetMap", "line": "Eastern Line", "membership_source": "Wikipedia station list"}}, {"type": "Feature", "geometry": {"type": "Point", "coordinates": [88.2939229, 24.2835942]}, "properties": {"name": "Subarnamrigi", "operator": "ER", "source": "OpenStreetMap", "line": "Eastern Line", "membership_source": "Wikipedia station list"}}, {"type": "Feature", "geometry": {"type": "Point", "coordinates": [88.2675118, 24.1198859]}, "properties": {"name": "Cossimbazar", "operator": "ER", "source": "OpenStreetMap", "line": "Eastern Line", "membership_source": "Wikipedia station list"}}, {"type": "Feature", "geometry": {"type": "Point", "coordinates": [88.2470692, 24.048797]}, "properties": {"name": "New Balarampur Halt", "operator": "ER", "source": "OpenStreetMap", "line": "Eastern Line", "membership_source": "Wikipedia station list"}}, {"type": "Feature", "geometry": {"type": "Point", "coordinates": [88.2588063, 23.8536737]}, "properties": {"name": "Rejinagar", "operator": "ER", "source": "OpenStreetMap", "line": "Eastern Line", "membership_source": "Wikipedia station list"}}, {"type": "Feature", "geometry": {"type": "Point", "coordinates": [88.3535352, 23.6380243]}, "properties": {"name": "Sonadanga", "operator": "ER", "source": "OpenStreetMap", "line": "Eastern Line", "membership_source": "Wikipedia station list"}}, {"type": "Feature", "geometry": {"type": "Point", "coordinates": [88.4403495, 23.4859472]}, "properties": {"name": "Dhubulia", "operator": "ER", "source": "OpenStreetMap", "line": "Eastern Line", "membership_source": "Wikipedia station list"}}, {"type": "Feature", "geometry": {"type": "Point", "coordinates": [88.551732, 23.236237]}, "properties": {"name": "Birnagar", "operator": "ER", "source": "OpenStreetMap", "line": "Eastern Line", "membership_source": "Wikipedia station list"}}, {"type": "Feature", "geometry": {"type": "Point", "coordinates": [88.5435734, 23.2599961]}, "properties": {"name": "Taherpur", "operator": "ER", "source": "OpenStreetMap", "line": "Eastern Line", "membership_source": "Wikipedia station list"}}, {"type": "Feature", "geometry": {"type": "Point", "coordinates": [88.5261261, 23.3055047]}, "properties": {"name": "Badkulla", "operator": "ER", "source": "OpenStreetMap", "line": "Eastern Line", "membership_source": "Wikipedia station list"}}, {"type": "Feature", "geometry": {"type": "Point", "coordinates": [87.7973204, 22.3535667]}, "properties": {"name": "Raghunathbari", "operator": "SER", "source": "OpenStreetMap", "line": "South Eastern Line", "membership_source": "Wikipedia station list"}}, {"type": "Feature", "geometry": {"type": "Point", "coordinates": [88.0654592, 22.044614]}, "properties": {"name": "Haldia", "operator": "SER", "source": "OpenStreetMap", "line": "South Eastern Line", "membership_source": "Wikipedia station list"}}, {"type": "Feature", "geometry": {"type": "Point", "coordinates": [88.1374982, 22.8316682]}, "properties": {"name": "Maliya Halt", "operator": "ER", "source": "OpenStreetMap", "line": "Eastern Line", "membership_source": "Wikipedia station list"}}, {"type": "Feature", "geometry": {"type": "Point", "coordinates": [88.7195349, 23.4148457]}, "properties": {"name": "Majhdia", "operator": "ER", "source": "OpenStreetMap", "line": "Eastern Line", "membership_source": "Wikipedia station list"}}, {"type": "Feature", "geometry": {"type": "Point", "coordinates": [88.6608186, 23.3627819]}, "properties": {"name": "Mayurhat", "operator": "ER", "source": "OpenStreetMap", "line": "Eastern Line", "membership_source": "Wikipedia station list"}}, {"type": "Feature", "geometry": {"type": "Point", "coordinates": [88.4184898, 22.4539009]}, "properties": {"name": "Narendrapur", "operator": "ER", "source": "OpenStreetMap", "line": "South Lines", "membership_source": "Wikipedia station list"}}, {"type": "Feature", "geometry": {"type": "Point", "coordinates": [88.5994229, 23.2204636]}, "properties": {"name": "Pancheberia", "operator": "ER", "source": "OpenStreetMap", "line": "Eastern Line", "membership_source": "Wikipedia station list"}}, {"type": "Feature", "geometry": {"type": "Point", "coordinates": [87.927741, 22.8655545]}, "properties": {"name": "Takipur Halt", "operator": "ER", "source": "OpenStreetMap", "line": "Eastern Line", "membership_source": "Wikipedia station list"}}, {"type": "Feature", "geometry": {"type": "Point", "coordinates": [88.3167075, 22.5259855]}, "properties": {"name": "Remount Road", "operator": "ER", "source": "OpenStreetMap", "line": "Circular Line", "membership_source": "Wikipedia station list"}}, {"type": "Feature", "geometry": {"type": "Point", "coordinates": [87.9438261, 22.4581121]}, "properties": {"name": "Ghoraghata", "operator": "SER", "source": "OpenStreetMap", "line": "South Eastern Line", "membership_source": "Wikipedia station list"}}, {"type": "Feature", "geometry": {"type": "Point", "coordinates": [87.9146643, 22.4533543]}, "properties": {"name": "Deulti", "operator": "SER", "source": "OpenStreetMap", "line": "South Eastern Line", "membership_source": "Wikipedia station list"}}, {"type": "Feature", "geometry": {"type": "Point", "coordinates": [87.970121, 22.4625633]}, "properties": {"name": "Bagnan", "operator": "SER", "source": "OpenStreetMap", "line": "South Eastern Line", "membership_source": "Wikipedia station list"}}, {"type": "Feature", "geometry": {"type": "Point", "coordinates": [88.0205997, 22.472091]}, "properties": {"name": "Kulgachia", "operator": "SER", "source": "OpenStreetMap", "line": "South Eastern Line", "membership_source": "Wikipedia station list"}}, {"type": "Feature", "geometry": {"type": "Point", "coordinates": [88.0537726, 22.4740072]}, "properties": {"name": "Birshibpur", "operator": "SER", "source": "OpenStreetMap", "line": "South Eastern Line", "membership_source": "Wikipedia station list"}}, {"type": "Feature", "geometry": {"type": "Point", "coordinates": [87.3895703, 22.3626429]}, "properties": {"name": "Jakpur", "operator": "SER", "source": "OpenStreetMap", "line": "South Eastern Line", "membership_source": "Wikipedia station list"}}, {"type": "Feature", "geometry": {"type": "Point", "coordinates": [88.3054766, 22.6327475]}, "properties": {"name": "Bhattanagar", "operator": "SER", "source": "OpenStreetMap", "line": "Chord link Line", "membership_source": "Wikipedia station list"}}, {"type": "Feature", "geometry": {"type": "Point", "coordinates": [87.9083623, 22.3003395]}, "properties": {"name": "Saheed Matangini", "operator": "SER", "source": "OpenStreetMap", "line": "South Eastern Line", "membership_source": "Wikipedia station list"}}, {"type": "Feature", "geometry": {"type": "Point", "coordinates": [87.9500545, 22.2207757]}, "properties": {"name": "Keshabpur", "operator": "SER", "source": "OpenStreetMap", "line": "South Eastern Line", "membership_source": "Wikipedia station list"}}, {"type": "Feature", "geometry": {"type": "Point", "coordinates": [88.1305762, 22.1201608]}, "properties": {"name": "Basulya Sutahata", "operator": "SER", "source": "OpenStreetMap", "line": "South Eastern Line", "membership_source": "Wikipedia station list"}}, {"type": "Feature", "geometry": {"type": "Point", "coordinates": [87.6708189, 21.7730693]}, "properties": {"name": "Sitalpur", "operator": "SER", "source": "OpenStreetMap", "line": "South Eastern Line", "membership_source": "Wikipedia station list"}}, {"type": "Feature", "geometry": {"type": "Point", "coordinates": [87.6148159, 21.7092114]}, "properties": {"name": "Badalpur", "operator": "SER", "source": "OpenStreetMap", "line": "South Eastern Line", "membership_source": "Wikipedia station list"}}, {"type": "Feature", "geometry": {"type": "Point", "coordinates": [87.752164, 21.8738044]}, "properties": {"name": "Nachinda", "operator": "SER", "source": "OpenStreetMap", "line": "South Eastern Line", "membership_source": "Wikipedia station list"}}, {"type": "Feature", "geometry": {"type": "Point", "coordinates": [87.7944237, 21.9718257]}, "properties": {"name": "Henria", "operator": "SER", "source": "OpenStreetMap", "line": "South Eastern Line", "membership_source": "Wikipedia station list"}}, {"type": "Feature", "geometry": {"type": "Point", "coordinates": [87.6326212, 21.7216441]}, "properties": {"name": "Ashapurna Devi", "operator": "SER", "source": "OpenStreetMap", "line": "South Eastern Line", "membership_source": "Wikipedia station list"}}, {"type": "Feature", "geometry": {"type": "Point", "coordinates": [87.656655, 21.7595419]}, "properties": {"name": "Sujalpur", "operator": "SER", "source": "OpenStreetMap", "line": "South Eastern Line", "membership_source": "Wikipedia station list"}}, {"type": "Feature", "geometry": {"type": "Point", "coordinates": [87.5539271, 21.676884]}, "properties": {"name": "Ramnagar", "operator": "SER", "source": "OpenStreetMap", "line": "South Eastern Line", "membership_source": "Wikipedia station list"}}, {"type": "Feature", "geometry": {"type": "Point", "coordinates": [88.3170788, 22.6612335]}, "properties": {"name": "Belanagar", "operator": "ER", "source": "OpenStreetMap", "line": "Eastern Line", "membership_source": "Wikipedia station list"}}, {"type": "Feature", "geometry": {"type": "Point", "coordinates": [88.2653001, 22.7214367]}, "properties": {"name": "Janai Road", "operator": "ER", "source": "OpenStreetMap", "line": "Eastern Line", "membership_source": "Wikipedia station list"}}, {"type": "Feature", "geometry": {"type": "Point", "coordinates": [88.3354264, 22.5105326]}, "properties": {"name": "New Alipore", "operator": "ER", "source": "OpenStreetMap", "line": "Circular LineSouth Lines", "membership_source": "Wikipedia station list"}}, {"type": "Feature", "geometry": {"type": "Point", "coordinates": [88.3477217, 22.5077549]}, "properties": {"name": "Tollygunge", "operator": "ER", "source": "OpenStreetMap", "line": "Circular LineSouth Lines", "membership_source": "Wikipedia station list"}}, {"type": "Feature", "geometry": {"type": "Point", "coordinates": [88.3533289, 22.5080547]}, "properties": {"name": "Lake Gardens", "operator": "ER", "source": "OpenStreetMap", "line": "Circular LineSouth Lines", "membership_source": "Wikipedia station list"}}, {"type": "Feature", "geometry": {"type": "Point", "coordinates": [87.2913844, 22.4074953]}, "properties": {"name": "Cossye Halt", "operator": "SER", "source": "OpenStreetMap", "line": "South Eastern Line", "membership_source": "Wikipedia station list"}}, {"type": "Feature", "geometry": {"type": "Point", "coordinates": [88.2010907, 23.5921271]}, "properties": {"name": "Sahebtala", "operator": "ER", "source": "OpenStreetMap", "line": "Eastern Line", "membership_source": "Wikipedia station list"}}, {"type": "Feature", "geometry": {"type": "Point", "coordinates": [87.8698352, 23.2499126]}, "properties": {"name": "Barddhaman Junction", "operator": "ER", "source": "OpenStreetMap", "line": "Eastern Line", "membership_source": "Wikipedia station list"}}, {"type": "Feature", "geometry": {"type": "Point", "coordinates": [88.3702844, 22.8909117]}, "properties": {"name": "Chuchura", "operator": "ER", "source": "OpenStreetMap", "line": "Eastern Line", "membership_source": "Wikipedia station list"}}, {"type": "Feature", "geometry": {"type": "Point", "coordinates": [88.3782855, 22.9236692]}, "properties": {"name": "Bandel Junction", "operator": "ER", "source": "OpenStreetMap", "line": "Eastern Line", "membership_source": "Wikipedia station list"}}, {"type": "Feature", "geometry": {"type": "Point", "coordinates": [88.3789569, 22.9549222]}, "properties": {"name": "Adisaptagram", "operator": "ER", "source": "OpenStreetMap", "line": "Eastern Line", "membership_source": "Wikipedia station list"}}, {"type": "Feature", "geometry": {"type": "Point", "coordinates": [87.9688798, 23.2070327]}, "properties": {"name": "Saktigarh", "operator": "ER", "source": "OpenStreetMap", "line": "Eastern Line", "membership_source": "Wikipedia station list"}}, {"type": "Feature", "geometry": {"type": "Point", "coordinates": [88.7609928, 22.8795109]}, "properties": {"name": "Gobardanga Railway Station", "operator": "ER", "source": "OpenStreetMap", "line": "Eastern Line", "membership_source": "Wikipedia station list"}}, {"type": "Feature", "geometry": {"type": "Point", "coordinates": [88.777804, 22.9247344]}, "properties": {"name": "Thakurnagar", "operator": "ER", "source": "OpenStreetMap", "line": "Eastern Line", "membership_source": "Wikipedia station list"}}, {"type": "Feature", "geometry": {"type": "Point", "coordinates": [88.2580206, 24.421361]}, "properties": {"name": "Lalgola", "operator": "ER", "source": "OpenStreetMap", "line": "Eastern Line", "membership_source": "Wikipedia station list"}}, {"type": "Feature", "geometry": {"type": "Point", "coordinates": [88.3710985, 22.7603363]}, "properties": {"name": "Barrackpore", "operator": "ER", "source": "OpenStreetMap", "line": "Eastern Line", "membership_source": "Wikipedia station list"}}, {"type": "Feature", "geometry": {"type": "Point", "coordinates": [88.4935346, 23.3886668]}, "properties": {"name": "Krishnanagar City Junction", "operator": "ER", "source": "OpenStreetMap", "line": "Eastern Line", "membership_source": "Wikipedia station list"}}, {"type": "Feature", "geometry": {"type": "Point", "coordinates": [88.569079, 23.1747694]}, "properties": {"name": "Ranaghat Junction", "operator": "ER", "source": "OpenStreetMap", "line": "Eastern Line", "membership_source": "Wikipedia station list"}}, {"type": "Feature", "geometry": {"type": "Point", "coordinates": [88.405593, 22.8667532]}, "properties": {"name": "Kankinara", "operator": "ER", "source": "OpenStreetMap", "line": "Eastern Line", "membership_source": "Wikipedia station list"}}, {"type": "Feature", "geometry": {"type": "Point", "coordinates": [88.3075402, 24.3350922]}, "properties": {"name": "Bhagwangola", "operator": "ER", "source": "OpenStreetMap", "line": "Eastern Line", "membership_source": "Wikipedia station list"}}, {"type": "Feature", "geometry": {"type": "Point", "coordinates": [88.2771521, 24.2442566]}, "properties": {"name": "Jiaganj", "operator": "ER", "source": "OpenStreetMap", "line": "Eastern Line", "membership_source": "Wikipedia station list"}}, {"type": "Feature", "geometry": {"type": "Point", "coordinates": [88.2814778, 24.1767945]}, "properties": {"name": "Murshidabad Junction", "operator": "ER", "source": "OpenStreetMap", "line": "Eastern Line", "membership_source": "Wikipedia station list"}}, {"type": "Feature", "geometry": {"type": "Point", "coordinates": [88.2641273, 24.0897104]}, "properties": {"name": "Berhampore Court", "operator": "ER", "source": "OpenStreetMap", "line": "Eastern Line", "membership_source": "Wikipedia station list"}}, {"type": "Feature", "geometry": {"type": "Point", "coordinates": [88.2430726, 23.9333306]}, "properties": {"name": "Beldanga", "operator": "ER", "source": "OpenStreetMap", "line": "Eastern Line", "membership_source": "Wikipedia station list"}}, {"type": "Feature", "geometry": {"type": "Point", "coordinates": [88.2850646, 23.7780354]}, "properties": {"name": "Plassey", "operator": "ER", "source": "OpenStreetMap", "line": "Eastern Line", "membership_source": "Wikipedia station list"}}, {"type": "Feature", "geometry": {"type": "Point", "coordinates": [88.3845209, 23.6112685]}, "properties": {"name": "Bethuadahari", "operator": "ER", "source": "OpenStreetMap", "line": "Eastern Line", "membership_source": "Wikipedia station list"}}, {"type": "Feature", "geometry": {"type": "Point", "coordinates": [88.1237572, 23.6400038]}, "properties": {"name": "Katwa Junction", "operator": "ER", "source": "OpenStreetMap", "line": "Eastern Line", "membership_source": "Wikipedia station list"}}, {"type": "Feature", "geometry": {"type": "Point", "coordinates": [88.1759034, 22.8813141]}, "properties": {"name": "Chandanpur", "operator": "ER", "source": "OpenStreetMap", "line": "Eastern Line", "membership_source": "Wikipedia station list"}}, {"type": "Feature", "geometry": {"type": "Point", "coordinates": [88.3479091, 22.6524304]}, "properties": {"name": "Bally Ghat", "operator": "ER", "source": "OpenStreetMap", "line": "Chord link Line", "membership_source": "Wikipedia station list"}}, {"type": "Feature", "geometry": {"type": "Point", "coordinates": [88.2793898, 22.6961161]}, "properties": {"name": "Gobra", "operator": "ER", "source": "OpenStreetMap", "line": "Eastern Line", "membership_source": "Wikipedia station list"}}, {"type": "Feature", "geometry": {"type": "Point", "coordinates": [88.0426683, 23.1350841]}, "properties": {"name": "Masagram Junction", "operator": "ER", "source": "OpenStreetMap", "line": "Eastern Line", "membership_source": "Wikipedia station list"}}, {"type": "Feature", "geometry": {"type": "Point", "coordinates": [88.0575424, 23.1115996]}, "properties": {"name": "Nabagram", "operator": "ER", "source": "OpenStreetMap", "line": "Eastern Line", "membership_source": "Wikipedia station list"}}, {"type": "Feature", "geometry": {"type": "Point", "coordinates": [88.0800635, 23.0794752]}, "properties": {"name": "Jaugram", "operator": "ER", "source": "OpenStreetMap", "line": "Eastern Line", "membership_source": "Wikipedia station list"}}, {"type": "Feature", "geometry": {"type": "Point", "coordinates": [88.0911099, 23.0638628]}, "properties": {"name": "Jhapandanga", "operator": "ER", "source": "OpenStreetMap", "line": "Eastern Line", "membership_source": "Wikipedia station list"}}, {"type": "Feature", "geometry": {"type": "Point", "coordinates": [88.1121993, 23.025068]}, "properties": {"name": "Gurap", "operator": "ER", "source": "OpenStreetMap", "line": "Eastern Line", "membership_source": "Wikipedia station list"}}, {"type": "Feature", "geometry": {"type": "Point", "coordinates": [88.1215825, 23.0063279]}, "properties": {"name": "Hajigarh", "operator": "ER", "source": "OpenStreetMap", "line": "Eastern Line", "membership_source": "Wikipedia station list"}}, {"type": "Feature", "geometry": {"type": "Point", "coordinates": [88.1338697, 22.9746523]}, "properties": {"name": "Sibaichandi", "operator": "ER", "source": "OpenStreetMap", "line": "Eastern Line", "membership_source": "Wikipedia station list"}}, {"type": "Feature", "geometry": {"type": "Point", "coordinates": [88.143874, 22.9509954]}, "properties": {"name": "Dhaniakhali Halt", "operator": "ER", "source": "OpenStreetMap", "line": "Eastern Line", "membership_source": "Wikipedia station list"}}, {"type": "Feature", "geometry": {"type": "Point", "coordinates": [88.1524178, 22.9324208]}, "properties": {"name": "Belmuri", "operator": "ER", "source": "OpenStreetMap", "line": "Eastern Line", "membership_source": "Wikipedia station list"}}, {"type": "Feature", "geometry": {"type": "Point", "coordinates": [88.1593384, 22.9173977]}, "properties": {"name": "Porabazar", "operator": "ER", "source": "OpenStreetMap", "line": "Eastern Line", "membership_source": "Wikipedia station list"}}, {"type": "Feature", "geometry": {"type": "Point", "coordinates": [88.0685413, 23.180734]}, "properties": {"name": "Nimo", "operator": "ER", "source": "OpenStreetMap", "line": "Eastern Line", "membership_source": "Wikipedia station list"}}, {"type": "Feature", "geometry": {"type": "Point", "coordinates": [88.0408528, 23.1874417]}, "properties": {"name": "Rasulpur", "operator": "ER", "source": "OpenStreetMap", "line": "Eastern Line", "membership_source": "Wikipedia station list"}}, {"type": "Feature", "geometry": {"type": "Point", "coordinates": [88.1260036, 23.1583278]}, "properties": {"name": "Bagila", "operator": "ER", "source": "OpenStreetMap", "line": "Eastern Line", "membership_source": "Wikipedia station list"}}, {"type": "Feature", "geometry": {"type": "Point", "coordinates": [88.2696734, 23.0706732]}, "properties": {"name": "Pundooah", "operator": "ER", "source": "OpenStreetMap", "line": "Eastern Line", "membership_source": "Wikipedia station list"}}, {"type": "Feature", "geometry": {"type": "Point", "coordinates": [88.3151771, 23.0467172]}, "properties": {"name": "Khanyan", "operator": "ER", "source": "OpenStreetMap", "line": "Eastern Line", "membership_source": "Wikipedia station list"}}, {"type": "Feature", "geometry": {"type": "Point", "coordinates": [88.3452903, 23.0107912]}, "properties": {"name": "Talandu", "operator": "ER", "source": "OpenStreetMap", "line": "Eastern Line", "membership_source": "Wikipedia station list"}}, {"type": "Feature", "geometry": {"type": "Point", "coordinates": [88.4529607, 23.1221162]}, "properties": {"name": "Balagarh", "operator": "ER", "source": "OpenStreetMap", "line": "Eastern Line", "membership_source": "Wikipedia station list"}}, {"type": "Feature", "geometry": {"type": "Point", "coordinates": [88.4330039, 23.1384525]}, "properties": {"name": "Somra Bazar", "operator": "ER", "source": "OpenStreetMap", "line": "Eastern Line", "membership_source": "Wikipedia station list"}}, {"type": "Feature", "geometry": {"type": "Point", "coordinates": [88.4615651, 23.097519]}, "properties": {"name": "Jirat", "operator": "ER", "source": "OpenStreetMap", "line": "Eastern Line", "membership_source": "Wikipedia station list"}}, {"type": "Feature", "geometry": {"type": "Point", "coordinates": [88.2302002, 21.8247347]}, "properties": {"name": "Ukilerhat", "operator": "ER", "source": "OpenStreetMap", "line": "South Lines", "membership_source": "Wikipedia station list"}}, {"type": "Feature", "geometry": {"type": "Point", "coordinates": [88.5747278, 22.3507555]}, "properties": {"name": "Betberia Ghola", "operator": "ER", "source": "OpenStreetMap", "line": "South Lines", "membership_source": "Wikipedia station list"}}, {"type": "Feature", "geometry": {"type": "Point", "coordinates": [87.9774454, 23.4883896]}, "properties": {"name": "Saota", "operator": "ER", "source": "OpenStreetMap", "line": "Eastern Line", "membership_source": "Wikipedia station list"}}, {"type": "Feature", "geometry": {"type": "Point", "coordinates": [88.0372191, 23.5704001]}, "properties": {"name": "Bankapasi", "operator": "ER", "source": "OpenStreetMap", "line": "Eastern Line", "membership_source": "Wikipedia station list"}}, {"type": "Feature", "geometry": {"type": "Point", "coordinates": [88.4559074, 23.3188759]}, "properties": {"name": "Dignagar", "operator": "ER", "source": "OpenStreetMap", "line": "Eastern Line", "membership_source": "Wikipedia station list"}}, {"type": "Feature", "geometry": {"type": "Point", "coordinates": [87.992506, 23.5051556]}, "properties": {"name": "Nigan", "operator": "ER", "source": "OpenStreetMap", "line": "Eastern Line", "membership_source": "Wikipedia station list"}}, {"type": "Feature", "geometry": {"type": "Point", "coordinates": [88.5722344, 22.7897513]}, "properties": {"name": "Bira", "operator": "ER", "source": "OpenStreetMap", "line": "Eastern Line", "membership_source": "Wikipedia station list"}}, {"type": "Feature", "geometry": {"type": "Point", "coordinates": [88.7851802, 22.9616694]}, "properties": {"name": "Chandpara", "operator": "ER", "source": "OpenStreetMap", "line": "Eastern Line", "membership_source": "Wikipedia station list"}}, {"type": "Feature", "geometry": {"type": "Point", "coordinates": [88.7914042, 23.0477808]}, "properties": {"name": "Satberia Halt", "operator": "ER", "source": "OpenStreetMap", "line": "Eastern Line", "membership_source": "Wikipedia station list"}}, {"type": "Feature", "geometry": {"type": "Point", "coordinates": [88.3952451, 22.6065505]}, "properties": {"name": "Patipukur", "operator": "ER", "source": "OpenStreetMap", "line": "Circular Line", "membership_source": "Wikipedia station list"}}, {"type": "Feature", "geometry": {"type": "Point", "coordinates": [88.7456858, 23.0625847]}, "properties": {"name": "Gopalnagar", "operator": "ER", "source": "OpenStreetMap", "line": "Eastern Line", "membership_source": "Wikipedia station list"}}, {"type": "Feature", "geometry": {"type": "Point", "coordinates": [88.3213135, 22.6529137]}, "properties": {"name": "Rajchandrapur", "operator": "ER", "source": "OpenStreetMap", "line": "Chord link Line", "membership_source": "Wikipedia station list"}}, {"type": "Feature", "geometry": {"type": "Point", "coordinates": [88.3490717, 22.2299123]}, "properties": {"name": "Bahirpuya Halt", "operator": "ER", "source": "OpenStreetMap", "line": "South Lines", "membership_source": "Wikipedia station list"}}, {"type": "Feature", "geometry": {"type": "Point", "coordinates": [88.6398971, 23.131652]}, "properties": {"name": "Gangnapur", "operator": "ER", "source": "OpenStreetMap", "line": "Eastern Line", "membership_source": "Wikipedia station list"}}, {"type": "Feature", "geometry": {"type": "Point", "coordinates": [88.657583, 22.840869]}, "properties": {"name": "Habra", "operator": "ER", "source": "OpenStreetMap", "line": "Eastern Line", "membership_source": "Wikipedia station list"}}, {"type": "Feature", "geometry": {"type": "Point", "coordinates": [88.6414228, 23.3119879]}, "properties": {"name": "Bhayna", "operator": "ER", "source": "OpenStreetMap", "line": "Eastern Line", "membership_source": "Wikipedia station list"}}, {"type": "Feature", "geometry": {"type": "Point", "coordinates": [88.414597, 22.343456]}, "properties": {"name": "Kalyanpur", "operator": "ER", "source": "OpenStreetMap", "line": "South Lines", "membership_source": "Wikipedia station list"}}, {"type": "Feature", "geometry": {"type": "Point", "coordinates": [88.68802, 23.1089892]}, "properties": {"name": "Majhergram", "operator": "ER", "source": "OpenStreetMap", "line": "Eastern Line", "membership_source": "Wikipedia station list"}}, {"type": "Feature", "geometry": {"type": "Point", "coordinates": [88.3997483, 22.3093549]}, "properties": {"name": "Hotar", "operator": "ER", "source": "OpenStreetMap", "line": "South Lines", "membership_source": "Wikipedia station list"}}, {"type": "Feature", "geometry": {"type": "Point", "coordinates": [88.803885, 23.0002172]}, "properties": {"name": "Bibhuti Bhushan Halt", "operator": "ER", "source": "OpenStreetMap", "line": "Eastern Line", "membership_source": "Wikipedia station list"}}, {"type": "Feature", "geometry": {"type": "Point", "coordinates": [88.7173823, 23.0952519]}, "properties": {"name": "Akaipur", "operator": "ER", "source": "OpenStreetMap", "line": "Eastern Line", "membership_source": "Wikipedia station list"}}, {"type": "Feature", "geometry": {"type": "Point", "coordinates": [88.406271, 22.3258194]}, "properties": {"name": "Dakshin Durgapur", "operator": "ER", "source": "OpenStreetMap", "line": "South Lines", "membership_source": "Wikipedia station list"}}, {"type": "Feature", "geometry": {"type": "Point", "coordinates": [88.3838183, 22.2691877]}, "properties": {"name": "Uttar Radhanagar", "operator": "ER", "source": "OpenStreetMap", "line": "South Lines", "membership_source": "Wikipedia station list"}}, {"type": "Feature", "geometry": {"type": "Point", "coordinates": [88.2544759, 22.2084278]}, "properties": {"name": "Netra", "operator": "ER", "source": "OpenStreetMap", "line": "South Lines", "membership_source": "Wikipedia station list"}}, {"type": "Feature", "geometry": {"type": "Point", "coordinates": [88.2339395, 22.2037479]}, "properties": {"name": "Basuldanga", "operator": "ER", "source": "OpenStreetMap", "line": "South Lines", "membership_source": "Wikipedia station list"}}, {"type": "Feature", "geometry": {"type": "Point", "coordinates": [88.6302602, 22.3330918]}, "properties": {"name": "Matla Halt", "operator": "ER", "source": "OpenStreetMap", "line": "South Lines", "membership_source": "Wikipedia station list"}}, {"type": "Feature", "geometry": {"type": "Point", "coordinates": [88.215793, 22.199708]}, "properties": {"name": "Gurudas Nagar", "operator": "ER", "source": "OpenStreetMap", "line": "South Lines", "membership_source": "Wikipedia station list"}}, {"type": "Feature", "geometry": {"type": "Point", "coordinates": [88.6042928, 23.1483208]}, "properties": {"name": "Naba Raynagar", "operator": "ER", "source": "OpenStreetMap", "line": "Eastern Line", "membership_source": "Wikipedia station list"}}, {"type": "Feature", "geometry": {"type": "Point", "coordinates": [88.6008927, 22.8085822]}, "properties": {"name": "Guma", "operator": "ER", "source": "OpenStreetMap", "line": "Eastern Line", "membership_source": "Wikipedia station list"}}, {"type": "Feature", "geometry": {"type": "Point", "coordinates": [88.704595, 22.8458756]}, "properties": {"name": "Sanhati Halt", "operator": "ER", "source": "OpenStreetMap", "line": "Eastern Line", "membership_source": "Wikipedia station list"}}, {"type": "Feature", "geometry": {"type": "Point", "coordinates": [88.3921686, 22.2903279]}, "properties": {"name": "Dhamua", "operator": "ER", "source": "OpenStreetMap", "line": "South Lines", "membership_source": "Wikipedia station list"}}, {"type": "Feature", "geometry": {"type": "Point", "coordinates": [88.4303414, 22.443192]}, "properties": {"name": "Sonarpur Junction", "operator": "ER", "source": "OpenStreetMap", "line": "South Lines", "membership_source": "Wikipedia station list"}}, {"type": "Feature", "geometry": {"type": "Point", "coordinates": [88.5102622, 23.0411833]}, "properties": {"name": "Simurali", "operator": "SDAH division", "source": "OpenStreetMap", "line": "Eastern Line", "membership_source": "Wikipedia station list"}}, {"type": "Feature", "geometry": {"type": "Point", "coordinates": [88.1939952, 21.881292]}, "properties": {"name": "Kakdwip", "operator": "ER", "source": "OpenStreetMap", "line": "South Lines", "membership_source": "Wikipedia station list"}}, {"type": "Feature", "geometry": {"type": "Point", "coordinates": [88.3505828, 22.6313023]}, "properties": {"name": "Belur Math", "operator": "ER", "source": "OpenStreetMap", "line": "Eastern Line", "membership_source": "Wikipedia station list"}}, {"type": "Feature", "geometry": {"type": "Point", "coordinates": [87.8671933, 22.8690222]}, "properties": {"name": "Mayapur", "operator": "ER", "source": "OpenStreetMap", "line": "Eastern Line", "membership_source": "Wikipedia station list"}}]}
