{"type": "FeatureCollection", "crs": {"type": "name", "properties": {"name": "urn:ogc:def:crs:OGC:1.3:CRS84"}}, "features": [{"type": "Feature", "properties": {"OBJECTID": 1057, "ST_CODE": "28", "ST_NAME": "ANDHRA PRADESH", "DT_CODE": "06", "DIST_NAME": "RANGAREDDI", "AC_NO": 43.0, "AC_NAME": "Medchal", "PC_NO": 7.0, "PC_NAME": "MALKAJGIRI", "PC_ID": 2807.0, "STATUS": null, "Shape_Leng": 1.526719, "Shape_Area": 0.063789, "office": "MLA", "representative": "Chamakura Malla Reddy", "party": "BRS", "ac_name": "Medchal"}, "geometry": {"type": "Polygon", "coordinates": [[[78.45797651060752, 17.705507399446958], [78.45989748947761, 17.698058152162048], [78.4715708488157, 17.69030293483263], [78.4943857309168, 17.695122595931082], [78.49651464203714, 17.685746926179775], [78.5089633698637, 17.684061827791197], [78.51905466074408, 17.70234217345262], [78.5216410318082, 17.696529870357267], [78.53605199130641, 17.69672721398979], [78.56172596118421, 17.68418729490776], [78.57410038882193, 17.68519913563165], [78.57529753305477, 17.6957563625661], [78.59274988819686, 17.697026945437244], [78.61408964652003, 17.68009726907377], [78.61701664120511, 17.67242918525875], [78.63422718123945, 17.66919851380044], [78.65032186316353, 17.676627290716965], [78.65926969484059, 17.69743227707795], [78.66965652992496, 17.69838511058441], [78.68603544707827, 17.693331124831616], [78.68541155859663, 17.688420714944073], [78.70535113814458, 17.686371314684493], [78.71813003407385, 17.669502933413696], [78.72392808291477, 17.668212210225363], [78.71141827763148, 17.652185139332744], [78.71133018903703, 17.640104265699335], [78.69635050097492, 17.637531409646897], [78.70116509619231, 17.631811596428065], [78.6853916709889, 17.621913374702558], [78.70196760172348, 17.611564215815974], [78.68665089002661, 17.595164215855903], [78.69315500200179, 17.59237471132394], [78.69139661246373, 17.58460660850824], [78.67656614800939, 17.576085194875873], [78.6890927535278, 17.562419883970506], [78.70558124497853, 17.557697587074017], [78.69496238930287, 17.55143815724523], [78.70051040593057, 17.535306902591515], [78.7118519442119, 17.521387445973915], [78.70735420803032, 17.50556041667994], [78.7096331638395, 17.476007231948245], [78.71699886050908, 17.468528984225316], [78.71958710036444, 17.47193679334839], [78.75147556634437, 17.471336568727736], [78.76033741204196, 17.46020181246371], [78.75088004427869, 17.44047215446642], [78.75960440971579, 17.427179448872494], [78.75565709280067, 17.411273839516127], [78.74869527896402, 17.40142832345839], [78.7417781299568, 17.401451103285865], [78.73567199136937, 17.376565678763086], [78.6752028900014, 17.38756758447647], [78.65489110803827, 17.3719075026292], [78.64526006500006, 17.371823698405024], [78.63531905443085, 17.387221125154838], [78.62216783377858, 17.39361660352347], [78.62213812737275, 17.411563383443422], [78.60879885038668, 17.4200120266338], [78.6046799356306, 17.441671712479604], [78.58900880201463, 17.456719109599305], [78.59532728582565, 17.475286084485276], [78.59201179840585, 17.494081056395657], [78.59706906668413, 17.497562307754322], [78.59775351551241, 17.507108907150382], [78.57979727472451, 17.526721046239345], [78.55675227140028, 17.52459060177489], [78.5398108930583, 17.536078804193494], [78.51510606948955, 17.532686624388248], [78.49860020133826, 17.51331944443689], [78.487966973597, 17.511684470661862], [78.48078823878626, 17.522394798181438], [78.48355851401425, 17.5373823517142], [78.4770064537849, 17.539556586867036], [78.4601571974967, 17.564596466353862], [78.45810774597578, 17.584669572742655], [78.43929438113082, 17.600831172320795], [78.42083904718436, 17.60772556578229], [78.3874779593404, 17.606245459760203], [78.37151198479035, 17.61503315365718], [78.3906616924832, 17.62162077038232], [78.38708149591434, 17.638083114943868], [78.38128896441424, 17.642649961326697], [78.3953947182917, 17.67618525234758], [78.40999912465992, 17.670108287767334], [78.42124169075146, 17.671823500853918], [78.43067617616464, 17.68671722272171], [78.44578683339569, 17.698428727703686], [78.44865667166812, 17.708172294815597], [78.45797651060752, 17.705507399446958]]]}}, {"type": "Feature", "properties": {"OBJECTID": 1063, "ST_CODE": "28", "ST_NAME": "ANDHRA PRADESH", "DT_CODE": "06", "DIST_NAME": "RANGAREDDI", "AC_NO": 55.0, "AC_NAME": "Vicarabad (SC)", "PC_NO": 10.0, "PC_NAME": "CHEVELLA", "PC_ID": 2810.0, "STATUS": null, "Shape_Leng": 1.724775, "Shape_Area": 0.100267, "office": "MLA", "representative": "Gaddam Prasad Kumar", "party": "INC", "ac_name": "Vicarabad (SC)"}, "geometry": {"type": "Polygon", "coordinates": [[[77.78808677728301, 17.638317728280583], [77.79992098666423, 17.625208385458677], [77.81602061396023, 17.626744684719483], [77.82291607311834, 17.632282013803945], [77.85166653917952, 17.61715439086248], [77.8560342091115, 17.61319335029293], [77.85293098417765, 17.60868809128243], [77.86754317237956, 17.619832120456067], [77.86759409559107, 17.611062362637995], [77.87503897396954, 17.603264605577124], [77.86881921143754, 17.59705268693199], [77.87286498163365, 17.58283407173508], [77.89740619154259, 17.582401862955635], [77.93662603606276, 17.567795668735187], [77.93390599246766, 17.561018393084396], [77.9402978078976, 17.55117460642299], [77.9367769908655, 17.539154490087697], [77.96309096777401, 17.534159311902783], [77.97427852503398, 17.518751660760586], [77.96608628215625, 17.504954679215132], [77.96464588390046, 17.4844488874063], [77.98093529063124, 17.483978795585017], [77.99112480006954, 17.507169573616977], [78.00736528997624, 17.496080100915947], [78.00039533997301, 17.483331146115574], [78.00351862878176, 17.4760432794738], [78.02193987662406, 17.465484092017277], [78.01921249366171, 17.455399333812238], [78.0041117757379, 17.4428599714106], [78.00233129345446, 17.432759845590454], [78.01535134978502, 17.40361876259584], [78.02108599282434, 17.372898946729038], [78.03253598304923, 17.359041127845842], [78.0407741614984, 17.355632566889483], [78.04301352825178, 17.312170367568456], [78.0159244724365, 17.317504632432872], [77.9737049707079, 17.31181347251379], [77.93347773710792, 17.315671049679224], [77.91511567185086, 17.3215057261084], [77.912950018029, 17.303600406733437], [77.89812105274444, 17.291305486359136], [77.89612980894361, 17.28176507250015], [77.88580268074918, 17.269253058481922], [77.88529667090472, 17.245694391183235], [77.86273218973884, 17.23874669400476], [77.82836327034869, 17.217656732272417], [77.78758538725589, 17.221335924413438], [77.79043751877651, 17.23355824251894], [77.77380789941509, 17.236310665304984], [77.76916379317458, 17.227587754071635], [77.75801593109043, 17.222573857397663], [77.75656621765688, 17.232727686233773], [77.76496202387835, 17.251301334089362], [77.76360290724841, 17.27280190468423], [77.72346937401244, 17.283768755723543], [77.72753883504924, 17.3188133159818], [77.71359533505671, 17.32093392006442], [77.70424701638677, 17.35241290223371], [77.6794591260379, 17.357306935466738], [77.67042223359925, 17.401266185586053], [77.66299954958959, 17.415923594398407], [77.64667113026849, 17.431165489695616], [77.62134623044426, 17.43819911889426], [77.6144608409951, 17.447466545344867], [77.6152754388105, 17.472890406567046], [77.63828493690039, 17.473523611125813], [77.64482701285641, 17.477567878554794], [77.64791449515786, 17.496080379705802], [77.65710784535082, 17.506163510137924], [77.65241694828359, 17.48302854583079], [77.6887465920816, 17.475610611140837], [77.68804795914605, 17.48943242027002], [77.6925563891661, 17.49894251348627], [77.68772765480747, 17.511815637681593], [77.69066578130082, 17.526536549422246], [77.7095607299438, 17.52602855027743], [77.76143636219842, 17.558261593297914], [77.76160416669899, 17.57944060859728], [77.77003476229453, 17.584353236212905], [77.77428365246863, 17.60126169217341], [77.76753584130608, 17.612888681567426], [77.7496883537346, 17.61378538119044], [77.74653041134945, 17.624516814899152], [77.7763581258269, 17.627083328932542], [77.78362942335923, 17.638975579659302], [77.78808677728301, 17.638317728280583]]]}}, {"type": "Feature", "properties": {"OBJECTID": 1065, "ST_CODE": "28", "ST_NAME": "ANDHRA PRADESH", "DT_CODE": "06", "DIST_NAME": "RANGAREDDI", "AC_NO": 45.0, "AC_NAME": "Quthbullapur", "PC_NO": 7.0, "PC_NAME": "MALKAJGIRI", "PC_ID": 2807.0, "STATUS": null, "Shape_Leng": 0.563091, "Shape_Area": 0.010522, "office": "MLA", "representative": "K. P. Vivekanand", "party": "BRS", "ac_name": "Quthbullapur"}, "geometry": {"type": "Polygon", "coordinates": [[[78.4601571974967, 17.564596466353862], [78.4770064537849, 17.539556586867036], [78.45521069062096, 17.53080679130045], [78.43057207334255, 17.532331434448167], [78.42425235746038, 17.52615000012247], [78.43461549900616, 17.515511635453663], [78.45601344076772, 17.519446711696446], [78.46314096997986, 17.513819099671764], [78.46510706603834, 17.49896537695065], [78.47381276424773, 17.48657324346044], [78.47330873830771, 17.46656245109631], [78.47111209654605, 17.46529945310732], [78.45578200383648, 17.46264923827175], [78.45664368026166, 17.459220434475526], [78.43376563787393, 17.493491959985988], [78.41930480827034, 17.501666573453633], [78.38017759482022, 17.50153214729079], [78.36599518453022, 17.506295267112932], [78.34700550579953, 17.521853258820897], [78.35145299865701, 17.528901863530223], [78.3486297263808, 17.535506337147808], [78.36152645598122, 17.54995374796715], [78.35521874694768, 17.562264294961267], [78.3630988081635, 17.568351534295914], [78.37732611710669, 17.56340702391509], [78.38379796680277, 17.595787214008794], [78.38902963970617, 17.59456921809499], [78.3874779593404, 17.606245459760203], [78.42083904718436, 17.60772556578229], [78.43929438113082, 17.600831172320795], [78.45810774597578, 17.584669572742655], [78.4601571974967, 17.564596466353862]]]}}, {"type": "Feature", "properties": {"OBJECTID": 1070, "ST_CODE": "28", "ST_NAME": "ANDHRA PRADESH", "DT_CODE": "06", "DIST_NAME": "RANGAREDDI", "AC_NO": 44.0, "AC_NAME": "Malkajgiri", "PC_NO": 7.0, "PC_NAME": "MALKAJGIRI", "PC_ID": 2807.0, "STATUS": null, "Shape_Leng": 0.561629, "Shape_Area": 0.008493, "office": "MLA", "representative": "Marri Rajashekar Reddy", "party": "BRS", "ac_name": "Malkajgiri"}, "geometry": {"type": "Polygon", "coordinates": [[[78.4770064537849, 17.539556586867036], [78.48355851401425, 17.5373823517142], [78.48078823878626, 17.522394798181438], [78.487966973597, 17.511684470661862], [78.49860020133826, 17.51331944443689], [78.51510606948955, 17.532686624388248], [78.5398108930583, 17.536078804193494], [78.55675227140028, 17.52459060177489], [78.57979727472451, 17.526721046239345], [78.59775351551241, 17.507108907150382], [78.59706906668413, 17.497562307754322], [78.59201179840585, 17.494081056395657], [78.57160589879328, 17.478056267982424], [78.55239340043516, 17.47010457126902], [78.54964822168813, 17.443141005952725], [78.53082882688892, 17.44335201208571], [78.5099422630251, 17.449849442098127], [78.49886140852726, 17.4602546332448], [78.50590965350779, 17.46908963148138], [78.50160221566978, 17.471243624693557], [78.50157772623112, 17.487219540349543], [78.49542304493764, 17.488024128710606], [78.49310322033739, 17.46591720821266], [78.48727620343408, 17.45768102805704], [78.4773577298754, 17.45794925085727], [78.47995389006002, 17.464574174158884], [78.47767615822818, 17.468483215028414], [78.47330873830771, 17.46656245109631], [78.47381276424773, 17.48657324346044], [78.46510706603834, 17.49896537695065], [78.46314096997986, 17.513819099671764], [78.45601344076772, 17.519446711696446], [78.43461549900616, 17.515511635453663], [78.42425235746038, 17.52615000012247], [78.43057207334255, 17.532331434448167], [78.45521069062096, 17.53080679130045], [78.4770064537849, 17.539556586867036]]]}}, {"type": "Feature", "properties": {"OBJECTID": 1072, "ST_CODE": "28", "ST_NAME": "ANDHRA PRADESH", "DT_CODE": "06", "DIST_NAME": "RANGAREDDI", "AC_NO": 53.0, "AC_NAME": "Chevella (SC)", "PC_NO": 10.0, "PC_NAME": "CHEVELLA", "PC_ID": 2810.0, "STATUS": null, "Shape_Leng": 1.646295, "Shape_Area": 0.078244, "office": "MLA", "representative": "Kale Yadaiah", "party": "BRS", "ac_name": "Chevella (SC)"}, "geometry": {"type": "Polygon", "coordinates": [[[78.14326958212558, 17.485404316356153], [78.14545937644914, 17.47137589158416], [78.16603708794133, 17.463596739697834], [78.19083639158629, 17.477455894074296], [78.19189288724698, 17.48772660419945], [78.20449814297496, 17.48992189068275], [78.21395996508039, 17.486226323685912], [78.21788918673661, 17.438248309112225], [78.2273319000472, 17.439155519111978], [78.23580699499689, 17.429237430463104], [78.23942332452685, 17.41962504206208], [78.23383883949089, 17.399743401336934], [78.2472504444525, 17.384379263891958], [78.25792675241775, 17.381033416259186], [78.27257138096451, 17.360598107017097], [78.28727565434804, 17.326101411051354], [78.30350757911157, 17.309904030146924], [78.31356940190642, 17.27124177878511], [78.32201814222356, 17.266581795913226], [78.33921504403912, 17.273650641663835], [78.34835000305026, 17.27302128170686], [78.35670548007391, 17.255543096236977], [78.38172717436964, 17.245823838699266], [78.36206204362844, 17.234797630606238], [78.33047683983438, 17.22550682178246], [78.28803426486951, 17.196429445862293], [78.28822784393992, 17.218770790839358], [78.26308386342959, 17.22468810956866], [78.25624118458308, 17.20048862225218], [78.22844869165385, 17.19785201056186], [78.2157831723556, 17.202821674081065], [78.20792815905736, 17.173749364041953], [78.17042067317556, 17.16405250322049], [78.16294155131158, 17.14381071819014], [78.18854778335356, 17.13607809992442], [78.1823440980018, 17.132563816466984], [78.1801771500555, 17.11968832255809], [78.18375365580664, 17.114341929436534], [78.17553718249502, 17.116033832995072], [78.17542053323109, 17.088853881801242], [78.11623372210863, 17.10349409827404], [78.10153731239711, 17.087772463228646], [78.09190317838903, 17.09082458778454], [78.09439302791594, 17.1014382498754], [78.08012927754419, 17.106504698433127], [78.07897788632044, 17.120631558499667], [78.08160821085033, 17.12744396706546], [78.09721177570293, 17.135589105253075], [78.09404582575434, 17.149092126300616], [78.08986937507166, 17.163971446425137], [78.08257900921399, 17.168558901672043], [78.08348354283129, 17.17947180418048], [78.07541679045255, 17.18784802136912], [78.0660965989789, 17.184704967260473], [78.06812062126971, 17.22192961815739], [78.07354132177466, 17.2399601024768], [78.04301352825178, 17.312170367568456], [78.0407741614984, 17.355632566889483], [78.03253598304923, 17.359041127845842], [78.02108599282434, 17.372898946729038], [78.01535134978502, 17.40361876259584], [78.00233129345446, 17.432759845590454], [78.0041117757379, 17.4428599714106], [78.01921249366171, 17.455399333812238], [78.02193987662406, 17.465484092017277], [78.04151695654235, 17.471044829555296], [78.04084784834959, 17.459020202220586], [78.04780888247399, 17.45126511799083], [78.06315877825506, 17.448860078130167], [78.06973199953222, 17.45549171127351], [78.06452439068812, 17.45833479381571], [78.06175888906154, 17.471938812326357], [78.04940768101972, 17.47672959979127], [78.05243044361015, 17.483247224080174], [78.06359970236446, 17.485627853642598], [78.06525591273027, 17.502105103567715], [78.05814199835459, 17.504695588130915], [78.05747812151816, 17.50929019208877], [78.0662608430635, 17.507759008171718], [78.07012577848195, 17.518734185134576], [78.08186208946393, 17.516651283330134], [78.08379225670734, 17.49864130715065], [78.10977289989944, 17.49172004914101], [78.11052083816622, 17.48451236875087], [78.11799649134508, 17.482671046431676], [78.13196286469451, 17.48995361966388], [78.14326958212558, 17.485404316356153]]]}}, {"type": "Feature", "properties": {"OBJECTID": 1073, "ST_CODE": "28", "ST_NAME": "ANDHRA PRADESH", "DT_CODE": "06", "DIST_NAME": "RANGAREDDI", "AC_NO": 52.0, "AC_NAME": "Serilingampally", "PC_NO": 10.0, "PC_NAME": "CHEVELLA", "PC_ID": 2810.0, "STATUS": null, "Shape_Leng": 0.590505, "Shape_Area": 0.010326, "office": "MLA", "representative": "Arekapudi Gandhi", "party": "BRS", "ac_name": "Serilingampally"}, "geometry": {"type": "Polygon", "coordinates": [[[78.34700550579953, 17.521853258820897], [78.36599518453022, 17.506295267112932], [78.3652399653522, 17.438709369941535], [78.39360520861356, 17.41849408973053], [78.38528735113039, 17.40680217468065], [78.39327454228635, 17.40509270556396], [78.4001750439432, 17.39447599477137], [78.39262592244842, 17.391500666922298], [78.3895909911314, 17.392190694245187], [78.38244479649023, 17.394535401287783], [78.35977467735955, 17.394150735168353], [78.30018512734182, 17.406495713606375], [78.27939625233523, 17.406440331556098], [78.26595043446503, 17.39809398714783], [78.25792675241775, 17.381033416259186], [78.2472504444525, 17.384379263891958], [78.23383883949089, 17.399743401336934], [78.23942332452685, 17.41962504206208], [78.23580699499689, 17.429237430463104], [78.26430534151837, 17.428212034258024], [78.27550349009402, 17.43503983651931], [78.28800515201618, 17.43166103143153], [78.29352947150795, 17.452204085749997], [78.30168362899633, 17.461412503184533], [78.29778158305368, 17.491165914775195], [78.30813568011757, 17.490134084820227], [78.31772215185589, 17.495287054454025], [78.30757580178187, 17.510238081122623], [78.33707539141625, 17.503994958700446], [78.34700550579953, 17.521853258820897]]]}}, {"type": "Feature", "properties": {"OBJECTID": 1074, "ST_CODE": "28", "ST_NAME": "ANDHRA PRADESH", "DT_CODE": "06", "DIST_NAME": "RANGAREDDI", "AC_NO": 46.0, "AC_NAME": "Kukatpalle", "PC_NO": 7.0, "PC_NAME": "MALKAJGIRI", "PC_ID": 2807.0, "STATUS": null, "Shape_Leng": 0.369273, "Shape_Area": 0.005967, "office": "MLA", "representative": "Madhavaram Krishna Rao", "party": "BRS", "ac_name": "Kukatpalle"}, "geometry": {"type": "Polygon", "coordinates": [[[78.36599518453022, 17.506295267112932], [78.38017759482022, 17.50153214729079], [78.41930480827034, 17.501666573453633], [78.43376563787393, 17.493491959985988], [78.45664368026166, 17.459220434475526], [78.45578200383648, 17.46264923827175], [78.47111209654605, 17.46529945310732], [78.47223404306669, 17.447675531600567], [78.47832053956131, 17.442738533256772], [78.46904364324962, 17.433186065784355], [78.4620820218679, 17.430911800839], [78.46060945576181, 17.43659481649763], [78.44586307522081, 17.438911523148306], [78.42205917449138, 17.442647884292455], [78.40165394937031, 17.438336321264273], [78.40200874270937, 17.42500281792576], [78.39360520861356, 17.41849408973053], [78.3652399653522, 17.438709369941535], [78.36599518453022, 17.506295267112932]]]}}, {"type": "Feature", "properties": {"OBJECTID": 1077, "ST_CODE": "28", "ST_NAME": "ANDHRA PRADESH", "DT_CODE": "06", "DIST_NAME": "RANGAREDDI", "AC_NO": 47.0, "AC_NAME": "Uppal", "PC_NO": 7.0, "PC_NAME": "MALKAJGIRI", "PC_ID": 2807.0, "STATUS": null, "Shape_Leng": 0.534171, "Shape_Area": 0.009262, "office": "MLA", "representative": "Bandaru Lakshma Reddy", "party": "BRS", "ac_name": "Uppal"}, "geometry": {"type": "Polygon", "coordinates": [[[78.59201179840585, 17.494081056395657], [78.59532728582565, 17.475286084485276], [78.58900880201463, 17.456719109599305], [78.6046799356306, 17.441671712479604], [78.60879885038668, 17.4200120266338], [78.62213812737275, 17.411563383443422], [78.62216783377858, 17.39361660352347], [78.63531905443085, 17.387221125154838], [78.64526006500006, 17.371823698405024], [78.62461654831509, 17.364004554566577], [78.5978610906169, 17.343561936534172], [78.56197800967749, 17.344660471903296], [78.56042168161537, 17.35219927008029], [78.5741198537483, 17.361726534052366], [78.56871790051076, 17.37003770687471], [78.55006581468564, 17.368624776612194], [78.53301727942397, 17.3547039494278], [78.53234633121826, 17.357164010710562], [78.52524395244649, 17.362340389697295], [78.52714558510075, 17.376348524864568], [78.53204049877007, 17.377138607161044], [78.5286643008169, 17.38020670907241], [78.53040519764181, 17.396832944284995], [78.52249217177638, 17.398998015346194], [78.52315284522768, 17.4039098686456], [78.51850889996581, 17.40653572984013], [78.55185567869665, 17.411020018459112], [78.54259478851873, 17.41873315291275], [78.55187155263013, 17.42831037872105], [78.55006331097309, 17.443046587030437], [78.54964822168813, 17.443141005952725], [78.55239340043516, 17.47010457126902], [78.57160589879328, 17.478056267982424], [78.59201179840585, 17.494081056395657]]]}}, {"type": "Feature", "properties": {"OBJECTID": 1078, "ST_CODE": "28", "ST_NAME": "ANDHRA PRADESH", "DT_CODE": "05", "DIST_NAME": "HYDERABAD", "AC_NO": 71.0, "AC_NAME": "Secunderabad Cantt. (SC", "PC_NO": 7.0, "PC_NAME": "MALKAJGIRI", "PC_ID": 2807.0, "STATUS": null, "Shape_Leng": 0.318769, "Shape_Area": 0.001479, "office": "MLA", "representative": "G. Sriganesh", "party": "INC", "ac_name": "Secunderabad Cantt. (SC"}, "geometry": {"type": "Polygon", "coordinates": [[[78.47330873830771, 17.46656245109631], [78.47767615822818, 17.468483215028414], [78.47995389006002, 17.464574174158884], [78.4773577298754, 17.45794925085727], [78.48727620343408, 17.45768102805704], [78.49310322033739, 17.46591720821266], [78.49542304493764, 17.488024128710606], [78.50157772623112, 17.487219540349543], [78.50160221566978, 17.471243624693557], [78.50590965350779, 17.46908963148138], [78.49886140852726, 17.4602546332448], [78.5099422630251, 17.449849442098127], [78.53082882688892, 17.44335201208571], [78.54964822168813, 17.443141005952725], [78.55006331097309, 17.443046587030437], [78.53715670501799, 17.43606800983082], [78.51355098069325, 17.44460129811148], [78.50189852879413, 17.43669341097217], [78.502477435885, 17.42879063018347], [78.49536569876807, 17.42231173429917], [78.48692371146018, 17.428598677986656], [78.49251655569452, 17.42981210264645], [78.48734614191096, 17.43400672682901], [78.47968902892558, 17.425725706476214], [78.47970292435053, 17.432384424501663], [78.47099193273158, 17.43082877183042], [78.46904364324962, 17.433186065784355], [78.47832053956131, 17.442738533256772], [78.47223404306669, 17.447675531600567], [78.47111209654605, 17.46529945310732], [78.47330873830771, 17.46656245109631]]]}}, {"type": "Feature", "properties": {"OBJECTID": 1079, "ST_CODE": "28", "ST_NAME": "ANDHRA PRADESH", "DT_CODE": "06", "DIST_NAME": "RANGAREDDI", "AC_NO": 56.0, "AC_NAME": "Tandur", "PC_NO": 10.0, "PC_NAME": "CHEVELLA", "PC_ID": 2810.0, "STATUS": null, "Shape_Leng": 1.648477, "Shape_Area": 0.075621, "office": "MLA", "representative": "B. Manohar Reddy", "party": "INC", "ac_name": "Tandur"}, "geometry": {"type": "Polygon", "coordinates": [[[77.6144608409951, 17.447466545344867], [77.62134623044426, 17.43819911889426], [77.64667113026849, 17.431165489695616], [77.66299954958959, 17.415923594398407], [77.67042223359925, 17.401266185586053], [77.6794591260379, 17.357306935466738], [77.70424701638677, 17.35241290223371], [77.71359533505671, 17.32093392006442], [77.72753883504924, 17.3188133159818], [77.72346937401244, 17.283768755723543], [77.76360290724841, 17.27280190468423], [77.76496202387835, 17.251301334089362], [77.75656621765688, 17.232727686233773], [77.75801593109043, 17.222573857397663], [77.75234790083499, 17.228161070077363], [77.73508487276871, 17.231125349755132], [77.73038629009528, 17.22236300684733], [77.73813103481945, 17.182043987540055], [77.72433410003873, 17.190230113229177], [77.72766393254449, 17.20232055295122], [77.72446917101547, 17.207632942706198], [77.6999038853561, 17.207653310551905], [77.69389934048223, 17.199239751713208], [77.69810119881134, 17.191606849376626], [77.69403192213554, 17.18634848819221], [77.69945685395072, 17.176743148677417], [77.6834440400105, 17.17639457954624], [77.67534718102763, 17.18264953075129], [77.64946304498358, 17.184347124320368], [77.64179718699063, 17.175520673240555], [77.61405099925429, 17.168823559559655], [77.62028791365634, 17.153519980662622], [77.61309716929895, 17.154389692530344], [77.60391252724139, 17.148875043448527], [77.58630999610949, 17.151528277308216], [77.57665654646252, 17.13103224224426], [77.5473807513207, 17.140743424769312], [77.5421439136108, 17.159929913834503], [77.53569952201536, 17.16676645840539], [77.51947400312281, 17.16992651149934], [77.509724979824, 17.176625487676176], [77.47792174259439, 17.17492828351351], [77.48000130431677, 17.1535079450357], [77.4728664744083, 17.141882981814206], [77.4845266469872, 17.13321565138125], [77.47981927254148, 17.119414117467613], [77.46918631189885, 17.11540510166418], [77.46453709930773, 17.106754950080926], [77.44583975240272, 17.117966378045935], [77.43604777028844, 17.114989304612777], [77.40670261223585, 17.12452248522459], [77.40386690413436, 17.132924103764424], [77.37795767970323, 17.139952737229066], [77.37826935234881, 17.152583963579104], [77.36694252337878, 17.15442007792433], [77.36248790249476, 17.163836955511158], [77.37194490603264, 17.181133752220944], [77.37231592494004, 17.195569474551633], [77.39393923141046, 17.194403634819935], [77.39820665211533, 17.210426013050096], [77.40379097167607, 17.209900817968446], [77.40202046737073, 17.214130730648776], [77.38880365646361, 17.215333821198954], [77.38023271896486, 17.22253832158634], [77.40831070977151, 17.24121601470739], [77.42046077904178, 17.237634538403256], [77.42646702903022, 17.25673135966457], [77.45867774997822, 17.279264442799843], [77.45492218021451, 17.287241507589556], [77.43796987690837, 17.291920123514956], [77.45606037478655, 17.331236794442532], [77.4571096434953, 17.34741334974632], [77.45111355944329, 17.35938415715316], [77.45366025871402, 17.373995941559485], [77.47914790884897, 17.370727433824072], [77.47457776375285, 17.361780728098154], [77.48356675740001, 17.355337219637022], [77.51922553213268, 17.36206088939855], [77.53245711080706, 17.375416103270595], [77.53308875144478, 17.38069638722851], [77.52626055707913, 17.381935446163936], [77.52435771303806, 17.388160952665885], [77.53788960412197, 17.4060973930803], [77.51421824547572, 17.41418390356432], [77.51308336220745, 17.43109591094759], [77.53755882358092, 17.44387733307252], [77.57600184091228, 17.430976963016462], [77.5762470482627, 17.456440571575172], [77.60386590009125, 17.44420427530713], [77.6144608409951, 17.447466545344867]]]}}, {"type": "Feature", "properties": {"OBJECTID": 1080, "ST_CODE": "28", "ST_NAME": "ANDHRA PRADESH", "DT_CODE": "05", "DIST_NAME": "HYDERABAD", "AC_NO": 62.0, "AC_NAME": "Sanathnagar", "PC_NO": 8.0, "PC_NAME": "SECUNDERABAD", "PC_ID": 2808.0, "STATUS": null, "Shape_Leng": 0.192746, "Shape_Area": 0.001806, "office": "MLA", "representative": "Talasani Srinivas Yadav", "party": "BRS", "ac_name": "Sanathnagar"}, "geometry": {"type": "Polygon", "coordinates": [[[78.39360520861356, 17.41849408973053], [78.40200874270937, 17.42500281792576], [78.40165394937031, 17.438336321264273], [78.42205917449138, 17.442647884292455], [78.44586307522081, 17.438911523148306], [78.45590712471409, 17.424793533994432], [78.42981058319191, 17.41930198489871], [78.42646917731076, 17.403865237990374], [78.41665805942193, 17.396531585964], [78.4001750439432, 17.39447599477137], [78.39327454228635, 17.40509270556396], [78.38528735113039, 17.40680217468065], [78.39360520861356, 17.41849408973053]]]}}, {"type": "Feature", "properties": {"OBJECTID": 1081, "ST_CODE": "28", "ST_NAME": "ANDHRA PRADESH", "DT_CODE": "05", "DIST_NAME": "HYDERABAD", "AC_NO": 70.0, "AC_NAME": "Secunderabad", "PC_NO": 8.0, "PC_NAME": "SECUNDERABAD", "PC_ID": 2808.0, "STATUS": null, "Shape_Leng": 0.130667, "Shape_Area": 0.000787, "office": "MLA", "representative": "T. Padma Rao", "party": "BRS", "ac_name": "Secunderabad"}, "geometry": {"type": "Polygon", "coordinates": [[[78.53715670501799, 17.43606800983082], [78.54648223666595, 17.430552235697178], [78.52865015088383, 17.42419425006466], [78.51829113183032, 17.411196718154088], [78.51532558950441, 17.417580677106628], [78.49536569876807, 17.42231173429917], [78.502477435885, 17.42879063018347], [78.50189852879413, 17.43669341097217], [78.51355098069325, 17.44460129811148], [78.53715670501799, 17.43606800983082]]]}}, {"type": "Feature", "properties": {"OBJECTID": 1082, "ST_CODE": "28", "ST_NAME": "ANDHRA PRADESH", "DT_CODE": "05", "DIST_NAME": "HYDERABAD", "AC_NO": 59.0, "AC_NAME": "Amberpet", "PC_NO": 8.0, "PC_NAME": "SECUNDERABAD", "PC_ID": 2808.0, "STATUS": null, "Shape_Leng": 0.25381, "Shape_Area": 0.001026, "office": "MLA", "representative": "Kaleru Venkatesh", "party": "BRS", "ac_name": "Amberpet"}, "geometry": {"type": "Polygon", "coordinates": [[[78.55006331097309, 17.443046587030437], [78.55187155263013, 17.42831037872105], [78.54259478851873, 17.41873315291275], [78.55185567869665, 17.411020018459112], [78.51850889996581, 17.40653572984013], [78.52315284522768, 17.4039098686456], [78.52249217177638, 17.398998015346194], [78.53040519764181, 17.396832944284995], [78.5286643008169, 17.38020670907241], [78.53204049877007, 17.377138607161044], [78.52714558510075, 17.376348524864568], [78.51592685913732, 17.38503189290759], [78.49887683639696, 17.379418421822777], [78.50808451009215, 17.39075683046343], [78.50523725829288, 17.39385311263112], [78.51302707254143, 17.397669721180762], [78.51829113183032, 17.411196718154088], [78.52865015088383, 17.42419425006466], [78.54648223666595, 17.430552235697178], [78.53715670501799, 17.43606800983082], [78.55006331097309, 17.443046587030437]]]}}, {"type": "Feature", "properties": {"OBJECTID": 1084, "ST_CODE": "28", "ST_NAME": "ANDHRA PRADESH", "DT_CODE": "05", "DIST_NAME": "HYDERABAD", "AC_NO": 61.0, "AC_NAME": "Jubilee Hills", "PC_NO": 8.0, "PC_NAME": "SECUNDERABAD", "PC_ID": 2808.0, "STATUS": null, "Shape_Leng": 0.183685, "Shape_Area": 0.001064, "office": "MLA", "representative": "Maganti Gopinath", "party": "BRS", "ac_name": "Jubilee Hills"}, "geometry": {"type": "Polygon", "coordinates": [[[78.44586307522081, 17.438911523148306], [78.46060945576181, 17.43659481649763], [78.4620820218679, 17.430911800839], [78.46904364324962, 17.433186065784355], [78.47099193273158, 17.43082877183042], [78.46901629576547, 17.41089449018864], [78.47463517807108, 17.411029655594177], [78.47756546067751, 17.405839722025576], [78.47245883490734, 17.40527395313046], [78.47237514759502, 17.39988801861722], [78.46503240162411, 17.400809062888015], [78.45993203693399, 17.40748380323498], [78.4423842871052, 17.401591662825012], [78.43004153988522, 17.40228656177544], [78.42646917731076, 17.403865237990374], [78.42981058319191, 17.41930198489871], [78.45590712471409, 17.424793533994432], [78.44586307522081, 17.438911523148306]]]}}, {"type": "Feature", "properties": {"OBJECTID": 1085, "ST_CODE": "28", "ST_NAME": "ANDHRA PRADESH", "DT_CODE": "05", "DIST_NAME": "HYDERABAD", "AC_NO": 57.0, "AC_NAME": "Musheerabad", "PC_NO": 8.0, "PC_NAME": "SECUNDERABAD", "PC_ID": 2808.0, "STATUS": null, "Shape_Leng": 0.16409, "Shape_Area": 0.001048, "office": "MLA", "representative": "Muta Gopal", "party": "BRS", "ac_name": "Musheerabad"}, "geometry": {"type": "Polygon", "coordinates": [[[78.47099193273158, 17.43082877183042], [78.47970292435053, 17.432384424501663], [78.47968902892558, 17.425725706476214], [78.48734614191096, 17.43400672682901], [78.49251655569452, 17.42981210264645], [78.48692371146018, 17.428598677986656], [78.49536569876807, 17.42231173429917], [78.51532558950441, 17.417580677106628], [78.51829113183032, 17.411196718154088], [78.51302707254143, 17.397669721180762], [78.50523725829288, 17.39385311263112], [78.4943375839124, 17.404468307166667], [78.47756546067751, 17.405839722025576], [78.47463517807108, 17.411029655594177], [78.46901629576547, 17.41089449018864], [78.47099193273158, 17.43082877183042]]]}}, {"type": "Feature", "properties": {"OBJECTID": 1087, "ST_CODE": "28", "ST_NAME": "ANDHRA PRADESH", "DT_CODE": "06", "DIST_NAME": "RANGAREDDI", "AC_NO": 51.0, "AC_NAME": "Rajendranagar", "PC_NO": 10.0, "PC_NAME": "CHEVELLA", "PC_ID": 2810.0, "STATUS": null, "Shape_Leng": 1.057662, "Shape_Area": 0.030864, "office": "MLA", "representative": "T. Prakash Goud", "party": "BRS", "ac_name": "Rajendranagar"}, "geometry": {"type": "Polygon", "coordinates": [[[78.3895909911314, 17.392190694245187], [78.39262592244842, 17.391500666922298], [78.38422492444079, 17.384902515538727], [78.38235738328666, 17.39388071732128], [78.38043629469928, 17.38676202574692], [78.37837984825143, 17.387556094738045], [78.37823461943219, 17.381091454007446], [78.3733357676316, 17.37486885051709], [78.41521118694675, 17.369247640766048], [78.43551867194918, 17.372634270854974], [78.43989419566066, 17.36795219343901], [78.43746633999967, 17.36150917420906], [78.45560161422316, 17.35628243408712], [78.45047711622601, 17.335575050248394], [78.46321133383606, 17.328419781447792], [78.46732510806731, 17.319384923275663], [78.47196732663087, 17.308387282147407], [78.45764666805934, 17.284469704413368], [78.44434061742561, 17.272361203606692], [78.44592857104675, 17.26428520529805], [78.43318519024439, 17.24802387630092], [78.43782157130852, 17.23644842345601], [78.4561788458771, 17.23124581664115], [78.45279834466794, 17.20618995080565], [78.44719778065308, 17.201596955734942], [78.41697578270629, 17.201303777647297], [78.38412488115841, 17.191870470345975], [78.35576313895774, 17.18937103224738], [78.32717511563914, 17.131346472561688], [78.31380528688453, 17.128719801977354], [78.30118108873631, 17.133536785794092], [78.30129052094082, 17.14521775519529], [78.2975955322081, 17.148031970399188], [78.30325110055793, 17.175158523447124], [78.28997324546896, 17.185889747613828], [78.28803426486951, 17.196429445862293], [78.33047683983438, 17.22550682178246], [78.36206204362844, 17.234797630606238], [78.38172717436964, 17.245823838699266], [78.35670548007391, 17.255543096236977], [78.34835000305026, 17.27302128170686], [78.33921504403912, 17.273650641663835], [78.32201814222356, 17.266581795913226], [78.31356940190642, 17.27124177878511], [78.30350757911157, 17.309904030146924], [78.28727565434804, 17.326101411051354], [78.27257138096451, 17.360598107017097], [78.25792675241775, 17.381033416259186], [78.26595043446503, 17.39809398714783], [78.27939625233523, 17.406440331556098], [78.30018512734182, 17.406495713606375], [78.35977467735955, 17.394150735168353], [78.38244479649023, 17.394535401287783], [78.3895909911314, 17.392190694245187]]]}}, {"type": "Feature", "properties": {"OBJECTID": 1088, "ST_CODE": "28", "ST_NAME": "ANDHRA PRADESH", "DT_CODE": "05", "DIST_NAME": "HYDERABAD", "AC_NO": 63.0, "AC_NAME": "Nampally", "PC_NO": 8.0, "PC_NAME": "SECUNDERABAD", "PC_ID": 2808.0, "STATUS": null, "Shape_Leng": 0.12771, "Shape_Area": 0.000889, "office": "MLA", "representative": "Mohammed Majid Hussain", "party": "AIMIM", "ac_name": "Nampally"}, "geometry": {"type": "Polygon", "coordinates": [[[78.43004153988522, 17.40228656177544], [78.4423842871052, 17.401591662825012], [78.45993203693399, 17.40748380323498], [78.46503240162411, 17.400809062888015], [78.47237514759502, 17.39988801861722], [78.47521598453011, 17.39396115178579], [78.46646077144749, 17.38739475276566], [78.46725301391552, 17.38061633767387], [78.45888954731481, 17.382630837942884], [78.45206179091895, 17.37817645987576], [78.43870471005437, 17.381211354320612], [78.43002160911004, 17.385921515765403], [78.43004153988522, 17.40228656177544]]]}}, {"type": "Feature", "properties": {"OBJECTID": 1089, "ST_CODE": "28", "ST_NAME": "ANDHRA PRADESH", "DT_CODE": "05", "DIST_NAME": "HYDERABAD", "AC_NO": 60.0, "AC_NAME": "Khairatabad", "PC_NO": 8.0, "PC_NAME": "SECUNDERABAD", "PC_ID": 2808.0, "STATUS": null, "Shape_Leng": 0.135745, "Shape_Area": 0.000929, "office": "MLA", "representative": "Danam Nagender", "party": "BRS", "ac_name": "Khairatabad"}, "geometry": {"type": "Polygon", "coordinates": [[[78.47237514759502, 17.39988801861722], [78.47245883490734, 17.40527395313046], [78.47756546067751, 17.405839722025576], [78.4943375839124, 17.404468307166667], [78.50523725829288, 17.39385311263112], [78.50808451009215, 17.39075683046343], [78.49887683639696, 17.379418421822777], [78.49539096162363, 17.378497212076752], [78.48794809053203, 17.37786239773152], [78.48153315173363, 17.369977171709138], [78.47265589615273, 17.368185335484895], [78.47609006620365, 17.378168599801086], [78.46725301391552, 17.38061633767387], [78.46646077144749, 17.38739475276566], [78.47521598453011, 17.39396115178579], [78.47237514759502, 17.39988801861722]]]}}, {"type": "Feature", "properties": {"OBJECTID": 1090, "ST_CODE": "28", "ST_NAME": "ANDHRA PRADESH", "DT_CODE": "05", "DIST_NAME": "HYDERABAD", "AC_NO": 64.0, "AC_NAME": "Karwan", "PC_NO": 9.0, "PC_NAME": "HYDERABAD", "PC_ID": 2809.0, "STATUS": null, "Shape_Leng": 0.182928, "Shape_Area": 0.001303, "office": "MLA", "representative": "Kausar Mohiuddin", "party": "AIMIM", "ac_name": "Karwan"}, "geometry": {"type": "Polygon", "coordinates": [[[78.42646917731076, 17.403865237990374], [78.43004153988522, 17.40228656177544], [78.43002160911004, 17.385921515765403], [78.43870471005437, 17.381211354320612], [78.43551867194918, 17.372634270854974], [78.41521118694675, 17.369247640766048], [78.3733357676316, 17.37486885051709], [78.37823461943219, 17.381091454007446], [78.37837984825143, 17.387556094738045], [78.38043629469928, 17.38676202574692], [78.38235738328666, 17.39388071732128], [78.38422492444079, 17.384902515538727], [78.39262592244842, 17.391500666922298], [78.4001750439432, 17.39447599477137], [78.41665805942193, 17.396531585964], [78.42646917731076, 17.403865237990374]]]}}, {"type": "Feature", "properties": {"OBJECTID": 1091, "ST_CODE": "28", "ST_NAME": "ANDHRA PRADESH", "DT_CODE": "05", "DIST_NAME": "HYDERABAD", "AC_NO": 58.0, "AC_NAME": "Malakpet", "PC_NO": 9.0, "PC_NAME": "HYDERABAD", "PC_ID": 2809.0, "STATUS": null, "Shape_Leng": 0.120034, "Shape_Area": 0.00075, "office": "MLA", "representative": "Ahmed Bin Abdullah Balala", "party": "AIMIM", "ac_name": "Malakpet"}, "geometry": {"type": "Polygon", "coordinates": [[[78.49539096162363, 17.378497212076752], [78.49887683639696, 17.379418421822777], [78.51592685913732, 17.38503189290759], [78.52714558510075, 17.376348524864568], [78.52524395244649, 17.362340389697295], [78.53234633121826, 17.357164010710562], [78.51100493433029, 17.354777030135892], [78.50448586123355, 17.363553737914742], [78.49022813542018, 17.364789402808753], [78.49539096162363, 17.378497212076752]]]}}, {"type": "Feature", "properties": {"OBJECTID": 1092, "ST_CODE": "28", "ST_NAME": "ANDHRA PRADESH", "DT_CODE": "05", "DIST_NAME": "HYDERABAD", "AC_NO": 65.0, "AC_NAME": "Goshamahal", "PC_NO": 9.0, "PC_NAME": "HYDERABAD", "PC_ID": 2809.0, "STATUS": null, "Shape_Leng": 0.115681, "Shape_Area": 0.000592, "office": "MLA", "representative": "T. Raja Singh", "party": "BJP", "ac_name": "Goshamahal"}, "geometry": {"type": "Polygon", "coordinates": [[[78.45206179091895, 17.37817645987576], [78.45888954731481, 17.382630837942884], [78.46725301391552, 17.38061633767387], [78.47609006620365, 17.378168599801086], [78.47265589615273, 17.368185335484895], [78.48153315173363, 17.369977171709138], [78.47856299138903, 17.36047809428868], [78.47285332881813, 17.34292118396553], [78.471201261629, 17.347542494190805], [78.45740472524795, 17.362941208769826], [78.45206179091895, 17.37817645987576]]]}}, {"type": "Feature", "properties": {"OBJECTID": 1094, "ST_CODE": "28", "ST_NAME": "ANDHRA PRADESH", "DT_CODE": "05", "DIST_NAME": "HYDERABAD", "AC_NO": 69.0, "AC_NAME": "Bahadurpura", "PC_NO": 9.0, "PC_NAME": "HYDERABAD", "PC_ID": 2809.0, "STATUS": null, "Shape_Leng": 0.181419, "Shape_Area": 0.000881, "office": "MLA", "representative": "Mohammed Mubeen", "party": "AIMIM", "ac_name": "Bahadurpura"}, "geometry": {"type": "Polygon", "coordinates": [[[78.43870471005437, 17.381211354320612], [78.45206179091895, 17.37817645987576], [78.45740472524795, 17.362941208769826], [78.471201261629, 17.347542494190805], [78.46581591617166, 17.335831153784795], [78.47037889367107, 17.33223703031473], [78.47949611445415, 17.325127215948328], [78.46732510806731, 17.319384923275663], [78.46321133383606, 17.328419781447792], [78.45047711622601, 17.335575050248394], [78.45560161422316, 17.35628243408712], [78.43746633999967, 17.36150917420906], [78.43989419566066, 17.36795219343901], [78.43551867194918, 17.372634270854974], [78.43870471005437, 17.381211354320612]]]}}, {"type": "Feature", "properties": {"OBJECTID": 1096, "ST_CODE": "28", "ST_NAME": "ANDHRA PRADESH", "DT_CODE": "05", "DIST_NAME": "HYDERABAD", "AC_NO": 66.0, "AC_NAME": "Charminar", "PC_NO": 9.0, "PC_NAME": "HYDERABAD", "PC_ID": 2809.0, "STATUS": null, "Shape_Leng": 0.162801, "Shape_Area": 0.000725, "office": "MLA", "representative": "Mir Zulfeqar Ali", "party": "AIMIM", "ac_name": "Charminar"}, "geometry": {"type": "Polygon", "coordinates": [[[78.48153315173363, 17.369977171709138], [78.48794809053203, 17.37786239773152], [78.49539096162363, 17.378497212076752], [78.49022813542018, 17.364789402808753], [78.50448586123355, 17.363553737914742], [78.51100493433029, 17.354777030135892], [78.53234633121826, 17.357164010710562], [78.53301727942397, 17.3547039494278], [78.52676934652817, 17.34429534715258], [78.51080815097544, 17.34909708026612], [78.50782060223906, 17.341873001637737], [78.47856299138903, 17.36047809428868], [78.48153315173363, 17.369977171709138]]]}}, {"type": "Feature", "properties": {"OBJECTID": 1099, "ST_CODE": "28", "ST_NAME": "ANDHRA PRADESH", "DT_CODE": "06", "DIST_NAME": "RANGAREDDI", "AC_NO": 49.0, "AC_NAME": "Lal Bahadur Nagar", "PC_NO": 7.0, "PC_NAME": "MALKAJGIRI", "PC_ID": 2807.0, "STATUS": null, "Shape_Leng": 0.284541, "Shape_Area": 0.002829, "office": "MLA", "representative": "Devireddy Sudhir Reddy", "party": "BRS", "ac_name": "Lal Bahadur Nagar"}, "geometry": {"type": "Polygon", "coordinates": [[[78.53301727942397, 17.3547039494278], [78.55006581468564, 17.368624776612194], [78.56871790051076, 17.37003770687471], [78.5741198537483, 17.361726534052366], [78.56042168161537, 17.35219927008029], [78.56197800967749, 17.344660471903296], [78.5978610906169, 17.343561936534172], [78.59771062594467, 17.337459872774957], [78.5846777210001, 17.322289553620067], [78.55366816245578, 17.326190300941676], [78.54829233902029, 17.322364472542404], [78.5501407974599, 17.315065442616117], [78.51085817666359, 17.31582511343828], [78.50827064457462, 17.339259050165083], [78.50782060223906, 17.341873001637737], [78.51080815097544, 17.34909708026612], [78.52676934652817, 17.34429534715258], [78.53301727942397, 17.3547039494278]]]}}, {"type": "Feature", "properties": {"OBJECTID": 1100, "ST_CODE": "28", "ST_NAME": "ANDHRA PRADESH", "DT_CODE": "05", "DIST_NAME": "HYDERABAD", "AC_NO": 68.0, "AC_NAME": "Yakutpura", "PC_NO": 9.0, "PC_NAME": "HYDERABAD", "PC_ID": 2809.0, "STATUS": null, "Shape_Leng": 0.118714, "Shape_Area": 0.000672, "office": "MLA", "representative": "Jaffar Hussain", "party": "AIMIM", "ac_name": "Yakutpura"}, "geometry": {"type": "Polygon", "coordinates": [[[78.471201261629, 17.347542494190805], [78.47285332881813, 17.34292118396553], [78.47856299138903, 17.36047809428868], [78.50782060223906, 17.341873001637737], [78.50827064457462, 17.339259050165083], [78.49569956218511, 17.333132906158767], [78.47037889367107, 17.33223703031473], [78.46581591617166, 17.335831153784795], [78.471201261629, 17.347542494190805]]]}}, {"type": "Feature", "properties": {"OBJECTID": 1102, "ST_CODE": "28", "ST_NAME": "ANDHRA PRADESH", "DT_CODE": "05", "DIST_NAME": "HYDERABAD", "AC_NO": 67.0, "AC_NAME": "Chandrayangutta", "PC_NO": 9.0, "PC_NAME": "HYDERABAD", "PC_ID": 2809.0, "STATUS": null, "Shape_Leng": 0.151036, "Shape_Area": 0.000762, "office": "MLA", "representative": "Akbaruddin Owaisi", "party": "AIMIM", "ac_name": "Chandrayangutta"}, "geometry": {"type": "Polygon", "coordinates": [[[78.47037889367107, 17.33223703031473], [78.49569956218511, 17.333132906158767], [78.50827064457462, 17.339259050165083], [78.51085817666359, 17.31582511343828], [78.50973824822165, 17.308241915731855], [78.50596037706981, 17.314221632122667], [78.49342713275604, 17.317764764032688], [78.47196732663087, 17.308387282147407], [78.46732510806731, 17.319384923275663], [78.47949611445415, 17.325127215948328], [78.47037889367107, 17.33223703031473]]]}}, {"type": "Feature", "properties": {"OBJECTID": 1103, "ST_CODE": "28", "ST_NAME": "ANDHRA PRADESH", "DT_CODE": "06", "DIST_NAME": "RANGAREDDI", "AC_NO": 54.0, "AC_NAME": "Pargi", "PC_NO": 10.0, "PC_NAME": "CHEVELLA", "PC_ID": 2810.0, "STATUS": null, "Shape_Leng": 1.830197, "Shape_Area": 0.09821, "office": "MLA", "representative": "Tammannagari Ram Mohan Reddy", "party": "INC", "ac_name": "Pargi"}, "geometry": {"type": "Polygon", "coordinates": [[[77.9737049707079, 17.31181347251379], [78.0159244724365, 17.317504632432872], [78.04301352825178, 17.312170367568456], [78.07354132177466, 17.2399601024768], [78.06812062126971, 17.22192961815739], [78.0660965989789, 17.184704967260473], [78.04538078129809, 17.188054171163117], [78.04216586146538, 17.167212675024984], [78.01616710232997, 17.165766279190507], [78.01144928046, 17.147913016172822], [78.00409549621025, 17.147727431176065], [77.99879794526902, 17.133862406025287], [77.99177884551739, 17.128506230977848], [77.99012591677769, 17.103622386563927], [77.9542666876576, 17.09949269433241], [77.95432381619122, 17.095827002813962], [77.93394200581895, 17.08561887561069], [77.94930191824898, 17.080978131035977], [77.94912855503884, 17.075834767060883], [77.92341524971408, 17.06494809597791], [77.92285908288045, 17.05208375995761], [77.93232525140928, 17.048254559999975], [77.93505611025137, 17.02831200999134], [77.95085045728285, 17.02061434297758], [77.94839084656036, 17.017130112164978], [77.95368171284082, 17.014682930073207], [77.97837992459392, 17.010361989814044], [77.97828163498951, 17.004418363216928], [77.99298835992494, 16.994439955239784], [77.99980884620135, 16.980026004596482], [77.98817110631154, 16.960776326466316], [77.9916583732354, 16.95559390403548], [78.0109109004178, 16.949928215614705], [78.0122648081744, 16.943577698851755], [78.00853172955573, 16.9441484895612], [78.00466690925055, 16.93620292352614], [78.01011787464029, 16.9239318522732], [78.00881166782426, 16.902829618392218], [77.98810043218924, 16.899108422515724], [77.9816432909052, 16.893535983898573], [77.9785828395265, 16.876834361216822], [77.99048938407788, 16.87090972920072], [77.9776843538499, 16.847171963715198], [77.96706160321048, 16.85043271839527], [77.95485636772725, 16.868626826267075], [77.93779651539694, 16.86456150480967], [77.9315732859784, 16.849966514343237], [77.92196463156256, 16.84492972272858], [77.91204176751364, 16.851642781389273], [77.91443145954429, 16.86070816884694], [77.88705999412349, 16.85964461350818], [77.86376352236874, 16.85099984346806], [77.86815694438752, 16.858829191913742], [77.86481839385385, 16.86306950705216], [77.85738826705494, 16.854299638617476], [77.84344946512078, 16.861582973575423], [77.84225856757888, 16.85657050592414], [77.82010038932157, 16.863813319229337], [77.82201241544067, 16.88418340154277], [77.81171037653269, 16.89183579218809], [77.7956878580083, 16.873651970761898], [77.77076489128677, 16.879551178943814], [77.763951681425, 16.872906505630795], [77.74389809572062, 16.880502266866188], [77.73716396684364, 16.88075334499092], [77.74609595426494, 16.911024043924556], [77.74031242138119, 16.920153124966816], [77.74044232845074, 16.938675593304026], [77.73027602242058, 16.939547164070405], [77.7303161654587, 16.94408404324406], [77.74255523073936, 16.948748845582827], [77.76040263197592, 16.973489652825265], [77.75942574340337, 16.983208325803616], [77.75529932200618, 16.984913398134893], [77.76324218108186, 16.99925193702734], [77.7610159102561, 17.014206891934577], [77.76591295891598, 17.02207820274691], [77.77656710848532, 17.02157716975063], [77.7851791441023, 17.04582016716705], [77.77502779379768, 17.05138334186779], [77.77171246016195, 17.0603129316965], [77.75110471670939, 17.06350809522246], [77.76080790606005, 17.08149285621039], [77.75930683234452, 17.094745674173566], [77.76519541953303, 17.108558321909072], [77.77627000215892, 17.11291875229864], [77.77633666530494, 17.123030756364358], [77.76696604704551, 17.130339150031773], [77.78367375723815, 17.153682319083828], [77.78666677295325, 17.16992646653324], [77.78524518491741, 17.1764329149471], [77.7757693019118, 17.17896156122714], [77.76435454172878, 17.20300030462039], [77.78758538725589, 17.221335924413438], [77.82836327034869, 17.217656732272417], [77.86273218973884, 17.23874669400476], [77.88529667090472, 17.245694391183235], [77.88580268074918, 17.269253058481922], [77.89612980894361, 17.28176507250015], [77.89812105274444, 17.291305486359136], [77.912950018029, 17.303600406733437], [77.91511567185086, 17.3215057261084], [77.93347773710792, 17.315671049679224], [77.9737049707079, 17.31181347251379]]]}}, {"type": "Feature", "properties": {"OBJECTID": 1104, "ST_CODE": "28", "ST_NAME": "ANDHRA PRADESH", "DT_CODE": "06", "DIST_NAME": "RANGAREDDI", "AC_NO": 50.0, "AC_NAME": "Maheswaram", "PC_NO": 10.0, "PC_NAME": "CHEVELLA", "PC_ID": 2810.0, "STATUS": null, "Shape_Leng": 1.273003, "Shape_Area": 0.05472, "office": "MLA", "representative": "Sabitha Indra Reddy", "party": "BRS", "ac_name": "Maheswaram"}, "geometry": {"type": "Polygon", "coordinates": [[[78.5501407974599, 17.315065442616117], [78.56404982733773, 17.30691542920374], [78.5682435351111, 17.291850748912964], [78.56724820414138, 17.273601147475006], [78.55615916221564, 17.24377849797935], [78.56585951510459, 17.22842848078983], [78.54129199283125, 17.220021867415312], [78.53219116668907, 17.208162825054387], [78.54683228428257, 17.197718681571928], [78.55198449039199, 17.178664915353636], [78.56688556151948, 17.17965914465384], [78.57965316466186, 17.16083036722773], [78.577993798575, 17.150239537125003], [78.55848100939113, 17.113915727229084], [78.5597733144869, 17.10931807187154], [78.57468919115331, 17.106038597803092], [78.57619314090078, 17.101326845457606], [78.57235917363698, 17.07041692640007], [78.57766547138448, 17.05199538807676], [78.555995772487, 17.035568629688555], [78.57562788731718, 17.025326456850564], [78.58005679298668, 17.01214335523173], [78.57285285017895, 16.98723384056933], [78.56251006568704, 16.977759276869165], [78.5578306385732, 16.9863184602288], [78.52394579186483, 16.993537094361443], [78.49406472240906, 17.018451251324223], [78.48962186195939, 17.004204714875755], [78.47966938773209, 16.994517041528297], [78.45945439620345, 16.98476276259146], [78.46085476023904, 16.99240914846348], [78.45559671561597, 16.994094950121905], [78.45649199251153, 16.99891070366607], [78.42174073444738, 17.014237910451243], [78.406073009262, 17.01439508046866], [78.38101180145355, 17.027704159119708], [78.38584761257732, 17.029541916526284], [78.37832433849746, 17.034604587931426], [78.3772201266076, 17.046017381297133], [78.37013322966487, 17.045354453245466], [78.36690489914184, 17.064409687157365], [78.33599099968495, 17.06381767154835], [78.34091529060822, 17.06795540731622], [78.35063823176904, 17.067017421616754], [78.34752729155133, 17.07506743131694], [78.35933833709464, 17.071559817231844], [78.3563097397028, 17.08249069718795], [78.34096185750377, 17.084289742377734], [78.3456381172054, 17.097391292574116], [78.33423310747202, 17.103647328361546], [78.33465266368955, 17.12323139421352], [78.32717511563914, 17.131346472561688], [78.35576313895774, 17.18937103224738], [78.38412488115841, 17.191870470345975], [78.41697578270629, 17.201303777647297], [78.44719778065308, 17.201596955734942], [78.45279834466794, 17.20618995080565], [78.4561788458771, 17.23124581664115], [78.43782157130852, 17.23644842345601], [78.43318519024439, 17.24802387630092], [78.44592857104675, 17.26428520529805], [78.44434061742561, 17.272361203606692], [78.45764666805934, 17.284469704413368], [78.47196732663087, 17.308387282147407], [78.49342713275604, 17.317764764032688], [78.50596037706981, 17.314221632122667], [78.50973824822165, 17.308241915731855], [78.51085817666359, 17.31582511343828], [78.5501407974599, 17.315065442616117]]]}}]}