{"type": "FeatureCollection", "crs": {"type": "name", "properties": {"name": "urn:ogc:def:crs:OGC:1.3:CRS84"}}, "features": [{"type": "Feature", "properties": {"DISTRICT": "Hyderabad", "ST_NM": "Andhra Pradesh", "ST_CEN_CD": 28, "DT_CEN_CD": 5, "censuscode": 536, "district": "Hyderabad"}, "geometry": {"type": "Polygon", "coordinates": [[[78.51163879806425, 17.45433827376026], [78.51588883555627, 17.45266199588754], [78.52469203608214, 17.45778964946587], [78.53331189291437, 17.463608691046037], [78.54018041193112, 17.462672115420197], [78.54041600273992, 17.4549935366418], [78.5366890392952, 17.439874196846137], [78.52714066622974, 17.421109668662375], [78.52215779173423, 17.39894597512886], [78.52174050080542, 17.39000503475038], [78.52938904134713, 17.370716415668312], [78.52593233624158, 17.360871053314433], [78.51544329810619, 17.35007357337124], [78.51430748104441, 17.340851452121886], [78.51533819456544, 17.329676154205888], [78.50043054400886, 17.3198610933922], [78.48240750379246, 17.303532989903076], [78.47627426938242, 17.301425573826357], [78.47178066183095, 17.303733930639925], [78.46776110435928, 17.307301342727825], [78.456245384576, 17.31667447477562], [78.45039975386062, 17.32397825666948], [78.44752143226779, 17.33453152560837], [78.45019015613619, 17.34581430033657], [78.44053159812198, 17.344638424104534], [78.42249709204471, 17.346178348758226], [78.4112623010661, 17.348732924867576], [78.40123944052516, 17.356610192970514], [78.3912097123282, 17.38862060818676], [78.3897663062473, 17.39910965707549], [78.39252657729115, 17.41222954172132], [78.40020064763155, 17.423903855911828], [78.411480767176, 17.433265953173287], [78.42096330234125, 17.433697930515887], [78.42721305374003, 17.428694230646958], [78.43572004133033, 17.41612326415728], [78.4445145107071, 17.40537273736066], [78.44973564057516, 17.401296037346928], [78.4487781850485, 17.4276051119489], [78.45372777679226, 17.435667583548213], [78.46350639717974, 17.44596003340725], [78.47878647350016, 17.473074717250054], [78.49124651822831, 17.475900312340666], [78.49886580142822, 17.47060502657531], [78.51163879806425, 17.45433827376026]]]}}, {"type": "Feature", "properties": {"DISTRICT": "Medak", "ST_NM": "Andhra Pradesh", "ST_CEN_CD": 28, "DT_CEN_CD": 4, "censuscode": 535, "district": "Medak"}, "geometry": {"type": "Polygon", "coordinates": [[[78.5685774286946, 18.229805445096687], [78.5775653308462, 18.224732217568278], [78.58439345051814, 18.231072261677117], [78.5939231835003, 18.246655951313425], [78.60246290770547, 18.249870977314277], [78.63087222439688, 18.25132040666593], [78.65059336785883, 18.250860280507425], [78.66348460647757, 18.249042764490405], [78.67630846297546, 18.244766086677043], [78.68674570690172, 18.23959819157508], [78.69284805726308, 18.23430643313585], [78.69804794606326, 18.231239312302638], [78.71003382886057, 18.233753999232423], [78.71882528229237, 18.234160793888837], [78.72741040607339, 18.232793169535075], [78.73078677021338, 18.218717164260116], [78.74555477084989, 18.21841028348391], [78.75843875200556, 18.22859897313725], [78.76940394219957, 18.25048513797579], [78.77295690065189, 18.26002862128486], [78.7797073121822, 18.264763686293737], [78.79254783343646, 18.260245351887477], [78.80464522516952, 18.258525938103787], [78.82568729390688, 18.258238787442476], [78.83280009523442, 18.255420466016407], [78.83598783518485, 18.25334116870897], [78.84894487201817, 18.24859426766376], [78.87718297814205, 18.24462596727647], [78.89781427914772, 18.23911930010732], [78.90336047561223, 18.24628786069805], [78.90898374749612, 18.250533919624793], [78.91680935158325, 18.25338384194287], [78.93097270527956, 18.25620150205607], [78.94238719283894, 18.257430023881227], [78.9608377009115, 18.25458324825841], [78.96511159691093, 18.252350663499833], [78.96151308574443, 18.231420720989423], [78.96201345551546, 18.222846212327926], [78.96554272636953, 18.21654414933481], [78.98050472694385, 18.212350259954366], [78.99179433049174, 18.209635856495836], [79.00083628236231, 18.206875605243802], [79.00947822721223, 18.203667417824185], [79.0156688875584, 18.19711629044561], [79.02012869083086, 18.186422950290666], [79.01807456753775, 18.180337242886612], [79.02081659338027, 18.173946561703698], [79.02146051067301, 18.165192505836856], [79.01988397089511, 18.157109179465177], [79.01575210290483, 18.14274698569142], [79.022810858819, 18.13672693431814], [79.03123069530108, 18.1336974762291], [79.04283215882646, 18.126503079798166], [79.04089809263, 18.109271017256468], [79.0368158841654, 18.096902524254837], [79.04553303313565, 18.092098227475375], [79.06518539733916, 18.08480778764967], [79.0734714579804, 18.082845654072457], [79.08309512115814, 18.082559810003296], [79.10590197105644, 18.08000250628399], [79.12068516964337, 18.082206842924922], [79.12693111739968, 18.082438794496248], [79.13557977280347, 18.080186503572996], [79.13073771671662, 18.07483878483599], [79.12402796707913, 18.071178017517887], [79.12056490502738, 18.06722244318826], [79.11420486623969, 18.057114430419755], [79.1124512286602, 18.053081951323453], [79.12061781860098, 18.0400202602057], [79.12101979868592, 18.033848973515724], [79.11565329950909, 18.02662115887334], [79.10525167917127, 18.028167050765628], [79.10131298200244, 18.02681624385274], [79.09615846929636, 18.024962877508838], [79.0956690778857, 18.025429642576068], [79.0859298523888, 18.02465224820962], [79.07651069344537, 18.02018216762501], [79.06767367153262, 18.022014754011966], [79.05999566653925, 18.028673466621566], [79.05060563536549, 18.033409619372723], [79.0442294194653, 18.030934644090614], [79.03463000952054, 18.025003214749386], [79.00225695290219, 18.000950678154993], [79.00003442051369, 17.999656924017863], [78.99166479150043, 18.0101226146494], [78.98448020230755, 18.01478006327303], [78.98745446589332, 18.019324102152044], [78.98242802340155, 18.022960577957786], [78.97211788703551, 18.031817127421903], [78.96761077431496, 18.034464565090538], [78.96638089144356, 18.03083742180927], [78.96015918148403, 18.025325809704338], [78.95420120324617, 18.017987168912313], [78.95423363236478, 18.011030178557405], [78.95625414804653, 18.006828086473302], [78.95404922015682, 18.00269227171969], [78.95169481569287, 17.998702034829282], [78.95042283253012, 17.994430755537373], [78.94197652291508, 17.992550860189482], [78.92976813024984, 17.993395295248643], [78.9200281633586, 17.982348001227848], [78.91807620360872, 17.975521242443598], [78.90787597123007, 17.959495515414726], [78.89316099953403, 17.962110067248418], [78.88090210909607, 17.96327076799738], [78.87326257301865, 17.94569969869668], [78.86403846842815, 17.933759908782182], [78.85552002036921, 17.92037721467621], [78.85183837191656, 17.90495404290905], [78.84556145237798, 17.902354887803604], [78.84321982925283, 17.89438397166097], [78.83266896617485, 17.89351476871193], [78.82842508594595, 17.87901510111543], [78.83029754817916, 17.8739026505274], [78.84144563786558, 17.870806304716943], [78.87229205462653, 17.866525784992987], [78.87277842534387, 17.852126133002866], [78.87611736362366, 17.828669896834857], [78.86919495055321, 17.824692630594342], [78.86814707203418, 17.81787853776566], [78.86956713503041, 17.809099664740014], [78.86671556292131, 17.804924543735215], [78.86614612483417, 17.79897337376491], [78.8668827214725, 17.781310813761852], [78.86292125392995, 17.77187712876752], [78.86153558837539, 17.75984302594782], [78.85918586020075, 17.75188337270705], [78.85238195145058, 17.748825272144696], [78.84431353771167, 17.746636446716913], [78.83553469206622, 17.74536467352627], [78.82704862595521, 17.742599000693314], [78.82165191341082, 17.7337397193832], [78.81863372921347, 17.72710285173444], [78.81507070174327, 17.722939933056278], [78.81187056719716, 17.715044193678278], [78.81167607805409, 17.706728478046834], [78.80318141530103, 17.70769024453738], [78.79633904612881, 17.712020467089253], [78.79211063948799, 17.708896059913947], [78.78673743010965, 17.70845786796998], [78.78488686192226, 17.706695013913635], [78.7885072701841, 17.700314171803786], [78.79302334004589, 17.695014819112256], [78.77968235480353, 17.68390201297582], [78.77828213534825, 17.676513455383407], [78.7749971744462, 17.675954742231593], [78.76503828286545, 17.683855279857276], [78.7544484632675, 17.683337661689393], [78.74334523505252, 17.680744427609], [78.73669727574529, 17.67189282612516], [78.73033403139534, 17.666648344937766], [78.72004567183527, 17.66674915979772], [78.70344490458895, 17.684309700821654], [78.68609918617592, 17.68564208943068], [78.68294918521792, 17.69281931203581], [78.67504927661103, 17.69526076687079], [78.66392485409989, 17.69582430875722], [78.65693840039663, 17.68301036846469], [78.65248939667559, 17.67701715740383], [78.64337932848974, 17.67080917674009], [78.63383676230936, 17.667521311004734], [78.62534489171007, 17.667609335630488], [78.61564729638646, 17.66902758095118], [78.61373172953986, 17.680612064894255], [78.60842971829513, 17.686876361358095], [78.59889241167033, 17.70078667509151], [78.58227189434278, 17.700565514624856], [78.57634498393956, 17.69221710261597], [78.57176953807571, 17.68718891043216], [78.5596342253632, 17.686887261196436], [78.55083639734545, 17.688871262330746], [78.53529776034807, 17.696770175853725], [78.5266687926629, 17.699608769393638], [78.51908496281058, 17.697111628482673], [78.51342842126105, 17.685843181927748], [78.50177464227487, 17.683936122636332], [78.49600118220843, 17.68870977761565], [78.48319424402919, 17.690758620634153], [78.47258282998003, 17.69514245308003], [78.46482644901597, 17.701415193453148], [78.4564727328857, 17.706776643250958], [78.45081895711985, 17.71234935830649], [78.43996187417979, 17.699486024323157], [78.43026410959008, 17.700947136143775], [78.42832508111921, 17.687887206363435], [78.42027110640552, 17.669620264148282], [78.40218893457933, 17.672706817632438], [78.39567283041794, 17.672958769696383], [78.38723844511689, 17.665182528002102], [78.38424570390235, 17.641349575408128], [78.38204450418294, 17.632874643525724], [78.37579952112198, 17.628413280848278], [78.36041709398404, 17.623350749228138], [78.36105807679546, 17.617960130646875], [78.37020404061538, 17.610142820159204], [78.37574611881962, 17.603654660146915], [78.37238242384582, 17.590880466773893], [78.37208212307017, 17.582509612924042], [78.36473946289044, 17.57387978235956], [78.36456198556557, 17.566252473458402], [78.3622333194202, 17.5580585808045], [78.35831579411014, 17.5549212976764], [78.34896128823266, 17.54371318435056], [78.3532708244615, 17.534813141979367], [78.35468377148715, 17.52913213637905], [78.35454918351572, 17.523523130017836], [78.34398440990107, 17.51449292415708], [78.33563848014528, 17.50464696230643], [78.32712840569282, 17.500834208586905], [78.31711866434236, 17.49753269474541], [78.3108901591171, 17.49204401860197], [78.29698612384435, 17.49150332998024], [78.30626978573346, 17.465455222555942], [78.30312262847106, 17.45561091856597], [78.29520698667814, 17.445644987663854], [78.28873241958436, 17.433280397217874], [78.27331091534775, 17.4353181198653], [78.27347527620576, 17.429358653070597], [78.27109094894564, 17.422776290891285], [78.26300045872517, 17.418953816161185], [78.25580355700825, 17.422808344185416], [78.24681314899249, 17.426261071267554], [78.23683311056283, 17.427654749758112], [78.23013004940475, 17.43978542839843], [78.2186572927028, 17.439790904445907], [78.21839259448012, 17.45064860307008], [78.21912367550104, 17.46269538620082], [78.21390811117483, 17.48640641724036], [78.20116142191, 17.489144811067405], [78.18855328948027, 17.490054482328528], [78.19431520186313, 17.479723930465564], [78.17988659868546, 17.470417410211592], [78.1671083599845, 17.4632228003416], [78.15796156829288, 17.464651402480726], [78.14564894973583, 17.472683694606726], [78.14771949472184, 17.481412413448748], [78.14288844142472, 17.487111944723008], [78.13440320689699, 17.48801638854534], [78.11880708991374, 17.482594846110388], [78.11062078542213, 17.48277133097989], [78.10360141314077, 17.492459708584366], [78.08534640454532, 17.497085985430047], [78.08249171638735, 17.50824292354703], [78.08187139273363, 17.52437738945594], [78.07096483135403, 17.521154779604206], [78.06661112676923, 17.508339188936255], [78.05907272594007, 17.508816747010417], [78.05847898419705, 17.502303896836015], [78.06527487120134, 17.496825167355844], [78.0648131613352, 17.489070968845763], [78.06349289338675, 17.482963200343992], [78.05494021911207, 17.4842170297486], [78.05167021562045, 17.47585565451866], [78.06048830311475, 17.471365827569596], [78.05438553612373, 17.459759638026622], [78.04482284564816, 17.460676595257002], [78.03600522243806, 17.464817365461997], [78.0277748805263, 17.471346678025057], [78.01950312731674, 17.475436680903478], [78.01258255692088, 17.481550204437664], [78.00607638886405, 17.488484230732297], [78.00001573004022, 17.49622550442869], [77.9958414727917, 17.500141161344025], [77.99173423308271, 17.507240337037253], [77.98271734807456, 17.485875521485475], [77.97573820307925, 17.483643241842387], [77.96527160925403, 17.48374813294188], [77.96790227739838, 17.494456572779516], [77.96627866403416, 17.504673539877583], [77.97492214015838, 17.518689362900574], [77.96357556962874, 17.535044184890705], [77.95436278916637, 17.53688997348688], [77.94772086673106, 17.53666907485334], [77.93837989143285, 17.538912796761938], [77.93984811882487, 17.552365865445754], [77.93580390959599, 17.55785297448691], [77.93384307659042, 17.565247125645126], [77.9229001249469, 17.574026005489856], [77.91403446296619, 17.575290393223845], [77.90156744292263, 17.579056253727376], [77.8742795188461, 17.58094935428463], [77.87154681434214, 17.586325755011554], [77.87073091859286, 17.592643701241762], [77.87339027726027, 17.596337214386356], [77.87510111527547, 17.60037197564247], [77.87370309104435, 17.603924356448598], [77.86755586495532, 17.61089120637794], [77.8667119387951, 17.62002136448702], [77.86131395523935, 17.62153689547595], [77.85905835387032, 17.628072458188424], [77.8559044551808, 17.643332318788016], [77.827993515527, 17.64612427341609], [77.82495502021332, 17.635876024917224], [77.81604978355425, 17.626276005337907], [77.80125859547151, 17.627374545618963], [77.79798766592049, 17.624943726210233], [77.78759528924071, 17.637622323204617], [77.78412027867051, 17.639035734588806], [77.7801246758966, 17.62837369878561], [77.77762943787049, 17.626577098569925], [77.76924990436437, 17.626456947044122], [77.75275920594403, 17.623294769597454], [77.74766644648733, 17.624751236022046], [77.74616133267722, 17.61789865263268], [77.74986250303755, 17.618097407177746], [77.74997723930565, 17.612355274982438], [77.75922585705055, 17.615178486359984], [77.76283488608343, 17.612856231918244], [77.76809819995495, 17.61260420677522], [77.77421947521596, 17.60202255403192], [77.77134592759238, 17.586424470197134], [77.76578788663612, 17.584780489566516], [77.7622851335311, 17.581308103954978], [77.75995406173958, 17.57370852261072], [77.76136993791872, 17.559298443440657], [77.74325935889746, 17.54984997351164], [77.70736621842448, 17.52809867388658], [77.70041516236329, 17.529251693184165], [77.69050663542613, 17.527328423784706], [77.68679719819293, 17.519953972725876], [77.68981999454265, 17.508710506464382], [77.68743749594074, 17.50708158020813], [77.68621579201663, 17.50972078526862], [77.68312593935491, 17.508147077457817], [77.67023180358571, 17.51298060666671], [77.66534860144442, 17.517828471728702], [77.66074645536747, 17.524345405865773], [77.65399431553386, 17.524063648290976], [77.64940593771318, 17.521782843686875], [77.63723525362751, 17.526048196779577], [77.6252776293793, 17.52520727663216], [77.62061544783326, 17.532296876592344], [77.61198274102411, 17.534000118710463], [77.60726800558703, 17.533621094729654], [77.60323516762702, 17.536919203561318], [77.59570379388138, 17.535593935808674], [77.59641270005187, 17.551969590394283], [77.59581456291458, 17.557945882832712], [77.59377978093387, 17.565627676775076], [77.58935907910977, 17.564900235049013], [77.58933632945563, 17.561224360856198], [77.56472532724136, 17.556368802716136], [77.56001344990996, 17.554999020726783], [77.55668146807648, 17.55284369457625], [77.55225806787942, 17.552298307276526], [77.54779147561229, 17.557422150223868], [77.54052320646146, 17.5741371759489], [77.53590923780055, 17.57588277090386], [77.53124113543497, 17.576017395572617], [77.51767842315238, 17.56004448679465], [77.51344856806683, 17.551960107430325], [77.50538424240065, 17.54367781364894], [77.5005830309355, 17.54616095718201], [77.49929293806697, 17.549310663841112], [77.49938566755665, 17.552813690504514], [77.49373494113004, 17.569024878862628], [77.47777165098785, 17.56784703379515], [77.4757652152954, 17.571852305232564], [77.47278632119686, 17.570907929186745], [77.4688355014688, 17.577366778133843], [77.46486551353166, 17.57973729869492], [77.44352548460203, 17.58414471018855], [77.44566882592306, 17.59847058188934], [77.4440915690309, 17.606733834204856], [77.44490338126462, 17.609269553704028], [77.45011028210794, 17.609889067414606], [77.44940603813075, 17.61493377115982], [77.45241597518266, 17.625420711973685], [77.45683299555158, 17.63339207517324], [77.45441673738094, 17.634976401342218], [77.45111200476546, 17.649712855283507], [77.44859091745575, 17.651008990860102], [77.44922315217916, 17.660037541288727], [77.45267019370107, 17.66868670632205], [77.45457420040206, 17.683411232849878], [77.45497507923024, 17.690287671068553], [77.45391881785615, 17.693838119692987], [77.45820367924739, 17.696638126350123], [77.46145348809274, 17.701495474449075], [77.4751705900172, 17.706558134164233], [77.47777440914146, 17.703943376133218], [77.48230882423461, 17.705585627440506], [77.48472576360278, 17.709399731312896], [77.48811213529763, 17.706211758838275], [77.49298919334643, 17.709359923629318], [77.49538882947554, 17.715418508487446], [77.49793290561088, 17.718595466983235], [77.50913532825213, 17.717085976056264], [77.51316311365518, 17.722525892816186], [77.52629274889617, 17.7266003997667], [77.5312895083893, 17.729694372799898], [77.53772359346206, 17.727791043219113], [77.5431100064269, 17.7280094415321], [77.54787752716061, 17.735982977167968], [77.55566017884358, 17.736969316081325], [77.55841395985851, 17.743717886363143], [77.56584161481648, 17.749698584649046], [77.56976048173038, 17.76668130497885], [77.55822004961257, 17.763823540472927], [77.54070595631751, 17.77298158823939], [77.53821118566206, 17.77721471608611], [77.53130521638228, 17.77916766606044], [77.52672914153779, 17.782117095579427], [77.5130036644061, 17.782570629460402], [77.50812463630233, 17.785060769411672], [77.51066213024765, 17.795424633604448], [77.51453350733883, 17.803902751300736], [77.52172290977508, 17.81017327911112], [77.52977306064409, 17.814148539533637], [77.52968528415813, 17.829263798503582], [77.54743101847247, 17.828729017758995], [77.54852957164643, 17.819484405426344], [77.55349130160805, 17.820506349909095], [77.55805016932999, 17.83295641262944], [77.56294128745638, 17.84109787614018], [77.56722523486167, 17.844463481734703], [77.56590055690873, 17.851583261481537], [77.5697927580397, 17.8520142169405], [77.57119098342916, 17.868575515077882], [77.57651759820406, 17.87523707609585], [77.58150899445563, 17.8736626084664], [77.5850583093826, 17.87817977443898], [77.59656971815059, 17.872234448009394], [77.6005230090691, 17.872903862213484], [77.60158992592562, 17.879517949028013], [77.59629137510728, 17.8819450455675], [77.58898272568132, 17.894929724453686], [77.58682695190552, 17.900778671748967], [77.5889462970026, 17.910625299115466], [77.60360676861235, 17.906084845921956], [77.6082681891389, 17.90791133090519], [77.62044021325535, 17.9053039171159], [77.62277851713023, 17.915907536359533], [77.62250723090264, 17.924234904599167], [77.62337000529506, 17.932466160958715], [77.6206189296197, 17.940490210844757], [77.62384214573758, 17.94683950296697], [77.62811021476287, 17.94607649021361], [77.63270654643397, 17.95088947599447], [77.63283081291019, 17.956221736606487], [77.6275686853427, 17.960117557473037], [77.6335712380228, 17.9653313693778], [77.63566890570561, 17.955912128706817], [77.6394736231046, 17.952907031310314], [77.6444837403581, 17.952027102375116], [77.64786373434865, 17.948781297721617], [77.65130557307555, 17.955584957447858], [77.64669908529486, 17.959677535398164], [77.64813502534236, 17.96507436880841], [77.65593974322114, 17.96668838319324], [77.65728164666726, 17.97173536758739], [77.65128541313945, 17.97282461010682], [77.64749032538954, 17.975811948845454], [77.65277307079528, 17.980772948818405], [77.65366373752104, 17.988216872868385], [77.65161466920735, 17.989669252938736], [77.65003443755884, 17.995547585345648], [77.64615282581084, 17.998237978854167], [77.64206753213566, 17.998869321580397], [77.63656394873732, 17.997467868385346], [77.63263392851673, 17.99484713610982], [77.62526715275655, 18.000655023619302], [77.62771583653758, 18.003469863770977], [77.62609726727288, 18.006968560872956], [77.61964795423327, 18.008381612011608], [77.61384052410105, 18.012768176727615], [77.61044234893457, 18.02027841386524], [77.60324095296964, 18.018000165708564], [77.59598579159623, 18.01243646143467], [77.59098518596994, 18.015588539766593], [77.58869164647491, 18.027028683206503], [77.57818311316032, 18.03294123879087], [77.56147069577118, 18.037389145882898], [77.55675327811517, 18.036852572636427], [77.55569714104375, 18.04911078615819], [77.5516934409466, 18.05015360850914], [77.54937461990869, 18.05591610276305], [77.55106199787757, 18.065781572218107], [77.56034336463988, 18.064328853519836], [77.56411650128369, 18.07327301814971], [77.5709949241537, 18.078442954981075], [77.58113916623127, 18.079022442273313], [77.5935044403162, 18.08245683665563], [77.60118902136072, 18.086455819132176], [77.60428326712288, 18.101551805577078], [77.60031743988296, 18.123144085100403], [77.597196686556, 18.129958557064448], [77.60146214642462, 18.15391409360577], [77.59282947013224, 18.155520137503267], [77.58302001187738, 18.16416009411165], [77.58119489758735, 18.17030591583258], [77.57609375545725, 18.180966865254764], [77.5736389055271, 18.191148726388267], [77.56792968857648, 18.191969351983445], [77.56789970364103, 18.202526007885414], [77.57801728535155, 18.201903949210276], [77.58859259590565, 18.218714590990427], [77.58470895311412, 18.2246989348416], [77.5803843000385, 18.235045866447336], [77.5761377756605, 18.242477801615777], [77.58510538300527, 18.258240760940208], [77.5955673424949, 18.2636919653969], [77.6026841066006, 18.27482242881346], [77.62044996694897, 18.27549760406146], [77.62894346924223, 18.2847965665391], [77.64727634756144, 18.28579635942708], [77.66818856483043, 18.28326471832826], [77.68979614411617, 18.267165429438297], [77.6902018524127, 18.26198326365656], [77.70881273525124, 18.260728316981183], [77.71312488823662, 18.258348890596853], [77.72472752285937, 18.260364837792217], [77.72957160490374, 18.254460077151435], [77.73264955283905, 18.243119726758074], [77.73103962703684, 18.235137135709998], [77.73931986163485, 18.235569294890414], [77.74089053084519, 18.226046849861646], [77.74450883182158, 18.226031180351523], [77.74593685541824, 18.210956462251477], [77.74479423816888, 18.206418083791466], [77.74813713988493, 18.20720278523229], [77.75986641615948, 18.20756951426049], [77.76132772606718, 18.203217554132905], [77.7726073231734, 18.190580323715633], [77.77830860257164, 18.192770833477045], [77.77879779557887, 18.19612291270288], [77.7822918542853, 18.20068945583348], [77.78784866661722, 18.19915215214555], [77.79635048530217, 18.205411918152596], [77.80614574187956, 18.204333809260525], [77.81203025236971, 18.19871298220269], [77.829316011797, 18.196295509530866], [77.83172802417029, 18.200831134682204], [77.84181073433449, 18.20407851524981], [77.8489834784562, 18.20240897184275], [77.85496795242034, 18.207255386909466], [77.86699637646288, 18.20313607411482], [77.86476980280868, 18.198477624386925], [77.86546159954538, 18.19312101468829], [77.8715491787578, 18.191154993412468], [77.8827524002711, 18.18920276549377], [77.90575001965775, 18.19410923605478], [77.90364241991935, 18.183272836843702], [77.90383121538949, 18.172684702708196], [77.906878888011, 18.168704924925937], [77.89749827087164, 18.160346527428814], [77.90089940866683, 18.156147368426947], [77.90614617528816, 18.154596764212723], [77.90491064870336, 18.147546486415607], [77.90730418777994, 18.14550370001553], [77.91206250879965, 18.14836775772539], [77.91588168071365, 18.14421783219096], [77.91815109306769, 18.14538226890402], [77.91843460283155, 18.147985701620698], [77.92247642517682, 18.146639853788997], [77.92720139766352, 18.14873274354991], [77.923413061709, 18.1521407771906], [77.9307110987299, 18.157048037733986], [77.9381647991722, 18.151978830203326], [77.93309464167488, 18.14705047648077], [77.93418074098292, 18.142210740427203], [77.9328151321986, 18.14104545605449], [77.92617793573929, 18.142320669462478], [77.92325366049377, 18.136819419620295], [77.92656776058273, 18.133819723079434], [77.92743263740124, 18.13121190753647], [77.91961138664696, 18.12504343349075], [77.91452002177506, 18.12592956777245], [77.91153145143214, 18.12354466770686], [77.91971948603432, 18.115406420122945], [77.93148905933121, 18.11732790414773], [77.92837637052104, 18.105392608053386], [77.92348160614604, 18.104927172880252], [77.91959388533625, 18.10724009955877], [77.91715631465922, 18.103192170263508], [77.91183223615027, 18.102596462745836], [77.90695577990955, 18.10589899838872], [77.90796361203091, 18.09888341028685], [77.90268731661119, 18.0980039236566], [77.89938796392751, 18.095160581715238], [77.8978364665259, 18.092594296367896], [77.89787304405115, 18.090403560037483], [77.91377557258082, 18.098301165889225], [77.92905783585488, 18.099422151401075], [77.93723521161266, 18.10683947339565], [77.9419826457126, 18.11256281213534], [77.95367621235114, 18.11475650071088], [77.9672602617158, 18.113064983134137], [77.9788210411495, 18.113593067402164], [78.00002347201487, 18.113142010607838], [78.00394519347014, 18.1137888442245], [78.0099498832064, 18.111532109843864], [78.01628098200496, 18.099790353594027], [78.02253441684229, 18.096858086385406], [78.04122354038364, 18.096967940437022], [78.05373820418596, 18.091112607191278], [78.06311529027512, 18.08820845687889], [78.07562802502466, 18.082362837816266], [78.07877119645147, 18.079419703268847], [78.09145950064976, 18.079683169224726], [78.09297033657364, 18.077238905201764], [78.09381594459471, 18.077096264198882], [78.09434050136885, 18.076605720692832], [78.0974282239705, 18.079586212087488], [78.10145323043737, 18.091916347045483], [78.10886731291475, 18.097826517223215], [78.11356318703169, 18.097966931901656], [78.11741897943614, 18.079325052819758], [78.12344547681388, 18.076795990801163], [78.14098176645864, 18.07653242241998], [78.14661507756536, 18.079376680415503], [78.15101426708512, 18.08345207336831], [78.15374437123158, 18.087274945184415], [78.15777194268604, 18.089287300629984], [78.15822435763309, 18.090555830874543], [78.16101212949118, 18.094040119434567], [78.1653303491177, 18.096913122200572], [78.16977388426204, 18.10151348491035], [78.17335853346293, 18.106724225656183], [78.17717081189839, 18.1146171692969], [78.17728272196663, 18.1276056528847], [78.17307288432636, 18.152535955254155], [78.17125934802635, 18.169721437602416], [78.17274630111157, 18.178904459466565], [78.1762908521029, 18.1898920455984], [78.18383850943276, 18.20432412293478], [78.19366169655353, 18.21466677788894], [78.20305165956789, 18.21929303919937], [78.21258670898725, 18.218824403292743], [78.21700683138026, 18.203335239796598], [78.22315418831344, 18.188110136507294], [78.21806211543726, 18.178698269320616], [78.22543252131747, 18.175566512509054], [78.23174956097756, 18.171720288812498], [78.24027195071095, 18.16442743954577], [78.2485332445819, 18.1599871833375], [78.26171320738774, 18.14728163825909], [78.27294436314136, 18.14426424058523], [78.28304996520167, 18.14900336212416], [78.29645647468388, 18.165243399538504], [78.30898342546458, 18.17615212728555], [78.31418522159551, 18.184188938315906], [78.31738406516965, 18.19287213154665], [78.32258646974307, 18.20056730240834], [78.32663858119993, 18.200118186385843], [78.34062434852397, 18.189075856273316], [78.3599443455351, 18.17228325835292], [78.36835912577928, 18.159833546889615], [78.36781278439949, 18.150897101008432], [78.37386319118923, 18.1478466227162], [78.38368432290312, 18.13004851620363], [78.38859663654289, 18.124628809348785], [78.39521978843624, 18.131311492818064], [78.4038010085526, 18.130017947593227], [78.41463795520963, 18.132592075065933], [78.42448732092619, 18.142361272547706], [78.42717506952256, 18.149954116122323], [78.42780183070941, 18.158086557512277], [78.44149240130763, 18.166479311962192], [78.44569207381447, 18.156025366923505], [78.44815328406443, 18.14490451293164], [78.45159549442906, 18.138091840377108], [78.45601194514475, 18.132841169448398], [78.46272298748661, 18.129629036664234], [78.47188636719163, 18.12914215449473], [78.48544062557548, 18.13129912132682], [78.49045829420821, 18.13280381641227], [78.49757341868485, 18.13949380569861], [78.48875434778051, 18.149197905704884], [78.4893829080181, 18.157504272674686], [78.4953232719943, 18.165147610342327], [78.50406932655603, 18.171572364906154], [78.51146345112251, 18.174315388661267], [78.51787555438642, 18.175668215088596], [78.52406285137306, 18.18091310405794], [78.53512829761583, 18.184228070309906], [78.54506369991995, 18.181857691866753], [78.5533140773952, 18.182271268920406], [78.5609629954437, 18.18443897553389], [78.56845827496888, 18.188218572508525], [78.56780276271718, 18.201821651397886], [78.56939960896699, 18.22129477311588], [78.5685774286946, 18.229805445096687]]]}}, {"type": "Feature", "properties": {"DISTRICT": "Rangareddy", "ST_NM": "Andhra Pradesh", "ST_CEN_CD": 28, "DT_CEN_CD": 6, "censuscode": 537, "district": "Rangareddy"}, "geometry": {"type": "Polygon", "coordinates": [[[78.72004567183527, 17.66674915979772], [78.71409490399273, 17.65164374937743], [78.71005886787508, 17.635270592592043], [78.70227858839483, 17.625906632465767], [78.69816791320589, 17.613545290991404], [78.7002481715048, 17.60384498447918], [78.69536716037166, 17.601864398657423], [78.69013304627174, 17.59666314192277], [78.6911051645746, 17.593678853350177], [78.69675249821627, 17.588959122322134], [78.69122267077408, 17.58376916579949], [78.687725950481, 17.577992632658653], [78.698945556638, 17.55982876604278], [78.70405204010648, 17.544617251124894], [78.70643976183501, 17.53406212749617], [78.71336012997955, 17.524407886374327], [78.71357012639314, 17.51889628210463], [78.71123105685382, 17.488642227539277], [78.72083464441263, 17.480806898621434], [78.72682353832637, 17.477459052972595], [78.72666962829322, 17.472015795725834], [78.71898440644775, 17.468095862561025], [78.71454086515611, 17.463244708181087], [78.71329330680301, 17.439172845128418], [78.72426280447421, 17.442906280470055], [78.73758675658283, 17.440033944572185], [78.74737387352937, 17.441718017454264], [78.7546879722845, 17.447530965341755], [78.76038172161807, 17.444120019999396], [78.7621365792111, 17.427773470320936], [78.75801613587828, 17.415759254812947], [78.7533496791947, 17.406670640238406], [78.74593521685101, 17.398043840676063], [78.74781263361155, 17.3925340331854], [78.74760683131142, 17.38566276700506], [78.74371740775406, 17.378057398087083], [78.74303646003166, 17.37026664781219], [78.74058891672703, 17.359441744813218], [78.75157485103247, 17.358707026394487], [78.77001136161446, 17.348590130003362], [78.77034307482484, 17.34067796800484], [78.76505482718419, 17.33698054836527], [78.75351126135406, 17.33118371450816], [78.7469194774194, 17.32577404341446], [78.7567957966552, 17.318675897132678], [78.76654202022831, 17.315016039904084], [78.76954749818333, 17.311274049941684], [78.76770654870626, 17.309338335316504], [78.75378794714248, 17.30218071622826], [78.74731138357015, 17.29682722208053], [78.7567843631319, 17.286981933066034], [78.76124000048135, 17.279627403865675], [78.7555525533149, 17.27196747461599], [78.76293025908237, 17.264374695655587], [78.77107478834414, 17.25854794390539], [78.80648539275661, 17.248913034416095], [78.81772228545358, 17.24427612757229], [78.82706430723638, 17.23643097503256], [78.8139606870183, 17.209048556149607], [78.7839980213054, 17.21515995279045], [78.7693051362249, 17.219238723947498], [78.77512619650061, 17.21250030170008], [78.77933124436062, 17.205892482606085], [78.78129361931272, 17.196314193421728], [78.79113612536933, 17.19334319955187], [78.79054823131774, 17.182398513975148], [78.79464901979274, 17.172867844534974], [78.78373479883986, 17.161231948458468], [78.78604907483543, 17.151588668440095], [78.79551858434401, 17.140938331801117], [78.80831139813608, 17.13348348908477], [78.81810095835155, 17.129714464962102], [78.83241578375673, 17.12705853174342], [78.83934591058441, 17.125020154503424], [78.84354954432186, 17.11788772182495], [78.8416157840956, 17.11056961244306], [78.82598405227236, 17.11385636637039], [78.82459445582722, 17.106183234370416], [78.84144896454845, 17.09446672986617], [78.85024487091607, 17.087084791346726], [78.85564247321237, 17.079202388977567], [78.84621830446206, 17.069106148929887], [78.8454150866283, 17.063156498321014], [78.84612542563589, 17.05180412302567], [78.8384791468648, 17.042671282791172], [78.82723601482475, 17.04015005531097], [78.7992592426429, 17.048371266119062], [78.79297259607691, 17.043419653779623], [78.7885309238791, 17.03856314303758], [78.80300791765536, 17.0375269637381], [78.82013241582922, 17.03227882841362], [78.8288592904767, 17.024845958394145], [78.83067684262534, 17.01784713247529], [78.81864046732406, 17.007015776031526], [78.80723300490186, 16.999500770477763], [78.79757271861291, 16.99052411828745], [78.79456100843998, 16.980346017013332], [78.78982879990012, 16.97337896064717], [78.77645939083607, 16.977275112130492], [78.759262185523, 16.977793687985322], [78.75508366555043, 16.97001362638428], [78.75484364424648, 16.96612784786763], [78.74213901555343, 16.968528372200478], [78.73014230091768, 16.96914756914717], [78.7178061200668, 16.968449952645397], [78.70696774761169, 16.962487911778656], [78.70206347827904, 16.94522911046108], [78.69852648266709, 16.93938382641413], [78.7016767215391, 16.93300346858044], [78.68710889043307, 16.93074427284717], [78.67618485721155, 16.938138327748078], [78.66250649115135, 16.945421935618977], [78.65648678287349, 16.951203600846437], [78.64994488352006, 16.95543870686764], [78.62267804095426, 16.958745872114967], [78.61490413218091, 16.95896984270005], [78.60353051937057, 16.95518173347556], [78.58516821427926, 16.951844536972846], [78.57429099630794, 16.960869489019736], [78.56828292069012, 16.967153310941576], [78.56213070530222, 16.98069998234417], [78.54894031134181, 16.984719045349834], [78.53158699441559, 16.987171882462228], [78.52248978748003, 16.992172031543486], [78.51721977076544, 16.999964480813013], [78.51798641082934, 17.004210760807553], [78.51748828061613, 17.00845349188915], [78.515801017408, 17.01120646960876], [78.5107805283697, 17.013282841900075], [78.50423833016467, 17.01319098166936], [78.49646124815506, 17.00932561767092], [78.49113148712715, 17.004988717339188], [78.48718127682376, 16.999986574111237], [78.4839632107913, 16.992038970113953], [78.47920016833352, 16.987927211296295], [78.474350299633, 16.985008434650545], [78.46617906809713, 16.98173681522901], [78.46091809685491, 16.981784553207916], [78.45869009313117, 16.990624563242054], [78.45356114444141, 16.99323755887224], [78.45315581345504, 17.000008526396876], [78.44317501177497, 17.00771202408183], [78.42612121049613, 17.018132150538626], [78.41330035450858, 17.02342893735121], [78.40181427789699, 17.028171879921754], [78.38912479099865, 17.034861225306415], [78.38077860827048, 17.044557845647915], [78.37142481577304, 17.061609280982257], [78.36594346893588, 17.069408841015168], [78.35041358474915, 17.074670491438184], [78.35064864922157, 17.082913697252483], [78.35924582303724, 17.079969790880234], [78.36719431780142, 17.08522899624031], [78.36143648018748, 17.089827292913007], [78.35403095092019, 17.09156539327374], [78.35206714946646, 17.09987339625493], [78.34521817559818, 17.10780610775664], [78.33980937425781, 17.12047723944318], [78.32898955449319, 17.132254155188928], [78.31958073937294, 17.140063195074553], [78.30992659930524, 17.146276400454145], [78.30780937696356, 17.150578779628358], [78.30980226759847, 17.162724298755347], [78.31036974994484, 17.17332971432709], [78.30736203716546, 17.183711070156512], [78.3013721493648, 17.195872604807416], [78.29879011652258, 17.212261521068793], [78.29436795538894, 17.224199057582002], [78.28246278203268, 17.228202205551106], [78.27092514883573, 17.224995461947607], [78.26564297938961, 17.215166092406182], [78.26213208096712, 17.205966445760883], [78.2534392037717, 17.20446264081152], [78.24305097413296, 17.20628361495219], [78.2267742384553, 17.206085346138373], [78.22287185113397, 17.20226687064648], [78.22032610657882, 17.193064349860922], [78.21389555125904, 17.185656744140402], [78.19820937844044, 17.179730323427474], [78.18999934031557, 17.177720776989503], [78.17342591632732, 17.17100971085799], [78.17080851046862, 17.162819623070835], [78.17187900989563, 17.155991345532406], [78.17872137749843, 17.150731434227666], [78.18719920594168, 17.148955704022953], [78.19312859440095, 17.146052081168264], [78.19138925140012, 17.140495717239205], [78.1800110494185, 17.13339681569452], [78.18530367650486, 17.113861057877397], [78.1841304302123, 17.10410900341888], [78.18280178409466, 17.099928521168987], [78.16424862439783, 17.1018684804306], [78.14326199400483, 17.10980400060221], [78.132219219273, 17.11239776515457], [78.11848196824823, 17.10936889805129], [78.10246135407897, 17.10140157717624], [78.09053687399052, 17.115729451030262], [78.0854418328626, 17.125361879508542], [78.08678061104442, 17.1346986358876], [78.09854981519241, 17.151246188299176], [78.09503183532158, 17.170890455821716], [78.08753427147184, 17.17588188284905], [78.08867861401906, 17.187063638174415], [78.08556733856018, 17.195121462069125], [78.07754686739507, 17.197414695791043], [78.06775438584714, 17.198727606682866], [78.05544256824547, 17.195896565584146], [78.04986462821789, 17.186270925263848], [78.04280402618168, 17.17716322237369], [78.02790984687564, 17.172830899674526], [78.0240431074144, 17.16733512864194], [78.01554615196943, 17.148251122056337], [78.009463811412, 17.139425660250218], [78.00022135306169, 17.1309619744439], [77.99260922329988, 17.126890362590572], [77.99197095126567, 17.122751647347055], [77.99311342668855, 17.120806449195], [77.9937364137484, 17.11650204899888], [77.99156473695791, 17.110345012242387], [77.99059911327616, 17.103097185671373], [77.9856509824904, 17.102722640083254], [77.97739366235322, 17.098019222430384], [77.97195154857556, 17.099188666049635], [77.96450260905628, 17.09741743435157], [77.95580171632835, 17.09742445201758], [77.95357787852632, 17.090287059947183], [77.94511694915712, 17.088624237453338], [77.941792668375, 17.0858504222773], [77.93589423423391, 17.08575142614676], [77.93465001288803, 17.083098217206935], [77.93807085388504, 17.080135565233096], [77.94737821958657, 17.079909348493327], [77.95057775990175, 17.07378153995118], [77.94335341212953, 17.074716686215844], [77.9392686447192, 17.07129842754377], [77.9295079789206, 17.066980938332023], [77.9229186501168, 17.062348629181223], [77.92543427543347, 17.051224506445305], [77.93286934378192, 17.045754445210274], [77.93310190509938, 17.03736872007052], [77.93655009303019, 17.028319339405474], [77.94040323186192, 17.02357408255996], [77.94620922086773, 17.019709556789238], [77.95098230490656, 17.019501840853575], [77.95094664408043, 17.01588468205707], [77.96236121649991, 17.011532840765213], [77.96873278102068, 17.012211586850803], [77.97411965262616, 17.009257472058206], [77.97919110697944, 17.00830728912465], [77.97833700822227, 17.002443998482697], [77.98329921235582, 17.000986671583675], [77.98501941212595, 16.999781958908205], [77.99707476628282, 16.989383804283072], [77.99726031423745, 16.982780205723042], [78.0000175622122, 16.97989914851973], [78.0008534604591, 16.97930898519087], [78.00303073614845, 16.97803259489731], [78.00001730480713, 16.97572693363], [77.99858687173796, 16.972951102935045], [77.9886325707012, 16.959930047057593], [77.99279003247344, 16.955723545182853], [78.00002194783613, 16.95237100338969], [78.01419163378498, 16.950093606731283], [78.01469448950726, 16.943343909641193], [78.00941101382638, 16.93480030185636], [78.01354854090434, 16.92731566273629], [78.01563457043714, 16.9203544446412], [78.01675904797399, 16.914464333048212], [78.01415053662471, 16.911684449689588], [78.014707006313, 16.905969720719124], [78.01106781290679, 16.901716643460887], [78.00001806857377, 16.898981761377264], [77.9843853829691, 16.896612868948882], [77.97662119349623, 16.89043370359958], [77.969821023108, 16.889248613437143], [77.97175977532399, 16.8803334190011], [77.96791944835317, 16.872358162127334], [77.96910702853754, 16.86918897333161], [77.97906500271483, 16.869912293212078], [77.98229011384076, 16.873293402518527], [77.98499065523515, 16.878739254424517], [77.99076755765792, 16.873609012570157], [77.9877536137838, 16.86045913239522], [77.98356012249332, 16.855130204745468], [77.97775837741106, 16.849854448316684], [77.9724496363698, 16.849755835934968], [77.96810409850369, 16.8517857038493], [77.963939094275, 16.856338079889397], [77.9559190725669, 16.86750741368814], [77.94171237482354, 16.864268961102788], [77.93764816939422, 16.861639004367834], [77.9294892178035, 16.848447549780893], [77.92405692218045, 16.847426096748176], [77.91768216768423, 16.850258075587078], [77.91435154723905, 16.85325900078555], [77.9153780359839, 16.85894275473618], [77.90983229147957, 16.86125800970277], [77.87663883431308, 16.85559569969826], [77.87281354050607, 16.853877605277678], [77.86589551217031, 16.85326002904073], [77.86620016650922, 16.855784609357187], [77.86859142227102, 16.859284076644204], [77.86693141417715, 16.861992724752763], [77.86304429795766, 16.859822893473083], [77.8585622114322, 16.854426643787328], [77.84949973511156, 16.857097429610594], [77.84461365394989, 16.85997793201111], [77.84246011215585, 16.85889194138621], [77.84155586770181, 16.85676092975674], [77.82790731772504, 16.861167048323072], [77.82147158624215, 16.86496370669312], [77.8219811390819, 16.878640432085838], [77.82128058571156, 16.884102792903303], [77.81412944741555, 16.889462144183852], [77.80959931820027, 16.889012466279045], [77.80432897471333, 16.884542367251225], [77.79541571145701, 16.87462230279998], [77.78236765778135, 16.877981414912778], [77.77324016104656, 16.878631812923032], [77.76887395415474, 16.876621353157034], [77.76296454282671, 16.87226821135556], [77.75842797107904, 16.8723931787048], [77.73796766763373, 16.880757463119973], [77.73925318504615, 16.88828798010004], [77.74086911190811, 16.892820690829538], [77.74142595244723, 16.900468195475767], [77.74456045789425, 16.912704715349882], [77.74095372740854, 16.92368247574311], [77.74030410592539, 16.937995195087844], [77.73082099512214, 16.939904778422004], [77.73077235688973, 16.942953000415585], [77.74272854807772, 16.949249577305206], [77.74916389421512, 16.955732646378028], [77.75828768635483, 16.969571801474075], [77.76220928810567, 16.97766529968013], [77.76135023201978, 16.982327754538296], [77.75774104821306, 16.987677863327903], [77.7617101756288, 16.99364268128391], [77.76302810894283, 17.000507146814098], [77.76442527059699, 17.003294132755865], [77.76304828140276, 17.01109893815419], [77.76852958788953, 17.01929449860122], [77.77837701287211, 17.01809679255198], [77.78319049189408, 17.028816513666985], [77.7882141144958, 17.042874975610566], [77.77869874882668, 17.04837716506055], [77.77504086180207, 17.05851374470989], [77.76703666545527, 17.060407513107634], [77.75833773483104, 17.05884699802496], [77.7548648704023, 17.061868716706805], [77.76174937095858, 17.074497833220676], [77.76383817813428, 17.081983720884175], [77.76151641952002, 17.089606019041472], [77.76908424021926, 17.10695466123231], [77.77967604575095, 17.111105893881614], [77.77905835220182, 17.11351271472273], [77.77676574411598, 17.11677049294649], [77.77811019774643, 17.120399217434283], [77.7748517248473, 17.126237050142514], [77.77083076693971, 17.129077292845494], [77.7880772444949, 17.153563643674325], [77.78786047245035, 17.15867458566705], [77.78887550426629, 17.166486070792267], [77.78774227536383, 17.173780108442415], [77.78270674013307, 17.177012952597973], [77.77948341028373, 17.17773533216493], [77.77643557702132, 17.186904393576903], [77.77249571556749, 17.194117092072524], [77.76747033511644, 17.196379411170774], [77.76671136856316, 17.202116445889004], [77.77203457577588, 17.20825044920883], [77.77590383442475, 17.209423692121888], [77.77803950406692, 17.21219540036144], [77.78921511986593, 17.218305322015347], [77.79089363953851, 17.22533127507076], [77.79324361699886, 17.23062575413439], [77.78013804010473, 17.23438030227991], [77.77540465570765, 17.236761948375758], [77.77704570168336, 17.232697110803443], [77.77317676757599, 17.23117600956521], [77.77320538770826, 17.227844286581664], [77.76259482545306, 17.225870191418284], [77.76166885433192, 17.221667980831786], [77.75677597599804, 17.2214627476661], [77.75523208152545, 17.227826475779015], [77.74920905368097, 17.22725811899316], [77.73885634744282, 17.230117435322917], [77.73522130156947, 17.22176070735717], [77.73519842568805, 17.209178065971475], [77.73793350973013, 17.202821677842753], [77.74155988241357, 17.18055637074016], [77.73522568957115, 17.182067368036584], [77.72868519676685, 17.18706696468309], [77.72839932325965, 17.192753838432257], [77.73053909508967, 17.202597563018962], [77.72806207121114, 17.205902642183858], [77.71921205252083, 17.208255078754668], [77.72056157281723, 17.20291874090315], [77.71554809821168, 17.20270796487715], [77.71073050013146, 17.2004885100101], [77.70407944747251, 17.20348076810441], [77.69696247493096, 17.198144561571016], [77.70047681147689, 17.19127950042073], [77.6973050379295, 17.184300413764554], [77.69829840589736, 17.180345627518697], [77.70500764303979, 17.17695423343847], [77.70425617661893, 17.173956156700157], [77.6972560848504, 17.176258266033347], [77.68496836309713, 17.175073840778527], [77.67950252250684, 17.179509205366994], [77.67137430745048, 17.18105539970554], [77.6699493697744, 17.180298192154595], [77.66616745174936, 17.18244860775316], [77.64934833827654, 17.181969270122813], [77.64457120109908, 17.173832926027345], [77.61747959255932, 17.167063120259062], [77.62083877000849, 17.15715667590165], [77.62325908861732, 17.15298087631747], [77.61782363745044, 17.153457838172283], [77.61408125422737, 17.152275707148657], [77.6126695711482, 17.149449586745696], [77.60765709082237, 17.14889646853212], [77.60349304238123, 17.14868881433015], [77.59827643208487, 17.15065600593884], [77.59649463651681, 17.150063864607244], [77.58933117479525, 17.150406139197685], [77.58537214181138, 17.139226944987865], [77.58019431526182, 17.13010767578484], [77.56937364289682, 17.133120613482014], [77.56002081060635, 17.137461513207086], [77.55212284662905, 17.14015345567424], [77.5477370530375, 17.144716153012023], [77.54523347324934, 17.15796230658688], [77.53954587822929, 17.166132452637164], [77.53003900920687, 17.16816705359107], [77.51322429637227, 17.173651743261328], [77.50650122921353, 17.171585511767997], [77.49889210325463, 17.174970841277883], [77.4885476193288, 17.176656730106778], [77.47913747639969, 17.17456377934452], [77.48061315903593, 17.14975815094942], [77.47661943600478, 17.14271241005159], [77.48036875624803, 17.13769012545048], [77.48565129092472, 17.133778749601202], [77.48160884408075, 17.119380617701534], [77.47358396003837, 17.116725468923143], [77.46909204535041, 17.11208994921471], [77.46656444758217, 17.10740594591783], [77.45626867417808, 17.11093432115699], [77.45230038170442, 17.11481011578367], [77.44248356289474, 17.117874561738923], [77.43762001480204, 17.114446546983064], [77.42734207924919, 17.117339474375935], [77.41558489516015, 17.123775181229718], [77.4075039920754, 17.126460640459683], [77.40264670159173, 17.135145461689987], [77.38003584128964, 17.141081442994572], [77.37909627732613, 17.151874660199734], [77.37053826424196, 17.154487985800014], [77.36363507312419, 17.16476466339164], [77.36856014308937, 17.168088965837445], [77.36719369927187, 17.172613824450686], [77.37202414621115, 17.179607066201005], [77.37118435844087, 17.18632017064878], [77.37439880239762, 17.19318837646096], [77.38039714317003, 17.196117486717604], [77.38540232191632, 17.196852187203465], [77.39520495709208, 17.195511714668307], [77.39715875312953, 17.210060486832273], [77.4025173225224, 17.211894880113988], [77.40272881500829, 17.21464952257636], [77.3968810782525, 17.214593867356864], [77.38826295782242, 17.216063211305766], [77.38495697435427, 17.219418895110575], [77.38401883923567, 17.222860335431573], [77.38769193835151, 17.226402294867494], [77.39593860698946, 17.23165274615274], [77.39953857084767, 17.23593239775499], [77.40253399886252, 17.234983099179903], [77.4091711811785, 17.2405019002569], [77.41867011023895, 17.23300685566752], [77.4215063329545, 17.23590619765132], [77.42375387166409, 17.24471376420234], [77.4242169903752, 17.25242129831023], [77.42633393798484, 17.256342504692885], [77.44112118898441, 17.264467929698814], [77.4462545297867, 17.27168944079572], [77.45346591029232, 17.27296611658401], [77.45830829274962, 17.278987471136645], [77.4565938298412, 17.289713278457203], [77.4507793541524, 17.291896670415017], [77.43776610080651, 17.291317372019375], [77.44151453463704, 17.299742093222154], [77.44418612300558, 17.300859896616682], [77.45174588993389, 17.316492592823188], [77.45341300490857, 17.317945336853867], [77.45514529587815, 17.330254001244658], [77.45627611805996, 17.330958035805484], [77.4588704801691, 17.340921793584556], [77.46012020536666, 17.34799403167715], [77.45673979073027, 17.351811070068234], [77.45350312389893, 17.35304828527499], [77.45361868474434, 17.366032507428585], [77.45534335083832, 17.373459030988275], [77.48313500665364, 17.3726129264799], [77.47914743674015, 17.371143417676944], [77.47620499691867, 17.366180105072313], [77.47827509946717, 17.362177486198068], [77.48643454666595, 17.357482689888656], [77.49622473741759, 17.35854286328792], [77.5029881392408, 17.357110661013614], [77.51364140948591, 17.362318687772394], [77.52472829553953, 17.365113582164938], [77.53193294790913, 17.375170306665343], [77.53409047483964, 17.38093432677566], [77.53048960394631, 17.381878789128706], [77.52522408702121, 17.389356250352158], [77.53749075013594, 17.401877057512518], [77.53941754088922, 17.407122321394898], [77.53749253366031, 17.409113864046574], [77.53061448773767, 17.408995999850553], [77.51453779433814, 17.41552426375899], [77.51399334837248, 17.43022032082928], [77.52723525446817, 17.43964789322189], [77.53736428153015, 17.443923352885456], [77.55277551695046, 17.437914641911416], [77.56173536412372, 17.438276673718192], [77.5765460368918, 17.432539464131217], [77.57593599836855, 17.441554689616705], [77.57717047341055, 17.45719449207462], [77.5944454995301, 17.451127312370307], [77.5999303802713, 17.44572216622522], [77.60853450116008, 17.446135051162212], [77.61468319003774, 17.447272270657347], [77.61550811492458, 17.45595397931844], [77.61415635195881, 17.467666273574867], [77.61500537244794, 17.472959996760437], [77.61971313687852, 17.47442850477033], [77.63065846085944, 17.474234663458756], [77.63812024051012, 17.47527076525034], [77.64454650597878, 17.47905349230519], [77.6467053247638, 17.486483835463375], [77.64834121473507, 17.49792892611918], [77.65207484025186, 17.502382755619696], [77.65688527187841, 17.506272062596], [77.65308852706649, 17.494579447246196], [77.65221833231305, 17.484227445405114], [77.66906447537359, 17.4793669766444], [77.68822046422092, 17.475953755558102], [77.68889434401112, 17.488314903536093], [77.69117469336248, 17.494649764827862], [77.69220373639175, 17.50160617541858], [77.68981999454265, 17.508710506464382], [77.68679719819293, 17.519953972725876], [77.69050663542613, 17.527328423784706], [77.70041516236329, 17.529251693184165], [77.70736621842448, 17.52809867388658], [77.74325935889746, 17.54984997351164], [77.76136993791872, 17.559298443440657], [77.75995406173958, 17.57370852261072], [77.7622851335311, 17.581308103954978], [77.76578788663612, 17.584780489566516], [77.77134592759238, 17.586424470197134], [77.77421947521596, 17.60202255403192], [77.76809819995495, 17.61260420677522], [77.76283488608343, 17.612856231918244], [77.75922585705055, 17.615178486359984], [77.74997723930565, 17.612355274982438], [77.74986250303755, 17.618097407177746], [77.74616133267722, 17.61789865263268], [77.74766644648733, 17.624751236022046], [77.75275920594403, 17.623294769597454], [77.76924990436437, 17.626456947044122], [77.77762943787049, 17.626577098569925], [77.7801246758966, 17.62837369878561], [77.78412027867051, 17.639035734588806], [77.78759528924071, 17.637622323204617], [77.79798766592049, 17.624943726210233], [77.80125859547151, 17.627374545618963], [77.81604978355425, 17.626276005337907], [77.82495502021332, 17.635876024917224], [77.827993515527, 17.64612427341609], [77.8559044551808, 17.643332318788016], [77.85905835387032, 17.628072458188424], [77.86131395523935, 17.62153689547595], [77.8667119387951, 17.62002136448702], [77.86755586495532, 17.61089120637794], [77.87370309104435, 17.603924356448598], [77.87510111527547, 17.60037197564247], [77.87339027726027, 17.596337214386356], [77.87073091859286, 17.592643701241762], [77.87154681434214, 17.586325755011554], [77.8742795188461, 17.58094935428463], [77.90156744292263, 17.579056253727376], [77.91403446296619, 17.575290393223845], [77.9229001249469, 17.574026005489856], [77.93384307659042, 17.565247125645126], [77.93580390959599, 17.55785297448691], [77.93984811882487, 17.552365865445754], [77.93837989143285, 17.538912796761938], [77.94772086673106, 17.53666907485334], [77.95436278916637, 17.53688997348688], [77.96357556962874, 17.535044184890705], [77.97492214015838, 17.518689362900574], [77.96627866403416, 17.504673539877583], [77.96790227739838, 17.494456572779516], [77.96527160925403, 17.48374813294188], [77.97573820307925, 17.483643241842387], [77.98271734807456, 17.485875521485475], [77.99173423308271, 17.507240337037253], [77.9958414727917, 17.500141161344025], [78.00001573004022, 17.49622550442869], [78.00607638886405, 17.488484230732297], [78.01258255692088, 17.481550204437664], [78.01950312731674, 17.475436680903478], [78.0277748805263, 17.471346678025057], [78.03600522243806, 17.464817365461997], [78.04482284564816, 17.460676595257002], [78.05438553612373, 17.459759638026622], [78.06048830311475, 17.471365827569596], [78.05167021562045, 17.47585565451866], [78.05494021911207, 17.4842170297486], [78.06349289338675, 17.482963200343992], [78.0648131613352, 17.489070968845763], [78.06527487120134, 17.496825167355844], [78.05847898419705, 17.502303896836015], [78.05907272594007, 17.508816747010417], [78.06661112676923, 17.508339188936255], [78.07096483135403, 17.521154779604206], [78.08187139273363, 17.52437738945594], [78.08249171638735, 17.50824292354703], [78.08534640454532, 17.497085985430047], [78.10360141314077, 17.492459708584366], [78.11062078542213, 17.48277133097989], [78.11880708991374, 17.482594846110388], [78.13440320689699, 17.48801638854534], [78.14288844142472, 17.487111944723008], [78.14771949472184, 17.481412413448748], [78.14564894973583, 17.472683694606726], [78.15796156829288, 17.464651402480726], [78.1671083599845, 17.4632228003416], [78.17988659868546, 17.470417410211592], [78.19431520186313, 17.479723930465564], [78.18855328948027, 17.490054482328528], [78.20116142191, 17.489144811067405], [78.21390811117483, 17.48640641724036], [78.21912367550104, 17.46269538620082], [78.21839259448012, 17.45064860307008], [78.2186572927028, 17.439790904445907], [78.23013004940475, 17.43978542839843], [78.23683311056283, 17.427654749758112], [78.24681314899249, 17.426261071267554], [78.25580355700825, 17.422808344185416], [78.26300045872517, 17.418953816161185], [78.27109094894564, 17.422776290891285], [78.27347527620576, 17.429358653070597], [78.27331091534775, 17.4353181198653], [78.28873241958436, 17.433280397217874], [78.29520698667814, 17.445644987663854], [78.30312262847106, 17.45561091856597], [78.30626978573346, 17.465455222555942], [78.29698612384435, 17.49150332998024], [78.3108901591171, 17.49204401860197], [78.31711866434236, 17.49753269474541], [78.32712840569282, 17.500834208586905], [78.33563848014528, 17.50464696230643], [78.34398440990107, 17.51449292415708], [78.35454918351572, 17.523523130017836], [78.35468377148715, 17.52913213637905], [78.3532708244615, 17.534813141979367], [78.34896128823266, 17.54371318435056], [78.35831579411014, 17.5549212976764], [78.3622333194202, 17.5580585808045], [78.36456198556557, 17.566252473458402], [78.36473946289044, 17.57387978235956], [78.37208212307017, 17.582509612924042], [78.37238242384582, 17.590880466773893], [78.37574611881962, 17.603654660146915], [78.37020404061538, 17.610142820159204], [78.36105807679546, 17.617960130646875], [78.36041709398404, 17.623350749228138], [78.37579952112198, 17.628413280848278], [78.38204450418294, 17.632874643525724], [78.38424570390235, 17.641349575408128], [78.38723844511689, 17.665182528002102], [78.39567283041794, 17.672958769696383], [78.40218893457933, 17.672706817632438], [78.42027110640552, 17.669620264148282], [78.42832508111921, 17.687887206363435], [78.43026410959008, 17.700947136143775], [78.43996187417979, 17.699486024323157], [78.45081895711985, 17.71234935830649], [78.4564727328857, 17.706776643250958], [78.46482644901597, 17.701415193453148], [78.47258282998003, 17.69514245308003], [78.48319424402919, 17.690758620634153], [78.49600118220843, 17.68870977761565], [78.50177464227487, 17.683936122636332], [78.51342842126105, 17.685843181927748], [78.51908496281058, 17.697111628482673], [78.5266687926629, 17.699608769393638], [78.53529776034807, 17.696770175853725], [78.55083639734545, 17.688871262330746], [78.5596342253632, 17.686887261196436], [78.57176953807571, 17.68718891043216], [78.57634498393956, 17.69221710261597], [78.58227189434278, 17.700565514624856], [78.59889241167033, 17.70078667509151], [78.60842971829513, 17.686876361358095], [78.61373172953986, 17.680612064894255], [78.61564729638646, 17.66902758095118], [78.62534489171007, 17.667609335630488], [78.63383676230936, 17.667521311004734], [78.64337932848974, 17.67080917674009], [78.65248939667559, 17.67701715740383], [78.65693840039663, 17.68301036846469], [78.66392485409989, 17.69582430875722], [78.67504927661103, 17.69526076687079], [78.68294918521792, 17.69281931203581], [78.68609918617592, 17.68564208943068], [78.70344490458895, 17.684309700821654], [78.72004567183527, 17.66674915979772]], [[78.51163879806425, 17.45433827376026], [78.49886580142822, 17.47060502657531], [78.49124651822831, 17.475900312340666], [78.47878647350016, 17.473074717250054], [78.46350639717974, 17.44596003340725], [78.45372777679226, 17.435667583548213], [78.4487781850485, 17.4276051119489], [78.44973564057516, 17.401296037346928], [78.4445145107071, 17.40537273736066], [78.43572004133033, 17.41612326415728], [78.42721305374003, 17.428694230646958], [78.42096330234125, 17.433697930515887], [78.411480767176, 17.433265953173287], [78.40020064763155, 17.423903855911828], [78.39252657729115, 17.41222954172132], [78.3897663062473, 17.39910965707549], [78.3912097123282, 17.38862060818676], [78.40123944052516, 17.356610192970514], [78.4112623010661, 17.348732924867576], [78.42249709204471, 17.346178348758226], [78.44053159812198, 17.344638424104534], [78.45019015613619, 17.34581430033657], [78.44752143226779, 17.33453152560837], [78.45039975386062, 17.32397825666948], [78.456245384576, 17.31667447477562], [78.46776110435928, 17.307301342727825], [78.47178066183095, 17.303733930639925], [78.47627426938242, 17.301425573826357], [78.48240750379246, 17.303532989903076], [78.50043054400886, 17.3198610933922], [78.51533819456544, 17.329676154205888], [78.51430748104441, 17.340851452121886], [78.51544329810619, 17.35007357337124], [78.52593233624158, 17.360871053314433], [78.52938904134713, 17.370716415668312], [78.52174050080542, 17.39000503475038], [78.52215779173423, 17.39894597512886], [78.52714066622974, 17.421109668662375], [78.5366890392952, 17.439874196846137], [78.54041600273992, 17.4549935366418], [78.54018041193112, 17.462672115420197], [78.53331189291437, 17.463608691046037], [78.52469203608214, 17.45778964946587], [78.51588883555627, 17.45266199588754], [78.51163879806425, 17.45433827376026]]]}}]}