{"type": "FeatureCollection", "crs": {"type": "name", "properties": {"name": "urn:ogc:def:crs:OGC:1.3:CRS84"}}, "features": [{"type": "Feature", "properties": {"osm_id": 316636515, "osm_type": "node", "amenity": "library", "name": "University Library"}, "geometry": {"type": "Point", "coordinates": [78.525515, 17.41717]}}, {"type": "Feature", "properties": {"osm_id": 349002531, "osm_type": "node", "amenity": "library", "internet_access": "yes", "internet_access:fee": "customers", "name": "IIIT-H Library", "opening_hours": "Mo-Sa 09:00-23:50; Su 09:00-17:00; PH 09:00-17:00", "website": "https://library.iiit.ac.in/"}, "geometry": {"type": "Point", "coordinates": [78.349309, 17.445824]}}, {"type": "Feature", "properties": {"osm_id": 626897420, "osm_type": "node", "amenity": "library", "historic": "archaeological_site", "name": "State Library", "operator": "Telangana", "operator:type": "public", "wikidata": "Q3764208", "wikimedia_commons": "Category:State Central Library, Hyderabad", "wikipedia": "en:State Central Library, Hyderabad"}, "geometry": {"type": "Point", "coordinates": [78.47822, 17.374157]}}, {"type": "Feature", "properties": {"osm_id": 1502798798, "osm_type": "node", "amenity": "library", "name": "French Library"}, "geometry": {"type": "Point", "coordinates": [78.507645, 17.445887]}}, {"type": "Feature", "properties": {"osm_id": 1623389085, "osm_type": "node", "addr:housenumber": "Survey Number 91", "addr:postcode": "Hyderabad – 500032", "addr:street": "Swecha Road", "amenity": "library", "check_date:opening_hours": "2022-05-20", "internet_access:fee": "yes", "name": "Sundarayya Vignana Kendram", "name:etymology:wikidata": "Q1846150", "name:te": "సుందరయ్య విజ్ఞాన కేంద్రం", "opening_hours": "Mo-Sa 10:00-17:00", "short_name": "SVK", "website": "https://sundarayya.org/", "wheelchair": "no", "wikipedia": "en:Sundarayya Vignana Kendram"}, "geometry": {"type": "Point", "coordinates": [78.360309, 17.435766]}}, {"type": "Feature", "properties": {"osm_id": 2371734542, "osm_type": "node", "addr:housenumber": "JNTUHCEH", "addr:street": "WAY TO CRC", "amenity": "library", "check_date": "2024-03-16", "name": "jntu library"}, "geometry": {"type": "Point", "coordinates": [78.39107, 17.495592]}}, {"type": "Feature", "properties": {"osm_id": 2708670667, "osm_type": "node", "amenity": "library", "check_date": "2024-03-16", "name": "CRC", "opening_hours": "Mo-Sa 09:30-17:00"}, "geometry": {"type": "Point", "coordinates": [78.391225, 17.493138]}}, {"type": "Feature", "properties": {"osm_id": 2715277398, "osm_type": "node", "amenity": "library"}, "geometry": {"type": "Point", "coordinates": [78.489764, 17.406411]}}, {"type": "Feature", "properties": {"osm_id": 3997369742, "osm_type": "node", "amenity": "library", "name": "SBIRD Library"}, "geometry": {"type": "Point", "coordinates": [78.333696, 17.466667]}}, {"type": "Feature", "properties": {"osm_id": 5545513976, "osm_type": "node", "amenity": "library", "internet_access": "wlan", "name": "Library", "opening_hours": "Mo-Sa 09:00-17:00"}, "geometry": {"type": "Point", "coordinates": [78.451741, 17.558364]}}, {"type": "Feature", "properties": {"osm_id": 5694668840, "osm_type": "node", "amenity": "library", "name": "Marri BalReddy library"}, "geometry": {"type": "Point", "coordinates": [78.441479, 17.594196]}}, {"type": "Feature", "properties": {"osm_id": 5905914145, "osm_type": "node", "amenity": "library", "name": "Wipro Library"}, "geometry": {"type": "Point", "coordinates": [78.341949, 17.426638]}}, {"type": "Feature", "properties": {"osm_id": 6684817723, "osm_type": "node", "addr:city": "Hyderabad", "addr:housenumber": "Sundari Reddy bhavan", "addr:postcode": "500038", "addr:street": "Vengal Rao Nagar Main Road, SR Nagar", "amenity": "library", "internet_access": "yes", "internet_access:fee": "yes", "internet_access:ssid": "STUDYGURU", "name": "Study Guru Reading Room", "opening_hours": "Mo-Su 05:00-23:00", "operator": "Komal Bhai", "wheelchair": "no"}, "geometry": {"type": "Point", "coordinates": [78.43934, 17.442498]}}, {"type": "Feature", "properties": {"osm_id": 6779684428, "osm_type": "node", "amenity": "library", "name": "MVSR LIBRARY"}, "geometry": {"type": "Point", "coordinates": [78.53898, 17.282011]}}, {"type": "Feature", "properties": {"osm_id": 6873375852, "osm_type": "node", "amenity": "library"}, "geometry": {"type": "Point", "coordinates": [78.457208, 17.433458]}}, {"type": "Feature", "properties": {"osm_id": 7039571990, "osm_type": "node", "amenity": "library", "name": "Mecca Masjid Library"}, "geometry": {"type": "Point", "coordinates": [78.47378, 17.360097]}}, {"type": "Feature", "properties": {"osm_id": 7244233144, "osm_type": "node", "addr:city": "patancheru", "addr:postcode": "502319", "addr:street": "MG Road", "amenity": "library"}, "geometry": {"type": "Point", "coordinates": [78.264844, 17.531745]}}, {"type": "Feature", "properties": {"osm_id": 7246812306, "osm_type": "node", "amenity": "library", "name": "Delta Reading Room and Library"}, "geometry": {"type": "Point", "coordinates": [78.442095, 17.394426]}}, {"type": "Feature", "properties": {"osm_id": 7314630405, "osm_type": "node", "amenity": "library"}, "geometry": {"type": "Point", "coordinates": [78.550521, 17.416378]}}, {"type": "Feature", "properties": {"osm_id": 8058819826, "osm_type": "node", "amenity": "library", "name:en": "Ujaale Shah Sahib Library"}, "geometry": {"type": "Point", "coordinates": [78.505163, 17.364758]}}, {"type": "Feature", "properties": {"osm_id": 8386569654, "osm_type": "node", "amenity": "library", "name": "Free Book Library"}, "geometry": {"type": "Point", "coordinates": [78.396097, 17.515884]}}, {"type": "Feature", "properties": {"osm_id": 10062747112, "osm_type": "node", "amenity": "library"}, "geometry": {"type": "Point", "coordinates": [78.310131, 17.473643]}}, {"type": "Feature", "properties": {"osm_id": 11736395786, "osm_type": "node", "addr:housenumber": "JNTUHCEH", "addr:street": "WAY TO CRC", "amenity": "library", "check_date": "2026-04-08", "internet_access": "wlan", "internet_access:fee": "no", "name": "Library", "payment:cards": "no", "payment:cash": "yes", "payment:credit_cards": "yes", "payment:debit_cards": "yes", "wheelchair": "yes"}, "geometry": {"type": "Point", "coordinates": [78.392278, 17.495454]}}, {"type": "Feature", "properties": {"osm_id": 11736398309, "osm_type": "node", "amenity": "library", "check_date": "2026-04-08", "internet_access": "wlan", "internet_access:fee": "customers", "name": "Library", "payment:cards": "no", "payment:cash": "yes", "payment:credit_cards": "no", "payment:debit_cards": "no", "wheelchair": "yes"}, "geometry": {"type": "Point", "coordinates": [78.391895, 17.495134]}}, {"type": "Feature", "properties": {"osm_id": 11736410873, "osm_type": "node", "amenity": "library", "check_date": "2024-03-16"}, "geometry": {"type": "Point", "coordinates": [78.39148, 17.49554]}}, {"type": "Feature", "properties": {"osm_id": 13715467226, "osm_type": "node", "amenity": "library", "check_date": "2026-04-08", "name": "JNTUH UL"}, "geometry": {"type": "Point", "coordinates": [78.391512, 17.495545]}}, {"type": "Feature", "properties": {"osm_id": 129389883, "osm_type": "way", "addr:housename": "university library jntu", "addr:housenumber": "JNTUHCEH", "addr:street": "WAY TO CRC", "amenity": "library", "building": "yes", "check_date": "2024-03-16", "name": "JNTU Library", "opening_hours": "Mo-Su 09:30-23:00", "operator": "T.R.DOSS Bhavan", "operator:type": "public", "wheelchair": "limited"}, "geometry": {"type": "Point", "coordinates": [78.391462, 17.495552]}}, {"type": "Feature", "properties": {"osm_id": 245756560, "osm_type": "way", "amenity": "library", "building": "yes", "internet_access": "wlan", "name": "Library", "name:en": "Admin Block", "opening_hours": "Su-Fr 09:00-17:30", "website": "http://nird.org.in"}, "geometry": {"type": "Point", "coordinates": [78.401802, 17.313296]}}, {"type": "Feature", "properties": {"osm_id": 251901960, "osm_type": "way", "addr:city": "Hyderabad", "addr:housename": "Ramesh Mohan Library, EFLU", "addr:postcode": "500007", "addr:street": "Sitaphalmandi Main Road", "amenity": "library", "building": "yes", "ele": "2", "name": "Ramesh Mohan Library"}, "geometry": {"type": "Point", "coordinates": [78.52594, 17.423615]}}, {"type": "Feature", "properties": {"osm_id": 265616074, "osm_type": "way", "amenity": "library", "building": "yes", "name": "City Central Library", "name:te": "నగర కేంద్ర గ్రంథాలయం", "wikidata": "Q28450960", "wikimedia_commons": "Category:City Central Library", "wikipedia": "en:City Central Library"}, "geometry": {"type": "Point", "coordinates": [78.491811, 17.403984]}}, {"type": "Feature", "properties": {"osm_id": 331354865, "osm_type": "way", "addr:city": "HYDERABAD", "addr:street": "DD COLONY ,AMBERPET", "amenity": "library", "building": "yes", "name": "INDRAPRASTA COLONY LIBRARY"}, "geometry": {"type": "Point", "coordinates": [78.521171, 17.399777]}}, {"type": "Feature", "properties": {"osm_id": 332097885, "osm_type": "way", "amenity": "library", "building": "yes", "name": "Shaikpet Library"}, "geometry": {"type": "Point", "coordinates": [78.398914, 17.403601]}}, {"type": "Feature", "properties": {"osm_id": 343600691, "osm_type": "way", "addr:city": "hyderabad", "addr:district": "Medchal", "addr:postcode": "500072", "addr:street": "Road Number 3", "amenity": "library", "building": "yes", "check_date": "2024-03-16", "internet_access": "yes", "internet_access:fee": "customers", "name": "Reading room", "opening_hours": "Mo-Su 08:00-22:00"}, "geometry": {"type": "Point", "coordinates": [78.394126, 17.489545]}}, {"type": "Feature", "properties": {"osm_id": 346464897, "osm_type": "way", "addr:housename": "Student library", "addr:housenumber": "college library", "amenity": "library", "building": "yes", "building:levels": "3", "building:material": "cement_block", "check_date": "2024-03-16", "internet_access": "no", "name": "Student Library", "opening_hours": "Mo-Sa 09:30-21:00", "payment:cash": "no", "payment:credit_cards": "yes", "payment:debit_cards": "yes", "roof:levels": "1", "roof:shape": "flat", "wheelchair": "yes"}, "geometry": {"type": "Point", "coordinates": [78.391638, 17.492979]}}, {"type": "Feature", "properties": {"osm_id": 356236606, "osm_type": "way", "amenity": "library", "building": "yes", "name": "Loyola Library"}, "geometry": {"type": "Point", "coordinates": [78.486046, 17.50628]}}, {"type": "Feature", "properties": {"osm_id": 357710794, "osm_type": "way", "amenity": "library", "building": "yes"}, "geometry": {"type": "Point", "coordinates": [78.500032, 17.372438]}}, {"type": "Feature", "properties": {"osm_id": 413843333, "osm_type": "way", "amenity": "library", "building": "yes", "name": "Vivekananda Library", "name:etymology:wikidata": "Q47478", "name:te": "వివేకానంద గ్రంథాలయము"}, "geometry": {"type": "Point", "coordinates": [78.482256, 17.411043]}}, {"type": "Feature", "properties": {"osm_id": 625370000, "osm_type": "way", "amenity": "library", "name": "Library BPHC", "opening_hours": "Mo-Sa 08:00-22:00"}, "geometry": {"type": "Point", "coordinates": [78.571555, 17.545759]}}, {"type": "Feature", "properties": {"osm_id": 710563313, "osm_type": "way", "amenity": "library", "building": "yes", "level": "0;1;2", "name": "NALSAR Library", "opening_hours": "Mo-Fr 09:00-24:00; Sa 10:00-20:00; Su 10:00-17:00", "religion": "Work", "wheelchair": "yes"}, "geometry": {"type": "Point", "coordinates": [78.546088, 17.604525]}}, {"type": "Feature", "properties": {"osm_id": 740792958, "osm_type": "way", "amenity": "library", "building": "yes"}, "geometry": {"type": "Point", "coordinates": [78.485832, 17.505398]}}]}