{"type": "FeatureCollection", "crs": {"type": "name", "properties": {"name": "urn:ogc:def:crs:OGC:1.3:CRS84"}}, "features": [{"type": "Feature", "properties": {"osm_id": 1118754593, "osm_type": "node", "construction": "station", "disused": "yes", "name": "Jungametta (u/c)", "name:te": "జంగంమేట", "network": "Hyderabad Metro", "note": "Contributors are requested to not edit the \"network\" and the \"operator\" tags. (2023/11/08)", "operator": "Hyderabad Metro Rail Limited", "railway": "station", "station": "subway", "subway": "yes"}, "geometry": {"type": "Point", "coordinates": [78.468389, 17.335318]}}, {"type": "Feature", "properties": {"osm_id": 1118754600, "osm_type": "node", "construction": "station", "disused": "yes", "name": "Charminar (u/c)", "name:te": "చార్మినార్", "network": "Hyderabad Metro", "note": "Contributors are requested to not edit the \"network\" and the \"operator\" tags. (2023/11/08)", "operator": "Hyderabad Metro Rail Limited", "railway": "station", "station": "subway", "subway": "yes"}, "geometry": {"type": "Point", "coordinates": [78.479991, 17.361925]}}, {"type": "Feature", "properties": {"osm_id": 1118754617, "osm_type": "node", "construction": "station", "disused:railway": "station", "name": "Shamserganj (u/c)", "name:te": "షంషేర్గంజ్", "network": "Hyderabad Metro", "note": "Contributors are requested to not edit the \"network\" and the \"operator\" tags. (2023/11/08)", "operator": "Hyderabad Metro Rail Limited", "public_transport": "station", "railway": "station", "station": "subway", "subway": "yes"}, "geometry": {"type": "Point", "coordinates": [78.468387, 17.34081]}}, {"type": "Feature", "properties": {"osm_id": 1118754623, "osm_type": "node", "addr:city": "Hyderabad", "addr:district": "Hyderabad", "addr:postcode": "500065", "addr:street": "Shah Ali Banda", "construction": "station", "disused:railway": "station", "name": "Shah Ali Banda (u/c)", "name:te": "షా అలీ బండా", "name:ur": "شاہ علی بندہ", "network": "Hyderabad Metro", "note": "Contributors are requested to not edit the \"network\" and the \"operator\" tags. (2023/11/08)", "operator": "Hyderabad Metro Rail Limited", "public_transport": "station", "railway": "station", "station": "subway", "subway": "yes"}, "geometry": {"type": "Point", "coordinates": [78.47235, 17.350774]}}, {"type": "Feature", "properties": {"osm_id": 1118754666, "osm_type": "node", "construction": "station", "disused": "yes", "name": "Falaknuma Terminal (u/c)", "name:te": "ఫలక్నుమా టెర్మినల్", "network": "Hyderabad Metro", "note": "Contributors are requested to not edit the \"network\" and the \"operator\" tags. (2023/11/08)", "operator": "Hyderabad Metro Rail Limited", "railway": "station", "station": "subway", "subway": "yes"}, "geometry": {"type": "Point", "coordinates": [78.469998, 17.331714]}}, {"type": "Feature", "properties": {"osm_id": 1118754671, "osm_type": "node", "construction": "station", "disused": "yes", "name": "Salar Jung Museum (u/c)", "name:te": "సాలార్ జంగ్ మ్యూజియం", "network": "Hyderabad Metro", "note": "Contributors are requested to not edit the \"network\" and the \"operator\" tags. (2023/11/08)", "operator": "Hyderabad Metro Rail Limited", "railway": "station", "station": "subway", "subway": "yes"}, "geometry": {"type": "Point", "coordinates": [78.482261, 17.371782]}}, {"type": "Feature", "properties": {"osm_id": 2422172970, "osm_type": "node", "name": "Begumpet", "name:fa": "بیگم پیت", "name:ml": "ബേഗംപേട്ട്", "name:te": "బేగంపేట్", "name:ur": "بیگم پیٹ", "network": "Hyderabad Metro", "note": "Contributors are requested to not edit the \"network\" and the \"operator\" tags. (2023/11/08)", "operator": "Hyderabad Metro Rail Limited", "public_transport": "station", "railway": "station", "station": "subway", "subway": "yes"}, "geometry": {"type": "Point", "coordinates": [78.456934, 17.437566]}}, {"type": "Feature", "properties": {"osm_id": 6444553238, "osm_type": "node", "name": "S. R. Nagar", "name:fa": "اس آر نگر", "name:ml": "എസ് ആർ നഗർ", "name:te": "ఎస్.ఆర్. నగర్", "network": "Hyderabad Metro", "note": "Contributors are requested to not edit the \"network\" and the \"operator\" tags. (2023/11/08)", "operator": "Hyderabad Metro Rail Limited", "public_transport": "station", "public_transport:version": "2", "railway": "station", "station": "subway", "subway": "yes", "wikidata": "Q83175963"}, "geometry": {"type": "Point", "coordinates": [78.441608, 17.441707]}}, {"type": "Feature", "properties": {"osm_id": 6444553239, "osm_type": "node", "name": "HITEC City", "name:fa": "شهر هایتک", "name:ml": "ഹൈടെക് സിറ്റി", "name:te": "హైటెక్ సిటి", "network": "Hyderabad Metro", "note": "Contributors are requested to not edit the \"network\" and the \"operator\" tags. (2023/11/08)", "operator": "Hyderabad Metro Rail Limited", "public_transport": "station", "railway": "station", "station": "subway", "subway": "yes", "wikidata": "Q56701859"}, "geometry": {"type": "Point", "coordinates": [78.383138, 17.449005]}}, {"type": "Feature", "properties": {"osm_id": 6447168562, "osm_type": "node", "layer": "1", "name": "Nagole", "name:fa": "ناگول", "name:ml": "നാഗോൽ", "name:te": "నాగోల్", "network": "Hyderabad Metro", "note": "Contributors are requested to not edit the \"network\" and the \"operator\" tags. (2023/11/08)", "operator": "Hyderabad Metro Rail Limited", "public_transport": "station", "railway": "station", "station": "subway", "subway": "yes", "wheelchair": "yes", "wikidata": "Q83377016"}, "geometry": {"type": "Point", "coordinates": [78.558822, 17.390768]}}, {"type": "Feature", "properties": {"osm_id": 6447191882, "osm_type": "node", "name": "Ameerpet (Red Line)", "name:fa": "امیرپیت (خط قرمز)", "name:ml": "അമീർപേട്ട്", "name:te": "అమీర్‌పేట్", "network": "Hyderabad Metro", "note": "Contributors are requested to not edit the \"network\" and the \"operator\" tags. (2023/11/08)", "operator": "Hyderabad Metro Rail Limited", "public_transport": "station", "public_transport:version": "2", "railway": "station", "station": "subway", "subway": "yes", "wikidata": "Q56701862", "wikipedia": "en:Ameerpet metro station"}, "geometry": {"type": "Point", "coordinates": [78.444793, 17.435721]}}, {"type": "Feature", "properties": {"osm_id": 6451675812, "osm_type": "node", "internet_access": "no", "name": "Durgam Cheruvu", "name:fa": "درگام چروو", "name:ml": "ദുർഗ്ഗം ചെരുവ്", "name:te": "దుర్గం చెరువు", "network": "Hyderabad Metro", "note": "Contributors are requested to not edit the \"network\" and the \"operator\" tags. (2023/11/08)", "operator": "Hyderabad Metro Rail Limited", "public_transport": "station", "railway": "station", "station": "Metro", "subway": "yes", "website": "https://hmrl.co.in", "wheelchair": "yes", "wikidata": "Q83554384"}, "geometry": {"type": "Point", "coordinates": [78.387572, 17.442947]}}, {"type": "Feature", "properties": {"osm_id": 6672440858, "osm_type": "node", "name": "Yusufguda", "name:fa": "یوسف گودا", "name:ml": "യൂസുഫ്ഗുഡ", "name:te": "యూసుఫ్‌గూడ", "name:ur": "یوسف گوڑہ", "network": "Hyderabad Metro", "note": "Contributors are requested to not edit the \"network\" and the \"operator\" tags. (2023/11/08)", "operator": "Hyderabad Metro Rail Limited", "public_transport": "station", "railway": "station", "station": "subway", "subway": "yes", "wikidata": "Q85518572"}, "geometry": {"type": "Point", "coordinates": [78.427322, 17.435113]}}, {"type": "Feature", "properties": {"osm_id": 6700511122, "osm_type": "node", "name": "Ameerpet (Blue Line)", "name:fa": "امیرپیت (خط آبی)", "name:ml": "അമീർപേട്ട്", "name:te": "అమీర్‌పేట్", "network": "Hyderabad Metro", "note": "Contributors are requested to not edit the \"network\" and the \"operator\" tags. (2023/11/08)", "operator": "Hyderabad Metro Rail Limited", "public_transport": "station", "public_transport:version": "2", "railway": "station", "station": "subway", "subway": "yes", "wikidata": "Q56701862", "wikipedia": "en:Ameerpet metro station"}, "geometry": {"type": "Point", "coordinates": [78.444783, 17.435286]}}, {"type": "Feature", "properties": {"osm_id": 6777782858, "osm_type": "node", "layer": "1", "lit": "yes", "name": "Jubilee Hills Checkpost", "name:fa": "ایست بازرسی جوبیلی هیلز", "name:ml": "ജൂബിലി ഹിൽസ് ചെക്ക്പോസ്റ്റ്", "name:te": "జూబ్లీ హిల్స్ చెక్‌పోస్ట్", "network": "Hyderabad Metro", "note": "Contributors are requested to not edit the \"network\" and the \"operator\" tags. (2023/11/08)", "operator": "Hyderabad Metro Rail Limited", "platforms": "2", "public_transport": "station", "public_transport:version": "2", "railway": "station", "shelter": "yes", "station": "subway", "subway": "yes", "wheelchair": "yes", "wikidata": "Q64038090"}, "geometry": {"type": "Point", "coordinates": [78.413714, 17.428197]}}, {"type": "Feature", "properties": {"osm_id": 7040366286, "osm_type": "node", "internet_access": "no", "name": "Kukatpally", "name:fa": "کوکتپالی", "name:ml": "കുക്കട്ട്പള്ളി", "name:te": "కూక్కట్‌పల్లి", "network": "Hyderabad Metro", "note": "Contributors are requested to not edit the \"network\" and the \"operator\" tags. (2023/11/08)", "operator": "Hyderabad Metro Rail Limited", "public_transport": "station", "railway": "station", "station": "subway", "subway": "yes", "website": "https://hmrl.co.in", "wheelchair": "yes", "wikidata": "Q83283577"}, "geometry": {"type": "Point", "coordinates": [78.411638, 17.485088]}}, {"type": "Feature", "properties": {"osm_id": 7052069749, "osm_type": "node", "name": "Uppal", "name:fa": "اپل", "name:ml": "ഉപ്പൽ", "name:te": "ఉప్పల్", "network": "Hyderabad Metro", "note": "Contributors are requested to not edit the \"network\" and the \"operator\" tags. (2023/11/08)", "operator": "Hyderabad Metro Rail Limited", "public_transport": "station", "railway": "station", "ref": "OPL", "station": "subway", "subway": "yes", "wheelchair": "yes", "wikidata": "Q83407689", "wikipedia": "en:Uppal metro station"}, "geometry": {"type": "Point", "coordinates": [78.560159, 17.399938]}}, {"type": "Feature", "properties": {"osm_id": 7052069752, "osm_type": "node", "name": "Stadium", "name:fa": "ورزشگاه", "name:ml": "സ്റ്റേഡിയം", "name:te": "స్టేడియం", "network": "Hyderabad Metro", "note": "Contributors are requested to not edit the \"network\" and the \"operator\" tags. (2023/11/08)", "operator": "Hyderabad Metro Rail Limited", "public_transport": "station", "railway": "station", "station": "subway", "subway": "yes", "wheelchair": "yes"}, "geometry": {"type": "Point", "coordinates": [78.554253, 17.4074]}}, {"type": "Feature", "properties": {"osm_id": 7052069753, "osm_type": "node", "name": "NGRI", "name:fa": "ان‌جی‌آر‌آی", "name:te": "ఎన్.జి.ఆర్.ఐ", "network": "Hyderabad Metro", "note": "Contributors are requested to not edit the \"network\" and the \"operator\" tags. (2023/11/08)", "operator": "Hyderabad Metro Rail Limited", "public_transport": "station", "railway": "station", "station": "subway", "subway": "yes", "wikidata": "Q83491622"}, "geometry": {"type": "Point", "coordinates": [78.546335, 17.414826]}}, {"type": "Feature", "properties": {"osm_id": 7052069754, "osm_type": "node", "name": "Habsiguda", "name:fa": "هابسیگودا", "name:ml": "ഹബ്സിഗുഡ", "name:te": "హబ్సీగూడ", "name:ur": "حبشی گوڑہ", "network": "Hyderabad Metro", "note": "Contributors are requested to not edit the \"network\" and the \"operator\" tags. (2023/11/08)", "operator": "Hyderabad Metro Rail Limited", "public_transport": "station", "railway": "station", "station": "subway", "subway": "yes", "wikidata": "Q58814861"}, "geometry": {"type": "Point", "coordinates": [78.540548, 17.42018]}}, {"type": "Feature", "properties": {"osm_id": 7052069755, "osm_type": "node", "name": "Tarnaka", "name:fa": "تارناکا", "name:ml": "തർണാക", "name:te": "తార్నాక", "name:ur": "تارناکا", "network": "Hyderabad Metro", "note": "Contributors are requested to not edit the \"network\" and the \"operator\" tags. (2023/11/08)", "operator": "Hyderabad Metro Rail Limited", "public_transport": "station", "railway": "station", "station": "subway", "subway": "yes", "wikidata": "Q56701857"}, "geometry": {"type": "Point", "coordinates": [78.528441, 17.428296]}}, {"type": "Feature", "properties": {"osm_id": 7052069756, "osm_type": "node", "name": "Mettuguda", "name:fa": "متوگودا", "name:ml": "മേട്ടുഗുഡ", "name:te": "మెట్టుగూడ", "name:ur": "میٹو گوڑہ", "network": "Hyderabad Metro", "note": "Contributors are requested to not edit the \"network\" and the \"operator\" tags. (2023/11/08)", "operator": "Hyderabad Metro Rail Limited", "public_transport": "station", "railway": "station", "station": "subway", "subway": "yes", "wheelchair": "yes"}, "geometry": {"type": "Point", "coordinates": [78.519575, 17.435521]}}, {"type": "Feature", "properties": {"osm_id": 7052069757, "osm_type": "node", "name": "Secunderabad East", "name:fa": "سکندرآباد شرقی", "name:ml": "സെക്കന്ദ്രാബാദ് ഈസ്റ്റ്", "name:te": "సికింద్రాబాద్ ఈస్ట్", "name:ur": "سکندر آباد ایسٹ", "network": "Hyderabad Metro", "note": "Contributors are requested to not edit the \"network\" and the \"operator\" tags. (2023/11/08)", "operator": "Hyderabad Metro Rail Limited", "public_transport": "station", "railway": "station", "station": "subway", "subway": "yes", "wikidata": "Q58814860"}, "geometry": {"type": "Point", "coordinates": [78.505462, 17.435718]}}, {"type": "Feature", "properties": {"osm_id": 7052069758, "osm_type": "node", "name": "Parade Grounds (Blue Line)", "name:fa": "میدان رژه (خط آبی)", "name:ml": "പരേഡ് ഗ്രൗണ്ട്സ്", "name:te": "పెరేడ్ గ్రౌండ్స్", "network": "Hyderabad Metro", "note": "Contributors are requested to not edit the \"network\" and the \"operator\" tags. (2023/11/08)", "operator": "Hyderabad Metro Rail Limited", "public_transport": "station", "railway": "station", "station": "subway", "subway": "yes"}, "geometry": {"type": "Point", "coordinates": [78.497469, 17.443194]}}, {"type": "Feature", "properties": {"osm_id": 7052069759, "osm_type": "node", "name": "Paradise", "name:fa": "پارادایس", "name:ml": "പാരഡൈസ്", "name:te": "ప్యారడైజ్", "network": "Hyderabad Metro", "note": "Contributors are requested to not edit the \"network\" and the \"operator\" tags. (2023/11/08)", "operator": "Hyderabad Metro Rail Limited", "public_transport": "station", "railway": "station", "station": "subway", "subway": "yes"}, "geometry": {"type": "Point", "coordinates": [78.486244, 17.443467]}}, {"type": "Feature", "properties": {"osm_id": 7052069760, "osm_type": "node", "name": "Rasoolpura", "name:fa": "رسول پوره", "name:ml": "റസൂൽപുര", "name:te": "రసూల్‌పుర", "network": "Hyderabad Metro", "note": "Contributors are requested to not edit the \"network\" and the \"operator\" tags. (2023/11/08)", "operator": "Hyderabad Metro Rail Limited", "railway": "station", "station": "subway", "subway": "yes", "wikidata": "Q84358120"}, "geometry": {"type": "Point", "coordinates": [78.476405, 17.443612]}}, {"type": "Feature", "properties": {"osm_id": 7052069766, "osm_type": "node", "name": "Prakash Nagar", "name:fa": "پرکاش نگر", "name:ml": "പ്രകാശ് നഗർ", "name:te": "ప్రకాశ్‌నగర్", "name:ur": "پرکاش نگر", "network": "Hyderabad Metro", "note": "Contributors are requested to not edit the \"network\" and the \"operator\" tags. (2023/11/08)", "operator": "Hyderabad Metro Rail Limited", "public_transport": "station", "railway": "station", "station": "subway", "subway": "yes", "wikidata": "Q84499965"}, "geometry": {"type": "Point", "coordinates": [78.465875, 17.444889]}}, {"type": "Feature", "properties": {"osm_id": 7052069770, "osm_type": "node", "alt_name": "Taruni Madhura Nagar", "name": "Madhura Nagar", "name:fa": "مدهورا نگر", "name:ml": "മധുര നഗർ", "name:te": "మధుర నగర్", "name:ur": "مدھورا نگر", "network": "Hyderabad Metro", "note": "Contributors are requested to not edit the \"network\" and the \"operator\" tags. (2023/11/08)", "operator": "Hyderabad Metro Rail Limited", "public_transport": "station", "railway": "station", "station": "subway", "subway": "yes", "wikidata": "Q63250572"}, "geometry": {"type": "Point", "coordinates": [78.439099, 17.436965]}}, {"type": "Feature", "properties": {"osm_id": 7052069772, "osm_type": "node", "name": "Road No 5 Jubilee Hills", "name:fa": "جاده شماره ۵ جوبیلی هیلز", "name:ml": "റോഡ് നമ്പർ 5 ജൂബിലി ഹിൽസ്", "name:te": "రోడ్ నం 5 జూబిలీ హిల్స్", "network": "Hyderabad Metro", "note": "Contributors are requested to not edit the \"network\" and the \"operator\" tags. (2023/11/08)", "operator": "Hyderabad Metro Rail Limited", "public_transport": "station", "railway": "station", "station": "subway", "subway": "yes", "wikidata": "Q108874431"}, "geometry": {"type": "Point", "coordinates": [78.423207, 17.430049]}}, {"type": "Feature", "properties": {"osm_id": 7052069774, "osm_type": "node", "name": "Peddamma Gudi", "name:fa": "پداما گودی", "name:ml": "പെദ്ദമ്മ ഗുഡി", "name:te": "పెద్దమ్మ గుడి", "name:ur": "پیدما گڈی", "network": "Hyderabad Metro", "note": "Contributors are requested to not edit the \"network\" and the \"operator\" tags. (2023/11/08)", "operator": "Hyderabad Metro Rail Limited", "public_transport": "station", "railway": "station", "station": "subway", "subway": "yes", "wikidata": "Q84028775"}, "geometry": {"type": "Point", "coordinates": [78.408372, 17.430651]}}, {"type": "Feature", "properties": {"osm_id": 7052069775, "osm_type": "node", "name": "Raidurg", "name:fa": "رایدورگ", "name:ml": "റായ്ദുർഗ്", "name:te": "రాయదుర్గ్", "network": "Hyderabad Metro", "note": "Contributors are requested to not edit the \"network\" and the \"operator\" tags. (2023/11/08)", "operator": "Hyderabad Metro Rail Limited", "public_transport": "station", "railway": "station", "station": "subway", "subway": "yes", "wikidata": "Q58814837"}, "geometry": {"type": "Point", "coordinates": [78.377182, 17.44218]}}, {"type": "Feature", "properties": {"osm_id": 7195061310, "osm_type": "node", "name": "Parade Grounds (Green Line)", "name:fa": "میدان رژه (خط سبز)", "name:ml": "പരേഡ് ഗ്രൗണ്ട്സ്", "name:te": "పెరేడ్ గ్రౌండ్స్", "network": "Hyderabad Metro", "note": "Contributors are requested to not edit the \"network\" and the \"operator\" tags. (2023/11/08)", "operator": "Hyderabad Metro Rail Limited", "public_transport": "station", "railway": "station", "station": "subway", "subway": "yes"}, "geometry": {"type": "Point", "coordinates": [78.497584, 17.444478]}}, {"type": "Feature", "properties": {"osm_id": 7201054971, "osm_type": "node", "alt_name": "Jubilee Bus Station", "name": "JBS", "name:fa": "جی بی اس", "name:ml": "ജെബിഎസ്", "name:te": "జె బి ఎస్", "network": "Hyderabad Metro", "note": "Contributors are requested to not edit the \"network\" and the \"operator\" tags. (2023/11/08)", "operator": "Hyderabad Metro Rail Limited", "public_transport": "station", "railway": "station", "station": "subway", "subway": "yes"}, "geometry": {"type": "Point", "coordinates": [78.496484, 17.448818]}}, {"type": "Feature", "properties": {"osm_id": 7206794919, "osm_type": "node", "name": "RTC Cross Roads", "name:fa": "آر. تی. سی. کراس رودز", "name:ml": "ആർ ടി സി ക്രോസ് റോഡ്സ്", "name:te": "ఆర్ టీ సి క్రాస్ రోడ్స్", "network": "Hyderabad Metro", "note": "Contributors are requested to not edit the \"network\" and the \"operator\" tags. (2023/11/08)", "operator": "Hyderabad Metro Rail Limited", "public_transport": "station", "railway": "station", "station": "subway", "subway": "yes", "wikidata": "Q108874753"}, "geometry": {"type": "Point", "coordinates": [78.496802, 17.407032]}}, {"type": "Feature", "properties": {"osm_id": 7208768626, "osm_type": "node", "alt_name": "M. G. Bus Station (Red Line)", "name": "Mahatma Gandhi Bus Station (Red Line)", "name:fa": "ایستگاه اتوبوس مهاتما گاندی (خط قرمز)", "name:ml": "മഹാത്മാഗാന്ധി ബസ് സ്റ്റേഷൻ", "name:te": "ఎం.జి. బస్. స్టేషన్", "name:ur": "مہاتما گاندھی بس اسٹیشن (ریڈ لائن)", "network": "Hyderabad Metro", "note": "Contributors are requested to not edit the \"network\" and the \"operator\" tags. (2023/11/08)", "operator": "Hyderabad Metro Rail Limited", "public_transport": "station", "railway": "station", "station": "subway", "subway": "yes"}, "geometry": {"type": "Point", "coordinates": [78.486202, 17.379857]}}, {"type": "Feature", "properties": {"osm_id": 7208768627, "osm_type": "node", "alt_name": "M. G. Bus Station (Green Line)", "name": "Mahatma Gandhi Bus Station (Green Line)", "name:fa": "ایستگاه اتوبوس مهاتما گاندی (خط سبز)", "name:ml": "മഹാത്മാഗാന്ധി ബസ് സ്റ്റേഷൻ", "name:te": "ఎం.జి. బస్. స్టేషన్", "name:ur": "مہاتما گاندھی بس اسٹیشن (گرین لائن", "network": "Hyderabad Metro", "note": "Contributors are requested to not edit the \"network\" and the \"operator\" tags. (2023/11/08)", "operator": "Hyderabad Metro Rail Limited", "public_transport": "station", "railway": "station", "station": "subway", "subway": "yes"}, "geometry": {"type": "Point", "coordinates": [78.485863, 17.379695]}}, {"type": "Feature", "properties": {"osm_id": 7208768628, "osm_type": "node", "addr:city": "Hyderabad", "addr:city:ar": "حيدر آباد", "addr:city:ur": "حیدرآباد", "addr:place": "Malakpet", "addr:place:ar": "مالك بيت", "addr:place:ur": "مالک پیٹ", "alt_name:ur": "ملک پیٹ", "name": "Malakpet", "name:ar": "مالك بيت", "name:fa": "ملک پیت", "name:ml": "മലക്പേട്ട്", "name:te": "మలక్‌పేట్", "name:ur": "مالک پیٹ", "network": "Hyderabad Metro", "note": "Contributors are requested to not edit the \"network\" and the \"operator\" tags. (2023/11/08)", "operator": "Hyderabad Metro Rail Limited", "public_transport": "station", "railway": "station", "station": "subway", "subway": "yes", "wheelchair": "yes"}, "geometry": {"type": "Point", "coordinates": [78.493936, 17.377189]}}, {"type": "Feature", "properties": {"osm_id": 7246815452, "osm_type": "node", "name": "Musarambagh", "name:fa": "موسی رام باغ", "name:te": "మూసరంబాఘ్", "name:ur": "موسیٰ رام باغ", "network": "Hyderabad Metro", "note": "Contributors are requested to not edit the \"network\" and the \"operator\" tags. (2023/11/08)", "operator": "Hyderabad Metro Rail Limited", "public_transport": "station", "railway": "station", "station": "subway", "subway": "yes", "wikidata": "Q81640785"}, "geometry": {"type": "Point", "coordinates": [78.511948, 17.371073]}}, {"type": "Feature", "properties": {"osm_id": 7358663499, "osm_type": "node", "name": "Sultan Bazar", "name:fa": "سلطان بازار", "name:ml": "സുൽത്താൻ ബസാർ", "name:te": "సుల్తాన్ బజార్", "network": "Hyderabad Metro", "note": "Contributors are requested to not edit the \"network\" and the \"operator\" tags. (2023/11/08)", "operator": "Hyderabad Metro Rail Limited", "railway": "station", "station": "subway", "subway": "yes"}, "geometry": {"type": "Point", "coordinates": [78.484024, 17.384447]}}, {"type": "Feature", "properties": {"osm_id": 7358663501, "osm_type": "node", "name": "Narayanaguda", "name:fa": "نارایاناگودا", "name:ml": "നാരായണഗുഡ", "name:te": "నారాయణగూడ", "network": "Hyderabad Metro", "note": "Contributors are requested to not edit the \"network\" and the \"operator\" tags. (2023/11/08)", "operator": "Hyderabad Metro Rail Limited", "railway": "station", "station": "subway", "subway": "yes", "wikidata": "Q108874763"}, "geometry": {"type": "Point", "coordinates": [78.489958, 17.394366]}}, {"type": "Feature", "properties": {"osm_id": 7358663502, "osm_type": "node", "name": "Chikkadpally", "name:fa": "چیکادپالی", "name:ml": "ചിക്കടപ്പള്ളി", "name:te": "చిక్కడపల్లి", "network": "Hyderabad Metro", "note": "Contributors are requested to not edit the \"network\" and the \"operator\" tags. (2023/11/08)", "operator": "Hyderabad Metro Rail Limited", "railway": "station", "station": "subway", "subway": "yes", "wikidata": "Q108874757"}, "geometry": {"type": "Point", "coordinates": [78.494896, 17.400363]}}, {"type": "Feature", "properties": {"osm_id": 7358663503, "osm_type": "node", "name": "Musheerabad", "name:fa": "مشیرآباد", "name:ml": "മുഷീറാബാദ്", "name:te": "ముషీరాబాద్", "network": "Hyderabad Metro", "note": "Contributors are requested to not edit the \"network\" and the \"operator\" tags. (2023/11/08)", "operator": "Hyderabad Metro Rail Limited", "railway": "station", "station": "subway", "subway": "yes", "wikidata": "Q84890478"}, "geometry": {"type": "Point", "coordinates": [78.499505, 17.417874]}}, {"type": "Feature", "properties": {"osm_id": 7358663506, "osm_type": "node", "name": "Gandhi Hospital", "name:fa": "بیمارستان گاندی", "name:ml": "ഗാന്ധി ഹോസ്പിറ്റൽ", "name:te": "గాంధీ హాస్పిటల్", "network": "Hyderabad Metro", "note": "Contributors are requested to not edit the \"network\" and the \"operator\" tags. (2023/11/08)", "operator": "Hyderabad Metro Rail Limited", "railway": "station", "station": "subway", "subway": "yes", "wikidata": "Q84766563"}, "geometry": {"type": "Point", "coordinates": [78.501956, 17.425515]}}, {"type": "Feature", "properties": {"osm_id": 7358663518, "osm_type": "node", "name": "Secunderabad West", "name:fa": "سکندرآباد غربی", "name:ml": "സെക്കന്ദ്രാബാദ് വെസ്റ്റ്", "name:te": "సికింద్రాబాద్ వెస్ట్", "name:ur": "سکندر آباد ویسٹ", "network": "Hyderabad Metro", "note": "Contributors are requested to not edit the \"network\" and the \"operator\" tags. (2023/11/08)", "operator": "Hyderabad Metro Rail Limited", "public_transport": "station", "railway": "station", "station": "subway", "subway": "yes", "wikidata": "Q108874730"}, "geometry": {"type": "Point", "coordinates": [78.499518, 17.433803]}}, {"type": "Feature", "properties": {"osm_id": 9144573053, "osm_type": "node", "layer": "1", "lit": "yes", "name": "Madhapur", "name:fa": "مادهاپور", "name:ml": "മാധാപൂർ", "name:te": "మాధాపూర్", "network": "Hyderabad Metro", "note": "Contributors are requested to not edit the \"network\" and the \"operator\" tags. (2023/11/08)", "operator": "Hyderabad Metro Rail Limited", "platforms": "2", "public_transport": "station", "public_transport:version": "2", "railway": "station", "shelter": "yes", "station": "subway", "subway": "yes", "wheelchair": "yes", "wikidata": "Q83637027"}, "geometry": {"type": "Point", "coordinates": [78.400426, 17.437264]}}, {"type": "Feature", "properties": {"osm_id": 10279821749, "osm_type": "node", "alt_name": "محبوب گنج", "name": "New Market", "name:fa": "بازار جدید", "name:ml": "ന്യൂമാർക്കറ്റ്", "name:te": "కొత్త మార్కెట్", "name:ur": "نئی مارکیٹ", "network": "Hyderabad Metro", "note": "Contributors are requested to not edit the \"network\" and the \"operator\" tags. (2023/11/08)", "operator": "Hyderabad Metro Rail Limited", "public_transport": "station", "railway": "station", "station": "subway", "subway": "yes", "wikidata": "Q81483949"}, "geometry": {"type": "Point", "coordinates": [78.503178, 17.373427]}}, {"type": "Feature", "properties": {"osm_id": 11737669094, "osm_type": "node", "name": "JNTU College", "name:fa": "جی.ان.تی.یو کالج", "name:ml": "ജെ എൻ ടി യു കോളേജ്", "name:te": "జె.ఎన్.టి.యూ కాలేజి", "network": "Hyderabad Metro", "operator": "Hyderabad Metro Rail Limited", "public_transport": "station", "railway": "station", "station": "subway", "subway": "yes", "wikidata": "Q84250421"}, "geometry": {"type": "Point", "coordinates": [78.388866, 17.498656]}}, {"type": "Feature", "properties": {"osm_id": 11737669096, "osm_type": "node", "name": "KPHB Colony", "name:fa": "مستعمره کی پی اچ بی", "name:ml": "കെ പി എച്ച് ബി കോളനി", "name:te": "కె.పి.హెచ్.బి కాలనీ", "network": "Hyderabad Metro", "note": "Contributors are requested to not edit the \"network\" and the \"operator\" tags. (2023/11/08)", "operator": "Hyderabad Metro Rail Limited", "public_transport": "station", "railway": "station", "station": "subway", "subway": "yes", "wikidata": "Q85773083"}, "geometry": {"type": "Point", "coordinates": [78.401765, 17.493803]}}, {"type": "Feature", "properties": {"osm_id": 11737669097, "osm_type": "node", "name": "Miyapur", "name:fa": "میاپور", "name:ml": "മിയാപൂർ", "name:te": "మియాపూర్", "network": "Hyderabad Metro", "operator": "Hyderabad Metro Rail Limited", "public_transport": "station", "railway": "station", "station": "subway", "subway": "yes", "wheelchair": "yes", "wikidata": "Q58814840"}, "geometry": {"type": "Point", "coordinates": [78.373025, 17.496539]}}, {"type": "Feature", "properties": {"osm_id": 11737669098, "osm_type": "node", "name": "Victoria Memorial", "name:fa": "یادبود ویکتوریا", "name:ml": "വിക്ടോറിയ മെമ്മോറിയൽ", "name:te": "విక్టోరియా మెమోరియల్", "name:ur": "وکٹوریہ میومریل", "network": "Hyderabad Metro", "operator": "Hyderabad Metro Rail Limited", "public_transport": "station", "railway": "station", "station": "subway", "subway": "yes", "wheelchair": "yes", "wikidata": "Q58814872"}, "geometry": {"type": "Point", "coordinates": [78.54393, 17.361854]}}, {"type": "Feature", "properties": {"osm_id": 11737669099, "osm_type": "node", "name": "Dilsukh Nagar", "name:fa": "دلسوخ نگر", "name:ml": "ദിൽസുഖ്നഗർ", "name:te": "దిల్‌సుఖ్‌నగర్", "name:ur": "دِل سُکھ نگر", "network": "Hyderabad Metro", "operator": "Hyderabad Metro Rail Limited", "public_transport": "station", "railway": "station", "station": "subway", "subway": "yes", "wheelchair": "yes", "wikidata": "Q81724990"}, "geometry": {"type": "Point", "coordinates": [78.525717, 17.368552]}}, {"type": "Feature", "properties": {"osm_id": 11737669100, "osm_type": "node", "name": "L. B. Nagar Metro Station", "name:fa": "ال بی نگر", "name:ml": "എൽ ബി നഗർ", "name:te": "ఎల్.బి. నగర్", "network": "Hyderabad Metro", "operator": "Hyderabad Metro Rail Limited", "public_transport": "station", "railway": "station", "station": "subway", "subway": "yes", "wheelchair": "yes", "wikidata": "Q58814838"}, "geometry": {"type": "Point", "coordinates": [78.547914, 17.349829]}}, {"type": "Feature", "properties": {"osm_id": 11738179187, "osm_type": "node", "alt_name": "OMC", "internet_access": "no", "name": "Osmania Medical College", "name:fa": "کالج پزشکی عثمانیه", "name:ml": "ഉസ്മാനിയ മെഡിക്കൽ കോളേജ്", "name:te": "ఉస్మానియా వైద్య కళాశాల", "name:ur": "عثمانیہ میڈیکل کالج", "network": "Hyderabad Metro", "note": "Contributors are requested to not edit the \"network\" and the \"operator\" tags. (2023/11/08)", "operator": "Hyderabad Metro Rail Limited", "public_transport": "station", "railway": "station", "station": "subway", "subway": "yes", "website": "https://hmrl.co.in", "wheelchair": "yes", "wikidata": "Q83859784"}, "geometry": {"type": "Point", "coordinates": [78.481133, 17.382347]}}, {"type": "Feature", "properties": {"osm_id": 11738179188, "osm_type": "node", "internet_access": "no", "name": "Nampally", "name:fa": "نامپالی", "name:ml": "നാമ്പള്ളി", "name:te": "నాంపల్లి", "name:ur": "نامپلّی", "network": "Hyderabad Metro", "note": "Contributors are requested to not edit the \"network\" and the \"operator\" tags. (2023/11/08)", "operator": "Hyderabad Metro Rail Limited", "public_transport": "station", "railway": "station", "station": "subway", "subway": "yes", "website": "https://hmrl.co.in", "wheelchair": "yes", "wikidata": "Q63346685"}, "geometry": {"type": "Point", "coordinates": [78.470148, 17.392399]}}, {"type": "Feature", "properties": {"osm_id": 11738179189, "osm_type": "node", "internet_access": "no", "name": "Moosapet", "name:fa": "موسی پیت", "name:ml": "മൂസാപ്പേട്ട്", "name:te": "మూసాపేట్", "name:ur": "موسیٰ پیٹ", "network": "Hyderabad Metro", "note": "Contributors are requested to not edit the \"network\" and the \"operator\" tags. (2023/11/08)", "operator": "Hyderabad Metro Rail Limited", "public_transport": "station", "railway": "station", "station": "subway", "subway": "yes", "website": "https://hmrl.co.in", "wheelchair": "yes", "wikidata": "Q82256850"}, "geometry": {"type": "Point", "coordinates": [78.426036, 17.47197]}}, {"type": "Feature", "properties": {"osm_id": 11738179190, "osm_type": "node", "internet_access": "no", "name": "Lakdi-ka-pul", "name:fa": "لکدی-کا-پل", "name:ml": "ലക്ഡി-കാ-പുൽ", "name:te": "లక్డి-కా-పుల్", "name:ur": "لکڑی کا پل", "network": "Hyderabad Metro", "note": "Contributors are requested to not edit the \"network\" and the \"operator\" tags. (2023/11/08)", "operator": "Hyderabad Metro Rail Limited", "public_transport": "station", "railway": "station", "station": "subway", "subway": "yes", "website": "https://hmrl.co.in", "wheelchair": "yes"}, "geometry": {"type": "Point", "coordinates": [78.465025, 17.403906]}}, {"type": "Feature", "properties": {"osm_id": 11738179191, "osm_type": "node", "internet_access": "no", "name": "Khairatabad", "name:fa": "خیرت آباد", "name:ml": "ഖൈരതാബാദ്", "name:te": "ఖైరతాబాద్", "name:ur": "خیرت آباد", "network": "Hyderabad Metro", "note": "Contributors are requested to not edit the \"network\" and the \"operator\" tags. (2023/11/08)", "operator": "Hyderabad Metro Rail Limited", "public_transport": "station", "railway": "station", "station": "subway", "subway": "yes", "website": "https://hmrl.co.in", "wheelchair": "yes"}, "geometry": {"type": "Point", "coordinates": [78.460846, 17.411532]}}, {"type": "Feature", "properties": {"osm_id": 11738179193, "osm_type": "node", "internet_access": "no", "name": "Irrum Manzil", "name:fa": "ارم منزل", "name:ml": "എറം മൻസിൽ", "name:te": "ఇఱం మంజిల్", "name:ur": "ارم منزل", "network": "Hyderabad Metro", "note": "Contributors are requested to not edit the \"network\" and the \"operator\" tags. (2023/11/08)", "operator": "Hyderabad Metro Rail Limited", "public_transport": "station", "railway": "station", "station": "subway", "subway": "yes", "website": "https://hmrl.co.in", "wheelchair": "yes", "wikidata": "Q85770033"}, "geometry": {"type": "Point", "coordinates": [78.456101, 17.420556]}}, {"type": "Feature", "properties": {"osm_id": 11738179194, "osm_type": "node", "internet_access": "no", "name": "Gandhi Bhavan", "name:fa": "گاندی بهاوان", "name:ml": "ഗാന്ധി ഭവൻ", "name:te": "గాంధీ భవన్", "name:ur": "گاندھی بھون", "network": "Hyderabad Metro", "note": "Contributors are requested to not edit the \"network\" and the \"operator\" tags. (2023/11/08)", "operator": "Hyderabad Metro Rail Limited", "public_transport": "station", "railway": "station", "station": "subway", "subway": "yes", "website": "https://hmrl.co.in", "wheelchair": "yes", "wikidata": "Q62860405"}, "geometry": {"type": "Point", "coordinates": [78.4731, 17.386107]}}, {"type": "Feature", "properties": {"osm_id": 11738179195, "osm_type": "node", "internet_access": "no", "name": "ESI Hospital", "name:fa": "بیمارستان ای اس آی", "name:ml": "ഇ.എസ്.ഐ ആശുപത്രി", "name:te": "ఈ.ఎస్.ఐ ఆస్పత్రి", "network": "Hyderabad Metro", "note": "Contributors are requested to not edit the \"network\" and the \"operator\" tags. (2023/11/08)", "operator": "Hyderabad Metro Rail Limited", "public_transport": "station", "railway": "station", "station": "subway", "subway": "yes", "website": "https://hmrl.co.in", "wheelchair": "yes", "wikidata": "Q83008743"}, "geometry": {"type": "Point", "coordinates": [78.43835, 17.447404]}}, {"type": "Feature", "properties": {"osm_id": 11738179196, "osm_type": "node", "internet_access": "no", "name": "Erragadda", "name:fa": "اراگدا", "name:ml": "എറഗഢ", "name:te": "ఎర్రగడ్డ", "name:ur": "ایرہ گڈہ", "network": "Hyderabad Metro", "note": "Contributors are requested to not edit the \"network\" and the \"operator\" tags. (2023/11/08)", "operator": "Hyderabad Metro Rail Limited", "public_transport": "station", "railway": "station", "station": "subway", "subway": "yes", "website": "https://hmrl.co.in", "wheelchair": "yes", "wikidata": "Q82698806"}, "geometry": {"type": "Point", "coordinates": [78.433462, 17.457328]}}, {"type": "Feature", "properties": {"osm_id": 11738179197, "osm_type": "node", "internet_access": "no", "name": "Chaitanyapuri", "name:fa": "چایتانیاپوری", "name:ml": "ചൈതന്യപുരി", "name:te": "ఛైతన్యపురి", "name:ur": "چیتنیہ پوری", "network": "Hyderabad Metro", "note": "Contributors are requested to not edit the \"network\" and the \"operator\" tags. (2023/11/08)", "operator": "Hyderabad Metro Rail Limited", "public_transport": "station", "railway": "station", "station": "subway", "subway": "yes", "website": "https://hmrl.co.in", "wheelchair": "yes", "wikidata": "Q81820840"}, "geometry": {"type": "Point", "coordinates": [78.535941, 17.368286]}}, {"type": "Feature", "properties": {"osm_id": 11738179198, "osm_type": "node", "internet_access": "no", "name": "Bharat Nagar", "name:fa": "بهرت نگر", "name:ml": "ഭരത് നഗർ", "name:te": "భరత్ నగర్", "network": "Hyderabad Metro", "note": "Contributors are requested to not edit the \"network\" and the \"operator\" tags. (2023/11/08)", "operator": "Hyderabad Metro Rail Limited", "public_transport": "station", "railway": "station", "station": "subway", "subway": "yes", "website": "https://hmrl.co.in", "wheelchair": "yes", "wikidata": "Q82532536"}, "geometry": {"type": "Point", "coordinates": [78.430005, 17.46416]}}, {"type": "Feature", "properties": {"osm_id": 11738179199, "osm_type": "node", "internet_access": "no", "name": "Balanagar", "name:fa": "بالانگر", "name:ml": "ബാലാനഗർ", "name:te": "బాలానగర్", "name:ur": "بالا نگر", "network": "Hyderabad Metro", "note": "Contributors are requested to not edit the \"network\" and the \"operator\" tags. (2023/11/08)", "operator": "Hyderabad Metro Rail Limited", "public_transport": "station", "railway": "station", "station": "subway", "subway": "yes", "website": "https://hmrl.co.in", "wheelchair": "yes", "wikidata": "Q82064377"}, "geometry": {"type": "Point", "coordinates": [78.421965, 17.476822]}}, {"type": "Feature", "properties": {"osm_id": 11738179200, "osm_type": "node", "internet_access": "no", "name": "Assembly", "name:fa": "اسمبلی", "name:ml": "അസംബ്ലി", "name:te": "అసెంబ్లీ", "name:ur": "اسمبلی", "network": "Hyderabad Metro", "note": "Contributors are requested to not edit the \"network\" and the \"operator\" tags. (2023/11/08)", "operator": "Hyderabad Metro Rail Limited", "public_transport": "station", "railway": "station", "station": "subway", "subway": "yes", "website": "https://hmrl.co.in", "wheelchair": "yes", "wikidata": "Q83718950"}, "geometry": {"type": "Point", "coordinates": [78.470818, 17.398109]}}, {"type": "Feature", "properties": {"osm_id": 11738663633, "osm_type": "node", "internet_access": "no", "name": "Panjagutta", "name:fa": "پنجاگوتا", "name:ml": "പഞ്ചഗുട്ട", "name:te": "పంజాగుట్ట", "name:ur": "پنجہ گٹہ", "network": "Hyderabad Metro", "note": "Contributors are requested to not edit the \"network\" and the \"operator\" tags. (2023/11/08)", "operator": "Hyderabad Metro Rail Limited", "public_transport": "station", "railway": "station", "station": "subway", "subway": "yes", "website": "https://hmrl.co.in", "wheelchair": "yes"}, "geometry": {"type": "Point", "coordinates": [78.451132, 17.428631]}}, {"type": "Feature", "properties": {"osm_id": 12596333395, "osm_type": "node", "name": "miyapur metro", "public_transport": "station", "railway": "station", "station": "subway", "subway": "yes"}, "geometry": {"type": "Point", "coordinates": [78.372749, 17.496382]}}, {"type": "Feature", "properties": {"osm_id": 12596336335, "osm_type": "node", "name": "Kukatpally Metro", "public_transport": "station", "railway": "station", "station": "subway", "subway": "yes"}, "geometry": {"type": "Point", "coordinates": [78.411579, 17.485205]}}, {"type": "Feature", "properties": {"osm_id": 12596350332, "osm_type": "node", "name": "Balanagar Metro", "name:ur": "بالا نگر", "public_transport": "station", "railway": "station", "station": "subway", "subway": "yes"}, "geometry": {"type": "Point", "coordinates": [78.421908, 17.476869]}}]}