{"type":"FeatureCollection","features":[{"type":"Feature","properties":{"stop_id":"RCPT","stop_name":"RAMACHANDRAPURAM TS","stop_code":"RCPT","mode":"suburban_rail","operator":"Hyderabad Multi-Modal Transport System","source_feed_id":"hyderabad_mmts"},"geometry":{"type":"Point","coordinates":[78.28248,17.511305]}},{"type":"Feature","properties":{"stop_id":"BHEL","stop_name":"BHEL HALT","stop_code":"BHEL","mode":"suburban_rail","operator":"Hyderabad Multi-Modal Transport System","source_feed_id":"hyderabad_mmts"},"geometry":{"type":"Point","coordinates":[78.282051,17.502301]}},{"type":"Feature","properties":{"stop_id":"TLPR","stop_name":"TELAPUR","stop_code":"TLPR","mode":"suburban_rail","operator":"Hyderabad Multi-Modal Transport System","source_feed_id":"hyderabad_mmts"},"geometry":{"type":"Point","coordinates":[78.284883,17.474877]}},{"type":"Feature","properties":{"stop_id":"LPI","stop_name":"LINGAMPALLI","stop_code":"LPI","mode":"suburban_rail","operator":"Hyderabad Multi-Modal Transport System","source_feed_id":"hyderabad_mmts"},"geometry":{"type":"Point","coordinates":[78.31698399999998,17.483083999999998]}},{"type":"Feature","properties":{"stop_id":"BMT","stop_name":"BEGUMPET","stop_code":"BMT","mode":"suburban_rail","operator":"Hyderabad Multi-Modal Transport System","source_feed_id":"hyderabad_mmts"},"geometry":{"type":"Point","coordinates":[78.45817,17.43868]}},{"type":"Feature","properties":{"stop_id":"SC","stop_name":"SECUNDERABAD","stop_code":"SC","mode":"suburban_rail","operator":"Hyderabad Multi-Modal Transport System","source_feed_id":"hyderabad_mmts"},"geometry":{"type":"Point","coordinates":[78.50158,17.43374]}},{"type":"Feature","properties":{"stop_id":"ZN","stop_name":"JANGAON","stop_code":"ZN","mode":"suburban_rail","operator":"Hyderabad Multi-Modal Transport System","source_feed_id":"hyderabad_mmts"},"geometry":{"type":"Point","coordinates":[79.154434,17.724815]}},{"type":"Feature","properties":{"stop_id":"BG","stop_name":"BHONGIR","stop_code":"BG","mode":"suburban_rail","operator":"Hyderabad Multi-Modal Transport System","source_feed_id":"hyderabad_mmts"},"geometry":{"type":"Point","coordinates":[78.89883,17.525056]}},{"type":"Feature","properties":{"stop_id":"HYB","stop_name":"HYDERABAD","stop_code":"HYB","mode":"suburban_rail","operator":"Hyderabad Multi-Modal Transport System","source_feed_id":"hyderabad_mmts"},"geometry":{"type":"Point","coordinates":[78.46759,17.39245]}},{"type":"Feature","properties":{"stop_id":"KCG","stop_name":"KACHEGUDA","stop_code":"KCG","mode":"suburban_rail","operator":"Hyderabad Multi-Modal Transport System","source_feed_id":"hyderabad_mmts"},"geometry":{"type":"Point","coordinates":[78.49984599999998,17.389651]}},{"type":"Feature","properties":{"stop_id":"MJF","stop_name":"MALKAJGIRI","stop_code":"MJF","mode":"suburban_rail","operator":"Hyderabad Multi-Modal Transport System","source_feed_id":"hyderabad_mmts"},"geometry":{"type":"Point","coordinates":[78.529236,17.448022]}},{"type":"Feature","properties":{"stop_id":"ALER","stop_name":"ALER","stop_code":"ALER","mode":"suburban_rail","operator":"Hyderabad Multi-Modal Transport System","source_feed_id":"hyderabad_mmts"},"geometry":{"type":"Point","coordinates":[79.0478714,17.6454853]}},{"type":"Feature","properties":{"stop_id":"BN","stop_name":"BIBINAGAR","stop_code":"BN","mode":"suburban_rail","operator":"Hyderabad Multi-Modal Transport System","source_feed_id":"hyderabad_mmts"},"geometry":{"type":"Point","coordinates":[78.794525,17.470681]}},{"type":"Feature","properties":{"stop_id":"UR","stop_name":"UMDANAGAR","stop_code":"UR","mode":"suburban_rail","operator":"Hyderabad Multi-Modal Transport System","source_feed_id":"hyderabad_mmts"},"geometry":{"type":"Point","coordinates":[78.393373,17.263162]}},{"type":"Feature","properties":{"stop_id":"MED","stop_name":"MEDCHAL","stop_code":"MED","mode":"suburban_rail","operator":"Hyderabad Multi-Modal Transport System","source_feed_id":"hyderabad_mmts"},"geometry":{"type":"Point","coordinates":[78.47528,17.63995]}},{"type":"Feature","properties":{"stop_id":"MXT","stop_name":"MALAKPET","stop_code":"MXT","mode":"suburban_rail","operator":"Hyderabad Multi-Modal Transport System","source_feed_id":"hyderabad_mmts"},"geometry":{"type":"Point","coordinates":[78.4948,17.37664]}},{"type":"Feature","properties":{"stop_id":"FM","stop_name":"FALAKNUMA","stop_code":"FM","mode":"suburban_rail","operator":"Hyderabad Multi-Modal Transport System","source_feed_id":"hyderabad_mmts"},"geometry":{"type":"Point","coordinates":[78.47516,17.33272]}},{"type":"Feature","properties":{"stop_id":"BDVL","stop_name":"BUDVEL","stop_code":"BDVL","mode":"suburban_rail","operator":"Hyderabad Multi-Modal Transport System","source_feed_id":"hyderabad_mmts"},"geometry":{"type":"Point","coordinates":[78.4249782,17.3098373]}},{"type":"Feature","properties":{"stop_id":"BMO","stop_name":"BOLARUM","stop_code":"BMO","mode":"suburban_rail","operator":"Hyderabad Multi-Modal Transport System","source_feed_id":"hyderabad_mmts"},"geometry":{"type":"Point","coordinates":[78.5151467,17.5332793]}},{"type":"Feature","properties":{"stop_id":"CHZ","stop_name":"CHARLAPALLI","stop_code":"CHZ","mode":"suburban_rail","operator":"Hyderabad Multi-Modal Transport System","source_feed_id":"hyderabad_mmts"},"geometry":{"type":"Point","coordinates":[78.60601899999997,17.458072]}},{"type":"Feature","properties":{"stop_id":"PBP","stop_name":"PEMBARTI","stop_code":"PBP","mode":"suburban_rail","operator":"Hyderabad Multi-Modal Transport System","source_feed_id":"hyderabad_mmts"},"geometry":{"type":"Point","coordinates":[79.11581,17.691945999999994]}},{"type":"Feature","properties":{"stop_id":"RAG","stop_name":"RAIGIR","stop_code":"RAG","mode":"suburban_rail","operator":"Hyderabad Multi-Modal Transport System","source_feed_id":"hyderabad_mmts"},"geometry":{"type":"Point","coordinates":[78.941402,17.551081]}},{"type":"Feature","properties":{"stop_id":"GT","stop_name":"GHATKESAR","stop_code":"GT","mode":"suburban_rail","operator":"Hyderabad Multi-Modal Transport System","source_feed_id":"hyderabad_mmts"},"geometry":{"type":"Point","coordinates":[78.678117,17.453016]}},{"type":"Feature","properties":{"stop_id":"STPD","stop_name":"SITAFALMANDI","stop_code":"STPD","mode":"suburban_rail","operator":"Hyderabad Multi-Modal Transport System","source_feed_id":"hyderabad_mmts"},"geometry":{"type":"Point","coordinates":[78.51961,17.42839]}},{"type":"Feature","properties":{"stop_id":"GWV","stop_name":"GOWDAVALLI","stop_code":"GWV","mode":"suburban_rail","operator":"Hyderabad Multi-Modal Transport System","source_feed_id":"hyderabad_mmts"},"geometry":{"type":"Point","coordinates":[78.46827,17.61075]}},{"type":"Feature","properties":{"stop_id":"LKPL","stop_name":"LAKDIKAPUL","stop_code":"LKPL","mode":"suburban_rail","operator":"Hyderabad Multi-Modal Transport System","source_feed_id":"hyderabad_mmts"},"geometry":{"type":"Point","coordinates":[78.463197,17.403717999999998]}},{"type":"Feature","properties":{"stop_id":"KQD","stop_name":"KHAIRATABAD","stop_code":"KQD","mode":"suburban_rail","operator":"Hyderabad Multi-Modal Transport System","source_feed_id":"hyderabad_mmts"},"geometry":{"type":"Point","coordinates":[78.46106,17.41298]}},{"type":"Feature","properties":{"stop_id":"NLRD","stop_name":"NECKLACE ROAD","stop_code":"NLRD","mode":"suburban_rail","operator":"Hyderabad Multi-Modal Transport System","source_feed_id":"hyderabad_mmts"},"geometry":{"type":"Point","coordinates":[78.463111,17.423578]}},{"type":"Feature","properties":{"stop_id":"NCHS","stop_name":"NATURE CURE HOSPITAL","stop_code":"NCHS","mode":"suburban_rail","operator":"Hyderabad Multi-Modal Transport System","source_feed_id":"hyderabad_mmts"},"geometry":{"type":"Point","coordinates":[78.45221,17.44572]}},{"type":"Feature","properties":{"stop_id":"FNB","stop_name":"FATEHNAGAR","stop_code":"FNB","mode":"suburban_rail","operator":"Hyderabad Multi-Modal Transport System","source_feed_id":"hyderabad_mmts"},"geometry":{"type":"Point","coordinates":[78.45008,17.45588]}},{"type":"Feature","properties":{"stop_id":"BTNR","stop_name":"BHARATNAGAR","stop_code":"BTNR","mode":"suburban_rail","operator":"Hyderabad Multi-Modal Transport System","source_feed_id":"hyderabad_mmts"},"geometry":{"type":"Point","coordinates":[78.43016,17.46256]}},{"type":"Feature","properties":{"stop_id":"BRBD","stop_name":"BORABANDA","stop_code":"BRBD","mode":"suburban_rail","operator":"Hyderabad Multi-Modal Transport System","source_feed_id":"hyderabad_mmts"},"geometry":{"type":"Point","coordinates":[78.40782,17.45918]}},{"type":"Feature","properties":{"stop_id":"HTCY","stop_name":"HITECH CITY","stop_code":"HTCY","mode":"suburban_rail","operator":"Hyderabad Multi-Modal Transport System","source_feed_id":"hyderabad_mmts"},"geometry":{"type":"Point","coordinates":[78.38524100000002,17.46978]}},{"type":"Feature","properties":{"stop_id":"HFZ","stop_name":"HAFIZPETA","stop_code":"HFZ","mode":"suburban_rail","operator":"Hyderabad Multi-Modal Transport System","source_feed_id":"hyderabad_mmts"},"geometry":{"type":"Point","coordinates":[78.363075,17.482695]}},{"type":"Feature","properties":{"stop_id":"CDNR","stop_name":"CHANDANAGAR","stop_code":"CDNR","mode":"suburban_rail","operator":"Hyderabad Multi-Modal Transport System","source_feed_id":"hyderabad_mmts"},"geometry":{"type":"Point","coordinates":[78.33271,17.48738]}},{"type":"Feature","properties":{"stop_id":"HPG","stop_name":"HUPPUGUDA","stop_code":"HPG","mode":"suburban_rail","operator":"Hyderabad Multi-Modal Transport System","source_feed_id":"hyderabad_mmts"},"geometry":{"type":"Point","coordinates":[78.48244,17.34132]}},{"type":"Feature","properties":{"stop_id":"YKA","stop_name":"YAKUTPURA","stop_code":"YKA","mode":"suburban_rail","operator":"Hyderabad Multi-Modal Transport System","source_feed_id":"hyderabad_mmts"},"geometry":{"type":"Point","coordinates":[78.49207,17.36001]}},{"type":"Feature","properties":{"stop_id":"DQR","stop_name":"DABIRPURA","stop_code":"DQR","mode":"suburban_rail","operator":"Hyderabad Multi-Modal Transport System","source_feed_id":"hyderabad_mmts"},"geometry":{"type":"Point","coordinates":[78.49037,17.36659]}},{"type":"Feature","properties":{"stop_id":"VAR","stop_name":"VIDYA NAGAR","stop_code":"VAR","mode":"suburban_rail","operator":"Hyderabad Multi-Modal Transport System","source_feed_id":"hyderabad_mmts"},"geometry":{"type":"Point","coordinates":[78.51121,17.40218]}},{"type":"Feature","properties":{"stop_id":"JOO","stop_name":"JAMAI OSMANIA","stop_code":"JOO","mode":"suburban_rail","operator":"Hyderabad Multi-Modal Transport System","source_feed_id":"hyderabad_mmts"},"geometry":{"type":"Point","coordinates":[78.51839,17.4116]}},{"type":"Feature","properties":{"stop_id":"ATC","stop_name":"ARTS COLLEGE","stop_code":"ATC","mode":"suburban_rail","operator":"Hyderabad Multi-Modal Transport System","source_feed_id":"hyderabad_mmts"},"geometry":{"type":"Point","coordinates":[78.519995,17.41846]}},{"type":"Feature","properties":{"stop_id":"JET","stop_name":"JAMES STREET","stop_code":"JET","mode":"suburban_rail","operator":"Hyderabad Multi-Modal Transport System","source_feed_id":"hyderabad_mmts"},"geometry":{"type":"Point","coordinates":[78.48722,17.43287]}},{"type":"Feature","properties":{"stop_id":"SJVP","stop_name":"SANJEEVAIAH PARK","stop_code":"SJVP","mode":"suburban_rail","operator":"Hyderabad Multi-Modal Transport System","source_feed_id":"hyderabad_mmts"},"geometry":{"type":"Point","coordinates":[78.47672,17.43561]}},{"type":"Feature","properties":{"stop_id":"LGDH","stop_name":"LALAGUDA GATE","stop_code":"LGDH","mode":"suburban_rail","operator":"Hyderabad Multi-Modal Transport System","source_feed_id":"hyderabad_mmts"},"geometry":{"type":"Point","coordinates":[78.524823,17.440775]}},{"type":"Feature","properties":{"stop_id":"DYE","stop_name":"DAYANAND NAGAR","stop_code":"DYE","mode":"suburban_rail","operator":"Hyderabad Multi-Modal Transport System","source_feed_id":"hyderabad_mmts"},"geometry":{"type":"Point","coordinates":[78.53164,17.456537]}},{"type":"Feature","properties":{"stop_id":"SFX","stop_name":"SAFILGUDA","stop_code":"SFX","mode":"suburban_rail","operator":"Hyderabad Multi-Modal Transport System","source_feed_id":"hyderabad_mmts"},"geometry":{"type":"Point","coordinates":[78.53296999999998,17.461531]}},{"type":"Feature","properties":{"stop_id":"RKO","stop_name":"RMKRSHNAPRM GTE","stop_code":"RKO","mode":"suburban_rail","operator":"Hyderabad Multi-Modal Transport System","source_feed_id":"hyderabad_mmts"},"geometry":{"type":"Point","coordinates":[78.52889300000002,17.476719]}},{"type":"Feature","properties":{"stop_id":"AMQ","stop_name":"AMMUGUDA","stop_code":"AMQ","mode":"suburban_rail","operator":"Hyderabad Multi-Modal Transport System","source_feed_id":"hyderabad_mmts"},"geometry":{"type":"Point","coordinates":[78.527005,17.486829]}},{"type":"Feature","properties":{"stop_id":"CVB","stop_name":"CAVALRY BARRCKS","stop_code":"CVB","mode":"suburban_rail","operator":"Hyderabad Multi-Modal Transport System","source_feed_id":"hyderabad_mmts"},"geometry":{"type":"Point","coordinates":[78.51889399999997,17.494934]}},{"type":"Feature","properties":{"stop_id":"ALW","stop_name":"ALWAL HALT","stop_code":"ALW","mode":"suburban_rail","operator":"Hyderabad Multi-Modal Transport System","source_feed_id":"hyderabad_mmts"},"geometry":{"type":"Point","coordinates":[78.514516,17.505289]}},{"type":"Feature","properties":{"stop_id":"BOZ","stop_name":"BOLARUM BAZAR","stop_code":"BOZ","mode":"suburban_rail","operator":"Hyderabad Multi-Modal Transport System","source_feed_id":"hyderabad_mmts"},"geometry":{"type":"Point","coordinates":[78.51568,17.51764]}},{"type":"Feature","properties":{"stop_id":"NSVP","stop_name":"NPA SHIVRAMPALLI","stop_code":"NSVP","mode":"suburban_rail","operator":"Hyderabad Multi-Modal Transport System","source_feed_id":"hyderabad_mmts"},"geometry":{"type":"Point","coordinates":[78.4374,17.32359]}},{"type":"Feature","properties":{"stop_id":"GDPL","stop_name":"G POCHAMPALLI","stop_code":"GDPL","mode":"suburban_rail","operator":"Hyderabad Multi-Modal Transport System","source_feed_id":"hyderabad_mmts"},"geometry":{"type":"Point","coordinates":[78.48779,17.56896]}},{"type":"Feature","properties":{"stop_id":"WP","stop_name":"WANGAPALLI","stop_code":"WP","mode":"suburban_rail","operator":"Hyderabad Multi-Modal Transport System","source_feed_id":"hyderabad_mmts"},"geometry":{"type":"Point","coordinates":[78.983974,17.580867]}}]}