{"type":"FeatureCollection","features":[{"type":"Feature","properties":{"route_id":"47100","route_short_name":"47100","route_long_name":"HYB-LPI","agency_id":"","mode":"suburban_rail","operator":"Hyderabad Multi-Modal Transport System","source_feed_id":"hyderabad_mmts"},"geometry":{"type":"LineString","coordinates":[[78.46759,17.39245],[78.463197,17.403717999999998],[78.46106,17.41298],[78.463111,17.423578],[78.45817,17.43868],[78.45221,17.44572],[78.45008,17.45588],[78.43016,17.46256],[78.40782,17.45918],[78.38524100000002,17.46978],[78.363075,17.482695],[78.33271,17.48738],[78.31698399999998,17.483083999999998]]}},{"type":"Feature","properties":{"route_id":"47101","route_short_name":"47101","route_long_name":"HYB-LPI","agency_id":"","mode":"suburban_rail","operator":"Hyderabad Multi-Modal Transport System","source_feed_id":"hyderabad_mmts"},"geometry":{"type":"LineString","coordinates":[[78.46759,17.39245],[78.463197,17.403717999999998],[78.46106,17.41298],[78.463111,17.423578],[78.45817,17.43868],[78.45221,17.44572],[78.45008,17.45588],[78.43016,17.46256],[78.40782,17.45918],[78.38524100000002,17.46978],[78.363075,17.482695],[78.33271,17.48738],[78.31698399999998,17.483083999999998]]}},{"type":"Feature","properties":{"route_id":"47102","route_short_name":"47102","route_long_name":"HYB-LPI","agency_id":"","mode":"suburban_rail","operator":"Hyderabad Multi-Modal Transport System","source_feed_id":"hyderabad_mmts"},"geometry":{"type":"LineString","coordinates":[[78.46759,17.39245],[78.463197,17.403717999999998],[78.46106,17.41298],[78.463111,17.423578],[78.45817,17.43868],[78.45221,17.44572],[78.45008,17.45588],[78.43016,17.46256],[78.40782,17.45918],[78.38524100000002,17.46978],[78.363075,17.482695],[78.33271,17.48738],[78.31698399999998,17.483083999999998]]}},{"type":"Feature","properties":{"route_id":"47103","route_short_name":"47103","route_long_name":"HYB-LPI","agency_id":"","mode":"suburban_rail","operator":"Hyderabad Multi-Modal Transport System","source_feed_id":"hyderabad_mmts"},"geometry":{"type":"LineString","coordinates":[[78.46759,17.39245],[78.463197,17.403717999999998],[78.46106,17.41298],[78.463111,17.423578],[78.45817,17.43868],[78.45221,17.44572],[78.45008,17.45588],[78.43016,17.46256],[78.40782,17.45918],[78.38524100000002,17.46978],[78.363075,17.482695],[78.33271,17.48738],[78.31698399999998,17.483083999999998]]}},{"type":"Feature","properties":{"route_id":"47104","route_short_name":"47104","route_long_name":"HYB-LPI","agency_id":"","mode":"suburban_rail","operator":"Hyderabad Multi-Modal Transport System","source_feed_id":"hyderabad_mmts"},"geometry":{"type":"LineString","coordinates":[[78.46759,17.39245],[78.463197,17.403717999999998],[78.46106,17.41298],[78.463111,17.423578],[78.45817,17.43868],[78.45221,17.44572],[78.45008,17.45588],[78.43016,17.46256],[78.40782,17.45918],[78.38524100000002,17.46978],[78.363075,17.482695],[78.33271,17.48738],[78.31698399999998,17.483083999999998]]}},{"type":"Feature","properties":{"route_id":"47105","route_short_name":"47105","route_long_name":"HYB-LPI","agency_id":"","mode":"suburban_rail","operator":"Hyderabad Multi-Modal Transport System","source_feed_id":"hyderabad_mmts"},"geometry":{"type":"LineString","coordinates":[[78.46759,17.39245],[78.463197,17.403717999999998],[78.46106,17.41298],[78.463111,17.423578],[78.45817,17.43868],[78.45221,17.44572],[78.45008,17.45588],[78.43016,17.46256],[78.40782,17.45918],[78.38524100000002,17.46978],[78.363075,17.482695],[78.33271,17.48738],[78.31698399999998,17.483083999999998]]}},{"type":"Feature","properties":{"route_id":"47106","route_short_name":"47106","route_long_name":"HYB-LPI","agency_id":"","mode":"suburban_rail","operator":"Hyderabad Multi-Modal Transport System","source_feed_id":"hyderabad_mmts"},"geometry":{"type":"LineString","coordinates":[[78.46759,17.39245],[78.463197,17.403717999999998],[78.46106,17.41298],[78.463111,17.423578],[78.45817,17.43868],[78.45221,17.44572],[78.45008,17.45588],[78.43016,17.46256],[78.40782,17.45918],[78.38524100000002,17.46978],[78.363075,17.482695],[78.33271,17.48738],[78.31698399999998,17.483083999999998]]}},{"type":"Feature","properties":{"route_id":"47107","route_short_name":"47107","route_long_name":"HYB-LPI","agency_id":"","mode":"suburban_rail","operator":"Hyderabad Multi-Modal Transport System","source_feed_id":"hyderabad_mmts"},"geometry":{"type":"LineString","coordinates":[[78.46759,17.39245],[78.463197,17.403717999999998],[78.46106,17.41298],[78.463111,17.423578],[78.45817,17.43868],[78.45221,17.44572],[78.45008,17.45588],[78.43016,17.46256],[78.40782,17.45918],[78.38524100000002,17.46978],[78.363075,17.482695],[78.33271,17.48738],[78.31698399999998,17.483083999999998]]}},{"type":"Feature","properties":{"route_id":"47108","route_short_name":"47108","route_long_name":"HYB-LPI","agency_id":"","mode":"suburban_rail","operator":"Hyderabad Multi-Modal Transport System","source_feed_id":"hyderabad_mmts"},"geometry":{"type":"LineString","coordinates":[[78.46759,17.39245],[78.463197,17.403717999999998],[78.46106,17.41298],[78.463111,17.423578],[78.45817,17.43868],[78.45221,17.44572],[78.45008,17.45588],[78.43016,17.46256],[78.40782,17.45918],[78.38524100000002,17.46978],[78.363075,17.482695],[78.33271,17.48738],[78.31698399999998,17.483083999999998]]}},{"type":"Feature","properties":{"route_id":"47109","route_short_name":"47109","route_long_name":"HYB-LPI","agency_id":"","mode":"suburban_rail","operator":"Hyderabad Multi-Modal Transport System","source_feed_id":"hyderabad_mmts"},"geometry":{"type":"LineString","coordinates":[[78.46759,17.39245],[78.463197,17.403717999999998],[78.46106,17.41298],[78.463111,17.423578],[78.45817,17.43868],[78.45221,17.44572],[78.45008,17.45588],[78.43016,17.46256],[78.40782,17.45918],[78.38524100000002,17.46978],[78.363075,17.482695],[78.33271,17.48738],[78.31698399999998,17.483083999999998]]}},{"type":"Feature","properties":{"route_id":"47110","route_short_name":"47110","route_long_name":"HYB-LPI","agency_id":"","mode":"suburban_rail","operator":"Hyderabad Multi-Modal Transport System","source_feed_id":"hyderabad_mmts"},"geometry":{"type":"LineString","coordinates":[[78.46759,17.39245],[78.463197,17.403717999999998],[78.46106,17.41298],[78.463111,17.423578],[78.45817,17.43868],[78.45221,17.44572],[78.45008,17.45588],[78.43016,17.46256],[78.40782,17.45918],[78.38524100000002,17.46978],[78.363075,17.482695],[78.33271,17.48738],[78.31698399999998,17.483083999999998]]}},{"type":"Feature","properties":{"route_id":"47111","route_short_name":"47111","route_long_name":"HYB-LPI","agency_id":"","mode":"suburban_rail","operator":"Hyderabad Multi-Modal Transport System","source_feed_id":"hyderabad_mmts"},"geometry":{"type":"LineString","coordinates":[[78.46759,17.39245],[78.463197,17.403717999999998],[78.46106,17.41298],[78.463111,17.423578],[78.45817,17.43868],[78.45221,17.44572],[78.45008,17.45588],[78.43016,17.46256],[78.40782,17.45918],[78.38524100000002,17.46978],[78.363075,17.482695],[78.33271,17.48738],[78.31698399999998,17.483083999999998]]}},{"type":"Feature","properties":{"route_id":"47112","route_short_name":"47112","route_long_name":"HYB-LPI","agency_id":"","mode":"suburban_rail","operator":"Hyderabad Multi-Modal Transport System","source_feed_id":"hyderabad_mmts"},"geometry":{"type":"LineString","coordinates":[[78.46759,17.39245],[78.463197,17.403717999999998],[78.46106,17.41298],[78.463111,17.423578],[78.45817,17.43868],[78.45221,17.44572],[78.45008,17.45588],[78.43016,17.46256],[78.40782,17.45918],[78.38524100000002,17.46978],[78.363075,17.482695],[78.33271,17.48738],[78.31698399999998,17.483083999999998]]}},{"type":"Feature","properties":{"route_id":"47113","route_short_name":"47113","route_long_name":"HYB-LPI","agency_id":"","mode":"suburban_rail","operator":"Hyderabad Multi-Modal Transport System","source_feed_id":"hyderabad_mmts"},"geometry":{"type":"LineString","coordinates":[[78.46759,17.39245],[78.463197,17.403717999999998],[78.46106,17.41298],[78.463111,17.423578],[78.45817,17.43868],[78.45221,17.44572],[78.45008,17.45588],[78.43016,17.46256],[78.40782,17.45918],[78.38524100000002,17.46978],[78.363075,17.482695],[78.33271,17.48738],[78.31698399999998,17.483083999999998]]}},{"type":"Feature","properties":{"route_id":"47114","route_short_name":"47114","route_long_name":"HYB-LPI","agency_id":"","mode":"suburban_rail","operator":"Hyderabad Multi-Modal Transport System","source_feed_id":"hyderabad_mmts"},"geometry":{"type":"LineString","coordinates":[[78.46759,17.39245],[78.463197,17.403717999999998],[78.46106,17.41298],[78.463111,17.423578],[78.45817,17.43868],[78.45221,17.44572],[78.45008,17.45588],[78.43016,17.46256],[78.40782,17.45918],[78.38524100000002,17.46978],[78.363075,17.482695],[78.33271,17.48738],[78.31698399999998,17.483083999999998]]}},{"type":"Feature","properties":{"route_id":"47115","route_short_name":"47115","route_long_name":"HYB-LPI","agency_id":"","mode":"suburban_rail","operator":"Hyderabad Multi-Modal Transport System","source_feed_id":"hyderabad_mmts"},"geometry":{"type":"LineString","coordinates":[[78.46759,17.39245],[78.463197,17.403717999999998],[78.46106,17.41298],[78.463111,17.423578],[78.45817,17.43868],[78.45221,17.44572],[78.45008,17.45588],[78.43016,17.46256],[78.40782,17.45918],[78.38524100000002,17.46978],[78.363075,17.482695],[78.33271,17.48738],[78.31698399999998,17.483083999999998]]}},{"type":"Feature","properties":{"route_id":"47116","route_short_name":"47116","route_long_name":"HYB-LPI","agency_id":"","mode":"suburban_rail","operator":"Hyderabad Multi-Modal Transport System","source_feed_id":"hyderabad_mmts"},"geometry":{"type":"LineString","coordinates":[[78.46759,17.39245],[78.463197,17.403717999999998],[78.46106,17.41298],[78.463111,17.423578],[78.45817,17.43868],[78.45221,17.44572],[78.45008,17.45588],[78.43016,17.46256],[78.40782,17.45918],[78.38524100000002,17.46978],[78.363075,17.482695],[78.33271,17.48738],[78.31698399999998,17.483083999999998]]}},{"type":"Feature","properties":{"route_id":"47117","route_short_name":"47117","route_long_name":"HYB-LPI","agency_id":"","mode":"suburban_rail","operator":"Hyderabad Multi-Modal Transport System","source_feed_id":"hyderabad_mmts"},"geometry":{"type":"LineString","coordinates":[[78.46759,17.39245],[78.463197,17.403717999999998],[78.46106,17.41298],[78.463111,17.423578],[78.45817,17.43868],[78.45221,17.44572],[78.45008,17.45588],[78.43016,17.46256],[78.40782,17.45918],[78.38524100000002,17.46978],[78.363075,17.482695],[78.33271,17.48738],[78.31698399999998,17.483083999999998]]}},{"type":"Feature","properties":{"route_id":"47118","route_short_name":"47118","route_long_name":"HYB-LPI","agency_id":"","mode":"suburban_rail","operator":"Hyderabad Multi-Modal Transport System","source_feed_id":"hyderabad_mmts"},"geometry":{"type":"LineString","coordinates":[[78.46759,17.39245],[78.463197,17.403717999999998],[78.46106,17.41298],[78.463111,17.423578],[78.45817,17.43868],[78.45221,17.44572],[78.45008,17.45588],[78.43016,17.46256],[78.40782,17.45918],[78.38524100000002,17.46978],[78.363075,17.482695],[78.33271,17.48738],[78.31698399999998,17.483083999999998]]}},{"type":"Feature","properties":{"route_id":"47119","route_short_name":"47119","route_long_name":"HYB-LPI","agency_id":"","mode":"suburban_rail","operator":"Hyderabad Multi-Modal Transport System","source_feed_id":"hyderabad_mmts"},"geometry":{"type":"LineString","coordinates":[[78.46759,17.39245],[78.463197,17.403717999999998],[78.46106,17.41298],[78.463111,17.423578],[78.45817,17.43868],[78.45221,17.44572],[78.45008,17.45588],[78.43016,17.46256],[78.40782,17.45918],[78.38524100000002,17.46978],[78.363075,17.482695],[78.33271,17.48738],[78.31698399999998,17.483083999999998]]}},{"type":"Feature","properties":{"route_id":"47120","route_short_name":"47120","route_long_name":"HYB-LPI","agency_id":"","mode":"suburban_rail","operator":"Hyderabad Multi-Modal Transport System","source_feed_id":"hyderabad_mmts"},"geometry":{"type":"LineString","coordinates":[[78.46759,17.39245],[78.463197,17.403717999999998],[78.46106,17.41298],[78.463111,17.423578],[78.45817,17.43868],[78.45221,17.44572],[78.45008,17.45588],[78.43016,17.46256],[78.40782,17.45918],[78.38524100000002,17.46978],[78.363075,17.482695],[78.33271,17.48738],[78.31698399999998,17.483083999999998]]}},{"type":"Feature","properties":{"route_id":"47121","route_short_name":"47121","route_long_name":"HYB-LPI","agency_id":"","mode":"suburban_rail","operator":"Hyderabad Multi-Modal Transport System","source_feed_id":"hyderabad_mmts"},"geometry":{"type":"LineString","coordinates":[[78.46759,17.39245],[78.463197,17.403717999999998],[78.46106,17.41298],[78.463111,17.423578],[78.45817,17.43868],[78.45221,17.44572],[78.45008,17.45588],[78.43016,17.46256],[78.40782,17.45918],[78.38524100000002,17.46978],[78.363075,17.482695],[78.33271,17.48738],[78.31698399999998,17.483083999999998]]}},{"type":"Feature","properties":{"route_id":"47122","route_short_name":"47122","route_long_name":"HYB-LPI","agency_id":"","mode":"suburban_rail","operator":"Hyderabad Multi-Modal Transport System","source_feed_id":"hyderabad_mmts"},"geometry":{"type":"LineString","coordinates":[[78.46759,17.39245],[78.463197,17.403717999999998],[78.46106,17.41298],[78.463111,17.423578],[78.45817,17.43868],[78.45221,17.44572],[78.45008,17.45588],[78.43016,17.46256],[78.40782,17.45918],[78.38524100000002,17.46978],[78.363075,17.482695],[78.33271,17.48738],[78.31698399999998,17.483083999999998]]}},{"type":"Feature","properties":{"route_id":"47123","route_short_name":"47123","route_long_name":"HYB-LPI","agency_id":"","mode":"suburban_rail","operator":"Hyderabad Multi-Modal Transport System","source_feed_id":"hyderabad_mmts"},"geometry":{"type":"LineString","coordinates":[[78.46759,17.39245],[78.463197,17.403717999999998],[78.46106,17.41298],[78.463111,17.423578],[78.45817,17.43868],[78.45221,17.44572],[78.45008,17.45588],[78.43016,17.46256],[78.40782,17.45918],[78.38524100000002,17.46978],[78.363075,17.482695],[78.33271,17.48738],[78.31698399999998,17.483083999999998]]}},{"type":"Feature","properties":{"route_id":"47124","route_short_name":"47124","route_long_name":"HYB-LPI","agency_id":"","mode":"suburban_rail","operator":"Hyderabad Multi-Modal Transport System","source_feed_id":"hyderabad_mmts"},"geometry":{"type":"LineString","coordinates":[[78.46759,17.39245],[78.463197,17.403717999999998],[78.46106,17.41298],[78.463111,17.423578],[78.45817,17.43868],[78.45221,17.44572],[78.45008,17.45588],[78.43016,17.46256],[78.40782,17.45918],[78.38524100000002,17.46978],[78.363075,17.482695],[78.33271,17.48738],[78.31698399999998,17.483083999999998]]}},{"type":"Feature","properties":{"route_id":"47125","route_short_name":"47125","route_long_name":"HYB-LPI","agency_id":"","mode":"suburban_rail","operator":"Hyderabad Multi-Modal Transport System","source_feed_id":"hyderabad_mmts"},"geometry":{"type":"LineString","coordinates":[[78.46759,17.39245],[78.463197,17.403717999999998],[78.46106,17.41298],[78.463111,17.423578],[78.45817,17.43868],[78.45221,17.44572],[78.45008,17.45588],[78.43016,17.46256],[78.40782,17.45918],[78.38524100000002,17.46978],[78.363075,17.482695],[78.33271,17.48738],[78.31698399999998,17.483083999999998]]}},{"type":"Feature","properties":{"route_id":"47126","route_short_name":"47126","route_long_name":"LPI-HYB","agency_id":"","mode":"suburban_rail","operator":"Hyderabad Multi-Modal Transport System","source_feed_id":"hyderabad_mmts"},"geometry":{"type":"LineString","coordinates":[[78.28248,17.511305],[78.282051,17.502301],[78.284883,17.474877],[78.31698399999998,17.483083999999998],[78.33271,17.48738],[78.363075,17.482695],[78.38524100000002,17.46978],[78.40782,17.45918],[78.43016,17.46256],[78.45008,17.45588],[78.45221,17.44572],[78.45817,17.43868],[78.463111,17.423578],[78.46106,17.41298],[78.463197,17.403717999999998],[78.46759,17.39245]]}},{"type":"Feature","properties":{"route_id":"47127","route_short_name":"47127","route_long_name":"LPI-HYB","agency_id":"","mode":"suburban_rail","operator":"Hyderabad Multi-Modal Transport System","source_feed_id":"hyderabad_mmts"},"geometry":{"type":"LineString","coordinates":[[78.31698399999998,17.483083999999998],[78.33271,17.48738],[78.363075,17.482695],[78.38524100000002,17.46978],[78.40782,17.45918],[78.43016,17.46256],[78.45008,17.45588],[78.45221,17.44572],[78.45817,17.43868],[78.463111,17.423578],[78.46106,17.41298],[78.463197,17.403717999999998],[78.46759,17.39245]]}},{"type":"Feature","properties":{"route_id":"47128","route_short_name":"47128","route_long_name":"LPI-HYB","agency_id":"","mode":"suburban_rail","operator":"Hyderabad Multi-Modal Transport System","source_feed_id":"hyderabad_mmts"},"geometry":{"type":"LineString","coordinates":[[78.31698399999998,17.483083999999998],[78.33271,17.48738],[78.363075,17.482695],[78.38524100000002,17.46978],[78.40782,17.45918],[78.43016,17.46256],[78.45008,17.45588],[78.45221,17.44572],[78.45817,17.43868],[78.463111,17.423578],[78.46106,17.41298],[78.463197,17.403717999999998],[78.46759,17.39245]]}},{"type":"Feature","properties":{"route_id":"47129","route_short_name":"47129","route_long_name":"LPI-HYB","agency_id":"","mode":"suburban_rail","operator":"Hyderabad Multi-Modal Transport System","source_feed_id":"hyderabad_mmts"},"geometry":{"type":"LineString","coordinates":[[78.31698399999998,17.483083999999998],[78.33271,17.48738],[78.363075,17.482695],[78.38524100000002,17.46978],[78.40782,17.45918],[78.43016,17.46256],[78.45008,17.45588],[78.45221,17.44572],[78.45817,17.43868],[78.463111,17.423578],[78.46106,17.41298],[78.463197,17.403717999999998],[78.46759,17.39245]]}},{"type":"Feature","properties":{"route_id":"47130","route_short_name":"47130","route_long_name":"LPI-HYB","agency_id":"","mode":"suburban_rail","operator":"Hyderabad Multi-Modal Transport System","source_feed_id":"hyderabad_mmts"},"geometry":{"type":"LineString","coordinates":[[78.31698399999998,17.483083999999998],[78.33271,17.48738],[78.363075,17.482695],[78.38524100000002,17.46978],[78.40782,17.45918],[78.43016,17.46256],[78.45008,17.45588],[78.45221,17.44572],[78.45817,17.43868],[78.463111,17.423578],[78.46106,17.41298],[78.463197,17.403717999999998],[78.46759,17.39245]]}},{"type":"Feature","properties":{"route_id":"47131","route_short_name":"47131","route_long_name":"LPI-HYB","agency_id":"","mode":"suburban_rail","operator":"Hyderabad Multi-Modal Transport System","source_feed_id":"hyderabad_mmts"},"geometry":{"type":"LineString","coordinates":[[78.31698399999998,17.483083999999998],[78.33271,17.48738],[78.363075,17.482695],[78.38524100000002,17.46978],[78.40782,17.45918],[78.43016,17.46256],[78.45008,17.45588],[78.45221,17.44572],[78.45817,17.43868],[78.463111,17.423578],[78.46106,17.41298],[78.463197,17.403717999999998],[78.46759,17.39245]]}},{"type":"Feature","properties":{"route_id":"47132","route_short_name":"47132","route_long_name":"LPI-HYB","agency_id":"","mode":"suburban_rail","operator":"Hyderabad Multi-Modal Transport System","source_feed_id":"hyderabad_mmts"},"geometry":{"type":"LineString","coordinates":[[78.31698399999998,17.483083999999998],[78.33271,17.48738],[78.363075,17.482695],[78.38524100000002,17.46978],[78.40782,17.45918],[78.43016,17.46256],[78.45008,17.45588],[78.45221,17.44572],[78.45817,17.43868],[78.463111,17.423578],[78.46106,17.41298],[78.463197,17.403717999999998],[78.46759,17.39245]]}},{"type":"Feature","properties":{"route_id":"47133","route_short_name":"47133","route_long_name":"LPI-HYB","agency_id":"","mode":"suburban_rail","operator":"Hyderabad Multi-Modal Transport System","source_feed_id":"hyderabad_mmts"},"geometry":{"type":"LineString","coordinates":[[78.31698399999998,17.483083999999998],[78.33271,17.48738],[78.363075,17.482695],[78.38524100000002,17.46978],[78.40782,17.45918],[78.43016,17.46256],[78.45008,17.45588],[78.45221,17.44572],[78.45817,17.43868],[78.463111,17.423578],[78.46106,17.41298],[78.463197,17.403717999999998],[78.46759,17.39245]]}},{"type":"Feature","properties":{"route_id":"47134","route_short_name":"47134","route_long_name":"LPI-HYB","agency_id":"","mode":"suburban_rail","operator":"Hyderabad Multi-Modal Transport System","source_feed_id":"hyderabad_mmts"},"geometry":{"type":"LineString","coordinates":[[78.31698399999998,17.483083999999998],[78.33271,17.48738],[78.363075,17.482695],[78.38524100000002,17.46978],[78.40782,17.45918],[78.43016,17.46256],[78.45008,17.45588],[78.45221,17.44572],[78.45817,17.43868],[78.463111,17.423578],[78.46106,17.41298],[78.463197,17.403717999999998],[78.46759,17.39245]]}},{"type":"Feature","properties":{"route_id":"47135","route_short_name":"47135","route_long_name":"LPI-HYB","agency_id":"","mode":"suburban_rail","operator":"Hyderabad Multi-Modal Transport System","source_feed_id":"hyderabad_mmts"},"geometry":{"type":"LineString","coordinates":[[78.31698399999998,17.483083999999998],[78.33271,17.48738],[78.363075,17.482695],[78.38524100000002,17.46978],[78.40782,17.45918],[78.43016,17.46256],[78.45008,17.45588],[78.45221,17.44572],[78.45817,17.43868],[78.463111,17.423578],[78.46106,17.41298],[78.463197,17.403717999999998],[78.46759,17.39245]]}},{"type":"Feature","properties":{"route_id":"47136","route_short_name":"47136","route_long_name":"LPI-HYB","agency_id":"","mode":"suburban_rail","operator":"Hyderabad Multi-Modal Transport System","source_feed_id":"hyderabad_mmts"},"geometry":{"type":"LineString","coordinates":[[78.31698399999998,17.483083999999998],[78.33271,17.48738],[78.363075,17.482695],[78.38524100000002,17.46978],[78.40782,17.45918],[78.43016,17.46256],[78.45008,17.45588],[78.45221,17.44572],[78.45817,17.43868],[78.463111,17.423578],[78.46106,17.41298],[78.463197,17.403717999999998],[78.46759,17.39245]]}},{"type":"Feature","properties":{"route_id":"47137","route_short_name":"47137","route_long_name":"LPI-HYB","agency_id":"","mode":"suburban_rail","operator":"Hyderabad Multi-Modal Transport System","source_feed_id":"hyderabad_mmts"},"geometry":{"type":"LineString","coordinates":[[78.31698399999998,17.483083999999998],[78.33271,17.48738],[78.363075,17.482695],[78.38524100000002,17.46978],[78.40782,17.45918],[78.43016,17.46256],[78.45008,17.45588],[78.45221,17.44572],[78.45817,17.43868],[78.463111,17.423578],[78.46106,17.41298],[78.463197,17.403717999999998],[78.46759,17.39245]]}},{"type":"Feature","properties":{"route_id":"47138","route_short_name":"47138","route_long_name":"LPI-HYB","agency_id":"","mode":"suburban_rail","operator":"Hyderabad Multi-Modal Transport System","source_feed_id":"hyderabad_mmts"},"geometry":{"type":"LineString","coordinates":[[78.31698399999998,17.483083999999998],[78.33271,17.48738],[78.363075,17.482695],[78.38524100000002,17.46978],[78.40782,17.45918],[78.43016,17.46256],[78.45008,17.45588],[78.45221,17.44572],[78.45817,17.43868],[78.463111,17.423578],[78.46106,17.41298],[78.463197,17.403717999999998],[78.46759,17.39245]]}},{"type":"Feature","properties":{"route_id":"47139","route_short_name":"47139","route_long_name":"LPI-HYB","agency_id":"","mode":"suburban_rail","operator":"Hyderabad Multi-Modal Transport System","source_feed_id":"hyderabad_mmts"},"geometry":{"type":"LineString","coordinates":[[78.31698399999998,17.483083999999998],[78.33271,17.48738],[78.363075,17.482695],[78.38524100000002,17.46978],[78.40782,17.45918],[78.43016,17.46256],[78.45008,17.45588],[78.45221,17.44572],[78.45817,17.43868],[78.463111,17.423578],[78.46106,17.41298],[78.463197,17.403717999999998],[78.46759,17.39245]]}},{"type":"Feature","properties":{"route_id":"47140","route_short_name":"47140","route_long_name":"LPI-HYB","agency_id":"","mode":"suburban_rail","operator":"Hyderabad Multi-Modal Transport System","source_feed_id":"hyderabad_mmts"},"geometry":{"type":"LineString","coordinates":[[78.31698399999998,17.483083999999998],[78.33271,17.48738],[78.363075,17.482695],[78.38524100000002,17.46978],[78.40782,17.45918],[78.43016,17.46256],[78.45008,17.45588],[78.45221,17.44572],[78.45817,17.43868],[78.463111,17.423578],[78.46106,17.41298],[78.463197,17.403717999999998],[78.46759,17.39245]]}},{"type":"Feature","properties":{"route_id":"47141","route_short_name":"47141","route_long_name":"LPI-HYB","agency_id":"","mode":"suburban_rail","operator":"Hyderabad Multi-Modal Transport System","source_feed_id":"hyderabad_mmts"},"geometry":{"type":"LineString","coordinates":[[78.31698399999998,17.483083999999998],[78.33271,17.48738],[78.363075,17.482695],[78.38524100000002,17.46978],[78.40782,17.45918],[78.43016,17.46256],[78.45008,17.45588],[78.45221,17.44572],[78.45817,17.43868],[78.463111,17.423578],[78.46106,17.41298],[78.463197,17.403717999999998],[78.46759,17.39245]]}},{"type":"Feature","properties":{"route_id":"47142","route_short_name":"47142","route_long_name":"LPI-HYB","agency_id":"","mode":"suburban_rail","operator":"Hyderabad Multi-Modal Transport System","source_feed_id":"hyderabad_mmts"},"geometry":{"type":"LineString","coordinates":[[78.31698399999998,17.483083999999998],[78.33271,17.48738],[78.363075,17.482695],[78.38524100000002,17.46978],[78.40782,17.45918],[78.43016,17.46256],[78.45008,17.45588],[78.45221,17.44572],[78.45817,17.43868],[78.463111,17.423578],[78.46106,17.41298],[78.463197,17.403717999999998],[78.46759,17.39245]]}},{"type":"Feature","properties":{"route_id":"47143","route_short_name":"47143","route_long_name":"LPI-HYB","agency_id":"","mode":"suburban_rail","operator":"Hyderabad Multi-Modal Transport System","source_feed_id":"hyderabad_mmts"},"geometry":{"type":"LineString","coordinates":[[78.31698399999998,17.483083999999998],[78.33271,17.48738],[78.363075,17.482695],[78.38524100000002,17.46978],[78.40782,17.45918],[78.43016,17.46256],[78.45008,17.45588],[78.45221,17.44572],[78.45817,17.43868],[78.463111,17.423578],[78.46106,17.41298],[78.463197,17.403717999999998],[78.46759,17.39245]]}},{"type":"Feature","properties":{"route_id":"47144","route_short_name":"47144","route_long_name":"LPI-HYB","agency_id":"","mode":"suburban_rail","operator":"Hyderabad Multi-Modal Transport System","source_feed_id":"hyderabad_mmts"},"geometry":{"type":"LineString","coordinates":[[78.31698399999998,17.483083999999998],[78.33271,17.48738],[78.363075,17.482695],[78.38524100000002,17.46978],[78.40782,17.45918],[78.43016,17.46256],[78.45008,17.45588],[78.45221,17.44572],[78.45817,17.43868],[78.463111,17.423578],[78.46106,17.41298],[78.463197,17.403717999999998],[78.46759,17.39245]]}},{"type":"Feature","properties":{"route_id":"47145","route_short_name":"47145","route_long_name":"LPI-HYB","agency_id":"","mode":"suburban_rail","operator":"Hyderabad Multi-Modal Transport System","source_feed_id":"hyderabad_mmts"},"geometry":{"type":"LineString","coordinates":[[78.31698399999998,17.483083999999998],[78.33271,17.48738],[78.363075,17.482695],[78.38524100000002,17.46978],[78.40782,17.45918],[78.43016,17.46256],[78.45008,17.45588],[78.45221,17.44572],[78.45817,17.43868],[78.463111,17.423578],[78.46106,17.41298],[78.463197,17.403717999999998],[78.46759,17.39245]]}},{"type":"Feature","properties":{"route_id":"47146","route_short_name":"47146","route_long_name":"LPI-HYB","agency_id":"","mode":"suburban_rail","operator":"Hyderabad Multi-Modal Transport System","source_feed_id":"hyderabad_mmts"},"geometry":{"type":"LineString","coordinates":[[78.31698399999998,17.483083999999998],[78.33271,17.48738],[78.363075,17.482695],[78.38524100000002,17.46978],[78.40782,17.45918],[78.43016,17.46256],[78.45008,17.45588],[78.45221,17.44572],[78.45817,17.43868],[78.463111,17.423578],[78.46106,17.41298],[78.463197,17.403717999999998],[78.46759,17.39245]]}},{"type":"Feature","properties":{"route_id":"47147","route_short_name":"47147","route_long_name":"LPI-HYB","agency_id":"","mode":"suburban_rail","operator":"Hyderabad Multi-Modal Transport System","source_feed_id":"hyderabad_mmts"},"geometry":{"type":"LineString","coordinates":[[78.31698399999998,17.483083999999998],[78.33271,17.48738],[78.363075,17.482695],[78.38524100000002,17.46978],[78.40782,17.45918],[78.43016,17.46256],[78.45008,17.45588],[78.45221,17.44572],[78.45817,17.43868],[78.463111,17.423578],[78.46106,17.41298],[78.463197,17.403717999999998],[78.46759,17.39245]]}},{"type":"Feature","properties":{"route_id":"47148","route_short_name":"47148","route_long_name":"LPI-HYB","agency_id":"","mode":"suburban_rail","operator":"Hyderabad Multi-Modal Transport System","source_feed_id":"hyderabad_mmts"},"geometry":{"type":"LineString","coordinates":[[78.31698399999998,17.483083999999998],[78.33271,17.48738],[78.363075,17.482695],[78.38524100000002,17.46978],[78.40782,17.45918],[78.43016,17.46256],[78.45008,17.45588],[78.45221,17.44572],[78.45817,17.43868],[78.463111,17.423578],[78.46106,17.41298],[78.463197,17.403717999999998],[78.46759,17.39245]]}},{"type":"Feature","properties":{"route_id":"47149","route_short_name":"47149","route_long_name":"FM-LPI","agency_id":"","mode":"suburban_rail","operator":"Hyderabad Multi-Modal Transport System","source_feed_id":"hyderabad_mmts"},"geometry":{"type":"LineString","coordinates":[[78.47516,17.33272],[78.48244,17.34132],[78.49207,17.36001],[78.49037,17.36659],[78.4948,17.37664],[78.49984599999998,17.389651],[78.51121,17.40218],[78.51839,17.4116],[78.519995,17.41846],[78.51961,17.42839],[78.50158,17.43374],[78.48722,17.43287],[78.47672,17.43561],[78.45817,17.43868],[78.45221,17.44572],[78.45008,17.45588],[78.43016,17.46256],[78.40782,17.45918],[78.38524100000002,17.46978],[78.363075,17.482695],[78.33271,17.48738],[78.31698399999998,17.483083999999998]]}},{"type":"Feature","properties":{"route_id":"47150","route_short_name":"47150","route_long_name":"FM-LPI","agency_id":"","mode":"suburban_rail","operator":"Hyderabad Multi-Modal Transport System","source_feed_id":"hyderabad_mmts"},"geometry":{"type":"LineString","coordinates":[[78.47516,17.33272],[78.48244,17.34132],[78.49207,17.36001],[78.49037,17.36659],[78.4948,17.37664],[78.49984599999998,17.389651],[78.51121,17.40218],[78.51839,17.4116],[78.519995,17.41846],[78.51961,17.42839],[78.50158,17.43374],[78.48722,17.43287],[78.47672,17.43561],[78.45817,17.43868],[78.45221,17.44572],[78.45008,17.45588],[78.43016,17.46256],[78.40782,17.45918],[78.38524100000002,17.46978],[78.363075,17.482695],[78.33271,17.48738],[78.31698399999998,17.483083999999998]]}},{"type":"Feature","properties":{"route_id":"47151","route_short_name":"47151","route_long_name":"FM-LPI","agency_id":"","mode":"suburban_rail","operator":"Hyderabad Multi-Modal Transport System","source_feed_id":"hyderabad_mmts"},"geometry":{"type":"LineString","coordinates":[[78.47516,17.33272],[78.48244,17.34132],[78.49207,17.36001],[78.49037,17.36659],[78.4948,17.37664],[78.49984599999998,17.389651],[78.51121,17.40218],[78.51839,17.4116],[78.519995,17.41846],[78.51961,17.42839],[78.50158,17.43374],[78.48722,17.43287],[78.47672,17.43561],[78.45817,17.43868],[78.45221,17.44572],[78.45008,17.45588],[78.43016,17.46256],[78.40782,17.45918],[78.38524100000002,17.46978],[78.363075,17.482695],[78.33271,17.48738],[78.31698399999998,17.483083999999998]]}},{"type":"Feature","properties":{"route_id":"47152","route_short_name":"47152","route_long_name":"FM-LPI","agency_id":"","mode":"suburban_rail","operator":"Hyderabad Multi-Modal Transport System","source_feed_id":"hyderabad_mmts"},"geometry":{"type":"LineString","coordinates":[[78.47516,17.33272],[78.48244,17.34132],[78.49207,17.36001],[78.49037,17.36659],[78.4948,17.37664],[78.49984599999998,17.389651],[78.51121,17.40218],[78.51839,17.4116],[78.519995,17.41846],[78.51961,17.42839],[78.50158,17.43374],[78.48722,17.43287],[78.47672,17.43561],[78.45817,17.43868],[78.45221,17.44572],[78.45008,17.45588],[78.43016,17.46256],[78.40782,17.45918],[78.38524100000002,17.46978],[78.363075,17.482695],[78.33271,17.48738],[78.31698399999998,17.483083999999998]]}},{"type":"Feature","properties":{"route_id":"47153","route_short_name":"47153","route_long_name":"FM-LPI","agency_id":"","mode":"suburban_rail","operator":"Hyderabad Multi-Modal Transport System","source_feed_id":"hyderabad_mmts"},"geometry":{"type":"LineString","coordinates":[[78.47516,17.33272],[78.48244,17.34132],[78.49207,17.36001],[78.49037,17.36659],[78.4948,17.37664],[78.49984599999998,17.389651],[78.51121,17.40218],[78.51839,17.4116],[78.519995,17.41846],[78.51961,17.42839],[78.50158,17.43374],[78.48722,17.43287],[78.47672,17.43561],[78.45817,17.43868],[78.45221,17.44572],[78.45008,17.45588],[78.43016,17.46256],[78.40782,17.45918],[78.38524100000002,17.46978],[78.363075,17.482695],[78.33271,17.48738],[78.31698399999998,17.483083999999998]]}},{"type":"Feature","properties":{"route_id":"47154","route_short_name":"47154","route_long_name":"FM-LPI","agency_id":"","mode":"suburban_rail","operator":"Hyderabad Multi-Modal Transport System","source_feed_id":"hyderabad_mmts"},"geometry":{"type":"LineString","coordinates":[[78.47516,17.33272],[78.48244,17.34132],[78.49207,17.36001],[78.49037,17.36659],[78.4948,17.37664],[78.49984599999998,17.389651],[78.51121,17.40218],[78.51839,17.4116],[78.519995,17.41846],[78.51961,17.42839],[78.50158,17.43374],[78.48722,17.43287],[78.47672,17.43561],[78.45817,17.43868],[78.45221,17.44572],[78.45008,17.45588],[78.43016,17.46256],[78.40782,17.45918],[78.38524100000002,17.46978],[78.363075,17.482695],[78.33271,17.48738],[78.31698399999998,17.483083999999998]]}},{"type":"Feature","properties":{"route_id":"47155","route_short_name":"47155","route_long_name":"FM-LPI","agency_id":"","mode":"suburban_rail","operator":"Hyderabad Multi-Modal Transport System","source_feed_id":"hyderabad_mmts"},"geometry":{"type":"LineString","coordinates":[[78.47516,17.33272],[78.48244,17.34132],[78.49207,17.36001],[78.49037,17.36659],[78.4948,17.37664],[78.49984599999998,17.389651],[78.51121,17.40218],[78.51839,17.4116],[78.519995,17.41846],[78.51961,17.42839],[78.50158,17.43374],[78.48722,17.43287],[78.47672,17.43561],[78.45817,17.43868],[78.45221,17.44572],[78.45008,17.45588],[78.43016,17.46256],[78.40782,17.45918],[78.38524100000002,17.46978],[78.363075,17.482695],[78.33271,17.48738],[78.31698399999998,17.483083999999998]]}},{"type":"Feature","properties":{"route_id":"47156","route_short_name":"47156","route_long_name":"FM-LPI","agency_id":"","mode":"suburban_rail","operator":"Hyderabad Multi-Modal Transport System","source_feed_id":"hyderabad_mmts"},"geometry":{"type":"LineString","coordinates":[[78.47516,17.33272],[78.48244,17.34132],[78.49207,17.36001],[78.49037,17.36659],[78.4948,17.37664],[78.49984599999998,17.389651],[78.51121,17.40218],[78.51839,17.4116],[78.519995,17.41846],[78.51961,17.42839],[78.50158,17.43374],[78.48722,17.43287],[78.47672,17.43561],[78.45817,17.43868],[78.45221,17.44572],[78.45008,17.45588],[78.43016,17.46256],[78.40782,17.45918],[78.38524100000002,17.46978],[78.363075,17.482695],[78.33271,17.48738],[78.31698399999998,17.483083999999998]]}},{"type":"Feature","properties":{"route_id":"47157","route_short_name":"47157","route_long_name":"FM-LPI","agency_id":"","mode":"suburban_rail","operator":"Hyderabad Multi-Modal Transport System","source_feed_id":"hyderabad_mmts"},"geometry":{"type":"LineString","coordinates":[[78.47516,17.33272],[78.48244,17.34132],[78.49207,17.36001],[78.49037,17.36659],[78.4948,17.37664],[78.49984599999998,17.389651],[78.51121,17.40218],[78.51839,17.4116],[78.519995,17.41846],[78.51961,17.42839],[78.50158,17.43374],[78.48722,17.43287],[78.47672,17.43561],[78.45817,17.43868],[78.45221,17.44572],[78.45008,17.45588],[78.43016,17.46256],[78.40782,17.45918],[78.38524100000002,17.46978],[78.363075,17.482695],[78.33271,17.48738],[78.31698399999998,17.483083999999998]]}},{"type":"Feature","properties":{"route_id":"47158","route_short_name":"47158","route_long_name":"FM-LPI","agency_id":"","mode":"suburban_rail","operator":"Hyderabad Multi-Modal Transport System","source_feed_id":"hyderabad_mmts"},"geometry":{"type":"LineString","coordinates":[[78.47516,17.33272],[78.48244,17.34132],[78.49207,17.36001],[78.49037,17.36659],[78.4948,17.37664],[78.49984599999998,17.389651],[78.51121,17.40218],[78.51839,17.4116],[78.519995,17.41846],[78.51961,17.42839],[78.50158,17.43374],[78.48722,17.43287],[78.47672,17.43561],[78.45817,17.43868],[78.45221,17.44572],[78.45008,17.45588],[78.43016,17.46256],[78.40782,17.45918],[78.38524100000002,17.46978],[78.363075,17.482695],[78.33271,17.48738],[78.31698399999998,17.483083999999998]]}},{"type":"Feature","properties":{"route_id":"47159","route_short_name":"47159","route_long_name":"LPI-FM","agency_id":"","mode":"suburban_rail","operator":"Hyderabad Multi-Modal Transport System","source_feed_id":"hyderabad_mmts"},"geometry":{"type":"LineString","coordinates":[[78.31698399999998,17.483083999999998],[78.33271,17.48738],[78.363075,17.482695],[78.38524100000002,17.46978],[78.40782,17.45918],[78.43016,17.46256],[78.45008,17.45588],[78.45221,17.44572],[78.45817,17.43868],[78.47672,17.43561],[78.48722,17.43287],[78.50158,17.43374],[78.51961,17.42839],[78.519995,17.41846],[78.51839,17.4116],[78.51121,17.40218],[78.49984599999998,17.389651],[78.4948,17.37664],[78.49037,17.36659],[78.49207,17.36001],[78.48244,17.34132],[78.47516,17.33272]]}},{"type":"Feature","properties":{"route_id":"47160","route_short_name":"47160","route_long_name":"FM-LPI","agency_id":"","mode":"suburban_rail","operator":"Hyderabad Multi-Modal Transport System","source_feed_id":"hyderabad_mmts"},"geometry":{"type":"LineString","coordinates":[[78.47516,17.33272],[78.48244,17.34132],[78.49207,17.36001],[78.49037,17.36659],[78.4948,17.37664],[78.49984599999998,17.389651],[78.51121,17.40218],[78.51839,17.4116],[78.519995,17.41846],[78.51961,17.42839],[78.50158,17.43374],[78.48722,17.43287],[78.47672,17.43561],[78.45817,17.43868],[78.45221,17.44572],[78.45008,17.45588],[78.43016,17.46256],[78.40782,17.45918],[78.38524100000002,17.46978],[78.363075,17.482695],[78.33271,17.48738],[78.31698399999998,17.483083999999998]]}},{"type":"Feature","properties":{"route_id":"47161","route_short_name":"47161","route_long_name":"FM-LPI","agency_id":"","mode":"suburban_rail","operator":"Hyderabad Multi-Modal Transport System","source_feed_id":"hyderabad_mmts"},"geometry":{"type":"LineString","coordinates":[[78.47516,17.33272],[78.48244,17.34132],[78.49207,17.36001],[78.49037,17.36659],[78.4948,17.37664],[78.49984599999998,17.389651],[78.51121,17.40218],[78.51839,17.4116],[78.519995,17.41846],[78.51961,17.42839],[78.50158,17.43374],[78.48722,17.43287],[78.47672,17.43561],[78.45817,17.43868],[78.45221,17.44572],[78.45008,17.45588],[78.43016,17.46256],[78.40782,17.45918],[78.38524100000002,17.46978],[78.363075,17.482695],[78.33271,17.48738],[78.31698399999998,17.483083999999998]]}},{"type":"Feature","properties":{"route_id":"47162","route_short_name":"47162","route_long_name":"FM-LPI","agency_id":"","mode":"suburban_rail","operator":"Hyderabad Multi-Modal Transport System","source_feed_id":"hyderabad_mmts"},"geometry":{"type":"LineString","coordinates":[[78.47516,17.33272],[78.48244,17.34132],[78.49207,17.36001],[78.49037,17.36659],[78.4948,17.37664],[78.49984599999998,17.389651],[78.51121,17.40218],[78.51839,17.4116],[78.519995,17.41846],[78.51961,17.42839],[78.50158,17.43374],[78.48722,17.43287],[78.47672,17.43561],[78.45817,17.43868],[78.45221,17.44572],[78.45008,17.45588],[78.43016,17.46256],[78.40782,17.45918],[78.38524100000002,17.46978],[78.363075,17.482695],[78.33271,17.48738],[78.31698399999998,17.483083999999998]]}},{"type":"Feature","properties":{"route_id":"47163","route_short_name":"47163","route_long_name":"FM-LPI","agency_id":"","mode":"suburban_rail","operator":"Hyderabad Multi-Modal Transport System","source_feed_id":"hyderabad_mmts"},"geometry":{"type":"LineString","coordinates":[[78.47516,17.33272],[78.48244,17.34132],[78.49207,17.36001],[78.49037,17.36659],[78.4948,17.37664],[78.49984599999998,17.389651],[78.51121,17.40218],[78.51839,17.4116],[78.519995,17.41846],[78.51961,17.42839],[78.50158,17.43374],[78.48722,17.43287],[78.47672,17.43561],[78.45817,17.43868],[78.45221,17.44572],[78.45008,17.45588],[78.43016,17.46256],[78.40782,17.45918],[78.38524100000002,17.46978],[78.363075,17.482695],[78.33271,17.48738],[78.31698399999998,17.483083999999998]]}},{"type":"Feature","properties":{"route_id":"47164","route_short_name":"47164","route_long_name":"FM-LPI","agency_id":"","mode":"suburban_rail","operator":"Hyderabad Multi-Modal Transport System","source_feed_id":"hyderabad_mmts"},"geometry":{"type":"LineString","coordinates":[[78.47516,17.33272],[78.48244,17.34132],[78.49207,17.36001],[78.49037,17.36659],[78.4948,17.37664],[78.49984599999998,17.389651],[78.51121,17.40218],[78.51839,17.4116],[78.519995,17.41846],[78.51961,17.42839],[78.50158,17.43374],[78.48722,17.43287],[78.47672,17.43561],[78.45817,17.43868],[78.45221,17.44572],[78.45008,17.45588],[78.43016,17.46256],[78.40782,17.45918],[78.38524100000002,17.46978],[78.363075,17.482695],[78.33271,17.48738],[78.31698399999998,17.483083999999998]]}},{"type":"Feature","properties":{"route_id":"47165","route_short_name":"47165","route_long_name":"FM-LPI","agency_id":"","mode":"suburban_rail","operator":"Hyderabad Multi-Modal Transport System","source_feed_id":"hyderabad_mmts"},"geometry":{"type":"LineString","coordinates":[[78.47516,17.33272],[78.48244,17.34132],[78.49207,17.36001],[78.49037,17.36659],[78.4948,17.37664],[78.49984599999998,17.389651],[78.51121,17.40218],[78.51839,17.4116],[78.519995,17.41846],[78.51961,17.42839],[78.50158,17.43374],[78.48722,17.43287],[78.47672,17.43561],[78.45817,17.43868],[78.45221,17.44572],[78.45008,17.45588],[78.43016,17.46256],[78.40782,17.45918],[78.38524100000002,17.46978],[78.363075,17.482695],[78.33271,17.48738],[78.31698399999998,17.483083999999998]]}},{"type":"Feature","properties":{"route_id":"47166","route_short_name":"47166","route_long_name":"FM-LPI","agency_id":"","mode":"suburban_rail","operator":"Hyderabad Multi-Modal Transport System","source_feed_id":"hyderabad_mmts"},"geometry":{"type":"LineString","coordinates":[[78.47516,17.33272],[78.48244,17.34132],[78.49207,17.36001],[78.49037,17.36659],[78.4948,17.37664],[78.49984599999998,17.389651],[78.51121,17.40218],[78.51839,17.4116],[78.519995,17.41846],[78.51961,17.42839],[78.50158,17.43374],[78.48722,17.43287],[78.47672,17.43561],[78.45817,17.43868],[78.45221,17.44572],[78.45008,17.45588],[78.43016,17.46256],[78.40782,17.45918],[78.38524100000002,17.46978],[78.363075,17.482695],[78.33271,17.48738],[78.31698399999998,17.483083999999998]]}},{"type":"Feature","properties":{"route_id":"47167","route_short_name":"47167","route_long_name":"FM-LPI","agency_id":"","mode":"suburban_rail","operator":"Hyderabad Multi-Modal Transport System","source_feed_id":"hyderabad_mmts"},"geometry":{"type":"LineString","coordinates":[[78.47516,17.33272],[78.48244,17.34132],[78.49207,17.36001],[78.49037,17.36659],[78.4948,17.37664],[78.49984599999998,17.389651],[78.51121,17.40218],[78.51839,17.4116],[78.519995,17.41846],[78.51961,17.42839],[78.50158,17.43374],[78.48722,17.43287],[78.47672,17.43561],[78.45817,17.43868],[78.45221,17.44572],[78.45008,17.45588],[78.43016,17.46256],[78.40782,17.45918],[78.38524100000002,17.46978],[78.363075,17.482695],[78.33271,17.48738],[78.31698399999998,17.483083999999998]]}},{"type":"Feature","properties":{"route_id":"47168","route_short_name":"47168","route_long_name":"FM-SC","agency_id":"","mode":"suburban_rail","operator":"Hyderabad Multi-Modal Transport System","source_feed_id":"hyderabad_mmts"},"geometry":{"type":"LineString","coordinates":[[78.47516,17.33272],[78.48244,17.34132],[78.49207,17.36001],[78.49037,17.36659],[78.4948,17.37664],[78.49984599999998,17.389651],[78.51121,17.40218],[78.51839,17.4116],[78.519995,17.41846],[78.51961,17.42839],[78.50158,17.43374]]}},{"type":"Feature","properties":{"route_id":"47169","route_short_name":"47169","route_long_name":"FM-LPI","agency_id":"","mode":"suburban_rail","operator":"Hyderabad Multi-Modal Transport System","source_feed_id":"hyderabad_mmts"},"geometry":{"type":"LineString","coordinates":[[78.47516,17.33272],[78.48244,17.34132],[78.49207,17.36001],[78.49037,17.36659],[78.4948,17.37664],[78.49984599999998,17.389651],[78.51121,17.40218],[78.51839,17.4116],[78.519995,17.41846],[78.51961,17.42839],[78.50158,17.43374],[78.48722,17.43287],[78.47672,17.43561],[78.45817,17.43868],[78.45221,17.44572],[78.45008,17.45588],[78.43016,17.46256],[78.40782,17.45918],[78.38524100000002,17.46978],[78.363075,17.482695],[78.33271,17.48738],[78.31698399999998,17.483083999999998]]}},{"type":"Feature","properties":{"route_id":"47170","route_short_name":"47170","route_long_name":"FM-LPI","agency_id":"","mode":"suburban_rail","operator":"Hyderabad Multi-Modal Transport System","source_feed_id":"hyderabad_mmts"},"geometry":{"type":"LineString","coordinates":[[78.47516,17.33272],[78.48244,17.34132],[78.49207,17.36001],[78.49037,17.36659],[78.4948,17.37664],[78.49984599999998,17.389651],[78.51121,17.40218],[78.51839,17.4116],[78.519995,17.41846],[78.51961,17.42839],[78.50158,17.43374],[78.48722,17.43287],[78.47672,17.43561],[78.45817,17.43868],[78.45221,17.44572],[78.45008,17.45588],[78.43016,17.46256],[78.40782,17.45918],[78.38524100000002,17.46978],[78.363075,17.482695],[78.33271,17.48738],[78.31698399999998,17.483083999999998],[78.284883,17.474877],[78.282051,17.502301],[78.28248,17.511305]]}},{"type":"Feature","properties":{"route_id":"47171","route_short_name":"47171","route_long_name":"LPI-FM","agency_id":"","mode":"suburban_rail","operator":"Hyderabad Multi-Modal Transport System","source_feed_id":"hyderabad_mmts"},"geometry":{"type":"LineString","coordinates":[[78.31698399999998,17.483083999999998],[78.33271,17.48738],[78.363075,17.482695],[78.38524100000002,17.46978],[78.40782,17.45918],[78.43016,17.46256],[78.45008,17.45588],[78.45221,17.44572],[78.45817,17.43868],[78.47672,17.43561],[78.48722,17.43287],[78.50158,17.43374],[78.51961,17.42839],[78.519995,17.41846],[78.51839,17.4116],[78.51121,17.40218],[78.49984599999998,17.389651],[78.4948,17.37664],[78.49037,17.36659],[78.49207,17.36001],[78.48244,17.34132],[78.47516,17.33272]]}},{"type":"Feature","properties":{"route_id":"47172","route_short_name":"47172","route_long_name":"SC-FM","agency_id":"","mode":"suburban_rail","operator":"Hyderabad Multi-Modal Transport System","source_feed_id":"hyderabad_mmts"},"geometry":{"type":"LineString","coordinates":[[78.50158,17.43374],[78.51961,17.42839],[78.519995,17.41846],[78.51839,17.4116],[78.51121,17.40218],[78.49984599999998,17.389651],[78.4948,17.37664],[78.49037,17.36659],[78.49207,17.36001],[78.48244,17.34132],[78.47516,17.33272]]}},{"type":"Feature","properties":{"route_id":"47173","route_short_name":"47173","route_long_name":"LPI-FM","agency_id":"","mode":"suburban_rail","operator":"Hyderabad Multi-Modal Transport System","source_feed_id":"hyderabad_mmts"},"geometry":{"type":"LineString","coordinates":[[78.31698399999998,17.483083999999998],[78.33271,17.48738],[78.363075,17.482695],[78.38524100000002,17.46978],[78.40782,17.45918],[78.43016,17.46256],[78.45008,17.45588],[78.45221,17.44572],[78.45817,17.43868],[78.47672,17.43561],[78.48722,17.43287],[78.50158,17.43374],[78.51961,17.42839],[78.519995,17.41846],[78.51839,17.4116],[78.51121,17.40218],[78.49984599999998,17.389651],[78.4948,17.37664],[78.49037,17.36659],[78.49207,17.36001],[78.48244,17.34132],[78.47516,17.33272]]}},{"type":"Feature","properties":{"route_id":"47174","route_short_name":"47174","route_long_name":"LPI-FM","agency_id":"","mode":"suburban_rail","operator":"Hyderabad Multi-Modal Transport System","source_feed_id":"hyderabad_mmts"},"geometry":{"type":"LineString","coordinates":[[78.31698399999998,17.483083999999998],[78.33271,17.48738],[78.363075,17.482695],[78.38524100000002,17.46978],[78.40782,17.45918],[78.43016,17.46256],[78.45008,17.45588],[78.45221,17.44572],[78.45817,17.43868],[78.47672,17.43561],[78.48722,17.43287],[78.50158,17.43374],[78.51961,17.42839],[78.519995,17.41846],[78.51839,17.4116],[78.51121,17.40218],[78.49984599999998,17.389651],[78.4948,17.37664],[78.49037,17.36659],[78.49207,17.36001],[78.48244,17.34132],[78.47516,17.33272]]}},{"type":"Feature","properties":{"route_id":"47175","route_short_name":"47175","route_long_name":"LPI-FM","agency_id":"","mode":"suburban_rail","operator":"Hyderabad Multi-Modal Transport System","source_feed_id":"hyderabad_mmts"},"geometry":{"type":"LineString","coordinates":[[78.31698399999998,17.483083999999998],[78.33271,17.48738],[78.363075,17.482695],[78.38524100000002,17.46978],[78.40782,17.45918],[78.43016,17.46256],[78.45008,17.45588],[78.45221,17.44572],[78.45817,17.43868],[78.47672,17.43561],[78.48722,17.43287],[78.50158,17.43374],[78.51961,17.42839],[78.519995,17.41846],[78.51839,17.4116],[78.51121,17.40218],[78.49984599999998,17.389651],[78.4948,17.37664],[78.49037,17.36659],[78.49207,17.36001],[78.48244,17.34132],[78.47516,17.33272]]}},{"type":"Feature","properties":{"route_id":"47176","route_short_name":"47176","route_long_name":"LPI-FM","agency_id":"","mode":"suburban_rail","operator":"Hyderabad Multi-Modal Transport System","source_feed_id":"hyderabad_mmts"},"geometry":{"type":"LineString","coordinates":[[78.31698399999998,17.483083999999998],[78.33271,17.48738],[78.363075,17.482695],[78.38524100000002,17.46978],[78.40782,17.45918],[78.43016,17.46256],[78.45008,17.45588],[78.45221,17.44572],[78.45817,17.43868],[78.47672,17.43561],[78.48722,17.43287],[78.50158,17.43374],[78.51961,17.42839],[78.519995,17.41846],[78.51839,17.4116],[78.51121,17.40218],[78.49984599999998,17.389651],[78.4948,17.37664],[78.49037,17.36659],[78.49207,17.36001],[78.48244,17.34132],[78.47516,17.33272]]}},{"type":"Feature","properties":{"route_id":"47177","route_short_name":"47177","route_long_name":"LPI-FM","agency_id":"","mode":"suburban_rail","operator":"Hyderabad Multi-Modal Transport System","source_feed_id":"hyderabad_mmts"},"geometry":{"type":"LineString","coordinates":[[78.31698399999998,17.483083999999998],[78.33271,17.48738],[78.363075,17.482695],[78.38524100000002,17.46978],[78.40782,17.45918],[78.43016,17.46256],[78.45008,17.45588],[78.45221,17.44572],[78.45817,17.43868],[78.47672,17.43561],[78.48722,17.43287],[78.50158,17.43374],[78.51961,17.42839],[78.519995,17.41846],[78.51839,17.4116],[78.51121,17.40218],[78.49984599999998,17.389651],[78.4948,17.37664],[78.49037,17.36659],[78.49207,17.36001],[78.48244,17.34132],[78.47516,17.33272]]}},{"type":"Feature","properties":{"route_id":"47178","route_short_name":"47178","route_long_name":"LPI-FM","agency_id":"","mode":"suburban_rail","operator":"Hyderabad Multi-Modal Transport System","source_feed_id":"hyderabad_mmts"},"geometry":{"type":"LineString","coordinates":[[78.31698399999998,17.483083999999998],[78.33271,17.48738],[78.363075,17.482695],[78.38524100000002,17.46978],[78.40782,17.45918],[78.43016,17.46256],[78.45008,17.45588],[78.45221,17.44572],[78.45817,17.43868],[78.47672,17.43561],[78.48722,17.43287],[78.50158,17.43374],[78.51961,17.42839],[78.519995,17.41846],[78.51839,17.4116],[78.51121,17.40218],[78.49984599999998,17.389651],[78.4948,17.37664],[78.49037,17.36659],[78.49207,17.36001],[78.48244,17.34132],[78.47516,17.33272]]}},{"type":"Feature","properties":{"route_id":"47179","route_short_name":"47179","route_long_name":"LPI-FM","agency_id":"","mode":"suburban_rail","operator":"Hyderabad Multi-Modal Transport System","source_feed_id":"hyderabad_mmts"},"geometry":{"type":"LineString","coordinates":[[78.31698399999998,17.483083999999998],[78.33271,17.48738],[78.363075,17.482695],[78.38524100000002,17.46978],[78.40782,17.45918],[78.43016,17.46256],[78.45008,17.45588],[78.45221,17.44572],[78.45817,17.43868],[78.47672,17.43561],[78.48722,17.43287],[78.50158,17.43374],[78.51961,17.42839],[78.519995,17.41846],[78.51839,17.4116],[78.51121,17.40218],[78.49984599999998,17.389651],[78.4948,17.37664],[78.49037,17.36659],[78.49207,17.36001],[78.48244,17.34132],[78.47516,17.33272]]}},{"type":"Feature","properties":{"route_id":"47180","route_short_name":"47180","route_long_name":"LPI-FM","agency_id":"","mode":"suburban_rail","operator":"Hyderabad Multi-Modal Transport System","source_feed_id":"hyderabad_mmts"},"geometry":{"type":"LineString","coordinates":[[78.31698399999998,17.483083999999998],[78.33271,17.48738],[78.363075,17.482695],[78.38524100000002,17.46978],[78.40782,17.45918],[78.43016,17.46256],[78.45008,17.45588],[78.45221,17.44572],[78.45817,17.43868],[78.47672,17.43561],[78.48722,17.43287],[78.50158,17.43374],[78.51961,17.42839],[78.519995,17.41846],[78.51839,17.4116],[78.51121,17.40218],[78.49984599999998,17.389651],[78.4948,17.37664],[78.49037,17.36659],[78.49207,17.36001],[78.48244,17.34132],[78.47516,17.33272]]}},{"type":"Feature","properties":{"route_id":"47181","route_short_name":"47181","route_long_name":"LPI-FM","agency_id":"","mode":"suburban_rail","operator":"Hyderabad Multi-Modal Transport System","source_feed_id":"hyderabad_mmts"},"geometry":{"type":"LineString","coordinates":[[78.31698399999998,17.483083999999998],[78.33271,17.48738],[78.363075,17.482695],[78.38524100000002,17.46978],[78.40782,17.45918],[78.43016,17.46256],[78.45008,17.45588],[78.45221,17.44572],[78.45817,17.43868],[78.47672,17.43561],[78.48722,17.43287],[78.50158,17.43374],[78.51961,17.42839],[78.519995,17.41846],[78.51839,17.4116],[78.51121,17.40218],[78.49984599999998,17.389651],[78.4948,17.37664],[78.49037,17.36659],[78.49207,17.36001],[78.48244,17.34132],[78.47516,17.33272]]}},{"type":"Feature","properties":{"route_id":"47182","route_short_name":"47182","route_long_name":"LPI-FM","agency_id":"","mode":"suburban_rail","operator":"Hyderabad Multi-Modal Transport System","source_feed_id":"hyderabad_mmts"},"geometry":{"type":"LineString","coordinates":[[78.31698399999998,17.483083999999998],[78.33271,17.48738],[78.363075,17.482695],[78.38524100000002,17.46978],[78.40782,17.45918],[78.43016,17.46256],[78.45008,17.45588],[78.45221,17.44572],[78.45817,17.43868],[78.47672,17.43561],[78.48722,17.43287],[78.50158,17.43374],[78.51961,17.42839],[78.519995,17.41846],[78.51839,17.4116],[78.51121,17.40218],[78.49984599999998,17.389651],[78.4948,17.37664],[78.49037,17.36659],[78.49207,17.36001],[78.48244,17.34132],[78.47516,17.33272]]}},{"type":"Feature","properties":{"route_id":"47183","route_short_name":"47183","route_long_name":"LPI-FM","agency_id":"","mode":"suburban_rail","operator":"Hyderabad Multi-Modal Transport System","source_feed_id":"hyderabad_mmts"},"geometry":{"type":"LineString","coordinates":[[78.31698399999998,17.483083999999998],[78.33271,17.48738],[78.363075,17.482695],[78.38524100000002,17.46978],[78.40782,17.45918],[78.43016,17.46256],[78.45008,17.45588],[78.45221,17.44572],[78.45817,17.43868],[78.47672,17.43561],[78.48722,17.43287],[78.50158,17.43374],[78.51961,17.42839],[78.519995,17.41846],[78.51839,17.4116],[78.51121,17.40218],[78.49984599999998,17.389651],[78.4948,17.37664],[78.49037,17.36659],[78.49207,17.36001],[78.48244,17.34132],[78.47516,17.33272]]}},{"type":"Feature","properties":{"route_id":"47184","route_short_name":"47184","route_long_name":"LPI-FM","agency_id":"","mode":"suburban_rail","operator":"Hyderabad Multi-Modal Transport System","source_feed_id":"hyderabad_mmts"},"geometry":{"type":"LineString","coordinates":[[78.31698399999998,17.483083999999998],[78.33271,17.48738],[78.363075,17.482695],[78.38524100000002,17.46978],[78.40782,17.45918],[78.43016,17.46256],[78.45008,17.45588],[78.45221,17.44572],[78.45817,17.43868],[78.47672,17.43561],[78.48722,17.43287],[78.50158,17.43374],[78.51961,17.42839],[78.519995,17.41846],[78.51839,17.4116],[78.51121,17.40218],[78.49984599999998,17.389651],[78.4948,17.37664],[78.49037,17.36659],[78.49207,17.36001],[78.48244,17.34132],[78.47516,17.33272]]}},{"type":"Feature","properties":{"route_id":"47185","route_short_name":"47185","route_long_name":"LPI-FM","agency_id":"","mode":"suburban_rail","operator":"Hyderabad Multi-Modal Transport System","source_feed_id":"hyderabad_mmts"},"geometry":{"type":"LineString","coordinates":[[78.31698399999998,17.483083999999998],[78.33271,17.48738],[78.363075,17.482695],[78.38524100000002,17.46978],[78.40782,17.45918],[78.43016,17.46256],[78.45008,17.45588],[78.45221,17.44572],[78.45817,17.43868],[78.47672,17.43561],[78.48722,17.43287],[78.50158,17.43374],[78.51961,17.42839],[78.519995,17.41846],[78.51839,17.4116],[78.51121,17.40218],[78.49984599999998,17.389651],[78.4948,17.37664],[78.49037,17.36659],[78.49207,17.36001],[78.48244,17.34132],[78.47516,17.33272]]}},{"type":"Feature","properties":{"route_id":"47186","route_short_name":"47186","route_long_name":"LPI-FM","agency_id":"","mode":"suburban_rail","operator":"Hyderabad Multi-Modal Transport System","source_feed_id":"hyderabad_mmts"},"geometry":{"type":"LineString","coordinates":[[78.31698399999998,17.483083999999998],[78.33271,17.48738],[78.363075,17.482695],[78.38524100000002,17.46978],[78.40782,17.45918],[78.43016,17.46256],[78.45008,17.45588],[78.45221,17.44572],[78.45817,17.43868],[78.47672,17.43561],[78.48722,17.43287],[78.50158,17.43374],[78.51961,17.42839],[78.519995,17.41846],[78.51839,17.4116],[78.51121,17.40218],[78.49984599999998,17.389651],[78.4948,17.37664],[78.49037,17.36659],[78.49207,17.36001],[78.48244,17.34132],[78.47516,17.33272]]}},{"type":"Feature","properties":{"route_id":"47187","route_short_name":"47187","route_long_name":"LPI-FM","agency_id":"","mode":"suburban_rail","operator":"Hyderabad Multi-Modal Transport System","source_feed_id":"hyderabad_mmts"},"geometry":{"type":"LineString","coordinates":[[78.31698399999998,17.483083999999998],[78.33271,17.48738],[78.363075,17.482695],[78.38524100000002,17.46978],[78.40782,17.45918],[78.43016,17.46256],[78.45008,17.45588],[78.45221,17.44572],[78.45817,17.43868],[78.47672,17.43561],[78.48722,17.43287],[78.50158,17.43374],[78.51961,17.42839],[78.519995,17.41846],[78.51839,17.4116],[78.51121,17.40218],[78.49984599999998,17.389651],[78.4948,17.37664],[78.49037,17.36659],[78.49207,17.36001],[78.48244,17.34132],[78.47516,17.33272]]}},{"type":"Feature","properties":{"route_id":"47188","route_short_name":"47188","route_long_name":"LPI-FM","agency_id":"","mode":"suburban_rail","operator":"Hyderabad Multi-Modal Transport System","source_feed_id":"hyderabad_mmts"},"geometry":{"type":"LineString","coordinates":[[78.31698399999998,17.483083999999998],[78.33271,17.48738],[78.363075,17.482695],[78.38524100000002,17.46978],[78.40782,17.45918],[78.43016,17.46256],[78.45008,17.45588],[78.45221,17.44572],[78.45817,17.43868],[78.47672,17.43561],[78.48722,17.43287],[78.50158,17.43374],[78.51961,17.42839],[78.519995,17.41846],[78.51839,17.4116],[78.51121,17.40218],[78.49984599999998,17.389651],[78.4948,17.37664],[78.49037,17.36659],[78.49207,17.36001],[78.48244,17.34132],[78.47516,17.33272]]}},{"type":"Feature","properties":{"route_id":"47189","route_short_name":"47189","route_long_name":"LPI-FM","agency_id":"","mode":"suburban_rail","operator":"Hyderabad Multi-Modal Transport System","source_feed_id":"hyderabad_mmts"},"geometry":{"type":"LineString","coordinates":[[78.31698399999998,17.483083999999998],[78.33271,17.48738],[78.363075,17.482695],[78.38524100000002,17.46978],[78.40782,17.45918],[78.43016,17.46256],[78.45008,17.45588],[78.45221,17.44572],[78.45817,17.43868],[78.47672,17.43561],[78.48722,17.43287],[78.50158,17.43374],[78.51961,17.42839],[78.519995,17.41846],[78.51839,17.4116],[78.51121,17.40218],[78.49984599999998,17.389651],[78.4948,17.37664],[78.49037,17.36659],[78.49207,17.36001],[78.48244,17.34132],[78.47516,17.33272]]}},{"type":"Feature","properties":{"route_id":"47190","route_short_name":"47190","route_long_name":"LPI-FM","agency_id":"","mode":"suburban_rail","operator":"Hyderabad Multi-Modal Transport System","source_feed_id":"hyderabad_mmts"},"geometry":{"type":"LineString","coordinates":[[78.31698399999998,17.483083999999998],[78.33271,17.48738],[78.363075,17.482695],[78.38524100000002,17.46978],[78.40782,17.45918],[78.43016,17.46256],[78.45008,17.45588],[78.45221,17.44572],[78.45817,17.43868],[78.47672,17.43561],[78.48722,17.43287],[78.50158,17.43374],[78.51961,17.42839],[78.519995,17.41846],[78.51839,17.4116],[78.51121,17.40218],[78.49984599999998,17.389651],[78.4948,17.37664],[78.49037,17.36659],[78.49207,17.36001],[78.48244,17.34132],[78.47516,17.33272]]}},{"type":"Feature","properties":{"route_id":"47191","route_short_name":"47191","route_long_name":"LPI-FM","agency_id":"","mode":"suburban_rail","operator":"Hyderabad Multi-Modal Transport System","source_feed_id":"hyderabad_mmts"},"geometry":{"type":"LineString","coordinates":[[78.31698399999998,17.483083999999998],[78.33271,17.48738],[78.363075,17.482695],[78.38524100000002,17.46978],[78.40782,17.45918],[78.43016,17.46256],[78.45008,17.45588],[78.45221,17.44572],[78.45817,17.43868],[78.47672,17.43561],[78.48722,17.43287],[78.50158,17.43374],[78.51961,17.42839],[78.519995,17.41846],[78.51839,17.4116],[78.51121,17.40218],[78.49984599999998,17.389651],[78.4948,17.37664],[78.49037,17.36659],[78.49207,17.36001],[78.48244,17.34132],[78.47516,17.33272]]}},{"type":"Feature","properties":{"route_id":"47192","route_short_name":"47192","route_long_name":"LPI-FM","agency_id":"","mode":"suburban_rail","operator":"Hyderabad Multi-Modal Transport System","source_feed_id":"hyderabad_mmts"},"geometry":{"type":"LineString","coordinates":[[78.31698399999998,17.483083999999998],[78.33271,17.48738],[78.363075,17.482695],[78.38524100000002,17.46978],[78.40782,17.45918],[78.43016,17.46256],[78.45008,17.45588],[78.45221,17.44572],[78.45817,17.43868],[78.47672,17.43561],[78.48722,17.43287],[78.50158,17.43374],[78.51961,17.42839],[78.519995,17.41846],[78.51839,17.4116],[78.51121,17.40218],[78.49984599999998,17.389651],[78.4948,17.37664],[78.49037,17.36659],[78.49207,17.36001],[78.48244,17.34132],[78.47516,17.33272]]}},{"type":"Feature","properties":{"route_id":"47193","route_short_name":"47193","route_long_name":"LPI-SC","agency_id":"","mode":"suburban_rail","operator":"Hyderabad Multi-Modal Transport System","source_feed_id":"hyderabad_mmts"},"geometry":{"type":"LineString","coordinates":[[78.31698399999998,17.483083999999998],[78.33271,17.48738],[78.363075,17.482695],[78.38524100000002,17.46978],[78.40782,17.45918],[78.43016,17.46256],[78.45008,17.45588],[78.45221,17.44572],[78.45817,17.43868],[78.47672,17.43561],[78.48722,17.43287],[78.50158,17.43374],[78.51961,17.42839],[78.519995,17.41846],[78.51839,17.4116],[78.51121,17.40218],[78.49984599999998,17.389651],[78.4948,17.37664],[78.49037,17.36659],[78.49207,17.36001],[78.48244,17.34132],[78.47516,17.33272]]}},{"type":"Feature","properties":{"route_id":"47194","route_short_name":"47194","route_long_name":"LPI-FM","agency_id":"","mode":"suburban_rail","operator":"Hyderabad Multi-Modal Transport System","source_feed_id":"hyderabad_mmts"},"geometry":{"type":"LineString","coordinates":[[78.31698399999998,17.483083999999998],[78.33271,17.48738],[78.363075,17.482695],[78.38524100000002,17.46978],[78.40782,17.45918],[78.43016,17.46256],[78.45008,17.45588],[78.45221,17.44572],[78.45817,17.43868],[78.47672,17.43561],[78.48722,17.43287],[78.50158,17.43374],[78.51961,17.42839],[78.519995,17.41846],[78.51839,17.4116],[78.51121,17.40218],[78.49984599999998,17.389651],[78.4948,17.37664],[78.49037,17.36659],[78.49207,17.36001],[78.48244,17.34132],[78.47516,17.33272]]}},{"type":"Feature","properties":{"route_id":"47195","route_short_name":"47195","route_long_name":"LPI-SC","agency_id":"","mode":"suburban_rail","operator":"Hyderabad Multi-Modal Transport System","source_feed_id":"hyderabad_mmts"},"geometry":{"type":"LineString","coordinates":[[78.31698399999998,17.483083999999998],[78.33271,17.48738],[78.363075,17.482695],[78.38524100000002,17.46978],[78.40782,17.45918],[78.43016,17.46256],[78.45008,17.45588],[78.45221,17.44572],[78.45817,17.43868],[78.47672,17.43561],[78.48722,17.43287],[78.50158,17.43374]]}},{"type":"Feature","properties":{"route_id":"47196","route_short_name":"47196","route_long_name":"SC-HYB","agency_id":"","mode":"suburban_rail","operator":"Hyderabad Multi-Modal Transport System","source_feed_id":"hyderabad_mmts"},"geometry":{"type":"LineString","coordinates":[[78.50158,17.43374],[78.48722,17.43287],[78.47672,17.43561],[78.463111,17.423578],[78.46106,17.41298],[78.463197,17.403717999999998],[78.46759,17.39245]]}},{"type":"Feature","properties":{"route_id":"47197","route_short_name":"47197","route_long_name":"FM-HYB","agency_id":"","mode":"suburban_rail","operator":"Hyderabad Multi-Modal Transport System","source_feed_id":"hyderabad_mmts"},"geometry":{"type":"LineString","coordinates":[[78.47516,17.33272],[78.48244,17.34132],[78.49207,17.36001],[78.49037,17.36659],[78.4948,17.37664],[78.49984599999998,17.389651],[78.51121,17.40218],[78.51839,17.4116],[78.519995,17.41846],[78.51961,17.42839],[78.50158,17.43374],[78.48722,17.43287],[78.47672,17.43561],[78.463111,17.423578],[78.46106,17.41298],[78.463197,17.403717999999998],[78.46759,17.39245]]}},{"type":"Feature","properties":{"route_id":"47198","route_short_name":"47198","route_long_name":"FM-LPI","agency_id":"","mode":"suburban_rail","operator":"Hyderabad Multi-Modal Transport System","source_feed_id":"hyderabad_mmts"},"geometry":{"type":"LineString","coordinates":[[78.47516,17.33272],[78.48244,17.34132],[78.49207,17.36001],[78.49037,17.36659],[78.4948,17.37664],[78.49984599999998,17.389651],[78.51121,17.40218],[78.51839,17.4116],[78.519995,17.41846],[78.51961,17.42839],[78.50158,17.43374],[78.48722,17.43287],[78.47672,17.43561],[78.45817,17.43868],[78.45221,17.44572],[78.45008,17.45588],[78.43016,17.46256],[78.40782,17.45918],[78.38524100000002,17.46978],[78.363075,17.482695],[78.33271,17.48738],[78.31698399999998,17.483083999999998]]}},{"type":"Feature","properties":{"route_id":"47199","route_short_name":"47199","route_long_name":"FM-HYB","agency_id":"","mode":"suburban_rail","operator":"Hyderabad Multi-Modal Transport System","source_feed_id":"hyderabad_mmts"},"geometry":{"type":"LineString","coordinates":[[78.47516,17.33272],[78.48244,17.34132],[78.49207,17.36001],[78.49037,17.36659],[78.4948,17.37664],[78.49984599999998,17.389651],[78.51121,17.40218],[78.51839,17.4116],[78.519995,17.41846],[78.51961,17.42839],[78.50158,17.43374],[78.48722,17.43287],[78.47672,17.43561],[78.463111,17.423578],[78.46106,17.41298],[78.463197,17.403717999999998],[78.46759,17.39245]]}},{"type":"Feature","properties":{"route_id":"47200","route_short_name":"47200","route_long_name":"FM-HYB","agency_id":"","mode":"suburban_rail","operator":"Hyderabad Multi-Modal Transport System","source_feed_id":"hyderabad_mmts"},"geometry":{"type":"LineString","coordinates":[[78.47516,17.33272],[78.48244,17.34132],[78.49207,17.36001],[78.49037,17.36659],[78.4948,17.37664],[78.49984599999998,17.389651],[78.51121,17.40218],[78.51839,17.4116],[78.519995,17.41846],[78.51961,17.42839],[78.50158,17.43374],[78.48722,17.43287],[78.47672,17.43561],[78.463111,17.423578],[78.46106,17.41298],[78.463197,17.403717999999998],[78.46759,17.39245]]}},{"type":"Feature","properties":{"route_id":"47201","route_short_name":"47201","route_long_name":"FM-HYB","agency_id":"","mode":"suburban_rail","operator":"Hyderabad Multi-Modal Transport System","source_feed_id":"hyderabad_mmts"},"geometry":{"type":"LineString","coordinates":[[78.47516,17.33272],[78.48244,17.34132],[78.49207,17.36001],[78.49037,17.36659],[78.4948,17.37664],[78.49984599999998,17.389651],[78.51121,17.40218],[78.51839,17.4116],[78.519995,17.41846],[78.51961,17.42839],[78.50158,17.43374],[78.48722,17.43287],[78.47672,17.43561],[78.463111,17.423578],[78.46106,17.41298],[78.463197,17.403717999999998],[78.46759,17.39245]]}},{"type":"Feature","properties":{"route_id":"47202","route_short_name":"47202","route_long_name":"FM-HYB","agency_id":"","mode":"suburban_rail","operator":"Hyderabad Multi-Modal Transport System","source_feed_id":"hyderabad_mmts"},"geometry":{"type":"LineString","coordinates":[[78.47516,17.33272],[78.48244,17.34132],[78.49207,17.36001],[78.49037,17.36659],[78.4948,17.37664],[78.49984599999998,17.389651],[78.51121,17.40218],[78.51839,17.4116],[78.519995,17.41846],[78.51961,17.42839],[78.50158,17.43374],[78.48722,17.43287],[78.47672,17.43561],[78.463111,17.423578],[78.46106,17.41298],[78.463197,17.403717999999998],[78.46759,17.39245]]}},{"type":"Feature","properties":{"route_id":"47203","route_short_name":"47203","route_long_name":"FM-LPI","agency_id":"","mode":"suburban_rail","operator":"Hyderabad Multi-Modal Transport System","source_feed_id":"hyderabad_mmts"},"geometry":{"type":"LineString","coordinates":[[78.47516,17.33272],[78.48244,17.34132],[78.49207,17.36001],[78.49037,17.36659],[78.4948,17.37664],[78.49984599999998,17.389651],[78.51121,17.40218],[78.51839,17.4116],[78.519995,17.41846],[78.51961,17.42839],[78.50158,17.43374],[78.48722,17.43287],[78.47672,17.43561],[78.45817,17.43868],[78.45221,17.44572],[78.45008,17.45588],[78.43016,17.46256],[78.40782,17.45918],[78.38524100000002,17.46978],[78.363075,17.482695],[78.33271,17.48738],[78.31698399999998,17.483083999999998]]}},{"type":"Feature","properties":{"route_id":"47204","route_short_name":"47204","route_long_name":"FM-SC","agency_id":"","mode":"suburban_rail","operator":"Hyderabad Multi-Modal Transport System","source_feed_id":"hyderabad_mmts"},"geometry":{"type":"LineString","coordinates":[[78.47516,17.33272],[78.48244,17.34132],[78.49207,17.36001],[78.49037,17.36659],[78.4948,17.37664],[78.49984599999998,17.389651],[78.51121,17.40218],[78.51839,17.4116],[78.519995,17.41846],[78.51961,17.42839],[78.50158,17.43374]]}},{"type":"Feature","properties":{"route_id":"47205","route_short_name":"47205","route_long_name":"SC-FM","agency_id":"","mode":"suburban_rail","operator":"Hyderabad Multi-Modal Transport System","source_feed_id":"hyderabad_mmts"},"geometry":{"type":"LineString","coordinates":[[78.50158,17.43374],[78.51961,17.42839],[78.519995,17.41846],[78.51839,17.4116],[78.51121,17.40218],[78.49984599999998,17.389651],[78.4948,17.37664],[78.49037,17.36659],[78.49207,17.36001],[78.48244,17.34132],[78.47516,17.33272]]}},{"type":"Feature","properties":{"route_id":"47206","route_short_name":"47206","route_long_name":"HYB-FM","agency_id":"","mode":"suburban_rail","operator":"Hyderabad Multi-Modal Transport System","source_feed_id":"hyderabad_mmts"},"geometry":{"type":"LineString","coordinates":[[78.46759,17.39245],[78.463197,17.403717999999998],[78.46106,17.41298],[78.463111,17.423578],[78.47672,17.43561],[78.48722,17.43287],[78.50158,17.43374],[78.51961,17.42839],[78.519995,17.41846],[78.51839,17.4116],[78.51121,17.40218],[78.49984599999998,17.389651],[78.4948,17.37664],[78.49037,17.36659],[78.49207,17.36001],[78.48244,17.34132],[78.47516,17.33272]]}},{"type":"Feature","properties":{"route_id":"47207","route_short_name":"47207","route_long_name":"FM-LPI","agency_id":"","mode":"suburban_rail","operator":"Hyderabad Multi-Modal Transport System","source_feed_id":"hyderabad_mmts"},"geometry":{"type":"LineString","coordinates":[[78.47516,17.33272],[78.48244,17.34132],[78.49207,17.36001],[78.49037,17.36659],[78.4948,17.37664],[78.49984599999998,17.389651],[78.51121,17.40218],[78.51839,17.4116],[78.519995,17.41846],[78.51961,17.42839],[78.50158,17.43374],[78.48722,17.43287],[78.47672,17.43561],[78.45817,17.43868],[78.45221,17.44572],[78.45008,17.45588],[78.43016,17.46256],[78.40782,17.45918],[78.38524100000002,17.46978],[78.363075,17.482695],[78.33271,17.48738],[78.31698399999998,17.483083999999998]]}},{"type":"Feature","properties":{"route_id":"47208","route_short_name":"47208","route_long_name":"HYB-FM","agency_id":"","mode":"suburban_rail","operator":"Hyderabad Multi-Modal Transport System","source_feed_id":"hyderabad_mmts"},"geometry":{"type":"LineString","coordinates":[[78.46759,17.39245],[78.463197,17.403717999999998],[78.46106,17.41298],[78.463111,17.423578],[78.47672,17.43561],[78.48722,17.43287],[78.50158,17.43374],[78.51961,17.42839],[78.519995,17.41846],[78.51839,17.4116],[78.51121,17.40218],[78.49984599999998,17.389651],[78.4948,17.37664],[78.49037,17.36659],[78.49207,17.36001],[78.48244,17.34132],[78.47516,17.33272]]}},{"type":"Feature","properties":{"route_id":"47209","route_short_name":"47209","route_long_name":"HYB-FM","agency_id":"","mode":"suburban_rail","operator":"Hyderabad Multi-Modal Transport System","source_feed_id":"hyderabad_mmts"},"geometry":{"type":"LineString","coordinates":[[78.46759,17.39245],[78.463197,17.403717999999998],[78.46106,17.41298],[78.463111,17.423578],[78.47672,17.43561],[78.48722,17.43287],[78.50158,17.43374],[78.51961,17.42839],[78.519995,17.41846],[78.51839,17.4116],[78.51121,17.40218],[78.49984599999998,17.389651],[78.4948,17.37664],[78.49037,17.36659],[78.49207,17.36001],[78.48244,17.34132],[78.47516,17.33272]]}},{"type":"Feature","properties":{"route_id":"47210","route_short_name":"47210","route_long_name":"LPI-FM","agency_id":"","mode":"suburban_rail","operator":"Hyderabad Multi-Modal Transport System","source_feed_id":"hyderabad_mmts"},"geometry":{"type":"LineString","coordinates":[[78.31698399999998,17.483083999999998],[78.33271,17.48738],[78.363075,17.482695],[78.38524100000002,17.46978],[78.40782,17.45918],[78.43016,17.46256],[78.45008,17.45588],[78.45221,17.44572],[78.45817,17.43868],[78.47672,17.43561],[78.48722,17.43287],[78.50158,17.43374],[78.51961,17.42839],[78.519995,17.41846],[78.51839,17.4116],[78.51121,17.40218],[78.49984599999998,17.389651],[78.4948,17.37664],[78.49037,17.36659],[78.49207,17.36001],[78.48244,17.34132],[78.47516,17.33272]]}},{"type":"Feature","properties":{"route_id":"47211","route_short_name":"47211","route_long_name":"FM-LPI","agency_id":"","mode":"suburban_rail","operator":"Hyderabad Multi-Modal Transport System","source_feed_id":"hyderabad_mmts"},"geometry":{"type":"LineString","coordinates":[[78.47516,17.33272],[78.48244,17.34132],[78.49207,17.36001],[78.49037,17.36659],[78.4948,17.37664],[78.49984599999998,17.389651],[78.51121,17.40218],[78.51839,17.4116],[78.519995,17.41846],[78.51961,17.42839],[78.50158,17.43374],[78.48722,17.43287],[78.47672,17.43561],[78.45817,17.43868],[78.45221,17.44572],[78.45008,17.45588],[78.43016,17.46256],[78.40782,17.45918],[78.38524100000002,17.46978],[78.363075,17.482695],[78.33271,17.48738],[78.31698399999998,17.483083999999998]]}},{"type":"Feature","properties":{"route_id":"47212","route_short_name":"47212","route_long_name":"LPI-FM","agency_id":"","mode":"suburban_rail","operator":"Hyderabad Multi-Modal Transport System","source_feed_id":"hyderabad_mmts"},"geometry":{"type":"LineString","coordinates":[[78.31698399999998,17.483083999999998],[78.33271,17.48738],[78.363075,17.482695],[78.38524100000002,17.46978],[78.40782,17.45918],[78.43016,17.46256],[78.45008,17.45588],[78.45221,17.44572],[78.45817,17.43868],[78.47672,17.43561],[78.48722,17.43287],[78.50158,17.43374],[78.51961,17.42839],[78.519995,17.41846],[78.51839,17.4116],[78.51121,17.40218],[78.49984599999998,17.389651],[78.4948,17.37664],[78.49037,17.36659],[78.49207,17.36001],[78.48244,17.34132],[78.47516,17.33272]]}},{"type":"Feature","properties":{"route_id":"47213","route_short_name":"47213","route_long_name":"LPI-FM","agency_id":"","mode":"suburban_rail","operator":"Hyderabad Multi-Modal Transport System","source_feed_id":"hyderabad_mmts"},"geometry":{"type":"LineString","coordinates":[[78.31698399999998,17.483083999999998],[78.33271,17.48738],[78.363075,17.482695],[78.38524100000002,17.46978],[78.40782,17.45918],[78.43016,17.46256],[78.45008,17.45588],[78.45221,17.44572],[78.45817,17.43868],[78.47672,17.43561],[78.48722,17.43287],[78.50158,17.43374],[78.51961,17.42839],[78.519995,17.41846],[78.51839,17.4116],[78.51121,17.40218],[78.49984599999998,17.389651],[78.4948,17.37664],[78.49037,17.36659],[78.49207,17.36001],[78.48244,17.34132],[78.47516,17.33272]]}},{"type":"Feature","properties":{"route_id":"47214","route_short_name":"47214","route_long_name":"FM-LPI","agency_id":"","mode":"suburban_rail","operator":"Hyderabad Multi-Modal Transport System","source_feed_id":"hyderabad_mmts"},"geometry":{"type":"LineString","coordinates":[[78.47516,17.33272],[78.48244,17.34132],[78.49207,17.36001],[78.49037,17.36659],[78.4948,17.37664],[78.49984599999998,17.389651],[78.51121,17.40218],[78.51839,17.4116],[78.519995,17.41846],[78.51961,17.42839],[78.50158,17.43374],[78.48722,17.43287],[78.47672,17.43561],[78.45817,17.43868],[78.45221,17.44572],[78.45008,17.45588],[78.43016,17.46256],[78.40782,17.45918],[78.38524100000002,17.46978],[78.363075,17.482695],[78.33271,17.48738],[78.31698399999998,17.483083999999998]]}},{"type":"Feature","properties":{"route_id":"47215","route_short_name":"47215","route_long_name":"LPI-FM","agency_id":"","mode":"suburban_rail","operator":"Hyderabad Multi-Modal Transport System","source_feed_id":"hyderabad_mmts"},"geometry":{"type":"LineString","coordinates":[[78.31698399999998,17.483083999999998],[78.33271,17.48738],[78.363075,17.482695],[78.38524100000002,17.46978],[78.40782,17.45918],[78.43016,17.46256],[78.45008,17.45588],[78.45221,17.44572],[78.45817,17.43868],[78.47672,17.43561],[78.48722,17.43287],[78.50158,17.43374],[78.51961,17.42839],[78.519995,17.41846],[78.51839,17.4116],[78.51121,17.40218],[78.49984599999998,17.389651],[78.4948,17.37664],[78.49037,17.36659],[78.49207,17.36001],[78.48244,17.34132],[78.47516,17.33272]]}},{"type":"Feature","properties":{"route_id":"47216","route_short_name":"47216","route_long_name":"FM-LPI","agency_id":"","mode":"suburban_rail","operator":"Hyderabad Multi-Modal Transport System","source_feed_id":"hyderabad_mmts"},"geometry":{"type":"LineString","coordinates":[[78.47516,17.33272],[78.48244,17.34132],[78.49207,17.36001],[78.49037,17.36659],[78.4948,17.37664],[78.49984599999998,17.389651],[78.51121,17.40218],[78.51839,17.4116],[78.519995,17.41846],[78.51961,17.42839],[78.50158,17.43374],[78.48722,17.43287],[78.47672,17.43561],[78.45817,17.43868],[78.45221,17.44572],[78.45008,17.45588],[78.43016,17.46256],[78.40782,17.45918],[78.38524100000002,17.46978],[78.363075,17.482695],[78.33271,17.48738],[78.31698399999998,17.483083999999998]]}},{"type":"Feature","properties":{"route_id":"47217","route_short_name":"47217","route_long_name":"LPI-FM","agency_id":"","mode":"suburban_rail","operator":"Hyderabad Multi-Modal Transport System","source_feed_id":"hyderabad_mmts"},"geometry":{"type":"LineString","coordinates":[[78.31698399999998,17.483083999999998],[78.33271,17.48738],[78.363075,17.482695],[78.38524100000002,17.46978],[78.40782,17.45918],[78.43016,17.46256],[78.45008,17.45588],[78.45221,17.44572],[78.45817,17.43868],[78.47672,17.43561],[78.48722,17.43287],[78.50158,17.43374],[78.51961,17.42839],[78.519995,17.41846],[78.51839,17.4116],[78.51121,17.40218],[78.49984599999998,17.389651],[78.4948,17.37664],[78.49037,17.36659],[78.49207,17.36001],[78.48244,17.34132],[78.47516,17.33272]]}},{"type":"Feature","properties":{"route_id":"47218","route_short_name":"47218","route_long_name":"FM-LPI","agency_id":"","mode":"suburban_rail","operator":"Hyderabad Multi-Modal Transport System","source_feed_id":"hyderabad_mmts"},"geometry":{"type":"LineString","coordinates":[[78.47516,17.33272],[78.48244,17.34132],[78.49207,17.36001],[78.49037,17.36659],[78.4948,17.37664],[78.49984599999998,17.389651],[78.51121,17.40218],[78.51839,17.4116],[78.519995,17.41846],[78.51961,17.42839],[78.50158,17.43374],[78.48722,17.43287],[78.47672,17.43561],[78.45817,17.43868],[78.45221,17.44572],[78.45008,17.45588],[78.43016,17.46256],[78.40782,17.45918],[78.38524100000002,17.46978],[78.363075,17.482695],[78.33271,17.48738],[78.31698399999998,17.483083999999998]]}},{"type":"Feature","properties":{"route_id":"47219","route_short_name":"47219","route_long_name":"LPI-FM","agency_id":"","mode":"suburban_rail","operator":"Hyderabad Multi-Modal Transport System","source_feed_id":"hyderabad_mmts"},"geometry":{"type":"LineString","coordinates":[[78.31698399999998,17.483083999999998],[78.33271,17.48738],[78.363075,17.482695],[78.38524100000002,17.46978],[78.40782,17.45918],[78.43016,17.46256],[78.45008,17.45588],[78.45221,17.44572],[78.45817,17.43868],[78.47672,17.43561],[78.48722,17.43287],[78.50158,17.43374],[78.51961,17.42839],[78.519995,17.41846],[78.51839,17.4116],[78.51121,17.40218],[78.49984599999998,17.389651],[78.4948,17.37664],[78.49037,17.36659],[78.49207,17.36001],[78.48244,17.34132],[78.47516,17.33272]]}},{"type":"Feature","properties":{"route_id":"47220","route_short_name":"47220","route_long_name":"FM-LPI","agency_id":"","mode":"suburban_rail","operator":"Hyderabad Multi-Modal Transport System","source_feed_id":"hyderabad_mmts"},"geometry":{"type":"LineString","coordinates":[[78.47516,17.33272],[78.48244,17.34132],[78.49207,17.36001],[78.49037,17.36659],[78.4948,17.37664],[78.49984599999998,17.389651],[78.51121,17.40218],[78.51839,17.4116],[78.519995,17.41846],[78.51961,17.42839],[78.50158,17.43374],[78.48722,17.43287],[78.47672,17.43561],[78.45817,17.43868],[78.45221,17.44572],[78.45008,17.45588],[78.43016,17.46256],[78.40782,17.45918],[78.38524100000002,17.46978],[78.363075,17.482695],[78.33271,17.48738],[78.31698399999998,17.483083999999998],[78.284883,17.474877],[78.282051,17.502301],[78.28248,17.511305]]}},{"type":"Feature","properties":{"route_id":"67276","route_short_name":"67276","route_long_name":"BHONGIR-FM MEMU","agency_id":"","mode":"suburban_rail","operator":"Hyderabad Multi-Modal Transport System","source_feed_id":"hyderabad_mmts"},"geometry":{"type":"LineString","coordinates":[[78.89883,17.525056],[78.794525,17.470681],[78.678117,17.453016],[78.60601899999997,17.458072],[78.529236,17.448022],[78.524823,17.440775],[78.51961,17.42839],[78.519995,17.41846],[78.51839,17.4116],[78.51121,17.40218],[78.49984599999998,17.389651],[78.4948,17.37664],[78.49037,17.36659],[78.49207,17.36001],[78.48244,17.34132],[78.47516,17.33272]]}},{"type":"Feature","properties":{"route_id":"67277","route_short_name":"67277","route_long_name":"FM-JANGAON  MEMU TRAIN","agency_id":"","mode":"suburban_rail","operator":"Hyderabad Multi-Modal Transport System","source_feed_id":"hyderabad_mmts"},"geometry":{"type":"LineString","coordinates":[[78.47516,17.33272],[78.48244,17.34132],[78.49207,17.36001],[78.49037,17.36659],[78.4948,17.37664],[78.49984599999998,17.389651],[78.51121,17.40218],[78.51839,17.4116],[78.519995,17.41846],[78.51961,17.42839],[78.524823,17.440775],[78.529236,17.448022],[78.60601899999997,17.458072],[78.678117,17.453016],[78.794525,17.470681],[78.89883,17.525056],[78.941402,17.551081],[78.983974,17.580867],[79.0478714,17.6454853],[79.11581,17.691945999999994],[79.154434,17.724815]]}},{"type":"Feature","properties":{"route_id":"67278","route_short_name":"67278","route_long_name":"JANGOAN-FM MEMU TRAIN","agency_id":"","mode":"suburban_rail","operator":"Hyderabad Multi-Modal Transport System","source_feed_id":"hyderabad_mmts"},"geometry":{"type":"LineString","coordinates":[[79.154434,17.724815],[79.11581,17.691945999999994],[79.0478714,17.6454853],[78.983974,17.580867],[78.941402,17.551081],[78.89883,17.525056],[78.794525,17.470681],[78.678117,17.453016],[78.60601899999997,17.458072],[78.529236,17.448022],[78.524823,17.440775],[78.51961,17.42839],[78.519995,17.41846],[78.51839,17.4116],[78.51121,17.40218],[78.49984599999998,17.389651],[78.4948,17.37664],[78.49037,17.36659],[78.49207,17.36001],[78.48244,17.34132],[78.47516,17.33272]]}},{"type":"Feature","properties":{"route_id":"77604","route_short_name":"77604","route_long_name":"BMO-FM DEMU","agency_id":"","mode":"suburban_rail","operator":"Hyderabad Multi-Modal Transport System","source_feed_id":"hyderabad_mmts"},"geometry":{"type":"LineString","coordinates":[[78.5151467,17.5332793],[78.51568,17.51764],[78.514516,17.505289],[78.51889399999997,17.494934],[78.527005,17.486829],[78.52889300000002,17.476719],[78.53296999999998,17.461531],[78.53164,17.456537],[78.529236,17.448022],[78.524823,17.440775],[78.51961,17.42839],[78.519995,17.41846],[78.51839,17.4116],[78.51121,17.40218],[78.49984599999998,17.389651],[78.4948,17.37664],[78.49037,17.36659],[78.49207,17.36001],[78.48244,17.34132],[78.47516,17.33272]]}},{"type":"Feature","properties":{"route_id":"77630","route_short_name":"77630","route_long_name":"SC-UR DEMU","agency_id":"","mode":"suburban_rail","operator":"Hyderabad Multi-Modal Transport System","source_feed_id":"hyderabad_mmts"},"geometry":{"type":"LineString","coordinates":[[78.50158,17.43374],[78.51961,17.42839],[78.519995,17.41846],[78.51839,17.4116],[78.51121,17.40218],[78.49984599999998,17.389651],[78.4948,17.37664],[78.49037,17.36659],[78.49207,17.36001],[78.48244,17.34132],[78.47516,17.33272],[78.4374,17.32359],[78.4249782,17.3098373],[78.393373,17.263162]]}},{"type":"Feature","properties":{"route_id":"77631","route_short_name":"77631","route_long_name":"FM-UR DEMU","agency_id":"","mode":"suburban_rail","operator":"Hyderabad Multi-Modal Transport System","source_feed_id":"hyderabad_mmts"},"geometry":{"type":"LineString","coordinates":[[78.47516,17.33272],[78.4374,17.32359],[78.4249782,17.3098373],[78.393373,17.263162]]}},{"type":"Feature","properties":{"route_id":"77632","route_short_name":"77632","route_long_name":"FM-UR DEMU","agency_id":"","mode":"suburban_rail","operator":"Hyderabad Multi-Modal Transport System","source_feed_id":"hyderabad_mmts"},"geometry":{"type":"LineString","coordinates":[[78.47516,17.33272],[78.4374,17.32359],[78.4249782,17.3098373],[78.393373,17.263162]]}},{"type":"Feature","properties":{"route_id":"77633","route_short_name":"77633","route_long_name":"FM-UR DEMU","agency_id":"","mode":"suburban_rail","operator":"Hyderabad Multi-Modal Transport System","source_feed_id":"hyderabad_mmts"},"geometry":{"type":"LineString","coordinates":[[78.47516,17.33272],[78.4374,17.32359],[78.4249782,17.3098373],[78.393373,17.263162]]}},{"type":"Feature","properties":{"route_id":"77634","route_short_name":"77634","route_long_name":"FM-UR DEMU","agency_id":"","mode":"suburban_rail","operator":"Hyderabad Multi-Modal Transport System","source_feed_id":"hyderabad_mmts"},"geometry":{"type":"LineString","coordinates":[[78.47516,17.33272],[78.4374,17.32359],[78.4249782,17.3098373],[78.393373,17.263162]]}},{"type":"Feature","properties":{"route_id":"77635","route_short_name":"77635","route_long_name":"FM-UR DEMU","agency_id":"","mode":"suburban_rail","operator":"Hyderabad Multi-Modal Transport System","source_feed_id":"hyderabad_mmts"},"geometry":{"type":"LineString","coordinates":[[78.47516,17.33272],[78.4374,17.32359],[78.4249782,17.3098373],[78.393373,17.263162]]}},{"type":"Feature","properties":{"route_id":"77638","route_short_name":"77638","route_long_name":"FM-UR DEMU","agency_id":"","mode":"suburban_rail","operator":"Hyderabad Multi-Modal Transport System","source_feed_id":"hyderabad_mmts"},"geometry":{"type":"LineString","coordinates":[[78.47516,17.33272],[78.4374,17.32359],[78.4249782,17.3098373],[78.393373,17.263162]]}},{"type":"Feature","properties":{"route_id":"77640","route_short_name":"77640","route_long_name":"UR-FM DEMU","agency_id":"","mode":"suburban_rail","operator":"Hyderabad Multi-Modal Transport System","source_feed_id":"hyderabad_mmts"},"geometry":{"type":"LineString","coordinates":[[78.393373,17.263162],[78.4249782,17.3098373],[78.4374,17.32359],[78.47516,17.33272]]}},{"type":"Feature","properties":{"route_id":"77641","route_short_name":"77641","route_long_name":"UR-FM DEMU","agency_id":"","mode":"suburban_rail","operator":"Hyderabad Multi-Modal Transport System","source_feed_id":"hyderabad_mmts"},"geometry":{"type":"LineString","coordinates":[[78.393373,17.263162],[78.4249782,17.3098373],[78.4374,17.32359],[78.47516,17.33272]]}},{"type":"Feature","properties":{"route_id":"77642","route_short_name":"77642","route_long_name":"UR-FM DEMU","agency_id":"","mode":"suburban_rail","operator":"Hyderabad Multi-Modal Transport System","source_feed_id":"hyderabad_mmts"},"geometry":{"type":"LineString","coordinates":[[78.393373,17.263162],[78.4249782,17.3098373],[78.4374,17.32359],[78.47516,17.33272]]}},{"type":"Feature","properties":{"route_id":"77643","route_short_name":"77643","route_long_name":"UR-FM DEMU","agency_id":"","mode":"suburban_rail","operator":"Hyderabad Multi-Modal Transport System","source_feed_id":"hyderabad_mmts"},"geometry":{"type":"LineString","coordinates":[[78.393373,17.263162],[78.4249782,17.3098373],[78.4374,17.32359],[78.47516,17.33272]]}},{"type":"Feature","properties":{"route_id":"77645","route_short_name":"77645","route_long_name":"UR-SC DEMU","agency_id":"","mode":"suburban_rail","operator":"Hyderabad Multi-Modal Transport System","source_feed_id":"hyderabad_mmts"},"geometry":{"type":"LineString","coordinates":[[78.393373,17.263162],[78.4249782,17.3098373],[78.4374,17.32359],[78.47516,17.33272],[78.48244,17.34132],[78.49207,17.36001],[78.49037,17.36659],[78.4948,17.37664],[78.49984599999998,17.389651],[78.51121,17.40218],[78.51839,17.4116],[78.519995,17.41846],[78.51961,17.42839],[78.50158,17.43374]]}},{"type":"Feature","properties":{"route_id":"77647","route_short_name":"77647","route_long_name":"UR-FM DEMU","agency_id":"","mode":"suburban_rail","operator":"Hyderabad Multi-Modal Transport System","source_feed_id":"hyderabad_mmts"},"geometry":{"type":"LineString","coordinates":[[78.393373,17.263162],[78.4249782,17.3098373],[78.4374,17.32359],[78.47516,17.33272]]}},{"type":"Feature","properties":{"route_id":"77649","route_short_name":"77649","route_long_name":"UR-SC DEMU","agency_id":"","mode":"suburban_rail","operator":"Hyderabad Multi-Modal Transport System","source_feed_id":"hyderabad_mmts"},"geometry":{"type":"LineString","coordinates":[[78.393373,17.263162],[78.4249782,17.3098373],[78.4374,17.32359],[78.47516,17.33272],[78.48244,17.34132],[78.49207,17.36001],[78.49037,17.36659],[78.4948,17.37664],[78.49984599999998,17.389651],[78.51121,17.40218],[78.51839,17.4116],[78.519995,17.41846],[78.51961,17.42839],[78.50158,17.43374]]}},{"type":"Feature","properties":{"route_id":"77680","route_short_name":"77680","route_long_name":"MED-FM DEMU","agency_id":"","mode":"suburban_rail","operator":"Hyderabad Multi-Modal Transport System","source_feed_id":"hyderabad_mmts"},"geometry":{"type":"LineString","coordinates":[[78.47528,17.63995],[78.46827,17.61075],[78.48779,17.56896],[78.5151467,17.5332793],[78.51568,17.51764],[78.514516,17.505289],[78.51889399999997,17.494934],[78.527005,17.486829],[78.52889300000002,17.476719],[78.53296999999998,17.461531],[78.53164,17.456537],[78.529236,17.448022],[78.524823,17.440775],[78.51961,17.42839],[78.519995,17.41846],[78.51839,17.4116],[78.51121,17.40218],[78.49984599999998,17.389651],[78.4948,17.37664],[78.49037,17.36659],[78.49207,17.36001],[78.48244,17.34132],[78.47516,17.33272]]}},{"type":"Feature","properties":{"route_id":"77681","route_short_name":"77681","route_long_name":"FM-MED DEMU","agency_id":"","mode":"suburban_rail","operator":"Hyderabad Multi-Modal Transport System","source_feed_id":"hyderabad_mmts"},"geometry":{"type":"LineString","coordinates":[[78.47516,17.33272],[78.48244,17.34132],[78.49207,17.36001],[78.49037,17.36659],[78.4948,17.37664],[78.49984599999998,17.389651],[78.51121,17.40218],[78.51839,17.4116],[78.519995,17.41846],[78.51961,17.42839],[78.524823,17.440775],[78.529236,17.448022],[78.53164,17.456537],[78.53296999999998,17.461531],[78.52889300000002,17.476719],[78.527005,17.486829],[78.51889399999997,17.494934],[78.514516,17.505289],[78.51568,17.51764],[78.5151467,17.5332793],[78.48779,17.56896],[78.46827,17.61075],[78.47528,17.63995]]}},{"type":"Feature","properties":{"route_id":"77682","route_short_name":"77682","route_long_name":"MED-FM DEMU","agency_id":"","mode":"suburban_rail","operator":"Hyderabad Multi-Modal Transport System","source_feed_id":"hyderabad_mmts"},"geometry":{"type":"LineString","coordinates":[[78.47528,17.63995],[78.46827,17.61075],[78.48779,17.56896],[78.5151467,17.5332793],[78.51568,17.51764],[78.514516,17.505289],[78.51889399999997,17.494934],[78.527005,17.486829],[78.52889300000002,17.476719],[78.53296999999998,17.461531],[78.53164,17.456537],[78.529236,17.448022],[78.524823,17.440775],[78.51961,17.42839],[78.519995,17.41846],[78.51839,17.4116],[78.51121,17.40218],[78.49984599999998,17.389651],[78.4948,17.37664],[78.49037,17.36659],[78.49207,17.36001],[78.48244,17.34132],[78.47516,17.33272]]}}]}