{"type": "FeatureCollection", "crs": {"type": "name", "properties": {"name": "urn:ogc:def:crs:OGC:1.3:CRS84"}}, "features": [{"type": "Feature", "properties": {"ST_NAME": "AP", "PC_NAME": "Chevella", "ST_CODE": "S01", "PC_CODE": 10, "Res": "GEN", "office": "MP", "representative": "Konda Vishweshwar Reddy", "party": "BJP", "pc_name": "Chevella"}, "geometry": {"type": "Polygon", "coordinates": [[[77.8590583852817, 17.628072447176667], [77.86131394844885, 17.62153688390078], [77.86671196961782, 17.620021391012177], [77.86755585662218, 17.610891232324665], [77.87370312246073, 17.603924345407496], [77.8751011461013, 17.600372002143658], [77.87339026952411, 17.596337202770997], [77.87073091086832, 17.59264368870709], [77.871546806012, 17.58632578093159], [77.87427951051892, 17.580949380198682], [77.90156743521179, 17.579056242092495], [77.91403449383064, 17.575290419684993], [77.92290007753562, 17.57402603083966], [77.93384310747555, 17.565247152088865], [77.93580390191579, 17.557852962828225], [77.93984815028502, 17.5523658543302], [77.93837992231406, 17.53891282317568], [77.94772086002892, 17.53666906227009], [77.95436278150217, 17.536889961805688], [77.96357560110513, 17.535044173749647], [77.97492217107722, 17.51868938928031], [77.96627869493734, 17.504673566244985], [77.96790223062366, 17.494456560512926], [77.96527160104515, 17.48374815782925], [77.97573819543138, 17.48364323010576], [77.9827173404335, 17.485875509750624], [77.99173418576999, 17.50724036232881], [77.99584146516419, 17.5001411496228], [78.00001576153724, 17.496225493236132], [78.0060764198104, 17.488484257069118], [78.01258258843804, 17.481550192310408], [78.01950315882485, 17.47543666968327], [78.02777487292701, 17.47134666627243], [78.03600521484621, 17.464817353702276], [78.04482283752164, 17.460676621029965], [78.05438552800891, 17.459759663797985], [78.06048829554658, 17.47136581581495], [78.05167020845731, 17.47585568032039], [78.0549402501171, 17.484217056064725], [78.06349288528453, 17.482963226139994], [78.06481315323508, 17.48907099464833], [78.06527490277388, 17.49682515522667], [78.05847901521282, 17.50230392317061], [78.0590727574979, 17.50881673581103], [78.06661111868566, 17.508339213843932], [78.07096482421781, 17.52115480545366], [78.08187138518934, 17.524377377753694], [78.08249170884264, 17.508242911828436], [78.08534639648379, 17.497086010324445], [78.10360136650766, 17.492459695427552], [78.11062081744932, 17.48277135728865], [78.11880708240182, 17.482594834363546], [78.13440316071731, 17.488016413857814], [78.1428884334328, 17.487111969603404], [78.14771948672295, 17.48141243923829], [78.1456489422487, 17.472683682848217], [78.15796163904169, 17.4646513916949], [78.16710839112034, 17.46322282659866], [78.17988659123073, 17.47041739844877], [78.19431519392135, 17.479723956250762], [78.18855332210897, 17.49005447107965], [78.20116145359624, 17.48914479980175], [78.21390810376549, 17.486406404576304], [78.21912370670086, 17.462695412440723], [78.21839262616936, 17.450648591759762], [78.21865728478876, 17.43979093018642], [78.23013000239929, 17.43978545366686], [78.23683314321542, 17.427654738429876], [78.2468131807123, 17.426261059007768], [78.25580354913889, 17.422808369905646], [78.26300048997578, 17.418953841424116], [78.2710909806756, 17.422776279535654], [78.27347522973513, 17.42935864080097], [78.27331090750063, 17.43531814559827], [78.28873241270603, 17.43328034787497], [78.29520697885853, 17.44564501340701], [78.30312266024295, 17.45561090723362], [78.3062697392855, 17.46545521033007], [78.29698607738156, 17.49150331777882], [78.31089015274229, 17.492044006865125], [78.31711869567468, 17.497532720992254], [78.3271283983797, 17.500834196847194], [78.3356384728517, 17.504646949654557], [78.34398440214483, 17.514492949972603], [78.35454913709978, 17.52352311786131], [78.35733715669302, 17.518187317484013], [78.36516607440532, 17.516298583321685], [78.35902733896565, 17.484005334655805], [78.3591973051364, 17.470000176891848], [78.36760496075999, 17.445193376588353], [78.38560445865166, 17.431386418311003], [78.39873161439722, 17.42166923723465], [78.39252656958962, 17.412229567423754], [78.38976633903624, 17.39910964566879], [78.3912097441615, 17.38862059675839], [78.39625338153013, 17.3725252981923], [78.41549430462479, 17.37344536154045], [78.4383173154946, 17.36908646066961], [78.45041970993879, 17.358856837120463], [78.46017626251692, 17.34399845285517], [78.46508636772289, 17.333692466554137], [78.46525602874617, 17.318733845659267], [78.46464503815616, 17.3098378935085], [78.46776113581393, 17.30730136872061], [78.47178065423282, 17.303733955305205], [78.47627422313572, 17.301425561470626], [78.48240749661794, 17.303532977955083], [78.50043053643655, 17.319861118989422], [78.50178078687308, 17.320750227443], [78.50315899583494, 17.31969040868334], [78.52508763615855, 17.31407808239163], [78.55545458178042, 17.31438029638652], [78.56898880499418, 17.298176845923855], [78.57404363080366, 17.279556850333925], [78.56696739497781, 17.259652532728524], [78.56143045865592, 17.25490078930202], [78.56217455202356, 17.255007556862353], [78.5679916235847, 17.250981604895316], [78.56357240703555, 17.2362845717446], [78.56121883066214, 17.229261271828218], [78.5419092449943, 17.218570331156823], [78.53836852610465, 17.209201764387974], [78.54088398789534, 17.201060316816914], [78.55199406552974, 17.183671270801582], [78.56301466262222, 17.17444706217603], [78.57284499624213, 17.16287751920775], [78.5777717798769, 17.15592618382178], [78.5718776483083, 17.139537691061268], [78.56110829942472, 17.12543459360143], [78.56367030003783, 17.11262879888631], [78.5710213508849, 17.10570212629962], [78.5783961228987, 17.096442619381516], [78.57609323031876, 17.08475642724929], [78.57380300802033, 17.071904242841512], [78.57638729944102, 17.05676718250154], [78.58128562947222, 17.052149509248913], [78.58018325175728, 17.04164228212038], [78.57178360383787, 17.033396778584812], [78.57306942932556, 17.02641184585348], [78.58526348980288, 17.01953278709784], [78.5914327589354, 17.009096392318867], [78.586730849912, 16.995056935576507], [78.57715865331001, 16.983302727230274], [78.5656252995643, 16.97300555130308], [78.56213069874428, 16.98070000757295], [78.54894034374274, 16.98471907096989], [78.53158698686903, 16.987171907689948], [78.52248978033099, 16.992172019271614], [78.51721976402182, 16.99996443104342], [78.5179864046271, 17.00421074855809], [78.51748831203462, 17.00845351753584], [78.51580101120399, 17.011206457366697], [78.5107805217488, 17.01328286716738], [78.50423836156806, 17.013191007325354], [78.49646120200929, 17.009325604102905], [78.49113151892885, 17.004988705483616], [78.48718130820139, 16.999986599757612], [78.48396324258168, 16.99203895824709], [78.47920019969715, 16.987927236931608], [78.47435025399005, 16.9850084594817], [78.46617906046826, 16.981736840453046], [78.4609180896452, 16.981784540927737], [78.45869012446988, 16.990624588886686], [78.45356109824753, 16.993237546192606], [78.45315580718923, 17.00000851414605], [78.44317496556748, 17.007712011415002], [78.4261212032541, 17.018132138297844], [78.41330038624018, 17.023428925538933], [78.40181430961893, 17.028171868117983], [78.38912478372123, 17.03486121308474], [78.38077863997735, 17.04455783386777], [78.37142484747653, 17.061609269222878], [78.36594346118537, 17.069408866341234], [78.35041357697939, 17.07467051677076], [78.3506486414525, 17.082913722594203], [78.35924585473506, 17.079969779143692], [78.36719431005315, 17.085229021583928], [78.36143643437866, 17.08982731783637], [78.35403098217235, 17.09156541814829], [78.35206718116405, 17.099873384541333], [78.34521820729177, 17.10780609605343], [78.33980940549071, 17.120477265269177], [78.32898954716227, 17.132254143071297], [78.31958077105254, 17.140063183412945], [78.3099265914885, 17.14627642586808], [78.3078093691444, 17.150578805047164], [78.30980229880814, 17.162724324637576], [78.31036978163829, 17.173329701787672], [78.30736203028536, 17.183711020574307], [78.30137214153991, 17.19587263027663], [78.29879010916673, 17.21226150903531], [78.29436798613906, 17.22419912014359], [78.28246273515315, 17.228202229684292], [78.2709251800181, 17.224995487910927], [78.26564293343293, 17.21516611744779], [78.26213211213204, 17.205966471705946], [78.25343923492528, 17.204462666757692], [78.24305100527421, 17.206283640903628], [78.22677427007959, 17.206085333659395], [78.22287184370424, 17.20226685860668], [78.22032605963093, 17.193064373941947], [78.21389554381973, 17.18565673208398], [78.19820940951662, 17.179730349363812], [78.18999937188224, 17.177720765408175], [78.1734259083419, 17.171009736306214], [78.17080854245661, 17.16281964900905], [78.17187896339044, 17.15599133296085], [78.17872137002296, 17.15073142213708], [78.18719919892389, 17.148955729457768], [78.19312858693907, 17.146052069072034], [78.1913892439363, 17.14049570513726], [78.18001108097226, 17.133396803155538], [78.18530366903343, 17.11386104574826], [78.18413042273914, 17.1041089912797], [78.18280177661995, 17.099928509025514], [78.16424865540466, 17.101868506291435], [78.14326202498812, 17.10980402647861], [78.13221925171197, 17.11239775353641], [78.11848196019065, 17.10936892343421], [78.10246134652627, 17.101401565039062], [78.09053686642719, 17.11572943890865], [78.08544182529496, 17.125361867397288], [78.0867806034787, 17.134698623785845], [78.09854980712547, 17.151246212814645], [78.09503178821129, 17.170890480766857], [78.08753430240863, 17.1758819088167], [78.08867864549066, 17.187063626635716], [78.08556733099732, 17.195121450029948], [78.0775468983269, 17.19741472178576], [78.06775437773202, 17.198727632167614], [78.05544259968795, 17.195896554065538], [78.04986462007973, 17.186270950735956], [78.04280397954739, 17.17716320979745], [78.02790980063354, 17.172830924620698], [78.02404309980349, 17.167335115662922], [78.01554614433559, 17.148251109973184], [78.00946380322036, 17.13942568567296], [78.00022134485803, 17.130961999857792], [77.99260921564232, 17.126890350486804], [77.99197094305107, 17.122751672752354], [77.99311341903098, 17.120806437084873], [77.99373640553557, 17.116502074397165], [77.99156476775147, 17.110345038168756], [77.9905991065663, 17.1030971735561], [77.98565101328744, 17.102722665088145], [77.97739365467874, 17.098019210297664], [77.97195154089586, 17.099188653918556], [77.96450260080566, 17.097417459730476], [77.95580170863282, 17.097424439885742], [77.95357790983168, 17.09028704835295], [77.94511694032674, 17.08862429941954], [77.94179266009526, 17.08585044764486], [77.93589426647156, 17.085751414567174], [77.93465000459918, 17.083098242571864], [77.93807088460078, 17.08013559114352], [77.94737821132718, 17.079909372939092], [77.95057775163208, 17.073781565304742], [77.9433534044202, 17.07471667406128], [77.9392686364492, 17.07129845198045], [77.92950797214836, 17.06698092618384], [77.92291868138204, 17.062348617568215], [77.92543426770499, 17.051224494267583], [77.93286937505087, 17.045754433576604], [77.93310193636552, 17.03736870842802], [77.93655008531076, 17.02831932720306], [77.94040322357597, 17.02357410785824], [77.94620921372537, 17.01970950707161], [77.95098229663358, 17.019501866146626], [77.95094667478931, 17.015884707891573], [77.96236120919141, 17.011532866061835], [77.96873277276944, 17.012211612134553], [77.97411964494198, 17.009257459833364], [77.97919109930017, 17.008307276898478], [77.97833700149243, 17.002443986263586], [77.98329924365802, 17.000986659886482], [77.98501940445182, 16.99978194667274], [77.99707475861966, 16.989383792035937], [77.99726026760116, 16.98278019293589], [78.00001751502597, 16.979899173232962], [78.00085353018952, 16.979309011500114], [78.00303076746178, 16.978032583169504], [78.00001729659265, 16.975726958870982], [77.9985869030451, 16.97295109120342], [77.98863256247142, 16.959930072281605], [77.99279006321356, 16.955723570936176], [78.00002193962007, 16.952371028604485], [78.01419166495121, 16.950093669984817], [78.01469452027062, 16.94334393537337], [78.00941104459345, 16.934800326666046], [78.01354857220986, 16.927315650951872], [78.01563456223865, 16.920354469819106], [78.01675904032487, 16.91446432072137], [78.01415052897276, 16.911684437360005], [78.01470699866121, 16.90596970838358], [78.01106784310096, 16.901716706644528], [78.00001809985577, 16.898981749567604], [77.98438537528679, 16.896612856605454], [77.97662122475205, 16.890433691788672], [77.96982101541091, 16.889248601086962], [77.97175972812423, 16.880333443596953], [77.96791947903222, 16.87235818779508], [77.96910702027688, 16.869188998454835], [77.9790649560851, 16.869912280303108], [77.98229010615478, 16.87329339015078], [77.98499064699517, 16.878739279557507], [77.99076751103888, 16.873608999667415], [77.98775360554613, 16.86045915750746], [77.9835601151996, 16.85513022986504], [77.97775840809456, 16.849854473955784], [77.97244962867235, 16.849755823543056], [77.96810412973717, 16.85178569200058], [77.96393908602066, 16.856338104084017], [77.95591910417879, 16.867507439367596], [77.94171236652805, 16.864268986222267], [77.9376481610934, 16.861639029484596], [77.92948921006365, 16.848447537390626], [77.92405695336876, 16.847426084909657], [77.91768215935733, 16.850258100692326], [77.91435153985782, 16.853259025907942], [77.91537806659166, 16.858942780406156], [77.90983228314357, 16.861258034820956], [77.87663882652159, 16.85559568731925], [77.87281357164596, 16.853877593463274], [77.86589550436804, 16.85326001666006], [77.86620015811772, 16.855784634472215], [77.8685914138829, 16.85928410176301], [77.8669314453142, 16.861992712948865], [77.8630442895625, 16.859822918592823], [77.85856224257262, 16.85442663106389], [77.84949972669911, 16.857097454728294], [77.84461364612717, 16.859977919639096], [77.84246010373464, 16.858891966506377], [77.84155589881182, 16.856760917955953], [77.82790734882315, 16.86116703653159], [77.8214716173353, 16.864963694907853], [77.82198113063643, 16.878640457229693], [77.82128057786788, 16.884102780558397], [77.81412947851048, 16.889462132426857], [77.80959930973992, 16.88901249143548], [77.80432896624606, 16.884542392402988], [77.79541574252794, 16.874622291033802], [77.78236769074024, 16.877981403183398], [77.77324015443921, 16.878631838099356], [77.76887398648307, 16.876621378925257], [77.762964497884, 16.872268198436412], [77.75842796507199, 16.87239316638155], [77.73796762266498, 16.880757450205405], [77.73925317902179, 16.8882879677953], [77.74086906631537, 16.892820715423426], [77.7414259068538, 16.900468220078373], [77.74456049084432, 16.912704702755956], [77.74095375973471, 16.923682500659634], [77.74030413824103, 16.937995220935246], [77.7308209890947, 16.93990476617214], [77.73077231191758, 16.942952986650337], [77.74272854301319, 16.949249565078667], [77.74916388758473, 16.955732671643144], [77.75828771934043, 16.969571788934825], [77.76220932109814, 16.97766528714786], [77.76135018800534, 16.98232774174861], [77.75774104221676, 16.98767785112554], [77.76171013066202, 16.993642668491542], [77.7630281023341, 17.000507172128128], [77.76442530358652, 17.003294121164295], [77.76304823581508, 17.011098962884507], [77.76852958190692, 17.019294486430855], [77.7783770049974, 17.01809678035064], [77.78319044503988, 17.028816500886265], [77.78821410698664, 17.042875000040482], [77.77869874095492, 17.048377152890694], [77.77504081431809, 17.05851376946634], [77.76703661796084, 17.060407537864627], [77.75833772761665, 17.05884705999738], [77.75486486378917, 17.06186874208998], [77.7617494014511, 17.074497859184113], [77.76383816963177, 17.08198374625992], [77.76151641163494, 17.08960600691584], [77.76908427073292, 17.10695468722936], [77.77967607689416, 17.111105882368054], [77.77905838273037, 17.1135127407237], [77.77676577464287, 17.116770518951835], [77.77811018988015, 17.1203992053393], [77.7748517163772, 17.126237074651602], [77.77083079808102, 17.12907728135367], [77.7880772760012, 17.153563669731007], [77.78786050361926, 17.158674574199992], [77.78887549580183, 17.166486096259877], [77.78774230653823, 17.17378009699105], [77.78270673166178, 17.177012978077663], [77.77948340243856, 17.177735319214158], [77.77643556854295, 17.18690441906802], [77.77249574674971, 17.19411707973237], [77.76747028916493, 17.196379398575157], [77.76671139910891, 17.202116471992333], [77.77203460633052, 17.208250475317175], [77.77590382594752, 17.20942371763789], [77.77803953526123, 17.212195388038023], [77.78921511140594, 17.21830534754016], [77.79089367168741, 17.225331263685995], [77.79324361010872, 17.230625742166517], [77.78013803226504, 17.234380289387435], [77.77540464784859, 17.23676193640124], [77.77704569382554, 17.232697098824644], [77.77317676004941, 17.231176035119837], [77.77320534080381, 17.22784427400506], [77.76259481759577, 17.225870178518427], [77.76166884583797, 17.221668006362354], [77.75677600716016, 17.2214627362747], [77.75523207302408, 17.22782650131684], [77.74920904579575, 17.227258107010943], [77.73885637797946, 17.23011746055156], [77.73522129494712, 17.221760732919186], [77.73519845872885, 17.209178054604223], [77.73793350310935, 17.202821703383698], [77.7415598374074, 17.180556357223214], [77.73522568357241, 17.1820673560382], [77.72868519013302, 17.18706699020746], [77.72839935628745, 17.192753827050524], [77.73053912812345, 17.202597551646633], [77.72806202617204, 17.205902629605756], [77.71921204650926, 17.208255066784893], [77.72056156617485, 17.20291876644572], [77.71554813155007, 17.202707991043148], [77.71073049347662, 17.20048853555095], [77.70407944080968, 17.203480793649113], [77.69696246889684, 17.198144549592868], [77.7004767664139, 17.19127948782283], [77.69730503189429, 17.184300401772084], [77.69829843825342, 17.18034565365128], [77.70500767603869, 17.176954222048792], [77.70425616995342, 17.173956182212198], [77.69725611784155, 17.176258254645784], [77.68496831802226, 17.175073828161207], [77.67950251581108, 17.17950923088742], [77.67137433978898, 17.181055424933515], [77.66994936306682, 17.180298217676786], [77.6661674060084, 17.18244863265657], [77.64934837058803, 17.1819692953597], [77.64457123403804, 17.17383291465637], [77.61747962482538, 17.16706314549097], [77.62083876389639, 17.157156663888575], [77.62325904348691, 17.152980863666954], [77.61782363133501, 17.15345782615565], [77.61408124744736, 17.15227573264514], [77.61266956436614, 17.14944961223914], [77.6076570846966, 17.148896456511764], [77.60349303626758, 17.148688801395046], [77.598276425285, 17.15065603143502], [77.59649459232905, 17.150063851049843], [77.58933116865181, 17.15040612718075], [77.58537221302625, 17.139226971758454], [77.58019427104551, 17.13010766311921], [77.56937363768377, 17.133120601464974], [77.56002080443311, 17.13746150117972], [77.55212283977053, 17.14015348116324], [77.54773704617398, 17.14471617850651], [77.54523346640072, 17.15796233118129], [77.53954591039799, 17.1661324778964], [77.53003904136463, 17.16816707885601], [77.51322432849447, 17.17365176945347], [77.50650126201717, 17.17158550044553], [77.49889209702636, 17.17497082929568], [77.48854765142127, 17.17665675631131], [77.47913750917789, 17.174563768035288], [77.48061315208928, 17.149758176456206], [77.47661942975124, 17.142712398038405], [77.48036875025127, 17.137690150960285], [77.48565128398253, 17.13377877508981], [77.48160887614182, 17.119380643845123], [77.47358399278781, 17.116725457556033], [77.46909207809365, 17.112089937844477], [77.46656447961962, 17.10740597205362], [77.45626866790107, 17.110934309113052], [77.45230041444958, 17.114810103507644], [77.44248355567095, 17.117874548772136], [77.43762000779782, 17.114446572455094], [77.42734211195379, 17.117339463026813], [77.41558488717799, 17.123775206697637], [77.40750398577036, 17.126460627522246], [77.40264673427941, 17.13514545036862], [77.3800358732321, 17.14108146919984], [77.37909630832016, 17.151874686400358], [77.37053825812811, 17.1544880104257], [77.36363502775922, 17.164764649796744], [77.36856009699972, 17.168088989760555], [77.36719373122885, 17.172613849780777], [77.37202417815915, 17.179607092451977], [77.3711843904083, 17.1863201959925], [77.37439875629305, 17.19318840132767], [77.38039717586102, 17.19611747546775], [77.38540235295373, 17.196852212536545], [77.39520498979714, 17.195511703412244], [77.39715874610336, 17.210060511499357], [77.40251735430677, 17.21189486794017], [77.40272880870921, 17.214649509730503], [77.39688111001493, 17.21459385610303], [77.38826295053984, 17.216063199361088], [77.38495700802906, 17.219418882985035], [77.38401883124253, 17.222860360097155], [77.38769193131552, 17.226402319553564], [77.39593855995265, 17.2316527710484], [77.39953856380983, 17.23593242336543], [77.4025340299363, 17.234983124548712], [77.40917121391557, 17.240501889042008], [77.41867014202982, 17.233006844424548], [77.42150632594394, 17.23590622325939], [77.42375386538869, 17.244713751385063], [77.42421702243512, 17.252421323707075], [77.42633397004894, 17.25634253009327], [77.44112118106625, 17.264467954404484], [77.44625456188172, 17.271689466205547], [77.45346594144415, 17.272966141976042], [77.45830828580675, 17.278987495873086], [77.45659386195622, 17.289713303883023], [77.45077938695066, 17.29189665923744], [77.4377660554736, 17.291317359481166], [77.4415145276758, 17.299742117983087], [77.44418611604769, 17.300859921378574], [77.45174588201705, 17.316492618500092], [77.45341299796404, 17.31794536163349], [77.4551453287134, 17.330253989189554], [77.45627611015026, 17.330958061497835], [77.45887047323384, 17.340921818388733], [77.46012019746348, 17.34799405738772], [77.45673982262268, 17.351811058018036], [77.45350311764756, 17.35304827348086], [77.45361867685226, 17.366032532244194], [77.45534334483843, 17.37345905676022], [77.48313503857958, 17.372612914441355], [77.47914743051545, 17.371143405898547], [77.47620499000755, 17.36618012990229], [77.47827513163796, 17.362177511695208], [77.48643453879633, 17.357482715607073], [77.49622473027155, 17.358542850563136], [77.50298817143998, 17.35711068649614], [77.5136414032932, 17.362318675981307], [77.52472825054342, 17.365113607260913], [77.53193290169834, 17.375170294211948], [77.53409050708665, 17.380934352272828], [77.53048963593783, 17.38187877616694], [77.52522408015602, 17.38935627611784], [77.5374907041957, 17.401877082634602], [77.53941749564977, 17.407122308075913], [77.53749248773543, 17.40911388826112], [77.53061448158321, 17.408995987189932], [77.51453775001048, 17.415524251376112], [77.51399338132117, 17.43022030793887], [77.52723520850844, 17.439647918383343], [77.53736427374871, 17.44392337777788], [77.55277547076443, 17.437914628610027], [77.56173535798553, 17.438276661999645], [77.57654599099381, 17.432539489293234], [77.57593599319792, 17.44155467791578], [77.57717050572437, 17.45719451855456], [77.59444549248694, 17.451127299730384], [77.59993033508206, 17.445722152955458], [77.60853449344975, 17.44613507696603], [77.61468314487827, 17.44727225647609], [77.61550814728523, 17.455954005783138], [77.6141563449198, 17.467666261865382], [77.61500540387681, 17.472960022312773], [77.61971312986161, 17.474428492151667], [77.63065845413298, 17.47423468930654], [77.63812027196822, 17.475270790797012], [77.64454649992385, 17.479053480619775], [77.64670531775771, 17.48648382376999], [77.64834116958177, 17.4979289129104], [77.65207483357047, 17.502382780580394], [77.65688526583808, 17.506272050937007], [77.65308848096421, 17.494579434019574], [77.6522183644278, 17.484227434334514], [77.66906450685536, 17.479367003100084], [77.6882204184673, 17.475953779870895], [77.68889429730193, 17.488314927847398], [77.69117464823444, 17.494649752538603], [77.692203691279, 17.501606162220973], [77.68982002701551, 17.508710532959658], [77.68679719154, 17.519953998617943], [77.69050666856415, 17.52732841184361], [77.70041511469005, 17.52925171844239], [77.70736617075997, 17.528098699144923], [77.7432593118991, 17.549849961257856], [77.76136993102827, 17.55929843181091], [77.75995409303677, 17.57370851157805], [77.7622850868924, 17.581308128379977], [77.76578787881256, 17.58478047703193], [77.77134595924068, 17.58642449673289], [77.77421946738669, 17.602022542429754], [77.76809815234688, 17.612604232136125], [77.76283491773128, 17.612856258485387], [77.75922581005399, 17.6151784741751], [77.74997726998258, 17.612355301538926], [77.74986245603161, 17.61809739499407], [77.74616136335153, 17.61789867919641], [77.74766647779204, 17.624751225045145], [77.75275919747175, 17.62329479556584], [77.76924993569015, 17.6264569360615], [77.77762946920424, 17.626577087584565], [77.78012466807512, 17.628373687209574], [77.78412031004514, 17.639035721782093], [77.78759528145706, 17.637622309805632], [77.79798761897321, 17.624943713126672], [77.80125862657565, 17.6273746088205], [77.8160497751595, 17.626276031304812], [77.82495501243469, 17.63587601334524], [77.8279935077816, 17.646124260022546], [77.85590448599889, 17.643332345341896], [77.8590583852817, 17.628072447176667]]]}}, {"type": "Feature", "properties": {"ST_NAME": "AP", "PC_NAME": "Secunderabad", "ST_CODE": "S01", "PC_CODE": 8, "Res": "GEN", "office": "MP", "representative": "G. Kishan Reddy", "party": "BJP", "pc_name": "Secunderabad"}, "geometry": {"type": "Polygon", "coordinates": [[[78.5274446071843, 17.439065801127185], [78.5345800105211, 17.435729979060284], [78.5355214604408, 17.43757996759326], [78.55152334863206, 17.430097200981518], [78.55756708386373, 17.42555268399402], [78.55772663122269, 17.410591397145108], [78.54581333429965, 17.403568035119324], [78.53390127450277, 17.39654379669218], [78.53627673305064, 17.388510957553418], [78.52559868903647, 17.38840405319062], [78.52310362800915, 17.386567787905776], [78.52341274657489, 17.385788292338027], [78.52115135767681, 17.384709399925143], [78.4932029166969, 17.37197674659548], [78.47587346800343, 17.37594716424824], [78.44774069887504, 17.37980168308726], [78.42815197970695, 17.392041694331994], [78.40003904358456, 17.39381264685433], [78.39068620480036, 17.392425261094687], [78.38976633903624, 17.39910964566879], [78.39252656958962, 17.412229567423754], [78.40020064039483, 17.423903843174905], [78.41148075993974, 17.43326594136096], [78.42096333379068, 17.43369795574561], [78.42721300741566, 17.42869421841023], [78.43572003368214, 17.41612328986213], [78.44451450307989, 17.40537276213793], [78.44973563294361, 17.401296063035048], [78.44877821695006, 17.427605100542436], [78.4537277314451, 17.435667571334598], [78.45601109235076, 17.438071112917278], [78.45671687112647, 17.437188135824204], [78.4699577602494, 17.432722630955706], [78.48915372864364, 17.431770462526394], [78.50229105801797, 17.436509220196935], [78.51421764083675, 17.442385626303132], [78.5274446071843, 17.439065801127185]]]}}, {"type": "Feature", "properties": {"ST_NAME": "AP", "PC_NAME": "Hyderabad", "ST_CODE": "S01", "PC_CODE": 9, "Res": "GEN", "office": "MP", "representative": "Asaduddin Owaisi", "party": "AIMIM", "pc_name": "Hyderabad"}, "geometry": {"type": "Polygon", "coordinates": [[[78.47587346800343, 17.37594716424824], [78.4932029166969, 17.37197674659548], [78.52115135767681, 17.384709399925143], [78.52341274657489, 17.385788292338027], [78.52310362800915, 17.386567787905776], [78.52559868903647, 17.38840405319062], [78.53627673305064, 17.388510957553418], [78.53763401168561, 17.383920800758403], [78.53899409814407, 17.368972631401277], [78.5355608787526, 17.35397709987761], [78.52847149801528, 17.344699411053828], [78.51438315371135, 17.340030924071623], [78.51533814890045, 17.329676178512084], [78.50043053643655, 17.319861118989422], [78.48240749661794, 17.303532977955083], [78.47627422313572, 17.301425561470626], [78.47178065423282, 17.303733955305205], [78.46776113581393, 17.30730136872061], [78.46464503815616, 17.3098378935085], [78.46525602874617, 17.318733845659267], [78.46508636772289, 17.333692466554137], [78.46017626251692, 17.34399845285517], [78.45041970993879, 17.358856837120463], [78.4383173154946, 17.36908646066961], [78.41549430462479, 17.37344536154045], [78.39625338153013, 17.3725252981923], [78.3912097441615, 17.38862059675839], [78.39068620480036, 17.392425261094687], [78.40003904358456, 17.39381264685433], [78.42815197970695, 17.392041694331994], [78.44774069887504, 17.37980168308726], [78.47587346800343, 17.37594716424824]]]}}, {"type": "Feature", "properties": {"ST_NAME": "AP", "PC_NAME": "Malkajgiri", "ST_CODE": "S01", "PC_CODE": 7, "Res": "GEN", "office": "MP", "representative": "Eatala Rajender", "party": "BJP", "pc_name": "Malkajgiri"}, "geometry": {"type": "Polygon", "coordinates": [[[78.46482644141572, 17.701415219464586], [78.47258286200424, 17.695142441020902], [78.48319423645083, 17.690758646633544], [78.49600117464556, 17.688709803612348], [78.5017746347189, 17.683936148627726], [78.51342841372934, 17.685843207004762], [78.51908495623175, 17.697111654497146], [78.52666882432938, 17.699608794877616], [78.53529775283336, 17.69677020185762], [78.55083638984927, 17.68887128832565], [78.55963421787764, 17.68688728718892], [78.57176960936803, 17.687188898715423], [78.57634497647454, 17.69221712861355], [78.58227188823528, 17.700565503085002], [78.59889240233123, 17.70078670016332], [78.6084297485229, 17.686876350147184], [78.61373172059437, 17.680612053306007], [78.61564724826945, 17.66902756898228], [78.62534492194781, 17.667609324395332], [78.63383679255507, 17.667521299767095], [78.64337931957186, 17.670809165141375], [78.65248942695091, 17.677017145254432], [78.65693843029544, 17.683010394790433], [78.66392488438265, 17.695824297539417], [78.67504926735484, 17.695260792851386], [78.6829492158839, 17.69281926325436], [78.68609917693307, 17.685642115400817], [78.70344485618948, 17.684309726444503], [78.72004562310492, 17.666749222959535], [78.71409489514092, 17.651643737758246], [78.71005889819135, 17.635270580384386], [78.70227857953145, 17.625906620820874], [78.69816794314258, 17.613545316315133], [78.7002481626391, 17.60384497281209], [78.69536715150133, 17.601864386988407], [78.69013307654856, 17.596663130597708], [78.69110515533637, 17.59367887922155], [78.69675245019698, 17.588959110292777], [78.69122266153586, 17.58376919166024], [78.68772598038522, 17.577992658862897], [78.69894554740883, 17.559828791877592], [78.70405207038054, 17.54461723974331], [78.70643971383979, 17.534062115413818], [78.71336012112486, 17.524407874626746], [78.71357007805149, 17.518896307552165], [78.71123108747537, 17.488642178557427], [78.720834674683, 17.480806887170356], [78.72682352913874, 17.477459077802287], [78.72666965856648, 17.47201578426421], [78.71898439759738, 17.468095850756214], [78.7145408563015, 17.463244696371483], [78.71329333705346, 17.43917283363709], [78.7242628343822, 17.442906306517806], [78.73758674774977, 17.440033932738597], [78.74737390381313, 17.441718005955945], [78.75468792532092, 17.447530952276253], [78.76038171280678, 17.44412000816965], [78.76213653130607, 17.427773457229122], [78.75801612672805, 17.41575927957533], [78.75334967099225, 17.406670664999055], [78.74593524712017, 17.39804382913361], [78.74781262479591, 17.392534020387743], [78.74760686123085, 17.385662792983943], [78.74371934056522, 17.378061144597268], [78.72370296326842, 17.378955728188163], [78.70908627982985, 17.382328910122567], [78.68350816972449, 17.387936791499886], [78.6750807151145, 17.379691756589125], [78.64230343868148, 17.375891080958215], [78.62299027204722, 17.36287411245326], [78.60496800555907, 17.342865462477928], [78.58686578053096, 17.3310228926181], [78.57003076348653, 17.314523126096088], [78.56226942088047, 17.3062220097913], [78.55545458178042, 17.31438029638652], [78.52508763615855, 17.31407808239163], [78.50315899583494, 17.31969040868334], [78.50178078687308, 17.320750227443], [78.51533814890045, 17.329676178512084], [78.51438315371135, 17.340030924071623], [78.52847149801528, 17.344699411053828], [78.5355608787526, 17.35397709987761], [78.53899409814407, 17.368972631401277], [78.53763401168561, 17.383920800758403], [78.53390127450277, 17.39654379669218], [78.54581333429965, 17.403568035119324], [78.55772663122269, 17.410591397145108], [78.55756708386373, 17.42555268399402], [78.55152334863206, 17.430097200981518], [78.5355214604408, 17.43757996759326], [78.5345800105211, 17.435729979060284], [78.5274446071843, 17.439065801127185], [78.51421764083675, 17.442385626303132], [78.50229105801797, 17.436509220196935], [78.48915372864364, 17.431770462526394], [78.4699577602494, 17.432722630955706], [78.45671687112647, 17.437188135824204], [78.45601109235076, 17.438071112917278], [78.4537277314451, 17.435667571334598], [78.44877821695006, 17.427605100542436], [78.44973563294361, 17.401296063035048], [78.44451450307989, 17.40537276213793], [78.43572003368214, 17.41612328986213], [78.42721300741566, 17.42869421841023], [78.42096333379068, 17.43369795574561], [78.41148075993974, 17.43326594136096], [78.40020064039483, 17.423903843174905], [78.39873161439722, 17.42166923723465], [78.38560445865166, 17.431386418311003], [78.36760496075999, 17.445193376588353], [78.3591973051364, 17.470000176891848], [78.35902733896565, 17.484005334655805], [78.36516607440532, 17.516298583321685], [78.35733715669302, 17.518187317484013], [78.35454913709978, 17.52352311786131], [78.35468372461297, 17.529132161771443], [78.35327081717503, 17.534813130272816], [78.34896128094256, 17.543713172653234], [78.35831578637341, 17.554921323534938], [78.36223335082846, 17.558058607102723], [78.36456197829139, 17.56625246178318], [78.36473941601771, 17.57387980780252], [78.37208215449874, 17.582509639245604], [78.37238245572988, 17.590880455556913], [78.37574611207245, 17.603654685151973], [78.37020403334877, 17.61014280852794], [78.36105806907617, 17.617960155657382], [78.36041712541214, 17.62335077559728], [78.37579951387252, 17.628413268319292], [78.38204449647893, 17.632874669467125], [78.38424569620132, 17.641349601358556], [78.38723843742065, 17.665182553977942], [78.39567282317844, 17.672958758127155], [78.40218892734589, 17.67270680606266], [78.420271099189, 17.66962025257457], [78.42832507348464, 17.68788723144593], [78.43026410291411, 17.700947161250337], [78.43996186698307, 17.699486012778582], [78.45081891031792, 17.712349383917253], [78.45647272571534, 17.70677663079703], [78.46482644141572, 17.701415219464586]]]}}]}