{"type": "FeatureCollection", "crs": {"type": "name", "properties": {"name": "urn:ogc:def:crs:OGC:1.3:CRS84"}}, "features": [{"type": "Feature", "properties": {"osm_id": 324863029, "osm_type": "node", "amenity": "police", "name": "Osmania University Police Station"}, "geometry": {"type": "Point", "coordinates": [78.525957, 17.421527]}}, {"type": "Feature", "properties": {"osm_id": 349257371, "osm_type": "node", "amenity": "police", "name": "Madhapur Police Station"}, "geometry": {"type": "Point", "coordinates": [78.396074, 17.439873]}}, {"type": "Feature", "properties": {"osm_id": 355647260, "osm_type": "node", "amenity": "police", "name": "SR Nagar Police Station", "name:te": "సంజీవరెడ్డి నగర్ పోలీస్ స్టేషన్"}, "geometry": {"type": "Point", "coordinates": [78.447843, 17.441429]}}, {"type": "Feature", "properties": {"osm_id": 626897029, "osm_type": "node", "addr:city": "Hyderabad", "addr:district": "Hyderabad", "addr:state": "Telangana", "amenity": "police", "contact:phone": "91 40 2785 4760; 91 40 2452 8888", "name": "Deputy Commissioner of Police Office (South Zone)", "name:ur": "پولیس ڈپٹی کمشنر آفس", "operator": "Hyderbad City Police", "website": "https://www.hyderabadpolice.gov.in/"}, "geometry": {"type": "Point", "coordinates": [78.479458, 17.367155]}}, {"type": "Feature", "properties": {"osm_id": 626897218, "osm_type": "node", "amenity": "police"}, "geometry": {"type": "Point", "coordinates": [78.499903, 17.365527]}}, {"type": "Feature", "properties": {"osm_id": 626897291, "osm_type": "node", "amenity": "police"}, "geometry": {"type": "Point", "coordinates": [78.482082, 17.371447]}}, {"type": "Feature", "properties": {"osm_id": 634123609, "osm_type": "node", "addr:street": "Adikmet Road, Vidyanagar.", "amenity": "police", "name": "Nallakunta Police Station"}, "geometry": {"type": "Point", "coordinates": [78.513311, 17.407697]}}, {"type": "Feature", "properties": {"osm_id": 703543252, "osm_type": "node", "amenity": "police"}, "geometry": {"type": "Point", "coordinates": [78.549373, 17.426532]}}, {"type": "Feature", "properties": {"osm_id": 726162714, "osm_type": "node", "amenity": "police", "name": "Saifabad Police Station", "name:te": "సైఫాబాద్ పోలీస్ స్టేషన్"}, "geometry": {"type": "Point", "coordinates": [78.464608, 17.411087]}}, {"type": "Feature", "properties": {"osm_id": 817354500, "osm_type": "node", "amenity": "police", "name": "Begumpet Police Station"}, "geometry": {"type": "Point", "coordinates": [78.474784, 17.443961]}}, {"type": "Feature", "properties": {"osm_id": 889682550, "osm_type": "node", "amenity": "police", "name": "Karkhana Traffic Police Station", "name:te": "కార్ఖానా ట్రాఫిక్ పోలీస్ స్టేషను"}, "geometry": {"type": "Point", "coordinates": [78.500461, 17.461824]}}, {"type": "Feature", "properties": {"osm_id": 902311102, "osm_type": "node", "amenity": "police", "name": "Begumpet Traffic Police"}, "geometry": {"type": "Point", "coordinates": [78.47909, 17.44363]}}, {"type": "Feature", "properties": {"osm_id": 928692475, "osm_type": "node", "amenity": "police"}, "geometry": {"type": "Point", "coordinates": [78.464918, 17.422316]}}, {"type": "Feature", "properties": {"osm_id": 1038395539, "osm_type": "node", "amenity": "police"}, "geometry": {"type": "Point", "coordinates": [78.483921, 17.421139]}}, {"type": "Feature", "properties": {"osm_id": 1038396678, "osm_type": "node", "amenity": "police", "name": "Ramgopalpet Police Station"}, "geometry": {"type": "Point", "coordinates": [78.488475, 17.436164]}}, {"type": "Feature", "properties": {"osm_id": 1050786517, "osm_type": "node", "amenity": "police", "name": "Bowenpally Police Station"}, "geometry": {"type": "Point", "coordinates": [78.472566, 17.464851]}}, {"type": "Feature", "properties": {"osm_id": 1152769900, "osm_type": "node", "amenity": "police", "name": "Amberpet Police Station"}, "geometry": {"type": "Point", "coordinates": [78.518244, 17.389303]}}, {"type": "Feature", "properties": {"osm_id": 1435322443, "osm_type": "node", "amenity": "police", "name": "Malkajgiri Police Station"}, "geometry": {"type": "Point", "coordinates": [78.537414, 17.44987]}}, {"type": "Feature", "properties": {"osm_id": 1447172305, "osm_type": "node", "amenity": "police", "name": "ABIDS Police Station"}, "geometry": {"type": "Point", "coordinates": [78.48521, 17.394662]}}, {"type": "Feature", "properties": {"osm_id": 2052604524, "osm_type": "node", "amenity": "police", "name": "Nampally Police Station"}, "geometry": {"type": "Point", "coordinates": [78.460378, 17.400089]}}, {"type": "Feature", "properties": {"osm_id": 2174747678, "osm_type": "node", "amenity": "police", "name": "Humayun Nagar Police Station"}, "geometry": {"type": "Point", "coordinates": [78.442229, 17.39555]}}, {"type": "Feature", "properties": {"osm_id": 2181370022, "osm_type": "node", "addr:city": "Hyderabad", "addr:district": "Hyderabad", "addr:postcode": "500 024", "addr:state": "Telangana", "amenity": "police", "contact:phone": "91 40 27854782", "government": "public_service", "name": "Chaderghat Police Station", "name:ur": "چادرگھاٹ تھانہ", "office": "government", "opening_hours": "24/7", "operator": "Hyderbad City Police"}, "geometry": {"type": "Point", "coordinates": [78.49173, 17.377938]}}, {"type": "Feature", "properties": {"osm_id": 2285774769, "osm_type": "node", "addr:city": "Hyderabad", "addr:state": "Telangana", "amenity": "police", "contact:fax": "27853851", "contact:phone": "91 40 2785 3987; 91 40 2720 4224", "name": "Uppal Police Station", "name:ur": "اپل تھانہ", "opening_hours": "24/7"}, "geometry": {"type": "Point", "coordinates": [78.560227, 17.402203]}}, {"type": "Feature", "properties": {"osm_id": 2412755781, "osm_type": "node", "amenity": "police"}, "geometry": {"type": "Point", "coordinates": [78.536577, 17.368644]}}, {"type": "Feature", "properties": {"osm_id": 2429894183, "osm_type": "node", "addr:city": "Hyderabad", "addr:district": "Ranga Reddy", "addr:postcode": "500 074", "addr:state": "Telangana", "amenity": "police", "contact:fax": "27853997", "contact:phone": "91 40 2785 3997", "government": "public_service", "name": "LB Nagar Police Station", "office": "government", "opening_hours": "24/7", "website": "http://rachakondapolice.telangana.gov.in/know-your-police-station/lb-nagar-ps.html"}, "geometry": {"type": "Point", "coordinates": [78.551573, 17.346778]}}, {"type": "Feature", "properties": {"osm_id": 2430227021, "osm_type": "node", "amenity": "police", "name": "Saroornagar Police Station"}, "geometry": {"type": "Point", "coordinates": [78.52766, 17.368319]}}, {"type": "Feature", "properties": {"osm_id": 2710723055, "osm_type": "node", "amenity": "police", "name": "vanasthalipuram police station"}, "geometry": {"type": "Point", "coordinates": [78.56901, 17.332011]}}, {"type": "Feature", "properties": {"osm_id": 2713928610, "osm_type": "node", "amenity": "police", "name": "Madhapur Police Station"}, "geometry": {"type": "Point", "coordinates": [78.39589, 17.439398]}}, {"type": "Feature", "properties": {"osm_id": 3201281726, "osm_type": "node", "amenity": "police"}, "geometry": {"type": "Point", "coordinates": [78.46836, 17.334999]}}, {"type": "Feature", "properties": {"osm_id": 3506878895, "osm_type": "node", "amenity": "police", "name": "Tukaram Gate Police Station"}, "geometry": {"type": "Point", "coordinates": [78.517481, 17.445106]}}, {"type": "Feature", "properties": {"osm_id": 4187308295, "osm_type": "node", "amenity": "police"}, "geometry": {"type": "Point", "coordinates": [78.468935, 17.392366]}}, {"type": "Feature", "properties": {"osm_id": 4303556591, "osm_type": "node", "addr:city": "Secunderabad", "addr:postcode": "500003", "addr:street": "Subash Road", "amenity": "police", "name": "Mahankali Police Station", "name:te": "మహాంకాంలి పోలీస్ స్టేషన్"}, "geometry": {"type": "Point", "coordinates": [78.49096, 17.436026]}}, {"type": "Feature", "properties": {"osm_id": 4415311798, "osm_type": "node", "amenity": "police", "name": "abids police station", "name:en": "abids police station"}, "geometry": {"type": "Point", "coordinates": [78.476139, 17.38898]}}, {"type": "Feature", "properties": {"osm_id": 4415810190, "osm_type": "node", "amenity": "police", "name": "Narayanaguda police station", "name:en": "Narayanaguda police station"}, "geometry": {"type": "Point", "coordinates": [78.489819, 17.397857]}}, {"type": "Feature", "properties": {"osm_id": 4436511095, "osm_type": "node", "amenity": "police", "name": "Abids traffic police station", "name:en": "Abids traffic police station"}, "geometry": {"type": "Point", "coordinates": [78.476176, 17.388976]}}, {"type": "Feature", "properties": {"osm_id": 4614310919, "osm_type": "node", "amenity": "police", "name": "Ramgopalpet Police Station"}, "geometry": {"type": "Point", "coordinates": [78.479125, 17.440561]}}, {"type": "Feature", "properties": {"osm_id": 4796532123, "osm_type": "node", "amenity": "police", "name": "Madannapet police station", "name:en": "Madannapet police station"}, "geometry": {"type": "Point", "coordinates": [78.501053, 17.358641]}}, {"type": "Feature", "properties": {"osm_id": 5405055071, "osm_type": "node", "addr:street": "Greenland Colony", "amenity": "police", "description": "Cyberabad police commissionerate", "name": "Women police station", "phone": "9494731100"}, "geometry": {"type": "Point", "coordinates": [78.363026, 17.438243]}}, {"type": "Feature", "properties": {"osm_id": 5405055430, "osm_type": "node", "amenity": "police", "name": "Gachibowli traffic police station"}, "geometry": {"type": "Point", "coordinates": [78.351994, 17.445855]}}, {"type": "Feature", "properties": {"osm_id": 5541577053, "osm_type": "node", "amenity": "police", "name": "Medipally Police Station"}, "geometry": {"type": "Point", "coordinates": [78.601109, 17.407588]}}, {"type": "Feature", "properties": {"osm_id": 5636854472, "osm_type": "node", "amenity": "police", "name": "Pahadishareef Police Station"}, "geometry": {"type": "Point", "coordinates": [78.474138, 17.264146]}}, {"type": "Feature", "properties": {"osm_id": 6222432287, "osm_type": "node", "amenity": "police", "name": "Asif Nagar Traffic Police Station"}, "geometry": {"type": "Point", "coordinates": [78.458102, 17.398992]}}, {"type": "Feature", "properties": {"osm_id": 6308345583, "osm_type": "node", "amenity": "police"}, "geometry": {"type": "Point", "coordinates": [78.60278, 17.327613]}}, {"type": "Feature", "properties": {"osm_id": 6652622185, "osm_type": "node", "addr:city": "Hyderabad", "addr:street": "Sayeedabad Main Road", "amenity": "police", "contact:phone": "040-27854713; 9490616380", "government": "public_service", "name:en": "Sayeedabad Assistant Commissioner's Police Office", "office": "government", "operator": "Hyderabad City Police", "website": "https://hyderabadpolice.gov.in/"}, "geometry": {"type": "Point", "coordinates": [78.504011, 17.362813]}}, {"type": "Feature", "properties": {"osm_id": 6765562764, "osm_type": "node", "amenity": "police", "name": "Chilkalguda Police Station"}, "geometry": {"type": "Point", "coordinates": [78.513215, 17.430311]}}, {"type": "Feature", "properties": {"osm_id": 6822126543, "osm_type": "node", "amenity": "police", "contact:phone": "91 40 2785 3776; 91 9490616084", "government": "public_service", "name": "Kachiguda Traffic Police Station", "office": "government", "operator": "Hyderbad City Police", "source": "survey", "website": "https://www.htp.gov.in/TrafficKachiguda/index.html"}, "geometry": {"type": "Point", "coordinates": [78.493562, 17.382365]}}, {"type": "Feature", "properties": {"osm_id": 7117645185, "osm_type": "node", "amenity": "police", "name": "Jeedimetla Police Station"}, "geometry": {"type": "Point", "coordinates": [78.448492, 17.50919]}}, {"type": "Feature", "properties": {"osm_id": 7244140125, "osm_type": "node", "addr:city": "patancheru", "addr:postcode": "502319", "amenity": "police", "name": "DSP office"}, "geometry": {"type": "Point", "coordinates": [78.26497, 17.529657]}}, {"type": "Feature", "properties": {"osm_id": 7244140126, "osm_type": "node", "addr:city": "patancheru", "addr:postcode": "502319", "amenity": "police", "name": "Police Station", "opening_hours": "24/7"}, "geometry": {"type": "Point", "coordinates": [78.264711, 17.529709]}}, {"type": "Feature", "properties": {"osm_id": 7244280429, "osm_type": "node", "amenity": "police"}, "geometry": {"type": "Point", "coordinates": [78.364221, 17.462868]}}, {"type": "Feature", "properties": {"osm_id": 7623339921, "osm_type": "node", "addr:city": "Hyderabad", "addr:district": "Hyderabad", "addr:housenumber": "9GC6+6Q Malakpet, Hyderabad, Telangana", "addr:state": "Telangana", "addr:street": "Government Quarters, TV Tower, NH 9 Adjacent to, Malakpet, Hyderabad, Telangana 500036", "amenity": "police", "government": "public_service", "name": "Malakpet Police Station", "name:ur": "مالکیپٹ پولیس اسٹیشن", "office": "government", "opening_hours": "24/7", "operator": "Hyderbad City Police", "phone": "91 40 2785 4765; 91 40 2785 4969; 91 40 27854713", "website": "hyderabadpolice.gov.in"}, "geometry": {"type": "Point", "coordinates": [78.512004, 17.370486]}}, {"type": "Feature", "properties": {"osm_id": 8065109654, "osm_type": "node", "addr:city": "Hyderabad", "amenity": "police", "contact:phone": "91 40 27854785", "government": "public_service", "name": "سعیدآباد تھانہ", "name:en": "Sayeedabad Police Station", "office": "government", "opening_hours": "24/7", "operator": "Hyderabad City Police", "website": "https://www.hyderabadpolice.gov.in/ps/saidabadps.htm"}, "geometry": {"type": "Point", "coordinates": [78.509166, 17.36207]}}, {"type": "Feature", "properties": {"osm_id": 8065642527, "osm_type": "node", "addr:city": "Hyderabad", "addr:postcode": "500 064", "addr:state": "Telangana", "amenity": "police", "contact:phone": "91 40 2785 4789; 91 40 2785 4963", "government": "public_service", "name": "کامتی پورہ تھانہ", "name:en": "Kamatipura Police Station", "office": "government", "opening_hours": "24/7", "operator": "Hyderbad City Police", "website": "https://hyderabadpolice.gov.in/ps/kamatipuraps.html"}, "geometry": {"type": "Point", "coordinates": [78.460165, 17.355979]}}, {"type": "Feature", "properties": {"osm_id": 8072159040, "osm_type": "node", "addr:city": "Hyderabad", "addr:district": "Hyderabad", "addr:postcode": "500 023", "addr:state": "Telangana", "amenity": "police", "contact:phone": "91 40 2785 4781; 91 40 2785 4978", "name": "ریان بازار تھانہ", "name:en": "Rein Bazaar Police Station", "opening_hours": "24/7", "operator": "Hyderbad City Police", "website": "https://www.hyderabadpolice.gov.in/"}, "geometry": {"type": "Point", "coordinates": [78.488192, 17.361747]}}, {"type": "Feature", "properties": {"osm_id": 8072232301, "osm_type": "node", "addr:city": "Hyderabad", "addr:district": "Hyderabad", "addr:postcode": "500 002", "addr:state": "Telangana", "amenity": "police", "contact:phone": "91 40 2785 4797; 91 40 27854719", "name": "میر چوک تھانہ", "name:en": "Mir Chowk Police Station", "opening_hours": "24/7", "operator": "Hyderbad City Police", "website": "https://www.hyderabadpolice.gov.in/"}, "geometry": {"type": "Point", "coordinates": [78.480489, 17.363619]}}, {"type": "Feature", "properties": {"osm_id": 8110746355, "osm_type": "node", "addr:city": "Hyderabad", "addr:housenumber": "Mangalhat Road", "addr:postcode": "500006", "addr:street": "Dhoolpet Road", "amenity": "police", "name": "Mangalhat Police station"}, "geometry": {"type": "Point", "coordinates": [78.460742, 17.378408]}}, {"type": "Feature", "properties": {"osm_id": 8386245837, "osm_type": "node", "amenity": "police", "name": "Dcp Office East Zone Amberpet"}, "geometry": {"type": "Point", "coordinates": [78.516959, 17.386332]}}, {"type": "Feature", "properties": {"osm_id": 8386261012, "osm_type": "node", "amenity": "police", "name": "Police station"}, "geometry": {"type": "Point", "coordinates": [78.434679, 17.534999]}}, {"type": "Feature", "properties": {"osm_id": 8386557382, "osm_type": "node", "amenity": "police", "name": "Miyapur Traffic Police Station"}, "geometry": {"type": "Point", "coordinates": [78.361565, 17.496433]}}, {"type": "Feature", "properties": {"osm_id": 8465529663, "osm_type": "node", "amenity": "police", "name": "Alwal Police Station"}, "geometry": {"type": "Point", "coordinates": [78.511667, 17.50404]}}, {"type": "Feature", "properties": {"osm_id": 8739653947, "osm_type": "node", "amenity": "police", "name": "Karkhana Police Station"}, "geometry": {"type": "Point", "coordinates": [78.500045, 17.458988]}}, {"type": "Feature", "properties": {"osm_id": 9355590862, "osm_type": "node", "amenity": "police"}, "geometry": {"type": "Point", "coordinates": [78.511476, 17.48024]}}, {"type": "Feature", "properties": {"osm_id": 9887230592, "osm_type": "node", "amenity": "police", "name": "Police Station"}, "geometry": {"type": "Point", "coordinates": [78.415172, 17.481597]}}, {"type": "Feature", "properties": {"osm_id": 10279507198, "osm_type": "node", "amenity": "police", "name": "Kushaiguda Police station"}, "geometry": {"type": "Point", "coordinates": [78.570848, 17.472752]}}, {"type": "Feature", "properties": {"osm_id": 11084918152, "osm_type": "node", "amenity": "police", "name": "Old Police Station"}, "geometry": {"type": "Point", "coordinates": [78.41403, 17.453333]}}, {"type": "Feature", "properties": {"osm_id": 13308035368, "osm_type": "node", "amenity": "police", "name": "Madhapur traffic police booth Cyberabad"}, "geometry": {"type": "Point", "coordinates": [78.38089, 17.451349]}}, {"type": "Feature", "properties": {"osm_id": 13436981509, "osm_type": "node", "amenity": "police", "name": "Jagadgirigutta Police Station"}, "geometry": {"type": "Point", "coordinates": [78.422701, 17.506386]}}, {"type": "Feature", "properties": {"osm_id": 13437156185, "osm_type": "node", "amenity": "police", "name": "traffic police station"}, "geometry": {"type": "Point", "coordinates": [78.418561, 17.480135]}}, {"type": "Feature", "properties": {"osm_id": 13535866501, "osm_type": "node", "amenity": "police", "check_date": "2026-02-09", "name": "Traffic Police Station Charminar"}, "geometry": {"type": "Point", "coordinates": [78.475266, 17.361835]}}, {"type": "Feature", "properties": {"osm_id": 253460277, "osm_type": "way", "amenity": "police", "building": "yes", "name": "Traffic Police Station", "operator": "Andhra Pradesh Police Department"}, "geometry": {"type": "Point", "coordinates": [78.557935, 17.361609]}}, {"type": "Feature", "properties": {"osm_id": 342267243, "osm_type": "way", "amenity": "police"}, "geometry": {"type": "Point", "coordinates": [78.369944, 17.431627]}}, {"type": "Feature", "properties": {"osm_id": 355910219, "osm_type": "way", "amenity": "police", "building": "yes", "name": "Chanda Nagar Police Station"}, "geometry": {"type": "Point", "coordinates": [78.324924, 17.496203]}}, {"type": "Feature", "properties": {"osm_id": 356556789, "osm_type": "way", "amenity": "police", "building": "yes", "name": "Musheerabad- Police Station"}, "geometry": {"type": "Point", "coordinates": [78.500299, 17.419353]}}, {"type": "Feature", "properties": {"osm_id": 356556815, "osm_type": "way", "amenity": "police", "building": "yes", "name": "Ramgopalpet old police station"}, "geometry": {"type": "Point", "coordinates": [78.48835, 17.43621]}}, {"type": "Feature", "properties": {"osm_id": 357768607, "osm_type": "way", "amenity": "police", "building": "yes", "name": "Amberpet Police Station"}, "geometry": {"type": "Point", "coordinates": [78.516741, 17.38991]}}, {"type": "Feature", "properties": {"osm_id": 359965195, "osm_type": "way", "amenity": "police", "building": "yes", "name": "Banjara Hills Police Station"}, "geometry": {"type": "Point", "coordinates": [78.435741, 17.422399]}}, {"type": "Feature", "properties": {"osm_id": 577127188, "osm_type": "way", "amenity": "police", "building": "yes", "name": "Saifabad Police Station"}, "geometry": {"type": "Point", "coordinates": [78.462832, 17.402653]}}, {"type": "Feature", "properties": {"osm_id": 578280444, "osm_type": "way", "amenity": "police", "name": "Medipally Police Station"}, "geometry": {"type": "Point", "coordinates": [78.60113, 17.40765]}}, {"type": "Feature", "properties": {"osm_id": 626328382, "osm_type": "way", "amenity": "police", "description": "SHE Teams, IT Corridor", "name": "Gachibowli Police station"}, "geometry": {"type": "Point", "coordinates": [78.353765, 17.443513]}}, {"type": "Feature", "properties": {"osm_id": 849388793, "osm_type": "way", "amenity": "police", "barrier": "wall", "check_date": "2024-03-16", "name": "KPHB Police Station"}, "geometry": {"type": "Point", "coordinates": [78.3957, 17.49674]}}, {"type": "Feature", "properties": {"osm_id": 860333009, "osm_type": "way", "amenity": "police", "check_date": "2024-03-29", "name": "Raidurgam, Cyberabad"}, "geometry": {"type": "Point", "coordinates": [78.380577, 17.423342]}}, {"type": "Feature", "properties": {"osm_id": 879127952, "osm_type": "way", "addr:city": "Hyderabad", "addr:postcode": "500050", "addr:street": "Old Bombay Road", "amenity": "police", "name": "Ramachndrapuram Police Station", "phone": "+91 8455280213"}, "geometry": {"type": "Point", "coordinates": [78.316331, 17.494456]}}, {"type": "Feature", "properties": {"osm_id": 880097274, "osm_type": "way", "addr:city": "Hyderabad", "addr:postcode": "500049", "amenity": "police", "name": "Miyapur Police Strion"}, "geometry": {"type": "Point", "coordinates": [78.347549, 17.496417]}}, {"type": "Feature", "properties": {"osm_id": 897088028, "osm_type": "way", "amenity": "police", "description": "it is a place for maintaining order nd public safety.", "name": "Punjagutta Police Station"}, "geometry": {"type": "Point", "coordinates": [78.452375, 17.426243]}}, {"type": "Feature", "properties": {"osm_id": 902955684, "osm_type": "way", "amenity": "police", "name": "Police Station"}, "geometry": {"type": "Point", "coordinates": [78.52769, 17.368156]}}, {"type": "Feature", "properties": {"osm_id": 1124046738, "osm_type": "way", "addr:city": "Hyderabad", "addr:housenumber": "Street 6", "addr:street": "SR Nagar", "amenity": "police", "building": "yes", "name": "Sanjeev Reddy Nagar Police Station"}, "geometry": {"type": "Point", "coordinates": [78.445601, 17.440071]}}, {"type": "Feature", "properties": {"osm_id": 1157549422, "osm_type": "way", "addr:city": "Ambedkar nagar colony, Tappa chabhudra", "addr:postcode": "500006", "amenity": "police", "building": "yes", "name": "Tappachabutra Police Station"}, "geometry": {"type": "Point", "coordinates": [78.448434, 17.374818]}}, {"type": "Feature", "properties": {"osm_id": 1172957612, "osm_type": "way", "amenity": "police", "building": "yes"}, "geometry": {"type": "Point", "coordinates": [78.560299, 17.40223]}}, {"type": "Feature", "properties": {"osm_id": 1266013820, "osm_type": "way", "amenity": "police", "building": "yes", "name": "Traffice Police Watch Tower"}, "geometry": {"type": "Point", "coordinates": [78.340686, 17.425641]}}, {"type": "Feature", "properties": {"osm_id": 1388411537, "osm_type": "way", "amenity": "police", "name": "Police training center", "office": "government"}, "geometry": {"type": "Point", "coordinates": [78.517429, 17.387195]}}, {"type": "Feature", "properties": {"osm_id": 1455423944, "osm_type": "way", "amenity": "police", "building": "yes", "name": "Kanchanbagh Police Station"}, "geometry": {"type": "Point", "coordinates": [78.508301, 17.333689]}}]}