{"type": "FeatureCollection", "crs": {"type": "name", "properties": {"name": "urn:ogc:def:crs:OGC:1.3:CRS84"}}, "features": [{"type": "Feature", "properties": {"osm_id": 321715860, "osm_type": "node", "amenity": "toilets", "created_by": "Potlatch 0.10f"}, "geometry": {"type": "Point", "coordinates": [78.531421, 17.427272]}}, {"type": "Feature", "properties": {"osm_id": 813571472, "osm_type": "node", "amenity": "toilets", "fee": "yes"}, "geometry": {"type": "Point", "coordinates": [78.504213, 17.442799]}}, {"type": "Feature", "properties": {"osm_id": 813571662, "osm_type": "node", "amenity": "toilets", "fee": "yes"}, "geometry": {"type": "Point", "coordinates": [78.514445, 17.435232]}}, {"type": "Feature", "properties": {"osm_id": 817354525, "osm_type": "node", "amenity": "toilets", "fee": "yes"}, "geometry": {"type": "Point", "coordinates": [78.477946, 17.443708]}}, {"type": "Feature", "properties": {"osm_id": 1223134025, "osm_type": "node", "amenity": "toilets"}, "geometry": {"type": "Point", "coordinates": [78.371855, 17.472898]}}, {"type": "Feature", "properties": {"osm_id": 1242117887, "osm_type": "node", "amenity": "toilets", "fee": "yes"}, "geometry": {"type": "Point", "coordinates": [78.444786, 17.43753]}}, {"type": "Feature", "properties": {"osm_id": 1447172236, "osm_type": "node", "amenity": "toilets", "operator": "toilet"}, "geometry": {"type": "Point", "coordinates": [78.484835, 17.396396]}}, {"type": "Feature", "properties": {"osm_id": 1447172245, "osm_type": "node", "amenity": "toilets", "operator": "toilet"}, "geometry": {"type": "Point", "coordinates": [78.485573, 17.395062]}}, {"type": "Feature", "properties": {"osm_id": 1611088566, "osm_type": "node", "amenity": "toilets"}, "geometry": {"type": "Point", "coordinates": [78.49312, 17.44108]}}, {"type": "Feature", "properties": {"osm_id": 2192962558, "osm_type": "node", "amenity": "toilets", "highway": "bus_stop", "name": "Public Gardens"}, "geometry": {"type": "Point", "coordinates": [78.47086, 17.396807]}}, {"type": "Feature", "properties": {"osm_id": 2217950136, "osm_type": "node", "amenity": "toilets", "name": "Sulabh"}, "geometry": {"type": "Point", "coordinates": [78.605301, 17.3273]}}, {"type": "Feature", "properties": {"osm_id": 2217960501, "osm_type": "node", "amenity": "toilets"}, "geometry": {"type": "Point", "coordinates": [78.569096, 17.337965]}}, {"type": "Feature", "properties": {"osm_id": 2217960506, "osm_type": "node", "amenity": "toilets"}, "geometry": {"type": "Point", "coordinates": [78.547762, 17.349732]}}, {"type": "Feature", "properties": {"osm_id": 2715275203, "osm_type": "node", "amenity": "toilets"}, "geometry": {"type": "Point", "coordinates": [78.485376, 17.413515]}}, {"type": "Feature", "properties": {"osm_id": 3249139031, "osm_type": "node", "amenity": "toilets"}, "geometry": {"type": "Point", "coordinates": [78.466554, 17.407292]}}, {"type": "Feature", "properties": {"osm_id": 3928879389, "osm_type": "node", "amenity": "toilets"}, "geometry": {"type": "Point", "coordinates": [78.402382, 17.384867]}}, {"type": "Feature", "properties": {"osm_id": 4296697610, "osm_type": "node", "amenity": "toilets"}, "geometry": {"type": "Point", "coordinates": [78.45659, 17.564412]}}, {"type": "Feature", "properties": {"osm_id": 4415337592, "osm_type": "node", "amenity": "toilets", "name": "sulab toilet", "name:en": "sulab toilet"}, "geometry": {"type": "Point", "coordinates": [78.476404, 17.391989]}}, {"type": "Feature", "properties": {"osm_id": 4417113693, "osm_type": "node", "amenity": "toilets", "name": "sulab international", "name:en": "sulab international"}, "geometry": {"type": "Point", "coordinates": [78.487769, 17.409873]}}, {"type": "Feature", "properties": {"osm_id": 4433084289, "osm_type": "node", "amenity": "toilets", "operator": "toilet"}, "geometry": {"type": "Point", "coordinates": [78.487773, 17.409823]}}, {"type": "Feature", "properties": {"osm_id": 4436572391, "osm_type": "node", "amenity": "toilets", "operator": "toilet"}, "geometry": {"type": "Point", "coordinates": [78.476454, 17.39192]}}, {"type": "Feature", "properties": {"osm_id": 4526392728, "osm_type": "node", "amenity": "toilets", "fee": "yes"}, "geometry": {"type": "Point", "coordinates": [78.448572, 17.441942]}}, {"type": "Feature", "properties": {"osm_id": 4609043303, "osm_type": "node", "amenity": "toilets"}, "geometry": {"type": "Point", "coordinates": [78.487575, 17.440984]}}, {"type": "Feature", "properties": {"osm_id": 5177833626, "osm_type": "node", "amenity": "toilets", "opening_hours": "24/7", "operator": "sulab"}, "geometry": {"type": "Point", "coordinates": [78.47867, 17.408066]}}, {"type": "Feature", "properties": {"osm_id": 5694668836, "osm_type": "node", "amenity": "toilets"}, "geometry": {"type": "Point", "coordinates": [78.442778, 17.59669]}}, {"type": "Feature", "properties": {"osm_id": 5694668837, "osm_type": "node", "amenity": "toilets"}, "geometry": {"type": "Point", "coordinates": [78.442778, 17.596333]}}, {"type": "Feature", "properties": {"osm_id": 5694668841, "osm_type": "node", "amenity": "toilets"}, "geometry": {"type": "Point", "coordinates": [78.441203, 17.59422]}}, {"type": "Feature", "properties": {"osm_id": 5694689516, "osm_type": "node", "amenity": "toilets", "toilets:disposal": "flush"}, "geometry": {"type": "Point", "coordinates": [78.442386, 17.594244]}}, {"type": "Feature", "properties": {"osm_id": 5694689518, "osm_type": "node", "access": "yes", "amenity": "toilets", "fee": "yes", "female": "yes"}, "geometry": {"type": "Point", "coordinates": [78.442277, 17.594023]}}, {"type": "Feature", "properties": {"osm_id": 5942781127, "osm_type": "node", "amenity": "toilets", "opening_hours": "Mo-Su 09:00-18:00", "operator": "Govt Of Telangana"}, "geometry": {"type": "Point", "coordinates": [78.385432, 17.446128]}}, {"type": "Feature", "properties": {"osm_id": 7140935815, "osm_type": "node", "amenity": "toilets"}, "geometry": {"type": "Point", "coordinates": [78.46733, 17.330241]}}, {"type": "Feature", "properties": {"osm_id": 8110775262, "osm_type": "node", "access": "yes", "amenity": "toilets", "changing_table": "no", "toilets:disposal": "pitlatrine", "unisex": "yes", "wheelchair": "no"}, "geometry": {"type": "Point", "coordinates": [78.447724, 17.454152]}}, {"type": "Feature", "properties": {"osm_id": 8386231012, "osm_type": "node", "access": "yes", "amenity": "toilets", "male": "yes", "toilets:disposal": "pitlatrine", "wheelchair": "no"}, "geometry": {"type": "Point", "coordinates": [78.493738, 17.407221]}}, {"type": "Feature", "properties": {"osm_id": 8935059985, "osm_type": "node", "access": "permit", "amenity": "toilets", "changing_table": "no", "male": "yes", "toilets:disposal": "flush", "wheelchair": "limited"}, "geometry": {"type": "Point", "coordinates": [78.512877, 17.440141]}}, {"type": "Feature", "properties": {"osm_id": 8935059986, "osm_type": "node", "access": "permit", "amenity": "toilets", "changing_table": "no", "female": "yes", "toilets:disposal": "flush", "wheelchair": "limited"}, "geometry": {"type": "Point", "coordinates": [78.513001, 17.440159]}}, {"type": "Feature", "properties": {"osm_id": 10903261753, "osm_type": "node", "amenity": "toilets"}, "geometry": {"type": "Point", "coordinates": [78.574358, 17.330743]}}, {"type": "Feature", "properties": {"osm_id": 11147497891, "osm_type": "node", "amenity": "toilets"}, "geometry": {"type": "Point", "coordinates": [78.560916, 17.484791]}}, {"type": "Feature", "properties": {"osm_id": 11147530967, "osm_type": "node", "amenity": "toilets"}, "geometry": {"type": "Point", "coordinates": [78.552589, 17.485977]}}, {"type": "Feature", "properties": {"osm_id": 11147615797, "osm_type": "node", "amenity": "toilets"}, "geometry": {"type": "Point", "coordinates": [78.551976, 17.482836]}}, {"type": "Feature", "properties": {"osm_id": 11147825489, "osm_type": "node", "amenity": "toilets"}, "geometry": {"type": "Point", "coordinates": [78.569176, 17.401221]}}, {"type": "Feature", "properties": {"osm_id": 11147828724, "osm_type": "node", "amenity": "toilets"}, "geometry": {"type": "Point", "coordinates": [78.548617, 17.386899]}}, {"type": "Feature", "properties": {"osm_id": 11147829800, "osm_type": "node", "amenity": "toilets", "check_date": "2024-03-16"}, "geometry": {"type": "Point", "coordinates": [78.393359, 17.493076]}}, {"type": "Feature", "properties": {"osm_id": 11147848986, "osm_type": "node", "amenity": "toilets"}, "geometry": {"type": "Point", "coordinates": [78.312419, 17.500847]}}, {"type": "Feature", "properties": {"osm_id": 11147857258, "osm_type": "node", "amenity": "toilets"}, "geometry": {"type": "Point", "coordinates": [78.580397, 17.400863]}}, {"type": "Feature", "properties": {"osm_id": 11147858496, "osm_type": "node", "amenity": "toilets"}, "geometry": {"type": "Point", "coordinates": [78.571643, 17.401894]}}, {"type": "Feature", "properties": {"osm_id": 11147862639, "osm_type": "node", "access": "yes", "amenity": "toilets", "check_date": "2024-03-16", "toilets:disposal": "flush"}, "geometry": {"type": "Point", "coordinates": [78.395499, 17.495784]}}, {"type": "Feature", "properties": {"osm_id": 11147866013, "osm_type": "node", "amenity": "toilets"}, "geometry": {"type": "Point", "coordinates": [78.576195, 17.40181]}}, {"type": "Feature", "properties": {"osm_id": 11147869894, "osm_type": "node", "amenity": "toilets"}, "geometry": {"type": "Point", "coordinates": [78.559311, 17.391845]}}, {"type": "Feature", "properties": {"osm_id": 11147871539, "osm_type": "node", "amenity": "toilets"}, "geometry": {"type": "Point", "coordinates": [78.573785, 17.401981]}}, {"type": "Feature", "properties": {"osm_id": 11147873650, "osm_type": "node", "amenity": "toilets"}, "geometry": {"type": "Point", "coordinates": [78.316762, 17.494311]}}, {"type": "Feature", "properties": {"osm_id": 11147890094, "osm_type": "node", "amenity": "toilets"}, "geometry": {"type": "Point", "coordinates": [78.563324, 17.401732]}}, {"type": "Feature", "properties": {"osm_id": 11147894997, "osm_type": "node", "amenity": "toilets", "check_date": "2025-07-30"}, "geometry": {"type": "Point", "coordinates": [78.393031, 17.48985]}}, {"type": "Feature", "properties": {"osm_id": 11147898683, "osm_type": "node", "amenity": "toilets", "check_date": "2024-03-16"}, "geometry": {"type": "Point", "coordinates": [78.392776, 17.486046]}}, {"type": "Feature", "properties": {"osm_id": 11147902325, "osm_type": "node", "amenity": "toilets"}, "geometry": {"type": "Point", "coordinates": [78.316522, 17.495761]}}, {"type": "Feature", "properties": {"osm_id": 11147903862, "osm_type": "node", "amenity": "toilets"}, "geometry": {"type": "Point", "coordinates": [78.559924, 17.392066]}}, {"type": "Feature", "properties": {"osm_id": 11147904196, "osm_type": "node", "amenity": "toilets"}, "geometry": {"type": "Point", "coordinates": [78.315061, 17.495128]}}, {"type": "Feature", "properties": {"osm_id": 11147907915, "osm_type": "node", "amenity": "toilets", "check_date": "2024-03-16"}, "geometry": {"type": "Point", "coordinates": [78.393542, 17.491503]}}, {"type": "Feature", "properties": {"osm_id": 11147909047, "osm_type": "node", "amenity": "toilets"}, "geometry": {"type": "Point", "coordinates": [78.300301, 17.509394]}}, {"type": "Feature", "properties": {"osm_id": 11147912931, "osm_type": "node", "amenity": "toilets", "check_date": "2024-03-16"}, "geometry": {"type": "Point", "coordinates": [78.392262, 17.485984]}}, {"type": "Feature", "properties": {"osm_id": 11147914329, "osm_type": "node", "access": "yes", "amenity": "toilets", "check_date": "2024-03-16", "toilets:disposal": "flush"}, "geometry": {"type": "Point", "coordinates": [78.394133, 17.493065]}}, {"type": "Feature", "properties": {"osm_id": 11147918025, "osm_type": "node", "amenity": "toilets"}, "geometry": {"type": "Point", "coordinates": [78.390839, 17.485119]}}, {"type": "Feature", "properties": {"osm_id": 11358156637, "osm_type": "node", "access": "permissive", "amenity": "toilets", "check_date": "2024-03-16", "female": "yes", "level": "1", "male": "yes", "opening_hours": "Mo-Su 05:00-23:00", "toilets:disposal": "flush", "wheelchair": "yes"}, "geometry": {"type": "Point", "coordinates": [78.388454, 17.498635]}}, {"type": "Feature", "properties": {"osm_id": 11361071834, "osm_type": "node", "access": "yes", "amenity": "toilets", "changing_table": "no", "toilets:disposal": "pitlatrine", "toilets:handwashing": "yes", "unisex": "yes", "wheelchair": "no"}, "geometry": {"type": "Point", "coordinates": [78.383967, 17.494316]}}, {"type": "Feature", "properties": {"osm_id": 11770988860, "osm_type": "node", "amenity": "toilets", "check_date": "2024-03-29"}, "geometry": {"type": "Point", "coordinates": [78.487073, 17.445365]}}, {"type": "Feature", "properties": {"osm_id": 13227600323, "osm_type": "node", "access": "yes", "amenity": "toilets", "check_date": "2025-10-12"}, "geometry": {"type": "Point", "coordinates": [78.427264, 17.395818]}}, {"type": "Feature", "properties": {"osm_id": 13227662857, "osm_type": "node", "access": "yes", "amenity": "toilets", "check_date": "2025-10-12"}, "geometry": {"type": "Point", "coordinates": [78.41155, 17.3729]}}, {"type": "Feature", "properties": {"osm_id": 13272712294, "osm_type": "node", "amenity": "toilets"}, "geometry": {"type": "Point", "coordinates": [78.340388, 17.418868]}}, {"type": "Feature", "properties": {"osm_id": 13272714207, "osm_type": "node", "amenity": "toilets"}, "geometry": {"type": "Point", "coordinates": [78.341233, 17.418757]}}, {"type": "Feature", "properties": {"osm_id": 13273707550, "osm_type": "node", "amenity": "toilets", "name": "Pay & Use Toilets"}, "geometry": {"type": "Point", "coordinates": [78.418236, 17.425879]}}, {"type": "Feature", "properties": {"osm_id": 13273738650, "osm_type": "node", "amenity": "toilets"}, "geometry": {"type": "Point", "coordinates": [78.355362, 17.458213]}}, {"type": "Feature", "properties": {"osm_id": 13273746938, "osm_type": "node", "amenity": "toilets"}, "geometry": {"type": "Point", "coordinates": [78.361971, 17.454866]}}, {"type": "Feature", "properties": {"osm_id": 13275183864, "osm_type": "node", "amenity": "toilets"}, "geometry": {"type": "Point", "coordinates": [78.375748, 17.463795]}}, {"type": "Feature", "properties": {"osm_id": 13290111403, "osm_type": "node", "addr:floor": "G", "addr:housenumber": "Level - F", "addr:street": "DSRA, GMR Airport, East Pier Bulb Area, F-049, Shamshabad", "amenity": "toilets", "check_date": "2025-11-09", "fee": "no", "level": "0", "opening_hours": "24/7", "toilets:disposal": "flush", "toilets:handwashing": "yes", "wheelchair": "yes"}, "geometry": {"type": "Point", "coordinates": [78.434304, 17.235246]}}, {"type": "Feature", "properties": {"osm_id": 13308005566, "osm_type": "node", "amenity": "toilets"}, "geometry": {"type": "Point", "coordinates": [78.382006, 17.452798]}}, {"type": "Feature", "properties": {"osm_id": 13531212091, "osm_type": "node", "access": "yes", "amenity": "toilets", "check_date": "2026-02-07"}, "geometry": {"type": "Point", "coordinates": [78.442237, 17.437108]}}, {"type": "Feature", "properties": {"osm_id": 13536912474, "osm_type": "node", "amenity": "toilets", "check_date": "2026-02-09"}, "geometry": {"type": "Point", "coordinates": [78.492408, 17.430538]}}, {"type": "Feature", "properties": {"osm_id": 356538126, "osm_type": "way", "amenity": "toilets", "building": "yes"}, "geometry": {"type": "Point", "coordinates": [78.470972, 17.385434]}}, {"type": "Feature", "properties": {"osm_id": 416973451, "osm_type": "way", "amenity": "toilets", "building": "yes"}, "geometry": {"type": "Point", "coordinates": [78.367801, 17.486304]}}, {"type": "Feature", "properties": {"osm_id": 630995322, "osm_type": "way", "amenity": "toilets", "building": "yes"}, "geometry": {"type": "Point", "coordinates": [78.505054, 17.430959]}}, {"type": "Feature", "properties": {"osm_id": 630995323, "osm_type": "way", "amenity": "toilets", "building": "yes"}, "geometry": {"type": "Point", "coordinates": [78.504909, 17.430862]}}, {"type": "Feature", "properties": {"osm_id": 800974849, "osm_type": "way", "amenity": "toilets", "level": "1"}, "geometry": {"type": "Point", "coordinates": [78.405719, 17.437421]}}, {"type": "Feature", "properties": {"osm_id": 800974852, "osm_type": "way", "amenity": "toilets", "level": "2"}, "geometry": {"type": "Point", "coordinates": [78.405719, 17.437421]}}, {"type": "Feature", "properties": {"osm_id": 800974853, "osm_type": "way", "amenity": "toilets", "level": "3"}, "geometry": {"type": "Point", "coordinates": [78.405719, 17.437421]}}, {"type": "Feature", "properties": {"osm_id": 800974854, "osm_type": "way", "amenity": "toilets", "level": "4"}, "geometry": {"type": "Point", "coordinates": [78.405719, 17.437421]}}, {"type": "Feature", "properties": {"osm_id": 865332901, "osm_type": "way", "access": "customers", "amenity": "toilets", "building": "yes", "fee": "yes", "female": "yes", "name": "SHE Toilets", "operator": "GHMC", "wheelchair": "no"}, "geometry": {"type": "Point", "coordinates": [78.397329, 17.512681]}}, {"type": "Feature", "properties": {"osm_id": 865337452, "osm_type": "way", "amenity": "toilets", "building": "yes"}, "geometry": {"type": "Point", "coordinates": [78.396033, 17.515183]}}, {"type": "Feature", "properties": {"osm_id": 1134842647, "osm_type": "way", "access": "customers", "amenity": "toilets", "building": "yes", "female": "yes", "male": "yes", "toilets:disposal": "flush"}, "geometry": {"type": "Point", "coordinates": [78.329942, 17.413994]}}, {"type": "Feature", "properties": {"osm_id": 1222790037, "osm_type": "way", "access": "private", "amenity": "toilets", "building": "yes", "female": "yes", "male": "yes", "toilets:disposal": "flush"}, "geometry": {"type": "Point", "coordinates": [78.340086, 17.414957]}}, {"type": "Feature", "properties": {"osm_id": 1251536292, "osm_type": "way", "access": "private", "amenity": "toilets", "building": "yes", "male": "yes", "wheelchair": "yes"}, "geometry": {"type": "Point", "coordinates": [78.338016, 17.413197]}}, {"type": "Feature", "properties": {"osm_id": 1251536293, "osm_type": "way", "amenity": "toilets", "building": "yes", "female": "yes"}, "geometry": {"type": "Point", "coordinates": [78.337999, 17.413114]}}, {"type": "Feature", "properties": {"osm_id": 1421180456, "osm_type": "way", "amenity": "toilets", "building": "yes"}, "geometry": {"type": "Point", "coordinates": [78.275368, 17.441233]}}, {"type": "Feature", "properties": {"osm_id": 1428114537, "osm_type": "way", "access": "yes", "amenity": "toilets", "building": "yes", "changing_table": "yes", "unisex": "yes", "wheelchair": "yes"}, "geometry": {"type": "Point", "coordinates": [78.540692, 17.418673]}}, {"type": "Feature", "properties": {"osm_id": 1474129568, "osm_type": "way", "access": "yes", "amenity": "toilets", "building": "yes", "fee": "no", "female": "yes", "male": "yes"}, "geometry": {"type": "Point", "coordinates": [78.351945, 17.395187]}}, {"type": "Feature", "properties": {"osm_id": 1510442335, "osm_type": "way", "amenity": "toilets", "building": "yes"}, "geometry": {"type": "Point", "coordinates": [78.591216, 17.363639]}}, {"type": "Feature", "properties": {"osm_id": 1510442338, "osm_type": "way", "amenity": "toilets", "building": "yes"}, "geometry": {"type": "Point", "coordinates": [78.568179, 17.359392]}}]}