{"type": "FeatureCollection", "name": "acs", "crs": {"type": "name", "properties": {"name": "urn:ogc:def:crs:OGC:1.3:CRS84"}}, "features": [{"type": "Feature", "properties": {"OBJECTID": 6, "ST_CODE": 8, "ST_NAME": "RAJASTHAN", "DT_CODE": 12.0, "DIST_NAME": "JAIPUR", "AC_NO": 40, "AC_NAME": "Kotputli", "PC_NO": 6, "PC_NAME": "JAIPUR RURAL", "PC_ID": 806, "STATUS": null, "Shape_Leng": 1.52493764304, "Shape_Area": 0.0581953138, "representative": "Hansraj Patel", "party": "BJP", "ac_name": "Kotputli", "office": "MLA"}, "geometry": {"type": "Polygon", "coordinates": [[[76.22548390425885, 27.833149416512413], [76.23865402955988, 27.8474486694206], [76.25112889168508, 27.8428727902471], [76.26290310639331, 27.832218906877074], [76.25611941857636, 27.820887340278603], [76.28563944890152, 27.8017897285132], [76.26477992585296, 27.798190934863783], [76.26899315790797, 27.781554631740903], [76.26157010427693, 27.774528180930872], [76.2587812598473, 27.76275463981483], [76.24030174223168, 27.759201743066058], [76.23886366422676, 27.750061708281237], [76.24942073647787, 27.72775026396357], [76.25468177134672, 27.691037227486106], [76.24149437996175, 27.683948620032822], [76.25015695118242, 27.669356746616586], [76.23663962821632, 27.667085924276023], [76.24877533441423, 27.656037634229506], [76.24412552377396, 27.643454194255696], [76.24733317078926, 27.633806302418975], [76.23896416526406, 27.622647350794637], [76.22825693860688, 27.62042504148252], [76.22108529764841, 27.624938564363333], [76.20616673110982, 27.624711809302596], [76.20659800549362, 27.61931309991968], [76.19692855780676, 27.62110944624402], [76.19374107988699, 27.60689052527755], [76.2042757302408, 27.598992107100116], [76.20305579808667, 27.590919520819284], [76.17514387878703, 27.590674365629525], [76.1617938773856, 27.606437364992473], [76.14413652538042, 27.61090223095323], [76.13981162990285, 27.620750766934407], [76.13186083970606, 27.624142108571505], [76.11922667886819, 27.62015158552731], [76.08553943839445, 27.601061919272183], [76.08182265908852, 27.584367717796], [76.0493473117291, 27.582104340043315], [76.04796978058096, 27.574575696111538], [76.04238461925485, 27.571717356570787], [76.02466348733014, 27.571997266061032], [76.01761999796457, 27.55827309542707], [75.99373142156793, 27.556994102096212], [75.99113388631986, 27.542327165866084], [75.99457737784377, 27.53443845227281], [75.97999102446624, 27.516528497791967], [75.97676010839234, 27.4990204548302], [75.9393537620665, 27.497305971093738], [75.95114594972586, 27.52964999585066], [75.95369632902242, 27.5621897571516], [75.94255399597017, 27.564872744181855], [75.94415538006677, 27.571078088782826], [75.96816876887362, 27.5913292483462], [75.96382164575243, 27.599003157070115], [75.95925217514781, 27.591861981545264], [75.95388552119988, 27.594957255572922], [75.94595456645015, 27.59117600656748], [75.95003743547932, 27.597772630902227], [75.94840528647484, 27.612006234200408], [75.94163975776866, 27.619225934928977], [75.96486694125639, 27.622052187558438], [75.95839953600984, 27.63723377252063], [75.9699930058726, 27.640965358264737], [75.98040057662536, 27.65656504524071], [75.99096814666268, 27.69209012945595], [76.01045356767804, 27.710708438543634], [76.02950513775198, 27.719147833106092], [76.03423020635898, 27.73746413366291], [76.04885794204046, 27.75139130286641], [76.04572073172642, 27.754113490445263], [76.05296704159576, 27.76891777563486], [76.06871460319644, 27.767856625083255], [76.0773008345659, 27.788872272237597], [76.07745412221004, 27.802156748135474], [76.08849221304524, 27.805342684617244], [76.09178682540175, 27.82782214027958], [76.07488761537121, 27.84394274336296], [76.0868487820457, 27.844518480343652], [76.08939038755642, 27.860321888944043], [76.11511999669057, 27.850623927352444], [76.1229833610933, 27.851476523322958], [76.13527819962928, 27.839155518112705], [76.13239993201131, 27.824576251392955], [76.1533818707768, 27.81991163161655], [76.1530120677528, 27.81504765822291], [76.1699499261482, 27.807056104455683], [76.1717349796856, 27.799155808493822], [76.17793737990621, 27.797017434706902], [76.1829633634685, 27.797700804348665], [76.2003428555384, 27.820830014793387], [76.20820335560046, 27.816210076034224], [76.21820949417287, 27.816902057583945], [76.22548390425885, 27.833149416512413]]]}}, {"type": "Feature", "properties": {"OBJECTID": 6, "ST_CODE": 8, "ST_NAME": "RAJASTHAN", "DT_CODE": 12.0, "DIST_NAME": "JAIPUR", "AC_NO": 41, "AC_NAME": "Viratnagar", "PC_NO": 6, "PC_NAME": "JAIPUR RURAL", "PC_ID": 806, "STATUS": null, "Shape_Leng": 1.42517628368, "Shape_Area": 0.06439124951, "representative": "Kuldeep Dhankad", "party": "BJP", "ac_name": "Viratnagar", "office": "MLA"}, "geometry": {"type": "Polygon", "coordinates": [[[76.20305579808667, 27.590919520819284], [76.20975905863372, 27.568832724450715], [76.20736593119284, 27.553295424344412], [76.21282366128298, 27.548181634574803], [76.20612502684855, 27.533867430437624], [76.23493223023831, 27.523827224646766], [76.22774865347765, 27.513026316511343], [76.23805296047578, 27.506415322808948], [76.24331966107354, 27.489961636920043], [76.2392536570307, 27.475553048934103], [76.23417333103447, 27.471108253143427], [76.22507228995426, 27.47195467706672], [76.2313204557745, 27.469146734634137], [76.22767381999086, 27.458665021973218], [76.22028175160159, 27.455569422390965], [76.21810081380158, 27.459930501191707], [76.21415688912919, 27.453974972067385], [76.22251696618508, 27.452686019644148], [76.2254615210324, 27.447401152741065], [76.2209302509304, 27.439148503300828], [76.22763677871444, 27.417245879094082], [76.22402072347768, 27.402999075546973], [76.2144549559315, 27.403331220359576], [76.20127275903064, 27.37589322039588], [76.19364448730329, 27.374182604643522], [76.19804613721954, 27.360856969473616], [76.1797460190636, 27.337100849724493], [76.17571855456771, 27.33832229094105], [76.1688677764268, 27.30987819332404], [76.15044529471464, 27.311386471508513], [76.14401479494688, 27.28000820801242], [76.13407478712179, 27.280969645332902], [76.13093233376026, 27.26065408261985], [76.12484753158839, 27.255421790982894], [76.1184149292057, 27.262403654305274], [76.10555996681904, 27.258223642307314], [76.09920564682318, 27.27610141814597], [76.07907937611236, 27.291256797763083], [76.06207117904171, 27.310833364168445], [76.05746292157664, 27.342670135318542], [76.04457606023703, 27.360201451835565], [76.04610810570455, 27.381488249982795], [76.06438352937641, 27.39011316838804], [76.06686667625615, 27.399898841758215], [76.00793282194223, 27.41648744483973], [75.99596656690358, 27.424770524640053], [75.99778514446888, 27.417818913612052], [75.97333965749925, 27.414985616592958], [75.93115391542091, 27.418952298609724], [75.92635448906844, 27.406240504695575], [75.9183363954084, 27.403349763480833], [75.88458804240429, 27.4073784987188], [75.87151320746858, 27.412905904683782], [75.88913107833667, 27.45319320849984], [75.92044733987291, 27.45158911834318], [75.92147247977118, 27.459240110542737], [75.9283974043168, 27.462775651275365], [75.93780642272827, 27.460077658157445], [75.94400574546881, 27.469692538579864], [75.95316348250878, 27.467666744624637], [75.95380045702552, 27.471619781227957], [75.96400623070303, 27.47044268468221], [75.9644890524279, 27.465061299839192], [75.97001157867146, 27.471775669711462], [75.9868376918061, 27.468532765674638], [75.98478895974273, 27.496188892603357], [75.97676010839234, 27.4990204548302], [75.97999102446624, 27.516528497791967], [75.99457737784377, 27.53443845227281], [75.99113388631986, 27.542327165866084], [75.99373142156793, 27.556994102096212], [76.01761999796457, 27.55827309542707], [76.02466348733014, 27.571997266061032], [76.04238461925485, 27.571717356570787], [76.04796978058096, 27.574575696111538], [76.0493473117291, 27.582104340043315], [76.08182265908852, 27.584367717796], [76.08553943839445, 27.601061919272183], [76.11922667886819, 27.62015158552731], [76.13186083970606, 27.624142108571505], [76.13981162990285, 27.620750766934407], [76.14413652538042, 27.61090223095323], [76.1617938773856, 27.606437364992473], [76.17514387878703, 27.590674365629525], [76.20305579808667, 27.590919520819284]]]}}, {"type": "Feature", "properties": {"OBJECTID": 6, "ST_CODE": 8, "ST_NAME": "RAJASTHAN", "DT_CODE": 12.0, "DIST_NAME": "JAIPUR", "AC_NO": 42, "AC_NAME": "Shahpura", "PC_NO": 6, "PC_NAME": "JAIPUR RURAL", "PC_ID": 806, "STATUS": null, "Shape_Leng": 1.30784553812, "Shape_Area": 0.04818179194, "representative": "Manish Yadav", "party": "INC", "ac_name": "Shahpura", "office": "MLA"}, "geometry": {"type": "Polygon", "coordinates": [[[76.00793282194223, 27.41648744483973], [76.06686667625615, 27.399898841758215], [76.06438352937641, 27.39011316838804], [76.04610810570455, 27.381488249982795], [76.04457606023703, 27.360201451835565], [76.05746292157664, 27.342670135318542], [76.06207117904171, 27.310833364168445], [76.07907937611236, 27.291256797763083], [76.0658171962067, 27.29092570066058], [76.05036438201068, 27.27904454666856], [76.03102943556007, 27.289965706752014], [75.99852230076363, 27.295148004177122], [75.97920087472068, 27.289449083108764], [75.94486156191164, 27.29903854149552], [75.92989950775615, 27.286577833800038], [75.89399519202453, 27.288225508700293], [75.8722562480275, 27.27464993934325], [75.85513317515597, 27.25237070424464], [75.83572968417764, 27.252325300172515], [75.81441116694185, 27.234733010520074], [75.78303838121639, 27.23165099160002], [75.76945682777045, 27.208242427446123], [75.74817669090163, 27.20183135303455], [75.75445823326089, 27.2270591395677], [75.74993591590987, 27.23773139338914], [75.74125725042182, 27.237522375657136], [75.73823641238056, 27.252735684204538], [75.73322961855212, 27.256684891494615], [75.7395534839062, 27.27376409363808], [75.69374076432484, 27.28269604508648], [75.70667871974717, 27.303752069102757], [75.69671970834793, 27.305372878555545], [75.69237984185628, 27.31722971487949], [75.67911340635868, 27.316840708631844], [75.6786864298349, 27.338856182466884], [75.67466901076631, 27.347547453752043], [75.66632897690084, 27.34820817396809], [75.66644734746717, 27.358943826396512], [75.68577705986348, 27.366777996107658], [75.72384323517724, 27.361117416735453], [75.72675070558063, 27.367411197968465], [75.72107153272509, 27.377529324618706], [75.7298966644995, 27.381166066960475], [75.73236821552081, 27.39141289379006], [75.74139665073488, 27.39991504304487], [75.77658698300291, 27.398293506939865], [75.78184660054023, 27.390309215198158], [75.77911716982157, 27.379988757275385], [75.79839274123208, 27.375646235985073], [75.81329485917047, 27.400797674573084], [75.82038915123837, 27.387853740457786], [75.82659053702372, 27.386505656710767], [75.83802001371271, 27.385791648965494], [75.84798653894768, 27.399545320060497], [75.85670420443552, 27.396917063971387], [75.86176800628851, 27.38753402517517], [75.876216551153, 27.3878359824447], [75.88412167287697, 27.397191831138173], [75.87151320746858, 27.412905904683782], [75.88458804240429, 27.4073784987188], [75.9183363954084, 27.403349763480833], [75.92635448906844, 27.406240504695575], [75.93115391542091, 27.418952298609724], [75.97333965749925, 27.414985616592958], [75.99778514446888, 27.417818913612052], [75.99596656690358, 27.424770524640053], [76.00793282194223, 27.41648744483973]]]}}, {"type": "Feature", "properties": {"OBJECTID": 5, "ST_CODE": 8, "ST_NAME": "RAJASTHAN", "DT_CODE": 12.0, "DIST_NAME": "JAIPUR", "AC_NO": 43, "AC_NAME": "Chomu", "PC_NO": 5, "PC_NAME": "SIKAR", "PC_ID": 805, "STATUS": null, "Shape_Leng": 1.40303280462, "Shape_Area": 0.04414179812, "representative": "Shikha Meel Barala", "party": "INC", "ac_name": "Chomu", "office": "MLA"}, "geometry": {"type": "Polygon", "coordinates": [[[75.62313996913434, 27.32148391105369], [75.62895370305102, 27.334149666873657], [75.66142349889543, 27.3308463032144], [75.66606917715086, 27.335220226132606], [75.66632897690084, 27.34820817396809], [75.67466901076631, 27.347547453752043], [75.6786864298349, 27.338856182466884], [75.67911340635868, 27.316840708631844], [75.69237984185628, 27.31722971487949], [75.69671970834793, 27.305372878555545], [75.70667871974717, 27.303752069102757], [75.69374076432484, 27.28269604508648], [75.7395534839062, 27.27376409363808], [75.73322961855212, 27.256684891494615], [75.73823641238056, 27.252735684204538], [75.74125725042182, 27.237522375657136], [75.74993591590987, 27.23773139338914], [75.75445823326089, 27.2270591395677], [75.74817669090163, 27.20183135303455], [75.76945682777045, 27.208242427446123], [75.78303838121639, 27.23165099160002], [75.81441116694185, 27.234733010520074], [75.83572968417764, 27.252325300172515], [75.85513317515597, 27.25237070424464], [75.8722562480275, 27.27464993934325], [75.87071313820081, 27.25728002325451], [75.87880921567285, 27.251586476534726], [75.86835367598144, 27.221348620842207], [75.87527651859654, 27.21014571575222], [75.87682343975001, 27.19150811710597], [75.8379277261837, 27.172361211700604], [75.82279299949738, 27.152215819604464], [75.79138355200939, 27.1585320056476], [75.77439429735898, 27.14532476262775], [75.72583360034042, 27.145596763479887], [75.72141339920904, 27.156912568560244], [75.71282093643714, 27.163096295257844], [75.7143520286233, 27.179246574170122], [75.66928329478827, 27.188651531243238], [75.65398295524926, 27.18505490945654], [75.646047497594, 27.196254255929205], [75.64104182611942, 27.185857275592866], [75.6200865009913, 27.183144129797824], [75.61549049858769, 27.178868706026037], [75.61085722917784, 27.19778505223843], [75.60345305681318, 27.201168582364232], [75.59245355228967, 27.199835826662138], [75.58925078949238, 27.190706349918173], [75.58208894215102, 27.18794449953907], [75.58132290592744, 27.163521100818173], [75.57662906897639, 27.154422091306515], [75.5688129324709, 27.161674097481637], [75.55842354151326, 27.1626359853625], [75.54462137267825, 27.16052254707796], [75.53746496893325, 27.151767364572265], [75.52128192861818, 27.152033334570774], [75.5202741312462, 27.173645621648177], [75.50742084339726, 27.172016522244746], [75.50279869860111, 27.179116462055106], [75.50213776164844, 27.203709223801695], [75.50937476083658, 27.219667162909275], [75.51036254379642, 27.244963756572133], [75.48950543632691, 27.250643275666675], [75.48693062334962, 27.259450486650678], [75.49838090225688, 27.282025604997727], [75.49742872165825, 27.300072711486507], [75.50527696126284, 27.306582262561392], [75.51143394392142, 27.323583418839746], [75.52757974960582, 27.335850548364192], [75.56500957902892, 27.339172158368456], [75.57628589667684, 27.334842437128827], [75.57939204980329, 27.3203008277211], [75.5715582083447, 27.303298609343415], [75.57765313778214, 27.299226363106243], [75.61415274715159, 27.30591595845476], [75.62313996913434, 27.32148391105369]]]}}, {"type": "Feature", "properties": {"OBJECTID": 6, "ST_CODE": 8, "ST_NAME": "RAJASTHAN", "DT_CODE": 12.0, "DIST_NAME": "JAIPUR", "AC_NO": 44, "AC_NAME": "Phulera", "PC_NO": 6, "PC_NAME": "JAIPUR RURAL", "PC_ID": 806, "STATUS": null, "Shape_Leng": 2.75566505609, "Shape_Area": 0.10320573906, "representative": "Vidhyadhar Singh", "party": "INC", "ac_name": "Phulera", "office": "MLA"}, "geometry": {"type": "Polygon", "coordinates": [[[75.44816523953426, 27.290061261518076], [75.455904814056, 27.286850693504732], [75.45711468189711, 27.28026643574748], [75.47566369102657, 27.282199398983153], [75.49742872165825, 27.300072711486507], [75.49838090225688, 27.282025604997727], [75.48693062334962, 27.259450486650678], [75.48950543632691, 27.250643275666675], [75.51036254379642, 27.244963756572133], [75.50937476083658, 27.219667162909275], [75.50213776164844, 27.203709223801695], [75.50279869860111, 27.179116462055106], [75.50742084339726, 27.172016522244746], [75.5202741312462, 27.173645621648177], [75.52128192861818, 27.152033334570774], [75.51474151191132, 27.127933727759398], [75.49344357745917, 27.134340739933236], [75.49614908351344, 27.143654925734268], [75.48488066640971, 27.143184103663486], [75.48562106655902, 27.169206693034482], [75.47815314665047, 27.17283946486947], [75.47887543895041, 27.184663358127523], [75.45686934774227, 27.18455271003961], [75.43125662439377, 27.177655460331266], [75.45400522106416, 27.175261490225637], [75.4624138156451, 27.169228674263934], [75.45925374366539, 27.14783633348003], [75.43175612854253, 27.115425920769667], [75.43976629647744, 27.10842514650335], [75.44185681823762, 27.096013381712226], [75.45277636493734, 27.09391750269066], [75.45548242497398, 27.07947008827398], [75.42690165558702, 27.080697732114686], [75.41836994111992, 27.090717041258472], [75.41194746960008, 27.09175461518339], [75.40644412139915, 27.068912801084934], [75.39739295671961, 27.066145288574262], [75.39359309804308, 27.05395749724073], [75.38385340880785, 27.054396695551134], [75.36871756606286, 27.04024679755173], [75.3706658258672, 27.032020090854587], [75.35457674761886, 27.02499616444146], [75.35438949078241, 27.01054164178339], [75.33987420003439, 27.014171411681332], [75.33974834890722, 26.99420959189922], [75.32947118974369, 26.993796603430553], [75.32879843659862, 26.986585871640727], [75.3341563914044, 26.98753105461452], [75.33560643039249, 26.978652774705836], [75.32975533683936, 26.961644934666026], [75.33592356911748, 26.95000125835145], [75.32985189974545, 26.945590917386994], [75.32546243744162, 26.929525461630817], [75.31828177898097, 26.92938572047467], [75.32587782620078, 26.91397908826434], [75.34325238279126, 26.91025339487834], [75.34459223234569, 26.90445724540558], [75.35424120067091, 26.901286128851837], [75.3571958378177, 26.88129830787068], [75.36848408767054, 26.878333744007136], [75.36687883648915, 26.872433515994032], [75.37910327789399, 26.861869243770627], [75.3775779710466, 26.848007059578208], [75.36132533759434, 26.84516670647838], [75.3305326775411, 26.84980852664222], [75.32712617873023, 26.82485804246471], [75.31106979173757, 26.779664438662962], [75.29905726298233, 26.780615030159538], [75.3026717722845, 26.797937184153795], [75.29012079693729, 26.80592585649316], [75.27239997258073, 26.765154149944124], [75.25481639106363, 26.752879358195855], [75.2463384830346, 26.749812843587904], [75.22732082369708, 26.762306761447917], [75.21023380374709, 26.744546098024045], [75.1957735605015, 26.75189269039538], [75.1848681412518, 26.73839655006077], [75.1739915102001, 26.73881385707392], [75.16093258517071, 26.760685941203292], [75.14589491062168, 26.770741225926884], [75.138621302731, 26.78071388094088], [75.13739287288286, 26.799531657859745], [75.13060535934989, 26.807831422781987], [75.08603872150985, 26.83122672913032], [75.06175831949093, 26.830564350564373], [75.04259333771245, 26.814986043171416], [75.04991433627765, 26.809923621777784], [75.04785925050408, 26.799712026788654], [75.03107751441581, 26.796194281840712], [75.02310592200075, 26.797853398815334], [75.01341037418945, 26.814915406820603], [74.99790141172082, 26.816566435292827], [74.98809301428122, 26.83949884529551], [74.95536946842628, 26.83348806722057], [74.93483381732688, 26.842512558008195], [74.95608171709762, 26.851070931078652], [74.95474284780425, 26.865526252334746], [74.96004031420921, 26.8735232550942], [74.96695984282252, 26.875377524053533], [74.97575164931919, 26.890762547353745], [75.01125586656502, 26.894781852300696], [75.01072003789949, 26.946052457554913], [75.16210065971774, 26.93280833693524], [75.16435130576821, 26.95999290434912], [75.15928392011688, 26.972099396969668], [75.20108931731818, 26.974919796811207], [75.20195186788447, 27.008012118664396], [75.21485828318328, 27.008270893187216], [75.22345964564619, 27.01448772662735], [75.24044761516535, 27.01360443409743], [75.25491004106561, 27.031046992924416], [75.25599689514064, 27.03538857981914], [75.24130791562789, 27.03744684199819], [75.23928744206188, 27.047937382404314], [75.21983870079544, 27.052211259342187], [75.21892382677322, 27.080273485932707], [75.2753352886927, 27.08781668988837], [75.3175773696999, 27.08566332080568], [75.33115639695023, 27.091907629433592], [75.34574097146873, 27.083515389024058], [75.36414833108068, 27.083421486312602], [75.36169984766991, 27.108461786682142], [75.34638768474389, 27.10584808252304], [75.34343645782633, 27.11369107278483], [75.33745491311379, 27.11398525451591], [75.33841997560143, 27.13450216554253], [75.32854864090712, 27.135530636529722], [75.32835801880759, 27.143085382384527], [75.31603274541493, 27.143829599256662], [75.31338962173373, 27.184994489404232], [75.32147285239029, 27.20689091008751], [75.32566635062165, 27.205546192502823], [75.3310444106711, 27.211093913253535], [75.3468834917798, 27.209937961567732], [75.3547334131166, 27.22284544076456], [75.38998586965221, 27.2288049394964], [75.38781216779734, 27.26675013710917], [75.39331295113186, 27.278514136418323], [75.37949509542239, 27.28207119433023], [75.37973601750326, 27.288423925224038], [75.42690084889512, 27.28549829660915], [75.43114493399156, 27.291318699898113], [75.44816523953426, 27.290061261518076]]]}}, {"type": "Feature", "properties": {"OBJECTID": 6, "ST_CODE": 8, "ST_NAME": "RAJASTHAN", "DT_CODE": 12.0, "DIST_NAME": "JAIPUR", "AC_NO": 47, "AC_NAME": "Amber", "PC_NO": 6, "PC_NAME": "JAIPUR RURAL", "PC_ID": 806, "STATUS": null, "Shape_Leng": 1.8654013207, "Shape_Area": 0.08750338379, "representative": "Prashant Sharma", "party": "INC", "ac_name": "Amber", "office": "MLA"}, "geometry": {"type": "Polygon", "coordinates": [[[75.97920087472068, 27.289449083108764], [75.99852230076363, 27.295148004177122], [76.01751990791746, 27.264071698849875], [76.00911431527351, 27.24485401230288], [75.99833891191133, 27.238060686451547], [75.99602836201933, 27.224859120851818], [76.00695694150971, 27.224114239380697], [76.00766733128239, 27.220430013734187], [75.99435420028618, 27.210727307319416], [75.98578868120273, 27.185420907448986], [76.0112242030346, 27.166343350565228], [76.01326603729785, 27.15029638397101], [75.99194467820439, 27.127211684571648], [75.975952143077, 27.125562966457778], [75.97634034443143, 27.112605194474213], [75.96190442784712, 27.112139116327228], [75.95647777113231, 27.105689208290357], [75.97307761484012, 27.077820417778128], [75.97286791452268, 27.049377073792982], [75.96748355652096, 27.03959148136181], [75.95490103025838, 27.03843654141332], [75.94661168757938, 27.052770278825335], [75.93830172434514, 27.044681004724623], [75.92457092660703, 27.053382822359424], [75.90887807526303, 27.039861473128553], [75.91131254453836, 27.029764656813484], [75.92118964928295, 27.023299924352102], [75.91514978893167, 27.00418542152005], [75.93788400544253, 26.992975097023134], [75.91544508132552, 26.98180345776342], [75.91297258691543, 26.971538931376642], [75.92563851270728, 26.96351414676053], [75.90907110394835, 26.964031908945515], [75.90510888886416, 26.9726969236242], [75.89773656598976, 26.97279485529839], [75.87595821999594, 26.984883313813953], [75.8705416842514, 26.97974524234911], [75.84325033943168, 26.97655969437443], [75.81716388740352, 26.9795850721934], [75.8030130442167, 26.983423925473858], [75.79814371266224, 27.00423899773159], [75.79280603217268, 27.008630781185673], [75.77911684156902, 27.00060485263191], [75.7790978209078, 26.99047422810321], [75.77440157647163, 26.99188223817481], [75.76922586747986, 27.009855140702257], [75.76058055784654, 27.0010361063313], [75.73940901951067, 27.003648873396855], [75.73514508637669, 27.024145690870967], [75.7271736567389, 27.026845497022123], [75.7170236509208, 27.02202383583142], [75.70980783796142, 27.036239766552058], [75.68390279088118, 27.029365537689443], [75.66023439999759, 27.032536811624595], [75.62639662560383, 27.026540359749845], [75.60927247894182, 27.013525036551243], [75.57378278484771, 27.01279316916947], [75.57015818874947, 27.019660686391603], [75.55293921217498, 27.015005702850942], [75.53157808326199, 27.034425447276647], [75.52908124600276, 27.07256339388556], [75.51474151191132, 27.127933727759398], [75.52128192861818, 27.152033334570774], [75.53746496893325, 27.151767364572265], [75.54462137267825, 27.16052254707796], [75.55842354151326, 27.1626359853625], [75.5688129324709, 27.161674097481637], [75.57662906897639, 27.154422091306515], [75.58132290592744, 27.163521100818173], [75.58208894215102, 27.18794449953907], [75.58925078949238, 27.190706349918173], [75.59245355228967, 27.199835826662138], [75.60345305681318, 27.201168582364232], [75.61085722917784, 27.19778505223843], [75.61549049858769, 27.178868706026037], [75.6200865009913, 27.183144129797824], [75.64104182611942, 27.185857275592866], [75.646047497594, 27.196254255929205], [75.65398295524926, 27.18505490945654], [75.66928329478827, 27.188651531243238], [75.7143520286233, 27.179246574170122], [75.71282093643714, 27.163096295257844], [75.72141339920904, 27.156912568560244], [75.72583360034042, 27.145596763479887], [75.77439429735898, 27.14532476262775], [75.79138355200939, 27.1585320056476], [75.82279299949738, 27.152215819604464], [75.8379277261837, 27.172361211700604], [75.87682343975001, 27.19150811710597], [75.87527651859654, 27.21014571575222], [75.86835367598144, 27.221348620842207], [75.87880921567285, 27.251586476534726], [75.87071313820081, 27.25728002325451], [75.8722562480275, 27.27464993934325], [75.89399519202453, 27.288225508700293], [75.92989950775615, 27.286577833800038], [75.94486156191164, 27.29903854149552], [75.97920087472068, 27.289449083108764]]]}}, {"type": "Feature", "properties": {"OBJECTID": 6, "ST_CODE": 8, "ST_NAME": "RAJASTHAN", "DT_CODE": 12.0, "DIST_NAME": "JAIPUR", "AC_NO": 48, "AC_NAME": "Jamwa Ramgarh (ST)", "PC_NO": 6, "PC_NAME": "JAIPUR RURAL", "PC_ID": 806, "STATUS": null, "Shape_Leng": 1.791053402, "Shape_Area": 0.08619277611, "representative": "Mahendra Pal Meena", "party": "BJP", "ac_name": "Jamwa Ramgarh (ST)", "office": "MLA"}, "geometry": {"type": "Polygon", "coordinates": [[[75.99852230076363, 27.295148004177122], [76.03102943556007, 27.289965706752014], [76.05036438201068, 27.27904454666856], [76.0658171962067, 27.29092570066058], [76.07907937611236, 27.291256797763083], [76.09920564682318, 27.27610141814597], [76.10555996681904, 27.258223642307314], [76.1184149292057, 27.262403654305274], [76.12484753158839, 27.255421790982894], [76.1166904656925, 27.24832988391705], [76.11462221564278, 27.228193492235903], [76.13294672251328, 27.22280018238257], [76.11942807214785, 27.19367553269973], [76.13104635520517, 27.195842861958567], [76.14278525983195, 27.21960939675631], [76.15401162103956, 27.21631778094087], [76.14882461386492, 27.18058813963097], [76.16276630352212, 27.17882015252809], [76.17745440259864, 27.18283628196889], [76.18032192421748, 27.142094816922338], [76.17362367649156, 27.12847747315692], [76.1851233848364, 27.117591426203433], [76.1987921401452, 27.11430180058767], [76.21423232606105, 27.137923162324114], [76.23611666255397, 27.146429571667454], [76.2515302663088, 27.175515287900282], [76.2654299774116, 27.182294953948997], [76.27133371997525, 27.178044588886735], [76.2748122697705, 27.16105002014234], [76.28321908459316, 27.14933663647662], [76.27606427894335, 27.071099700490834], [76.28200477230246, 27.063508588750437], [76.27727810919743, 27.041418502661827], [76.25989292621762, 27.030070282417626], [76.2535537103355, 27.01815362049325], [76.2398223981852, 27.018101748496974], [76.2290588532835, 27.00066535092526], [76.21853598224982, 26.99817881899736], [76.20162365380861, 26.980354938629546], [76.17501493129413, 26.975631041839165], [76.16885369304356, 26.917102105477852], [76.18764753000954, 26.909392125845955], [76.18424757826318, 26.899240144217345], [76.18740203577539, 26.88903635894087], [76.18616677737492, 26.879428954582636], [76.1710471700909, 26.875516918970675], [76.14103083990142, 26.877428770621293], [76.1479983338561, 26.889362001655115], [76.14356708005676, 26.894004067333867], [76.10162148394437, 26.893231923814255], [76.0801571893029, 26.90603645042188], [76.06502401844375, 26.905706671725568], [76.0334440720863, 26.934333609608473], [76.01547218309486, 26.931450875057863], [75.98608805921663, 26.938155811041895], [75.96990973494638, 26.960635682191025], [75.95666123642695, 26.960446266981705], [75.94266303786895, 26.9513046125179], [75.9350960981065, 26.9636771578746], [75.92563851270728, 26.96351414676053], [75.91297258691543, 26.971538931376642], [75.91544508132552, 26.98180345776342], [75.93788400544253, 26.992975097023134], [75.91514978893167, 27.00418542152005], [75.92118964928295, 27.023299924352102], [75.91131254453836, 27.029764656813484], [75.90887807526303, 27.039861473128553], [75.92457092660703, 27.053382822359424], [75.93830172434514, 27.044681004724623], [75.94661168757938, 27.052770278825335], [75.95490103025838, 27.03843654141332], [75.96748355652096, 27.03959148136181], [75.97286791452268, 27.049377073792982], [75.97307761484012, 27.077820417778128], [75.95647777113231, 27.105689208290357], [75.96190442784712, 27.112139116327228], [75.97634034443143, 27.112605194474213], [75.975952143077, 27.125562966457778], [75.99194467820439, 27.127211684571648], [76.01326603729785, 27.15029638397101], [76.0112242030346, 27.166343350565228], [75.98578868120273, 27.185420907448986], [75.99435420028618, 27.210727307319416], [76.00766733128239, 27.220430013734187], [76.00695694150971, 27.224114239380697], [75.99602836201933, 27.224859120851818], [75.99833891191133, 27.238060686451547], [76.00911431527351, 27.24485401230288], [76.01751990791746, 27.264071698849875], [75.99852230076363, 27.295148004177122]]]}}, {"type": "Feature", "properties": {"OBJECTID": 6, "ST_CODE": 8, "ST_NAME": "RAJASTHAN", "DT_CODE": 12.0, "DIST_NAME": "JAIPUR", "AC_NO": 46, "AC_NAME": "Jhotwara", "PC_NO": 6, "PC_NAME": "JAIPUR RURAL", "PC_ID": 806, "STATUS": null, "Shape_Leng": 2.08787502942, "Shape_Area": 0.07233426956, "representative": "Rajyavardhan Rathore", "party": "BJP", "ac_name": "Jhotwara", "office": "MLA"}, "geometry": {"type": "MultiPolygon", "coordinates": [[[[75.89773656598976, 26.97279485529839], [75.90510888886416, 26.9726969236242], [75.90907110394835, 26.964031908945515], [75.92563851270728, 26.96351414676053], [75.9350960981065, 26.9636771578746], [75.94266303786895, 26.9513046125179], [75.93815382633807, 26.93040610745595], [75.9472792318511, 26.893965848844914], [75.92687797094169, 26.89024508554229], [75.9173078048114, 26.892692438505264], [75.91727321508688, 26.899081314051443], [75.90944098521334, 26.90125047882657], [75.91009855240634, 26.91987591953813], [75.90163247945543, 26.926981730122804], [75.877977970507, 26.92991041643262], [75.86634304639455, 26.94094888678177], [75.85926503835088, 26.971093378456715], [75.84325033943168, 26.97655969437443], [75.8705416842514, 26.97974524234911], [75.87595821999594, 26.984883313813953], [75.89773656598976, 26.97279485529839]]], [[[75.45686934774227, 27.18455271003961], [75.47887543895041, 27.184663358127523], [75.47815314665047, 27.17283946486947], [75.48562106655902, 27.169206693034482], [75.48488066640971, 27.143184103663486], [75.49614908351344, 27.143654925734268], [75.49344357745917, 27.134340739933236], [75.51474151191132, 27.127933727759398], [75.52908124600276, 27.07256339388556], [75.53157808326199, 27.034425447276647], [75.55293921217498, 27.015005702850942], [75.57015818874947, 27.019660686391603], [75.57378278484771, 27.01279316916947], [75.60927247894182, 27.013525036551243], [75.62639662560383, 27.026540359749845], [75.66023439999759, 27.032536811624595], [75.68390279088118, 27.029365537689443], [75.70980783796142, 27.036239766552058], [75.7170236509208, 27.02202383583142], [75.7271736567389, 27.026845497022123], [75.73514508637669, 27.024145690870967], [75.73940901951067, 27.003648873396855], [75.76058055784654, 27.0010361063313], [75.75897645689804, 26.979729382804805], [75.76630901894612, 26.976369887960004], [75.75940895256116, 26.958097559754606], [75.77205870764328, 26.957437431292476], [75.78779565184789, 26.952306437492155], [75.78636467129263, 26.94722816554747], [75.77318790719619, 26.9445720916288], [75.77180028745335, 26.936792469397005], [75.73287986951044, 26.94177830992112], [75.73433779735154, 26.91266637575268], [75.74675504081256, 26.911650051009076], [75.75395176835946, 26.893310213395694], [75.74792321338566, 26.890033676512985], [75.72722896144745, 26.885396274718346], [75.72193972383923, 26.88909559728404], [75.72043114078457, 26.899051369325264], [75.70702698760545, 26.90596113220056], [75.68381993634102, 26.907338865696147], [75.68177504528217, 26.89521142966379], [75.66929579536475, 26.883845778759735], [75.65764658282359, 26.881380980747736], [75.65218832033474, 26.885545120610857], [75.64283944768243, 26.87866779987911], [75.62707777751746, 26.878028640009802], [75.62329448525236, 26.888225097610245], [75.61179819792852, 26.88424014676542], [75.58492532654265, 26.88853209647914], [75.57668046073474, 26.867758858884258], [75.55586073898195, 26.86602884205746], [75.54502865225055, 26.869299214087505], [75.54254566904746, 26.876568261516127], [75.53755021656929, 26.870689324952423], [75.51028883356287, 26.88098711456371], [75.51409678613783, 26.89530703838915], [75.5114256818498, 26.911282255271942], [75.46579088594069, 26.919093480579704], [75.43494045433857, 26.91356657643638], [75.3909776285148, 26.92076130928706], [75.38192275593047, 26.908630523280067], [75.38306302973507, 26.89290055511657], [75.36848408767054, 26.878333744007136], [75.3571958378177, 26.88129830787068], [75.35424120067091, 26.901286128851837], [75.34459223234569, 26.90445724540558], [75.34325238279126, 26.91025339487834], [75.32587782620078, 26.91397908826434], [75.31828177898097, 26.92938572047467], [75.32546243744162, 26.929525461630817], [75.32985189974545, 26.945590917386994], [75.33592356911748, 26.95000125835145], [75.32975533683936, 26.961644934666026], [75.33560643039249, 26.978652774705836], [75.3341563914044, 26.98753105461452], [75.32879843659862, 26.986585871640727], [75.32947118974369, 26.993796603430553], [75.33974834890722, 26.99420959189922], [75.33987420003439, 27.014171411681332], [75.35438949078241, 27.01054164178339], [75.35457674761886, 27.02499616444146], [75.3706658258672, 27.032020090854587], [75.36871756606286, 27.04024679755173], [75.38385340880785, 27.054396695551134], [75.39359309804308, 27.05395749724073], [75.39739295671961, 27.066145288574262], [75.40644412139915, 27.068912801084934], [75.41194746960008, 27.09175461518339], [75.41836994111992, 27.090717041258472], [75.42690165558702, 27.080697732114686], [75.45548242497398, 27.07947008827398], [75.45277636493734, 27.09391750269066], [75.44185681823762, 27.096013381712226], [75.43976629647744, 27.10842514650335], [75.43175612854253, 27.115425920769667], [75.45925374366539, 27.14783633348003], [75.4624138156451, 27.169228674263934], [75.45400522106416, 27.175261490225637], [75.43125662439377, 27.177655460331266], [75.45686934774227, 27.18455271003961]]]]}}, {"type": "Feature", "properties": {"OBJECTID": 7, "ST_CODE": 8, "ST_NAME": "RAJASTHAN", "DT_CODE": 12.0, "DIST_NAME": "JAIPUR", "AC_NO": 50, "AC_NAME": "Vidhyadhar Nagar", "PC_NO": 7, "PC_NAME": "JAIPUR", "PC_ID": 807, "STATUS": null, "Shape_Leng": 0.24415440654, "Shape_Area": 0.00197153741, "representative": "Diya Kumari", "party": "BJP", "ac_name": "Vidhyadhar Nagar", "office": "MLA"}, "geometry": {"type": "Polygon", "coordinates": [[[75.77205870764328, 26.957437431292476], [75.75940895256116, 26.958097559754606], [75.76630901894612, 26.976369887960004], [75.75897645689804, 26.979729382804805], [75.76058055784654, 27.0010361063313], [75.76922586747986, 27.009855140702257], [75.77440157647163, 26.99188223817481], [75.7790978209078, 26.99047422810321], [75.77911684156902, 27.00060485263191], [75.79280603217268, 27.008630781185673], [75.79814371266224, 27.00423899773159], [75.8030130442167, 26.983423925473858], [75.81716388740352, 26.9795850721934], [75.81158112996525, 26.967640646398763], [75.79781993873922, 26.962118102168745], [75.80321951956523, 26.960573648754917], [75.80105971043736, 26.953207098628752], [75.78797246575675, 26.960096960406474], [75.7874707195981, 26.964596558184667], [75.77205870764328, 26.957437431292476]]]}}, {"type": "Feature", "properties": {"OBJECTID": 11, "ST_CODE": 8, "ST_NAME": "RAJASTHAN", "DT_CODE": 12.0, "DIST_NAME": "JAIPUR", "AC_NO": 57, "AC_NAME": "Bassi (ST)", "PC_NO": 11, "PC_NAME": "DAUSA (ST)", "PC_ID": 811, "STATUS": null, "Shape_Leng": 1.84167253239, "Shape_Area": 0.06435264786, "representative": "Laxman Meena", "party": "INC", "ac_name": "Bassi (ST)", "office": "MLA"}, "geometry": {"type": "Polygon", "coordinates": [[[76.2290588532835, 27.00066535092526], [76.22264268601123, 26.95473083525991], [76.2485554564692, 26.946249693268783], [76.24718506324012, 26.941098212912266], [76.23371007765803, 26.945026921055614], [76.22932856086447, 26.93370882720069], [76.23929996672013, 26.932253300549405], [76.23740832013794, 26.925716318353466], [76.22841974827281, 26.915873347377158], [76.21987068948079, 26.918958348449053], [76.21893329463592, 26.907324713964442], [76.22409877833599, 26.904918045431486], [76.22272559001402, 26.895906441029467], [76.23731531135257, 26.894059747059714], [76.23544969654631, 26.880252786636845], [76.24756666806735, 26.8740292487509], [76.26257702570922, 26.87341474559406], [76.26280484286929, 26.86650891815208], [76.25343246193864, 26.86315058343274], [76.24775387454173, 26.866259376968742], [76.24083344390834, 26.844542747849573], [76.2488537579946, 26.83444688301728], [76.26237551821566, 26.830260965171476], [76.24882935938746, 26.81332753144045], [76.25515259161887, 26.802950370363362], [76.24933959064964, 26.796765830678567], [76.24332094710411, 26.8016632282754], [76.23833462454337, 26.79886472872431], [76.23161226059739, 26.801729982252937], [76.22932039861757, 26.808919209454018], [76.21905862415622, 26.803147209476208], [76.21993769346983, 26.79995687351095], [76.20444508247465, 26.800983976629254], [76.2053491529411, 26.79057618284463], [76.19818527582987, 26.78309055168768], [76.19289511821518, 26.78381722008868], [76.19728771105906, 26.77866364341247], [76.1937453543647, 26.767486074922488], [76.18180332975993, 26.765504495236314], [76.18048310790914, 26.75605136777648], [76.18486063441082, 26.749070899302637], [76.19305499968851, 26.752418073435365], [76.18757797464389, 26.741575550071616], [76.19806708512795, 26.73441162889361], [76.18183343906202, 26.727129381216002], [76.209807107612, 26.72127513014317], [76.20412452632587, 26.712624561274538], [76.20004308631945, 26.714569364084923], [76.19423837170353, 26.70868367181407], [76.19068324463609, 26.71129878341219], [76.1913462662173, 26.703165644878652], [76.17943112234849, 26.687291351714578], [76.17088027750287, 26.688415992604007], [76.17525800005671, 26.70044054889229], [76.16936116158837, 26.71645397347214], [76.15576809412232, 26.712699388466035], [76.14646111728678, 26.70164294786383], [76.14491212589394, 26.691697134914875], [76.15169436490305, 26.691333820499494], [76.15634719186949, 26.68231645773841], [76.15284670491155, 26.67707158818331], [76.15896481707273, 26.66320372926873], [76.15458503687, 26.659264992785268], [76.16289383728082, 26.648057589286395], [76.1438890148662, 26.63720444582856], [76.14818840287256, 26.646733622658587], [76.14076501469373, 26.642333267766162], [76.13756908854265, 26.644588033610887], [76.14341336163739, 26.665487512638663], [76.12740643375997, 26.6602202769443], [76.0973779393405, 26.660775932962963], [76.08260258983773, 26.67797765244677], [76.09516770432617, 26.675488390177122], [76.09848929634398, 26.69115905434694], [76.09312598787409, 26.691325092579007], [76.0860799309441, 26.682698769432704], [76.06545215239498, 26.685199677922867], [76.04900148732884, 26.694680373200697], [76.0426137889952, 26.71479380069337], [76.02955604297705, 26.720798539820805], [76.01854117083843, 26.720744413224168], [76.00246070629663, 26.710954986083777], [75.98314829955444, 26.717434301951528], [75.97678980490565, 26.736849080320837], [75.96768100807213, 26.72957164581487], [75.95852325574373, 26.73352809084878], [75.96921353557627, 26.771246058558802], [75.95316746470678, 26.771500072070694], [75.94228861952422, 26.766265122037794], [75.93760052474448, 26.770284802901358], [75.94394701794056, 26.820444166265304], [75.92903572601801, 26.83616651717108], [75.923641694009, 26.854584130853027], [75.9296519909467, 26.870058935271686], [75.94690044010326, 26.878375941996183], [75.9472792318511, 26.893965848844914], [75.93815382633807, 26.93040610745595], [75.94266303786895, 26.9513046125179], [75.95666123642695, 26.960446266981705], [75.96990973494638, 26.960635682191025], [75.98608805921663, 26.938155811041895], [76.01547218309486, 26.931450875057863], [76.0334440720863, 26.934333609608473], [76.06502401844375, 26.905706671725568], [76.0801571893029, 26.90603645042188], [76.10162148394437, 26.893231923814255], [76.14356708005676, 26.894004067333867], [76.1479983338561, 26.889362001655115], [76.14103083990142, 26.877428770621293], [76.1710471700909, 26.875516918970675], [76.18616677737492, 26.879428954582636], [76.18740203577539, 26.88903635894087], [76.18424757826318, 26.899240144217345], [76.18764753000954, 26.909392125845955], [76.16885369304356, 26.917102105477852], [76.17501493129413, 26.975631041839165], [76.20162365380861, 26.980354938629546], [76.21853598224982, 26.99817881899736], [76.2290588532835, 27.00066535092526]]]}}, {"type": "Feature", "properties": {"OBJECTID": 13, "ST_CODE": 8, "ST_NAME": "RAJASTHAN", "DT_CODE": 12.0, "DIST_NAME": "JAIPUR", "AC_NO": 45, "AC_NAME": "Dudu (SC)", "PC_NO": 13, "PC_NAME": "AJMER", "PC_ID": 813, "STATUS": null, "Shape_Leng": 3.2394542477, "Shape_Area": 0.18664888732, "representative": "Prem Chand Bairwa", "party": "BJP", "ac_name": "Dudu (SC)", "office": "MLA"}, "geometry": {"type": "Polygon", "coordinates": [[[75.36848408767054, 26.878333744007136], [75.38306302973507, 26.89290055511657], [75.38192275593047, 26.908630523280067], [75.3909776285148, 26.92076130928706], [75.43494045433857, 26.91356657643638], [75.46579088594069, 26.919093480579704], [75.5114256818498, 26.911282255271942], [75.51409678613783, 26.89530703838915], [75.51028883356287, 26.88098711456371], [75.49366713992663, 26.846200618363923], [75.49768552396779, 26.826711972379655], [75.50490544952692, 26.819736028395027], [75.49310489007865, 26.814599414731276], [75.49497022339716, 26.800708571843188], [75.48128309583825, 26.798189211962608], [75.49113670759306, 26.784765735050655], [75.49035066774917, 26.770265170701123], [75.49600986576274, 26.767488130772676], [75.50653751129715, 26.77244569121575], [75.51352746222267, 26.76583464175536], [75.52565880670863, 26.764865751753064], [75.53572767928904, 26.74448105635571], [75.54524338787212, 26.744527996469913], [75.55155122281076, 26.749534346033272], [75.55292474747915, 26.763179843075363], [75.58204023217104, 26.76098972769381], [75.57421170750433, 26.737363453860382], [75.58304382341379, 26.728298399151868], [75.58128892774187, 26.71759162035704], [75.56191867660567, 26.706019384387105], [75.56489369149074, 26.69518421657841], [75.57245066046966, 26.69289422518841], [75.56399667080979, 26.676718413623917], [75.55101398940417, 26.672806607339112], [75.56179427248776, 26.667929907639177], [75.59097839523679, 26.685254431347005], [75.6234110607719, 26.68276259251968], [75.62801182328707, 26.646731530835552], [75.61610139636241, 26.638114514773065], [75.6115549070334, 26.623132948926525], [75.60359214326286, 26.62526783514255], [75.61328246961034, 26.59887095333187], [75.62325538272978, 26.598640012826365], [75.63279671839388, 26.584164947854106], [75.63141742907118, 26.551548616475543], [75.6156705059891, 26.521328210328704], [75.63835449446441, 26.513905191771244], [75.62590754819485, 26.49292781886379], [75.65057313164476, 26.485015364067863], [75.66276552211121, 26.485912558317978], [75.64749111362403, 26.465077282790446], [75.65169520946642, 26.45940462732176], [75.64953413319375, 26.449770415971955], [75.6457304236202, 26.44259176659682], [75.62618668157018, 26.444802059167728], [75.61439541571593, 26.440286403994378], [75.5856794260647, 26.448533445262342], [75.57373415400804, 26.4464687223537], [75.5694477090446, 26.448637760324402], [75.57291432213833, 26.47617277825117], [75.55038511058444, 26.486833305812468], [75.5212815545002, 26.46317233253717], [75.5111385786825, 26.465624120956477], [75.5117504306379, 26.470779632973745], [75.50005925393145, 26.47924252052593], [75.50195128632288, 26.482817144895364], [75.4806337898176, 26.482530744098597], [75.45496592183986, 26.495808832111948], [75.43973369335532, 26.48976673154948], [75.4336022388523, 26.482204300088426], [75.41364704617428, 26.487022521372296], [75.40851301176616, 26.49537038203755], [75.41064766865503, 26.482778665603007], [75.38677029061648, 26.481278342821327], [75.37785267705948, 26.49029386287151], [75.3665288032617, 26.488278862579477], [75.3491175651236, 26.497086557398745], [75.34338477918425, 26.50590639126699], [75.34441651740843, 26.518719417367265], [75.33436630935773, 26.52209143527159], [75.33810527763649, 26.53401157667298], [75.33372956596673, 26.53727521637819], [75.33544043802584, 26.548791226733783], [75.32915678945432, 26.560668493855985], [75.29182155701932, 26.556244143252684], [75.28691516890001, 26.564240972442974], [75.27001467823487, 26.553791196506552], [75.27019958064619, 26.549156925251964], [75.2516476325323, 26.5449816077151], [75.251202955552, 26.53104700831284], [75.22077144974264, 26.519088652919038], [75.20311171273539, 26.516867769931707], [75.19534284909327, 26.49906015919902], [75.19940057487668, 26.48087110102057], [75.18809883429384, 26.487514694247807], [75.17731731644108, 26.478848170506694], [75.16879775900941, 26.462692846397772], [75.16033237943583, 26.46220310349048], [75.1609308494792, 26.473360828439525], [75.15210723665967, 26.468649601298125], [75.14435634956595, 26.47236579424606], [75.15003486951366, 26.502889897850537], [75.11413065900274, 26.522409074019606], [75.12248944013561, 26.546042337383994], [75.11607990446407, 26.554684088399995], [75.09585210658952, 26.559360748299923], [75.07453146515508, 26.545782373957422], [75.06187313503722, 26.555183463046433], [75.06482227912494, 26.577035135263316], [75.06913778118371, 26.585245210797893], [75.07922011031991, 26.589318651334736], [75.08169673261818, 26.611217303236003], [75.06821531418547, 26.61298014981412], [75.06069925806435, 26.623713175322848], [75.06811441654713, 26.644619583626934], [75.06537172352625, 26.65419208349789], [75.04307062770738, 26.65900062537861], [75.03901745249351, 26.664090975218357], [75.02008429615341, 26.664053997793815], [75.01112717447955, 26.689514082808728], [74.9994919203159, 26.68991983083555], [74.9779478728961, 26.67511453211], [74.96699075342059, 26.680528695443], [74.96129512207227, 26.697313183456686], [74.9687072597323, 26.711977133937637], [74.96433328825071, 26.72157110961905], [74.94245663016943, 26.724334211854455], [74.94224469233876, 26.733707566750866], [75.00053846138093, 26.731810920837404], [75.00850114061518, 26.75260219253721], [74.99738288691077, 26.753541967887543], [74.98326169796906, 26.766295026294472], [74.9833967851336, 26.762984887142863], [74.95755426881453, 26.757759711841288], [74.94686462750059, 26.748911390148578], [74.93833037244877, 26.749613422521463], [74.93814692154325, 26.7802613654697], [74.93297473159862, 26.78121121682426], [74.93124084498908, 26.793366767462373], [74.92536683940818, 26.792459823662], [74.92506721767802, 26.815553313934345], [74.91919828337416, 26.828331846537537], [74.91469142267107, 26.837524179597267], [74.93483381732688, 26.842512558008195], [74.95536946842628, 26.83348806722057], [74.98809301428122, 26.83949884529551], [74.99790141172082, 26.816566435292827], [75.01341037418945, 26.814915406820603], [75.02310592200075, 26.797853398815334], [75.03107751441581, 26.796194281840712], [75.04785925050408, 26.799712026788654], [75.04991433627765, 26.809923621777784], [75.04259333771245, 26.814986043171416], [75.06175831949093, 26.830564350564373], [75.08603872150985, 26.83122672913032], [75.13060535934989, 26.807831422781987], [75.13739287288286, 26.799531657859745], [75.138621302731, 26.78071388094088], [75.14589491062168, 26.770741225926884], [75.16093258517071, 26.760685941203292], [75.1739915102001, 26.73881385707392], [75.1848681412518, 26.73839655006077], [75.1957735605015, 26.75189269039538], [75.21023380374709, 26.744546098024045], [75.22732082369708, 26.762306761447917], [75.2463384830346, 26.749812843587904], [75.25481639106363, 26.752879358195855], [75.27239997258073, 26.765154149944124], [75.29012079693729, 26.80592585649316], [75.3026717722845, 26.797937184153795], [75.29905726298233, 26.780615030159538], [75.31106979173757, 26.779664438662962], [75.32712617873023, 26.82485804246471], [75.3305326775411, 26.84980852664222], [75.36132533759434, 26.84516670647838], [75.3775779710466, 26.848007059578208], [75.37910327789399, 26.861869243770627], [75.36687883648915, 26.872433515994032], [75.36848408767054, 26.878333744007136]]]}}, {"type": "Feature", "properties": {"OBJECTID": 7, "ST_CODE": 8, "ST_NAME": "RAJASTHAN", "DT_CODE": 12.0, "DIST_NAME": "JAIPUR", "AC_NO": 56, "AC_NAME": "Bagru (SC)", "PC_NO": 7, "PC_NAME": "JAIPUR", "PC_ID": 807, "STATUS": null, "Shape_Leng": 1.69182499885, "Shape_Area": 0.07063867313, "representative": "Kailash Chand Verma", "party": "BJP", "ac_name": "Bagru (SC)", "office": "MLA"}, "geometry": {"type": "Polygon", "coordinates": [[[75.83651099628548, 26.92587248832473], [75.877977970507, 26.92991041643262], [75.90163247945543, 26.926981730122804], [75.91009855240634, 26.91987591953813], [75.90944098521334, 26.90125047882657], [75.91727321508688, 26.899081314051443], [75.9173078048114, 26.892692438505264], [75.92687797094169, 26.89024508554229], [75.9472792318511, 26.893965848844914], [75.94690044010326, 26.878375941996183], [75.9296519909467, 26.870058935271686], [75.923641694009, 26.854584130853027], [75.92903572601801, 26.83616651717108], [75.94394701794056, 26.820444166265304], [75.93760052474448, 26.770284802901358], [75.92623812399029, 26.762727115364157], [75.92141059562255, 26.743951031015342], [75.91484453204959, 26.737505258960596], [75.91137481719409, 26.740651285328624], [75.92024573255458, 26.756050888437812], [75.91983176922082, 26.76724107621476], [75.88968715703675, 26.76635464774887], [75.88254777565936, 26.753388295333593], [75.89892059900649, 26.752167321764546], [75.9021724899685, 26.73713481382066], [75.88380868002662, 26.73876845030378], [75.88605548147535, 26.718589205927174], [75.87688088664368, 26.718884484831165], [75.87034113363649, 26.724175937469568], [75.85971755921804, 26.720796805927876], [75.84767285631733, 26.703538120687767], [75.83715022270468, 26.700499481465954], [75.8310144550531, 26.688933453516142], [75.82427216932518, 26.686953757909635], [75.80715468124362, 26.691919876301313], [75.803180364882, 26.67433142765333], [75.79775764449977, 26.672754737141474], [75.78555769523149, 26.673695574591136], [75.77610363697335, 26.688496962165118], [75.75773600761073, 26.700786978536257], [75.76101452569986, 26.715491036082483], [75.77453271920967, 26.725641285616916], [75.77536493294537, 26.73311965744631], [75.74762368788294, 26.73837733784393], [75.74046821673488, 26.749059578636718], [75.72475839338523, 26.7477528529119], [75.7175350342145, 26.722624037669277], [75.70836464821002, 26.71897520664055], [75.68215315894116, 26.73066072571197], [75.6620753589907, 26.732583648916318], [75.66124332062282, 26.74000475101849], [75.64717361876757, 26.75116949697474], [75.64111176369698, 26.751643914535066], [75.63826846441816, 26.744002527994326], [75.63342599111667, 26.743117996198635], [75.5993282811753, 26.75898601659145], [75.58922468756936, 26.759090929702722], [75.58204023217104, 26.76098972769381], [75.55292474747915, 26.763179843075363], [75.55155122281076, 26.749534346033272], [75.54524338787212, 26.744527996469913], [75.53572767928904, 26.74448105635571], [75.52565880670863, 26.764865751753064], [75.51352746222267, 26.76583464175536], [75.50653751129715, 26.77244569121575], [75.49600986576274, 26.767488130772676], [75.49035066774917, 26.770265170701123], [75.49113670759306, 26.784765735050655], [75.48128309583825, 26.798189211962608], [75.49497022339716, 26.800708571843188], [75.49310489007865, 26.814599414731276], [75.50490544952692, 26.819736028395027], [75.49768552396779, 26.826711972379655], [75.49366713992663, 26.846200618363923], [75.51028883356287, 26.88098711456371], [75.53755021656929, 26.870689324952423], [75.54254566904746, 26.876568261516127], [75.54502865225055, 26.869299214087505], [75.55586073898195, 26.86602884205746], [75.57668046073474, 26.867758858884258], [75.58492532654265, 26.88853209647914], [75.61179819792852, 26.88424014676542], [75.62329448525236, 26.888225097610245], [75.62707777751746, 26.878028640009802], [75.64283944768243, 26.87866779987911], [75.65218832033474, 26.885545120610857], [75.65764658282359, 26.881380980747736], [75.66929579536475, 26.883845778759735], [75.68177504528217, 26.89521142966379], [75.68381993634102, 26.907338865696147], [75.70702698760545, 26.90596113220056], [75.72043114078457, 26.899051369325264], [75.72193972383923, 26.88909559728404], [75.72722896144745, 26.885396274718346], [75.74792321338566, 26.890033676512985], [75.75409009488203, 26.87998701358987], [75.76044245705378, 26.87823596431832], [75.76404300258258, 26.891114226340505], [75.77199530453976, 26.897997561738123], [75.79241684875859, 26.898127751194806], [75.78964709064076, 26.882796479473996], [75.7990518039976, 26.879059741513913], [75.80964581140512, 26.892937495668946], [75.82042730227823, 26.898069669379765], [75.79997538705453, 26.902441957330495], [75.79863899179611, 26.911445761912432], [75.82197796191349, 26.915325666546323], [75.82165005020971, 26.92460834010285], [75.83094379082337, 26.929572158928067], [75.83651099628548, 26.92587248832473]]]}}, {"type": "Feature", "properties": {"OBJECTID": 11, "ST_CODE": 8, "ST_NAME": "RAJASTHAN", "DT_CODE": 12.0, "DIST_NAME": "JAIPUR", "AC_NO": 58, "AC_NAME": "Chaksu (SC)", "PC_NO": 11, "PC_NAME": "DAUSA (ST)", "PC_ID": 811, "STATUS": null, "Shape_Leng": 2.53804344715, "Shape_Area": 0.11789467451, "representative": "Ramavtar Bairwa", "party": "BJP", "ac_name": "Chaksu (SC)", "office": "MLA"}, "geometry": {"type": "Polygon", "coordinates": [[[75.58922468756936, 26.759090929702722], [75.5993282811753, 26.75898601659145], [75.63342599111667, 26.743117996198635], [75.63826846441816, 26.744002527994326], [75.64111176369698, 26.751643914535066], [75.64717361876757, 26.75116949697474], [75.66124332062282, 26.74000475101849], [75.6620753589907, 26.732583648916318], [75.68215315894116, 26.73066072571197], [75.70836464821002, 26.71897520664055], [75.7175350342145, 26.722624037669277], [75.72475839338523, 26.7477528529119], [75.74046821673488, 26.749059578636718], [75.74762368788294, 26.73837733784393], [75.77536493294537, 26.73311965744631], [75.77453271920967, 26.725641285616916], [75.76101452569986, 26.715491036082483], [75.75773600761073, 26.700786978536257], [75.77610363697335, 26.688496962165118], [75.78555769523149, 26.673695574591136], [75.79775764449977, 26.672754737141474], [75.803180364882, 26.67433142765333], [75.80715468124362, 26.691919876301313], [75.82427216932518, 26.686953757909635], [75.8310144550531, 26.688933453516142], [75.83715022270468, 26.700499481465954], [75.84767285631733, 26.703538120687767], [75.85971755921804, 26.720796805927876], [75.87034113363649, 26.724175937469568], [75.87688088664368, 26.718884484831165], [75.88605548147535, 26.718589205927174], [75.88380868002662, 26.73876845030378], [75.9021724899685, 26.73713481382066], [75.89892059900649, 26.752167321764546], [75.88254777565936, 26.753388295333593], [75.88968715703675, 26.76635464774887], [75.91983176922082, 26.76724107621476], [75.92024573255458, 26.756050888437812], [75.91137481719409, 26.740651285328624], [75.91484453204959, 26.737505258960596], [75.92141059562255, 26.743951031015342], [75.92623812399029, 26.762727115364157], [75.93760052474448, 26.770284802901358], [75.94228861952422, 26.766265122037794], [75.95316746470678, 26.771500072070694], [75.96921353557627, 26.771246058558802], [75.95852325574373, 26.73352809084878], [75.96768100807213, 26.72957164581487], [75.97678980490565, 26.736849080320837], [75.98314829955444, 26.717434301951528], [76.00246070629663, 26.710954986083777], [76.01854117083843, 26.720744413224168], [76.02955604297705, 26.720798539820805], [76.0426137889952, 26.71479380069337], [76.04900148732884, 26.694680373200697], [76.06545215239498, 26.685199677922867], [76.0860799309441, 26.682698769432704], [76.09312598787409, 26.691325092579007], [76.09848929634398, 26.69115905434694], [76.09516770432617, 26.675488390177122], [76.08260258983773, 26.67797765244677], [76.0973779393405, 26.660775932962963], [76.12740643375997, 26.6602202769443], [76.14341336163739, 26.665487512638663], [76.13756908854265, 26.644588033610887], [76.14076501469373, 26.642333267766162], [76.14818840287256, 26.646733622658587], [76.1438890148662, 26.63720444582856], [76.16289383728082, 26.648057589286395], [76.16431222193154, 26.63978651093879], [76.17949223038221, 26.631723657121142], [76.17660167892438, 26.617906162939107], [76.18310932793321, 26.61189917280865], [76.17705988620486, 26.602243505433478], [76.1700940631905, 26.6047820730343], [76.1622446580646, 26.577579336617134], [76.15644025551342, 26.574797345920842], [76.16187896943893, 26.565170990149113], [76.1561038605048, 26.562875511096024], [76.15531178261273, 26.52352091485841], [76.14951793000853, 26.518684055125107], [76.13259425841835, 26.531948260304034], [76.12012202411216, 26.52887774281362], [76.10005068938784, 26.538716001342436], [76.08323821717005, 26.522676116010018], [76.07052121708057, 26.527935781211397], [76.0634042468086, 26.50909429366675], [76.03138067118107, 26.51460196670746], [76.02961851258436, 26.520894866604863], [76.02505666193548, 26.521137232996978], [76.0226000162778, 26.510996943454245], [76.01842740120367, 26.507390453406742], [76.01374336776229, 26.510796401832522], [76.0089743600787, 26.500309540552905], [75.99585607349906, 26.501573892920874], [75.98474141258617, 26.509380338331994], [75.9836215614859, 26.504767266795966], [75.97303473876224, 26.50696696535323], [75.96115182569628, 26.485777675299516], [75.9556021741011, 26.492409315637474], [75.93745002589804, 26.494871003793833], [75.92817175812019, 26.508612695919226], [75.90624678306267, 26.512822836105045], [75.90275809251204, 26.50859545321765], [75.89313235907116, 26.51002415039426], [75.88114995940316, 26.515200773996582], [75.88132793523607, 26.518956332069138], [75.86079366459597, 26.51780451726472], [75.85560193418195, 26.521821085574686], [75.844399266513, 26.513317401177176], [75.82460303799985, 26.51693261644715], [75.79457224491324, 26.5299452605654], [75.80284020441195, 26.534863785935045], [75.80464143585363, 26.542025026234], [75.79654957350408, 26.550736552050296], [75.7955642852636, 26.54713760191885], [75.77232341229569, 26.543054993693033], [75.769816252618, 26.531011959934062], [75.77582047823256, 26.532001090078268], [75.77918943484462, 26.524584769671435], [75.76004341886875, 26.51762056813476], [75.76093688722761, 26.507348849869572], [75.76912854464666, 26.49837125512937], [75.76481108296514, 26.496609040774672], [75.77367184048313, 26.48838504103685], [75.76834831532256, 26.4807996417901], [75.77089903186487, 26.471751158888935], [75.76861858857706, 26.466463878205445], [75.74692403781415, 26.4694688629977], [75.74796422067232, 26.460461464724858], [75.74060821689574, 26.447026227378558], [75.72705128868608, 26.466719174150626], [75.70960701215392, 26.446431161269118], [75.6948044878369, 26.447197424121896], [75.68275707078226, 26.45323576821619], [75.68148492129217, 26.46016232053472], [75.65773253372953, 26.46105577900107], [75.65206299621036, 26.465921136451357], [75.65169520946642, 26.45940462732176], [75.64749111362403, 26.465077282790446], [75.66276552211121, 26.485912558317978], [75.65057313164476, 26.485015364067863], [75.62590754819485, 26.49292781886379], [75.63835449446441, 26.513905191771244], [75.6156705059891, 26.521328210328704], [75.63141742907118, 26.551548616475543], [75.63279671839388, 26.584164947854106], [75.62325538272978, 26.598640012826365], [75.61328246961034, 26.59887095333187], [75.60359214326286, 26.62526783514255], [75.6115549070334, 26.623132948926525], [75.61610139636241, 26.638114514773065], [75.62801182328707, 26.646731530835552], [75.6234110607719, 26.68276259251968], [75.59097839523679, 26.685254431347005], [75.56179427248776, 26.667929907639177], [75.55101398940417, 26.672806607339112], [75.56399667080979, 26.676718413623917], [75.57245066046966, 26.69289422518841], [75.56489369149074, 26.69518421657841], [75.56191867660567, 26.706019384387105], [75.58128892774187, 26.71759162035704], [75.58304382341379, 26.728298399151868], [75.57421170750433, 26.737363453860382], [75.58204023217104, 26.76098972769381], [75.58922468756936, 26.759090929702722]]]}}, {"type": "Feature", "properties": {"OBJECTID": 7, "ST_CODE": 8, "ST_NAME": "RAJASTHAN", "DT_CODE": 12.0, "DIST_NAME": "JAIPUR", "AC_NO": 55, "AC_NAME": "Sanganer", "PC_NO": 7, "PC_NAME": "JAIPUR", "PC_ID": 807, "STATUS": null, "Shape_Leng": 0.31250572018, "Shape_Area": 0.00287590464, "representative": "Bhajan Lal Sharma", "party": "BJP", "ac_name": "Sanganer", "office": "MLA"}, "geometry": {"type": "Polygon", "coordinates": [[[75.79863899179611, 26.911445761912432], [75.79997538705453, 26.902441957330495], [75.82042730227823, 26.898069669379765], [75.80964581140512, 26.892937495668946], [75.7990518039976, 26.879059741513913], [75.78964709064076, 26.882796479473996], [75.79241684875859, 26.898127751194806], [75.77199530453976, 26.897997561738123], [75.76404300258258, 26.891114226340505], [75.76044245705378, 26.87823596431832], [75.75409009488203, 26.87998701358987], [75.74792321338566, 26.890033676512985], [75.75395176835946, 26.893310213395694], [75.74675504081256, 26.911650051009076], [75.73433779735154, 26.91266637575268], [75.73287986951044, 26.94177830992112], [75.77180028745335, 26.936792469397005], [75.7788342925686, 26.9359514477012], [75.77910031922443, 26.930554719524764], [75.78505724319729, 26.932784985138994], [75.78805640757719, 26.935505410046687], [75.79758149518989, 26.93196164141665], [75.79438891631548, 26.920209863894172], [75.79931794127003, 26.918106472835518], [75.79863899179611, 26.911445761912432]]]}}, {"type": "Feature", "properties": {"OBJECTID": 7, "ST_CODE": 8, "ST_NAME": "RAJASTHAN", "DT_CODE": 12.0, "DIST_NAME": "JAIPUR", "AC_NO": 54, "AC_NAME": "Malviya Nagar", "PC_NO": 7, "PC_NAME": "JAIPUR", "PC_ID": 807, "STATUS": null, "Shape_Leng": 0.171783049, "Shape_Area": 0.00097430722, "representative": "Kalicharan Saraf", "party": "BJP", "ac_name": "Malviya Nagar", "office": "MLA"}, "geometry": {"type": "Polygon", "coordinates": [[[75.83094379082337, 26.929572158928067], [75.82165005020971, 26.92460834010285], [75.82197796191349, 26.915325666546323], [75.79863899179611, 26.911445761912432], [75.79931794127003, 26.918106472835518], [75.79438891631548, 26.920209863894172], [75.79758149518989, 26.93196164141665], [75.78805640757719, 26.935505410046687], [75.78505724319729, 26.932784985138994], [75.78620940064337, 26.94131506283992], [75.79934941214572, 26.943692935980266], [75.80966151536671, 26.940316259587746], [75.81738037670306, 26.94753878059032], [75.82825803208254, 26.94568539026858], [75.82306710386382, 26.938786404868722], [75.83536415293338, 26.93568525197287], [75.82680428339103, 26.932030179649132], [75.83094379082337, 26.929572158928067]]]}}, {"type": "Feature", "properties": {"OBJECTID": 7, "ST_CODE": 8, "ST_NAME": "RAJASTHAN", "DT_CODE": 12.0, "DIST_NAME": "JAIPUR", "AC_NO": 52, "AC_NAME": "KIshan Pole", "PC_NO": 7, "PC_NAME": "JAIPUR", "PC_ID": 807, "STATUS": null, "Shape_Leng": 0.09833641683, "Shape_Area": 0.00019083546, "representative": "Amin Kagzi", "party": "INC", "ac_name": "KIshan Pole", "office": "MLA"}, "geometry": {"type": "Polygon", "coordinates": [[[75.82825803208254, 26.94568539026858], [75.81738037670306, 26.94753878059032], [75.80749661517672, 26.951100251475452], [75.81705671699393, 26.95258907912273], [75.80855238868185, 26.957285498926694], [75.81385761893404, 26.958711392916484], [75.82490334501341, 26.955281047682263], [75.82209172165568, 26.951145366865262], [75.83594327226427, 26.950683289802043], [75.84192294728626, 26.945642162555828], [75.82825803208254, 26.94568539026858]]]}}, {"type": "Feature", "properties": {"OBJECTID": 7, "ST_CODE": 8, "ST_NAME": "RAJASTHAN", "DT_CODE": 12.0, "DIST_NAME": "JAIPUR", "AC_NO": 53, "AC_NAME": "Adarsh Nagar", "PC_NO": 7, "PC_NAME": "JAIPUR", "PC_ID": 807, "STATUS": null, "Shape_Leng": 0.13835524557, "Shape_Area": 0.0007062526, "representative": "Rafeek Khan", "party": "INC", "ac_name": "Adarsh Nagar", "office": "MLA"}, "geometry": {"type": "Polygon", "coordinates": [[[75.84192294728626, 26.945642162555828], [75.86634304639455, 26.94094888678177], [75.877977970507, 26.92991041643262], [75.83651099628548, 26.92587248832473], [75.83094379082337, 26.929572158928067], [75.82680428339103, 26.932030179649132], [75.83536415293338, 26.93568525197287], [75.82306710386382, 26.938786404868722], [75.82825803208254, 26.94568539026858], [75.84192294728626, 26.945642162555828]]]}}, {"type": "Feature", "properties": {"OBJECTID": 7, "ST_CODE": 8, "ST_NAME": "RAJASTHAN", "DT_CODE": 12.0, "DIST_NAME": "JAIPUR", "AC_NO": 49, "AC_NAME": "Hawa Mahal", "PC_NO": 7, "PC_NAME": "JAIPUR", "PC_ID": 807, "STATUS": null, "Shape_Leng": 0.16199109645, "Shape_Area": 0.00133627853, "representative": "Balmukundacharya", "party": "BJP", "ac_name": "Hawa Mahal", "office": "MLA"}, "geometry": {"type": "Polygon", "coordinates": [[[75.81385761893404, 26.958711392916484], [75.81625875663639, 26.963221656654184], [75.81158112996525, 26.967640646398763], [75.81716388740352, 26.9795850721934], [75.84325033943168, 26.97655969437443], [75.85926503835088, 26.971093378456715], [75.86634304639455, 26.94094888678177], [75.84192294728626, 26.945642162555828], [75.83594327226427, 26.950683289802043], [75.82209172165568, 26.951145366865262], [75.82490334501341, 26.955281047682263], [75.81385761893404, 26.958711392916484]]]}}, {"type": "Feature", "properties": {"OBJECTID": 7, "ST_CODE": 8, "ST_NAME": "RAJASTHAN", "DT_CODE": 12.0, "DIST_NAME": "JAIPUR", "AC_NO": 51, "AC_NAME": "Civil Lines", "PC_NO": 7, "PC_NAME": "JAIPUR", "PC_ID": 807, "STATUS": null, "Shape_Leng": 0.21676949875, "Shape_Area": 0.00075075668, "representative": "Gopal Sharma", "party": "BJP", "ac_name": "Civil Lines", "office": "MLA"}, "geometry": {"type": "Polygon", "coordinates": [[[75.81158112996525, 26.967640646398763], [75.81625875663639, 26.963221656654184], [75.81385761893404, 26.958711392916484], [75.80855238868185, 26.957285498926694], [75.81705671699393, 26.95258907912273], [75.80749661517672, 26.951100251475452], [75.81738037670306, 26.94753878059032], [75.80966151536671, 26.940316259587746], [75.79934941214572, 26.943692935980266], [75.78620940064337, 26.94131506283992], [75.78505724319729, 26.932784985138994], [75.77910031922443, 26.930554719524764], [75.7788342925686, 26.9359514477012], [75.77180028745335, 26.936792469397005], [75.77318790719619, 26.9445720916288], [75.78636467129263, 26.94722816554747], [75.78779565184789, 26.952306437492155], [75.77205870764328, 26.957437431292476], [75.7874707195981, 26.964596558184667], [75.78797246575675, 26.960096960406474], [75.80105971043736, 26.953207098628752], [75.80321951956523, 26.960573648754917], [75.79781993873922, 26.962118102168745], [75.81158112996525, 26.967640646398763]]]}}]}