{"type":"FeatureCollection","features":[{"type":"Feature","properties":{"stop_id":"jaipur_jctsl_osm_unofficial_constructed_10300811_7_from","stop_name":"Khirni Phatak","stop_code":"","mode":"bus","operator":"Jaipur City Transport Services Limited","source_feed_id":"jaipur_jctsl_osm_unofficial_constructed"},"geometry":{"type":"Point","coordinates":[75.7299313,26.9321895]}},{"type":"Feature","properties":{"stop_id":"jaipur_jctsl_osm_unofficial_constructed_10300811_7_to","stop_name":"Transport Nagar","stop_code":"","mode":"bus","operator":"Jaipur City Transport Services Limited","source_feed_id":"jaipur_jctsl_osm_unofficial_constructed"},"geometry":{"type":"Point","coordinates":[75.8410928,26.9069868]}},{"type":"Feature","properties":{"stop_id":"jaipur_jctsl_osm_unofficial_constructed_10386353_14_from","stop_name":"Chomu pulia","stop_code":"","mode":"bus","operator":"Jaipur City Transport Services Limited","source_feed_id":"jaipur_jctsl_osm_unofficial_constructed"},"geometry":{"type":"Point","coordinates":[75.773181,26.9401313]}},{"type":"Feature","properties":{"stop_id":"jaipur_jctsl_osm_unofficial_constructed_10386353_14_to","stop_name":"Bassi","stop_code":"","mode":"bus","operator":"Jaipur City Transport Services Limited","source_feed_id":"jaipur_jctsl_osm_unofficial_constructed"},"geometry":{"type":"Point","coordinates":[75.8447401,26.9043749]}},{"type":"Feature","properties":{"stop_id":"jaipur_jctsl_osm_unofficial_constructed_10437762_7_from","stop_name":"Transport Nagar","stop_code":"","mode":"bus","operator":"Jaipur City Transport Services Limited","source_feed_id":"jaipur_jctsl_osm_unofficial_constructed"},"geometry":{"type":"Point","coordinates":[75.841171,26.9069359]}},{"type":"Feature","properties":{"stop_id":"jaipur_jctsl_osm_unofficial_constructed_10437762_7_to","stop_name":"Khirni Phatak","stop_code":"","mode":"bus","operator":"Jaipur City Transport Services Limited","source_feed_id":"jaipur_jctsl_osm_unofficial_constructed"},"geometry":{"type":"Point","coordinates":[75.7306655,26.9323518]}},{"type":"Feature","properties":{"stop_id":"jaipur_jctsl_osm_unofficial_constructed_10452745_14_from","stop_name":"Bassi","stop_code":"","mode":"bus","operator":"Jaipur City Transport Services Limited","source_feed_id":"jaipur_jctsl_osm_unofficial_constructed"},"geometry":{"type":"Point","coordinates":[75.7721244,26.9405127]}},{"type":"Feature","properties":{"stop_id":"jaipur_jctsl_osm_unofficial_constructed_10452745_14_to","stop_name":"Chomu pulia","stop_code":"","mode":"bus","operator":"Jaipur City Transport Services Limited","source_feed_id":"jaipur_jctsl_osm_unofficial_constructed"},"geometry":{"type":"Point","coordinates":[75.7867109,26.9027887]}},{"type":"Feature","properties":{"stop_id":"jaipur_jctsl_osm_unofficial_constructed_10475844_26_from","stop_name":"Bagru","stop_code":"","mode":"bus","operator":"Jaipur City Transport Services Limited","source_feed_id":"jaipur_jctsl_osm_unofficial_constructed"},"geometry":{"type":"Point","coordinates":[75.5438371,26.8224863]}},{"type":"Feature","properties":{"stop_id":"jaipur_jctsl_osm_unofficial_constructed_10475844_26_to","stop_name":"Chandpole","stop_code":"","mode":"bus","operator":"Jaipur City Transport Services Limited","source_feed_id":"jaipur_jctsl_osm_unofficial_constructed"},"geometry":{"type":"Point","coordinates":[75.8076874,26.9258247]}},{"type":"Feature","properties":{"stop_id":"jaipur_jctsl_osm_unofficial_constructed_11783173_26_from","stop_name":"Chandpole","stop_code":"","mode":"bus","operator":"Jaipur City Transport Services Limited","source_feed_id":"jaipur_jctsl_osm_unofficial_constructed"},"geometry":{"type":"Point","coordinates":[75.807802,26.9257784]}},{"type":"Feature","properties":{"stop_id":"jaipur_jctsl_osm_unofficial_constructed_11783173_26_to","stop_name":"Bagru","stop_code":"","mode":"bus","operator":"Jaipur City Transport Services Limited","source_feed_id":"jaipur_jctsl_osm_unofficial_constructed"},"geometry":{"type":"Point","coordinates":[75.5435964,26.8221355]}},{"type":"Feature","properties":{"stop_id":"jaipur_jctsl_osm_unofficial_constructed_11785609_3_from","stop_name":"Sanganer Bus Depot","stop_code":"","mode":"bus","operator":"Jaipur City Transport Services Limited","source_feed_id":"jaipur_jctsl_osm_unofficial_constructed"},"geometry":{"type":"Point","coordinates":[75.839745,26.8008842]}},{"type":"Feature","properties":{"stop_id":"jaipur_jctsl_osm_unofficial_constructed_11785609_3_to","stop_name":"Transport Nagar","stop_code":"","mode":"bus","operator":"Jaipur City Transport Services Limited","source_feed_id":"jaipur_jctsl_osm_unofficial_constructed"},"geometry":{"type":"Point","coordinates":[75.8445916,26.904528]}},{"type":"Feature","properties":{"stop_id":"jaipur_jctsl_osm_unofficial_constructed_11785610_3_from","stop_name":"Transport Nagar","stop_code":"","mode":"bus","operator":"Jaipur City Transport Services Limited","source_feed_id":"jaipur_jctsl_osm_unofficial_constructed"},"geometry":{"type":"Point","coordinates":[75.8440639,26.90382]}},{"type":"Feature","properties":{"stop_id":"jaipur_jctsl_osm_unofficial_constructed_11785610_3_to","stop_name":"Sanganer Bus Depot","stop_code":"","mode":"bus","operator":"Jaipur City Transport Services Limited","source_feed_id":"jaipur_jctsl_osm_unofficial_constructed"},"geometry":{"type":"Point","coordinates":[75.8398315,26.8009298]}},{"type":"Feature","properties":{"stop_id":"jaipur_jctsl_osm_unofficial_constructed_11786470_3a_from","stop_name":"Sanganer","stop_code":"","mode":"bus","operator":"Jaipur City Transport Services Limited","source_feed_id":"jaipur_jctsl_osm_unofficial_constructed"},"geometry":{"type":"Point","coordinates":[75.7841334,26.8156797]}},{"type":"Feature","properties":{"stop_id":"jaipur_jctsl_osm_unofficial_constructed_11786470_3a_to","stop_name":"Choti Chaupar","stop_code":"","mode":"bus","operator":"Jaipur City Transport Services Limited","source_feed_id":"jaipur_jctsl_osm_unofficial_constructed"},"geometry":{"type":"Point","coordinates":[75.8186598,26.9244477]}},{"type":"Feature","properties":{"stop_id":"jaipur_jctsl_osm_unofficial_constructed_11786471_3a_from","stop_name":"Choti Chaupar","stop_code":"","mode":"bus","operator":"Jaipur City Transport Services Limited","source_feed_id":"jaipur_jctsl_osm_unofficial_constructed"},"geometry":{"type":"Point","coordinates":[75.8187342,26.9247712]}},{"type":"Feature","properties":{"stop_id":"jaipur_jctsl_osm_unofficial_constructed_11786471_3a_to","stop_name":"Sanganer","stop_code":"","mode":"bus","operator":"Jaipur City Transport Services Limited","source_feed_id":"jaipur_jctsl_osm_unofficial_constructed"},"geometry":{"type":"Point","coordinates":[75.7841334,26.8156797]}},{"type":"Feature","properties":{"stop_id":"jaipur_jctsl_osm_unofficial_constructed_11788356_1_mini_1_from","stop_name":"Galta Gate","stop_code":"","mode":"bus","operator":"Jaipur City Transport Services Limited","source_feed_id":"jaipur_jctsl_osm_unofficial_constructed"},"geometry":{"type":"Point","coordinates":[75.7703514,26.9985606]}},{"type":"Feature","properties":{"stop_id":"jaipur_jctsl_osm_unofficial_constructed_11788356_1_mini_1_to","stop_name":"Todi","stop_code":"","mode":"bus","operator":"Jaipur City Transport Services Limited","source_feed_id":"jaipur_jctsl_osm_unofficial_constructed"},"geometry":{"type":"Point","coordinates":[75.8076866,26.9270394]}},{"type":"Feature","properties":{"stop_id":"jaipur_jctsl_osm_unofficial_constructed_11788357_1_mini_1_from","stop_name":"Todi","stop_code":"","mode":"bus","operator":"Jaipur City Transport Services Limited","source_feed_id":"jaipur_jctsl_osm_unofficial_constructed"},"geometry":{"type":"Point","coordinates":[75.7688772,27.0289954]}},{"type":"Feature","properties":{"stop_id":"jaipur_jctsl_osm_unofficial_constructed_11788357_1_mini_1_to","stop_name":"Galta Gate","stop_code":"","mode":"bus","operator":"Jaipur City Transport Services Limited","source_feed_id":"jaipur_jctsl_osm_unofficial_constructed"},"geometry":{"type":"Point","coordinates":[75.8351607,26.9212753]}},{"type":"Feature","properties":{"stop_id":"jaipur_jctsl_osm_unofficial_constructed_11791132_3b_from","stop_name":"Pannadhaya Circle","stop_code":"","mode":"bus","operator":"Jaipur City Transport Services Limited","source_feed_id":"jaipur_jctsl_osm_unofficial_constructed"},"geometry":{"type":"Point","coordinates":[75.8218614,26.8069656]}},{"type":"Feature","properties":{"stop_id":"jaipur_jctsl_osm_unofficial_constructed_11791132_3b_to","stop_name":"Kunda","stop_code":"","mode":"bus","operator":"Jaipur City Transport Services Limited","source_feed_id":"jaipur_jctsl_osm_unofficial_constructed"},"geometry":{"type":"Point","coordinates":[75.8245886,26.9152118]}},{"type":"Feature","properties":{"stop_id":"jaipur_jctsl_osm_unofficial_constructed_11791133_3b_from","stop_name":"Kunda","stop_code":"","mode":"bus","operator":"Jaipur City Transport Services Limited","source_feed_id":"jaipur_jctsl_osm_unofficial_constructed"},"geometry":{"type":"Point","coordinates":[75.8159985,26.8065998]}},{"type":"Feature","properties":{"stop_id":"jaipur_jctsl_osm_unofficial_constructed_11791133_3b_to","stop_name":"Pannadhaya Circle","stop_code":"","mode":"bus","operator":"Jaipur City Transport Services Limited","source_feed_id":"jaipur_jctsl_osm_unofficial_constructed"},"geometry":{"type":"Point","coordinates":[75.8763932,26.9960204]}},{"type":"Feature","properties":{"stop_id":"jaipur_jctsl_osm_unofficial_constructed_11792681_3c_from","stop_name":"Mahatma Gandhi Hospital","stop_code":"","mode":"bus","operator":"Jaipur City Transport Services Limited","source_feed_id":"jaipur_jctsl_osm_unofficial_constructed"},"geometry":{"type":"Point","coordinates":[75.8532039,26.7702702]}},{"type":"Feature","properties":{"stop_id":"jaipur_jctsl_osm_unofficial_constructed_11792681_3c_to","stop_name":"Ajmeri Gate","stop_code":"","mode":"bus","operator":"Jaipur City Transport Services Limited","source_feed_id":"jaipur_jctsl_osm_unofficial_constructed"},"geometry":{"type":"Point","coordinates":[75.8171892,26.9166768]}},{"type":"Feature","properties":{"stop_id":"jaipur_jctsl_osm_unofficial_constructed_11792682_3c_from","stop_name":"Ajmeri Gate","stop_code":"","mode":"bus","operator":"Jaipur City Transport Services Limited","source_feed_id":"jaipur_jctsl_osm_unofficial_constructed"},"geometry":{"type":"Point","coordinates":[75.8259726,26.7877653]}},{"type":"Feature","properties":{"stop_id":"jaipur_jctsl_osm_unofficial_constructed_11792682_3c_to","stop_name":"Mahatma Gandhi Hospital","stop_code":"","mode":"bus","operator":"Jaipur City Transport Services Limited","source_feed_id":"jaipur_jctsl_osm_unofficial_constructed"},"geometry":{"type":"Point","coordinates":[75.8169299,26.9153191]}},{"type":"Feature","properties":{"stop_id":"jaipur_jctsl_osm_unofficial_constructed_11803537_6a_from","stop_name":"Airport","stop_code":"","mode":"bus","operator":"Jaipur City Transport Services Limited","source_feed_id":"jaipur_jctsl_osm_unofficial_constructed"},"geometry":{"type":"Point","coordinates":[75.8051672,26.8297511]}},{"type":"Feature","properties":{"stop_id":"jaipur_jctsl_osm_unofficial_constructed_11803537_6a_to","stop_name":"Kirni Fatak","stop_code":"","mode":"bus","operator":"Jaipur City Transport Services Limited","source_feed_id":"jaipur_jctsl_osm_unofficial_constructed"},"geometry":{"type":"Point","coordinates":[75.7362605,26.9334242]}},{"type":"Feature","properties":{"stop_id":"jaipur_jctsl_osm_unofficial_constructed_11803538_6a_from","stop_name":"Kirni Fatak","stop_code":"","mode":"bus","operator":"Jaipur City Transport Services Limited","source_feed_id":"jaipur_jctsl_osm_unofficial_constructed"},"geometry":{"type":"Point","coordinates":[75.7436108,26.9343244]}},{"type":"Feature","properties":{"stop_id":"jaipur_jctsl_osm_unofficial_constructed_11803538_6a_to","stop_name":"Airport","stop_code":"","mode":"bus","operator":"Jaipur City Transport Services Limited","source_feed_id":"jaipur_jctsl_osm_unofficial_constructed"},"geometry":{"type":"Point","coordinates":[75.8053377,26.8297501]}},{"type":"Feature","properties":{"stop_id":"jaipur_jctsl_osm_unofficial_constructed_16307004_1_from","stop_name":"Bheru Khejda","stop_code":"","mode":"bus","operator":"Jaipur City Transport Services Limited","source_feed_id":"jaipur_jctsl_osm_unofficial_constructed"},"geometry":{"type":"Point","coordinates":[75.7880824,27.0437574]}},{"type":"Feature","properties":{"stop_id":"jaipur_jctsl_osm_unofficial_constructed_16307004_1_to","stop_name":"Galta","stop_code":"","mode":"bus","operator":"Jaipur City Transport Services Limited","source_feed_id":"jaipur_jctsl_osm_unofficial_constructed"},"geometry":{"type":"Point","coordinates":[75.8488738,26.9183177]}},{"type":"Feature","properties":{"stop_id":"jaipur_jctsl_osm_unofficial_constructed_16307054_1_from","stop_name":"Galta","stop_code":"","mode":"bus","operator":"Jaipur City Transport Services Limited","source_feed_id":"jaipur_jctsl_osm_unofficial_constructed"},"geometry":{"type":"Point","coordinates":[75.8488728,26.9182512]}},{"type":"Feature","properties":{"stop_id":"jaipur_jctsl_osm_unofficial_constructed_16307054_1_to","stop_name":"Bheru Khejda","stop_code":"","mode":"bus","operator":"Jaipur City Transport Services Limited","source_feed_id":"jaipur_jctsl_osm_unofficial_constructed"},"geometry":{"type":"Point","coordinates":[75.7894092,27.0493514]}},{"type":"Feature","properties":{"stop_id":"jaipur_jctsl_osm_unofficial_constructed_16309031_9a_from","stop_name":"Agarwal Farm","stop_code":"","mode":"bus","operator":"Jaipur City Transport Services Limited","source_feed_id":"jaipur_jctsl_osm_unofficial_constructed"},"geometry":{"type":"Point","coordinates":[75.7701388,26.8415663]}},{"type":"Feature","properties":{"stop_id":"jaipur_jctsl_osm_unofficial_constructed_16309031_9a_to","stop_name":"Dadi Ka Phatak","stop_code":"","mode":"bus","operator":"Jaipur City Transport Services Limited","source_feed_id":"jaipur_jctsl_osm_unofficial_constructed"},"geometry":{"type":"Point","coordinates":[75.7543046,26.96837]}},{"type":"Feature","properties":{"stop_id":"jaipur_jctsl_osm_unofficial_constructed_16309032_9a_from","stop_name":"Dadi Ka Phatak","stop_code":"","mode":"bus","operator":"Jaipur City Transport Services Limited","source_feed_id":"jaipur_jctsl_osm_unofficial_constructed"},"geometry":{"type":"Point","coordinates":[75.7543046,26.96837]}},{"type":"Feature","properties":{"stop_id":"jaipur_jctsl_osm_unofficial_constructed_16309032_9a_to","stop_name":"Agarwal Farm","stop_code":"","mode":"bus","operator":"Jaipur City Transport Services Limited","source_feed_id":"jaipur_jctsl_osm_unofficial_constructed"},"geometry":{"type":"Point","coordinates":[75.770416,26.8404425]}},{"type":"Feature","properties":{"stop_id":"jaipur_jctsl_osm_unofficial_constructed_16314579_ac_1_from","stop_name":"Kukas","stop_code":"","mode":"bus","operator":"Jaipur City Transport Services Limited","source_feed_id":"jaipur_jctsl_osm_unofficial_constructed"},"geometry":{"type":"Point","coordinates":[75.8975781,27.0429003]}},{"type":"Feature","properties":{"stop_id":"jaipur_jctsl_osm_unofficial_constructed_16314579_ac_1_to","stop_name":"Sanganer","stop_code":"","mode":"bus","operator":"Jaipur City Transport Services Limited","source_feed_id":"jaipur_jctsl_osm_unofficial_constructed"},"geometry":{"type":"Point","coordinates":[75.7841334,26.8156797]}},{"type":"Feature","properties":{"stop_id":"jaipur_jctsl_osm_unofficial_constructed_16314580_ac_1_from","stop_name":"Sanganer","stop_code":"","mode":"bus","operator":"Jaipur City Transport Services Limited","source_feed_id":"jaipur_jctsl_osm_unofficial_constructed"},"geometry":{"type":"Point","coordinates":[75.7841334,26.8156797]}},{"type":"Feature","properties":{"stop_id":"jaipur_jctsl_osm_unofficial_constructed_16314580_ac_1_to","stop_name":"Kukas","stop_code":"","mode":"bus","operator":"Jaipur City Transport Services Limited","source_feed_id":"jaipur_jctsl_osm_unofficial_constructed"},"geometry":{"type":"Point","coordinates":[75.8974763,27.0429625]}},{"type":"Feature","properties":{"stop_id":"jaipur_jctsl_osm_unofficial_constructed_16314598_1a_from","stop_name":"V.K.I.","stop_code":"","mode":"bus","operator":"Jaipur City Transport Services Limited","source_feed_id":"jaipur_jctsl_osm_unofficial_constructed"},"geometry":{"type":"Point","coordinates":[75.7953197,26.9978646]}},{"type":"Feature","properties":{"stop_id":"jaipur_jctsl_osm_unofficial_constructed_16314598_1a_to","stop_name":"Transport Nagar","stop_code":"","mode":"bus","operator":"Jaipur City Transport Services Limited","source_feed_id":"jaipur_jctsl_osm_unofficial_constructed"},"geometry":{"type":"Point","coordinates":[75.8445916,26.904528]}},{"type":"Feature","properties":{"stop_id":"jaipur_jctsl_osm_unofficial_constructed_16319011_1a_from","stop_name":"Transport Nagar","stop_code":"","mode":"bus","operator":"Jaipur City Transport Services Limited","source_feed_id":"jaipur_jctsl_osm_unofficial_constructed"},"geometry":{"type":"Point","coordinates":[75.8440639,26.90382]}},{"type":"Feature","properties":{"stop_id":"jaipur_jctsl_osm_unofficial_constructed_16319011_1a_to","stop_name":"V.K.I.","stop_code":"","mode":"bus","operator":"Jaipur City Transport Services Limited","source_feed_id":"jaipur_jctsl_osm_unofficial_constructed"},"geometry":{"type":"Point","coordinates":[75.794875,27.0002376]}},{"type":"Feature","properties":{"stop_id":"jaipur_jctsl_osm_unofficial_constructed_16319541_ac_2_from","stop_name":"Mahatma Gandhi Hospital","stop_code":"","mode":"bus","operator":"Jaipur City Transport Services Limited","source_feed_id":"jaipur_jctsl_osm_unofficial_constructed"},"geometry":{"type":"Point","coordinates":[75.8532039,26.7702702]}},{"type":"Feature","properties":{"stop_id":"jaipur_jctsl_osm_unofficial_constructed_16319541_ac_2_to","stop_name":"Joshi Marg","stop_code":"","mode":"bus","operator":"Jaipur City Transport Services Limited","source_feed_id":"jaipur_jctsl_osm_unofficial_constructed"},"geometry":{"type":"Point","coordinates":[75.7437242,26.9443518]}},{"type":"Feature","properties":{"stop_id":"jaipur_jctsl_osm_unofficial_constructed_16319542_ac_2_from","stop_name":"Joshi Marg","stop_code":"","mode":"bus","operator":"Jaipur City Transport Services Limited","source_feed_id":"jaipur_jctsl_osm_unofficial_constructed"},"geometry":{"type":"Point","coordinates":[75.7375334,26.9451348]}},{"type":"Feature","properties":{"stop_id":"jaipur_jctsl_osm_unofficial_constructed_16319542_ac_2_to","stop_name":"Mahatma Gandhi Hospital","stop_code":"","mode":"bus","operator":"Jaipur City Transport Services Limited","source_feed_id":"jaipur_jctsl_osm_unofficial_constructed"},"geometry":{"type":"Point","coordinates":[75.8530851,26.7706266]}},{"type":"Feature","properties":{"stop_id":"jaipur_jctsl_osm_unofficial_constructed_16329395_11_from","stop_name":"Goner","stop_code":"","mode":"bus","operator":"Jaipur City Transport Services Limited","source_feed_id":"jaipur_jctsl_osm_unofficial_constructed"},"geometry":{"type":"Point","coordinates":[75.898828,26.7762102]}},{"type":"Feature","properties":{"stop_id":"jaipur_jctsl_osm_unofficial_constructed_16329395_11_to","stop_name":"Ajmeri Gate","stop_code":"","mode":"bus","operator":"Jaipur City Transport Services Limited","source_feed_id":"jaipur_jctsl_osm_unofficial_constructed"},"geometry":{"type":"Point","coordinates":[75.816933,26.9157134]}},{"type":"Feature","properties":{"stop_id":"jaipur_jctsl_osm_unofficial_constructed_16329396_11_from","stop_name":"Ajmeri Gate","stop_code":"","mode":"bus","operator":"Jaipur City Transport Services Limited","source_feed_id":"jaipur_jctsl_osm_unofficial_constructed"},"geometry":{"type":"Point","coordinates":[75.8169299,26.9153191]}},{"type":"Feature","properties":{"stop_id":"jaipur_jctsl_osm_unofficial_constructed_16329396_11_to","stop_name":"Goner","stop_code":"","mode":"bus","operator":"Jaipur City Transport Services Limited","source_feed_id":"jaipur_jctsl_osm_unofficial_constructed"},"geometry":{"type":"Point","coordinates":[75.9099629,26.7792]}},{"type":"Feature","properties":{"stop_id":"jaipur_jctsl_osm_unofficial_constructed_16336834_34_from","stop_name":"Anand Manglam City","stop_code":"","mode":"bus","operator":"Jaipur City Transport Services Limited","source_feed_id":"jaipur_jctsl_osm_unofficial_constructed"},"geometry":{"type":"Point","coordinates":[75.7655597,26.8145803]}},{"type":"Feature","properties":{"stop_id":"jaipur_jctsl_osm_unofficial_constructed_16336834_34_to","stop_name":"JDA Colony","stop_code":"","mode":"bus","operator":"Jaipur City Transport Services Limited","source_feed_id":"jaipur_jctsl_osm_unofficial_constructed"},"geometry":{"type":"Point","coordinates":[75.8957546,26.9475793]}},{"type":"Feature","properties":{"stop_id":"jaipur_jctsl_osm_unofficial_constructed_16336835_34_from","stop_name":"JDA Colony","stop_code":"","mode":"bus","operator":"Jaipur City Transport Services Limited","source_feed_id":"jaipur_jctsl_osm_unofficial_constructed"},"geometry":{"type":"Point","coordinates":[75.8787756,26.9505766]}},{"type":"Feature","properties":{"stop_id":"jaipur_jctsl_osm_unofficial_constructed_16336835_34_to","stop_name":"Anand Manglam City","stop_code":"","mode":"bus","operator":"Jaipur City Transport Services Limited","source_feed_id":"jaipur_jctsl_osm_unofficial_constructed"},"geometry":{"type":"Point","coordinates":[75.7642267,26.8146298]}},{"type":"Feature","properties":{"stop_id":"jaipur_jctsl_osm_unofficial_constructed_16336856_ac_8_from","stop_name":"Mundiya Ramsar","stop_code":"","mode":"bus","operator":"Jaipur City Transport Services Limited","source_feed_id":"jaipur_jctsl_osm_unofficial_constructed"},"geometry":{"type":"Point","coordinates":[75.6236729,26.9008145]}},{"type":"Feature","properties":{"stop_id":"jaipur_jctsl_osm_unofficial_constructed_16336856_ac_8_to","stop_name":"Chhoti Chaupad","stop_code":"","mode":"bus","operator":"Jaipur City Transport Services Limited","source_feed_id":"jaipur_jctsl_osm_unofficial_constructed"},"geometry":{"type":"Point","coordinates":[75.8181702,26.9247874]}},{"type":"Feature","properties":{"stop_id":"jaipur_jctsl_osm_unofficial_constructed_16336857_ac_8_from","stop_name":"Chhoti Chaupad","stop_code":"","mode":"bus","operator":"Jaipur City Transport Services Limited","source_feed_id":"jaipur_jctsl_osm_unofficial_constructed"},"geometry":{"type":"Point","coordinates":[75.8181342,26.9246411]}},{"type":"Feature","properties":{"stop_id":"jaipur_jctsl_osm_unofficial_constructed_16336857_ac_8_to","stop_name":"Mundiya Ramsar","stop_code":"","mode":"bus","operator":"Jaipur City Transport Services Limited","source_feed_id":"jaipur_jctsl_osm_unofficial_constructed"},"geometry":{"type":"Point","coordinates":[75.6170037,26.9011714]}},{"type":"Feature","properties":{"stop_id":"jaipur_jctsl_osm_unofficial_constructed_16340238_ac_7_from","stop_name":"Khatipura Phatak","stop_code":"","mode":"bus","operator":"Jaipur City Transport Services Limited","source_feed_id":"jaipur_jctsl_osm_unofficial_constructed"},"geometry":{"type":"Point","coordinates":[75.8981981,26.8368519]}},{"type":"Feature","properties":{"stop_id":"jaipur_jctsl_osm_unofficial_constructed_16340238_ac_7_to","stop_name":"Chomupuliya","stop_code":"","mode":"bus","operator":"Jaipur City Transport Services Limited","source_feed_id":"jaipur_jctsl_osm_unofficial_constructed"},"geometry":{"type":"Point","coordinates":[75.7621248,26.9427471]}},{"type":"Feature","properties":{"stop_id":"jaipur_jctsl_osm_unofficial_constructed_16340239_ac_7_from","stop_name":"Chomupuliya","stop_code":"","mode":"bus","operator":"Jaipur City Transport Services Limited","source_feed_id":"jaipur_jctsl_osm_unofficial_constructed"},"geometry":{"type":"Point","coordinates":[75.762116,26.9428331]}},{"type":"Feature","properties":{"stop_id":"jaipur_jctsl_osm_unofficial_constructed_16340239_ac_7_to","stop_name":"Khatipura Phatak","stop_code":"","mode":"bus","operator":"Jaipur City Transport Services Limited","source_feed_id":"jaipur_jctsl_osm_unofficial_constructed"},"geometry":{"type":"Point","coordinates":[75.8982979,26.837025]}}]}