{"type": "FeatureCollection", "crs": {"type": "name", "properties": {"name": "urn:ogc:def:crs:OGC:1.3:CRS84"}}, "features": [{"type": "Feature", "properties": {"amenity": "library", "osm_id": 1466912420, "osm_type": "node"}, "geometry": {"type": "Point", "coordinates": [75.8108964, 26.9161688]}}, {"type": "Feature", "properties": {"air_conditioning": "yes", "amenity": "library", "name": "Radha Krishna Central Library", "osm_id": 2725293534, "osm_type": "node"}, "geometry": {"type": "Point", "coordinates": [75.8105575, 26.8805476]}}, {"type": "Feature", "properties": {"amenity": "library", "shop": "computer", "osm_id": 4427339989, "osm_type": "node"}, "geometry": {"type": "Point", "coordinates": [75.7493368, 26.9078018]}}, {"type": "Feature", "properties": {"amenity": "library", "name": "Vivekanand Library", "osm_id": 7082388309, "osm_type": "node"}, "geometry": {"type": "Point", "coordinates": [75.8451463, 26.8346194]}}, {"type": "Feature", "properties": {"amenity": "library", "name": "Shri Balaji Library", "osm_id": 8900543608, "osm_type": "node"}, "geometry": {"type": "Point", "coordinates": [75.8946217, 26.837808]}}, {"type": "Feature", "properties": {"addr:city": "JAIPUR", "addr:housenumber": "B-26 PREM NAGAR", "addr:postcode": "302012", "addr:street": "Khatipura Road", "air_conditioning": "yes", "amenity": "library", "internet_access": "wlan", "internet_access:fee": "customers", "name": "Central Library", "osm_id": 10732889015, "osm_type": "node"}, "geometry": {"type": "Point", "coordinates": [75.7609502, 26.9389848]}}, {"type": "Feature", "properties": {"amenity": "library", "name": "JACKPOT LIBRARY", "osm_id": 10959797681, "osm_type": "node"}, "geometry": {"type": "Point", "coordinates": [75.7036924, 26.9555829]}}, {"type": "Feature", "properties": {"amenity": "library", "osm_id": 10960889903, "osm_type": "node"}, "geometry": {"type": "Point", "coordinates": [75.7678542, 26.9789717]}}, {"type": "Feature", "properties": {"amenity": "library", "name": "JECRC Library", "osm_id": 12153266445, "osm_type": "node"}, "geometry": {"type": "Point", "coordinates": [75.819301, 26.7811373]}}, {"type": "Feature", "properties": {"amenity": "library", "osm_id": 12596333762, "osm_type": "node"}, "geometry": {"type": "Point", "coordinates": [75.7637903, 26.8132901]}}, {"type": "Feature", "properties": {"amenity": "library", "building": "yes", "name": "Library Law Department", "osm_id": 759398735, "osm_type": "way"}, "geometry": {"type": "Polygon", "coordinates": [[[75.8210919, 26.8867174], [75.8210718, 26.886644], [75.8213162, 26.8865787], [75.8217596, 26.8864792], [75.8218416, 26.886715], [75.8215378, 26.886781], [75.8215201, 26.8867165], [75.821414, 26.8867396], [75.8213972, 26.8866783], [75.8211777, 26.8867261], [75.8211706, 26.8867002], [75.8210919, 26.8867174]]]}}, {"type": "Feature", "properties": {"access:delivery": "Openhippo Library", "addr:city": "Jaipur", "addr:district": "Jaipur", "addr:housenumber": "C 72", "addr:postcode": "302017", "addr:street": "Mahal Yojana", "air_conditioning": "yes", "amenity": "library", "amenity_1": "computer class", "building": "service", "delivery_point:access": "Openhippo Library", "delivery_point:type": "clustered", "email": "cse.vikash@gmail.com", "internet_access": "yes", "internet_access:fee": "no", "mobile": "+919252581253", "name": "Openhippo Library", "name:hi": "ओपनहिप्पो लाइब्रेरी", "opening_hours": "24/7", "operator": "Openhippo Technologies Services", "operator:type": "private", "seamark:landmark:category": "Openhippo Library", "osm_id": 1449421543, "osm_type": "way"}, "geometry": {"type": "Polygon", "coordinates": [[[75.8516079, 26.7966546], [75.8516582, 26.796651], [75.8517179, 26.7966467], [75.8517223, 26.7968032], [75.8516124, 26.7968098], [75.8516079, 26.7966546]]]}}]}