{"type":"FeatureCollection","features":[{"type":"Feature","properties":{"stop_id":"JAIPURMETRO_badi_chaupar","stop_name":"Badi Chaupar","stop_code":"","mode":"metro","operator":"Jaipur Metro Rail Corporation","source_feed_id":"jaipur_metro_unofficial_constructed"},"geometry":{"type":"Point","coordinates":[75.8268223,26.9229585]}},{"type":"Feature","properties":{"stop_id":"JAIPURMETRO_chandpole","stop_name":"Chandpole","stop_code":"","mode":"metro","operator":"Jaipur Metro Rail Corporation","source_feed_id":"jaipur_metro_unofficial_constructed"},"geometry":{"type":"Point","coordinates":[75.807892,26.9266005]}},{"type":"Feature","properties":{"stop_id":"JAIPURMETRO_choti_chaupar","stop_name":"Choti Chaupar","stop_code":"","mode":"metro","operator":"Jaipur Metro Rail Corporation","source_feed_id":"jaipur_metro_unofficial_constructed"},"geometry":{"type":"Point","coordinates":[75.8184589,26.9247317]}},{"type":"Feature","properties":{"stop_id":"JAIPURMETRO_civil_lines","stop_name":"Civil Lines","stop_code":"","mode":"metro","operator":"Jaipur Metro Rail Corporation","source_feed_id":"jaipur_metro_unofficial_constructed"},"geometry":{"type":"Point","coordinates":[75.7811364,26.9094527]}},{"type":"Feature","properties":{"stop_id":"JAIPURMETRO_manasarovar","stop_name":"Manasarovar","stop_code":"","mode":"metro","operator":"Jaipur Metro Rail Corporation","source_feed_id":"jaipur_metro_unofficial_constructed"},"geometry":{"type":"Point","coordinates":[75.7502389,26.8794402]}},{"type":"Feature","properties":{"stop_id":"JAIPURMETRO_new_aatish_market","stop_name":"New Aatish Market","stop_code":"","mode":"metro","operator":"Jaipur Metro Rail Corporation","source_feed_id":"jaipur_metro_unofficial_constructed"},"geometry":{"type":"Point","coordinates":[75.764466,26.880154]}},{"type":"Feature","properties":{"stop_id":"JAIPURMETRO_railway_station","stop_name":"Railway Station","stop_code":"","mode":"metro","operator":"Jaipur Metro Rail Corporation","source_feed_id":"jaipur_metro_unofficial_constructed"},"geometry":{"type":"Point","coordinates":[75.790129,26.9181132]}},{"type":"Feature","properties":{"stop_id":"JAIPURMETRO_ram_nagar","stop_name":"Ram Nagar","stop_code":"","mode":"metro","operator":"Jaipur Metro Rail Corporation","source_feed_id":"jaipur_metro_unofficial_constructed"},"geometry":{"type":"Point","coordinates":[75.7746219,26.9017699]}},{"type":"Feature","properties":{"stop_id":"JAIPURMETRO_shyam_nagar","stop_name":"Shyam Nagar","stop_code":"","mode":"metro","operator":"Jaipur Metro Rail Corporation","source_feed_id":"jaipur_metro_unofficial_constructed"},"geometry":{"type":"Point","coordinates":[75.7706279,26.8964768]}},{"type":"Feature","properties":{"stop_id":"JAIPURMETRO_sindhi_camp","stop_name":"Sindhi Camp","stop_code":"","mode":"metro","operator":"Jaipur Metro Rail Corporation","source_feed_id":"jaipur_metro_unofficial_constructed"},"geometry":{"type":"Point","coordinates":[75.799635,26.9224737]}},{"type":"Feature","properties":{"stop_id":"JAIPURMETRO_vivek_vihar","stop_name":"Vivek Vihar","stop_code":"","mode":"metro","operator":"Jaipur Metro Rail Corporation","source_feed_id":"jaipur_metro_unofficial_constructed"},"geometry":{"type":"Point","coordinates":[75.768407,26.8884539]}}]}