{"type": "FeatureCollection", "features": [{"type": "Feature", "geometry": {"type": "Point", "coordinates": [75.8268223, 26.9229585]}, "properties": {"name": "Badi Chaupar", "operator": "Jaipur Metro Rail Corporation Limited", "mode": "metro", "source": "OpenStreetMap (fallback)", "source_node_id": "8044083223"}}, {"type": "Feature", "geometry": {"type": "Point", "coordinates": [75.807892, 26.9266005]}, "properties": {"name": "Chandpole", "operator": "Jaipur Metro Rail Corporation Limited", "mode": "metro", "source": "OpenStreetMap (fallback)", "source_node_id": "8044083221"}}, {"type": "Feature", "geometry": {"type": "Point", "coordinates": [75.8184589, 26.9247317]}, "properties": {"name": "Choti Chaupar", "operator": "Jaipur Metro Rail Corporation Limited", "mode": "metro", "source": "OpenStreetMap (fallback)", "source_node_id": "8044083222"}}, {"type": "Feature", "geometry": {"type": "Point", "coordinates": [75.7811364, 26.9094527]}, "properties": {"name": "Civil Lines", "operator": "Jaipur Metro Rail Corporation Limited", "mode": "metro", "source": "OpenStreetMap (fallback)", "source_node_id": "3139919926"}}, {"type": "Feature", "geometry": {"type": "Point", "coordinates": [75.7502389, 26.8794402]}, "properties": {"name": "Manasarovar", "operator": "Jaipur Metro Rail Corporation Limited", "mode": "metro", "source": "OpenStreetMap (fallback)", "source_node_id": "8140108469"}}, {"type": "Feature", "geometry": {"type": "Point", "coordinates": [75.764466, 26.880154]}, "properties": {"name": "New Aatish Market", "operator": "Jaipur Metro Rail Corporation Limited", "mode": "metro", "source": "OpenStreetMap (fallback)", "source_node_id": "8149193789"}}, {"type": "Feature", "geometry": {"type": "Point", "coordinates": [75.790129, 26.9181132]}, "properties": {"name": "Railway Station", "operator": "Jaipur Metro Rail Corporation Limited", "mode": "metro", "source": "OpenStreetMap (fallback)", "source_node_id": "5391527174"}}, {"type": "Feature", "geometry": {"type": "Point", "coordinates": [75.7746219, 26.9017699]}, "properties": {"name": "Ram Nagar", "operator": "Jaipur Metro Rail Corporation Limited", "mode": "metro", "source": "OpenStreetMap (fallback)", "source_node_id": "3139920401"}}, {"type": "Feature", "geometry": {"type": "Point", "coordinates": [75.7706279, 26.8964768]}, "properties": {"name": "Shyam Nagar", "operator": "Jaipur Metro Rail Corporation Limited", "mode": "metro", "source": "OpenStreetMap (fallback)", "source_node_id": "8149193787"}}, {"type": "Feature", "geometry": {"type": "Point", "coordinates": [75.799635, 26.9224737]}, "properties": {"name": "Sindhi Camp", "operator": "Jaipur Metro Rail Corporation Limited", "mode": "metro", "source": "OpenStreetMap (fallback)", "source_node_id": "5391526672"}}, {"type": "Feature", "geometry": {"type": "Point", "coordinates": [75.768407, 26.8884539]}, "properties": {"name": "Vivek Vihar", "operator": "Jaipur Metro Rail Corporation Limited", "mode": "metro", "source": "OpenStreetMap (fallback)", "source_node_id": "8149193788"}}]}
