{"type":"FeatureCollection","features":[{"type":"Feature","properties":{"route_id":"jaipur_pink","route_short_name":"Pink","route_long_name":"Jaipur Metro Pink Line","agency_id":"JAIPURMETRO","mode":"metro","operator":"Jaipur Metro Rail Corporation","source_feed_id":"jaipur_metro_unofficial_constructed"},"geometry":{"type":"LineString","coordinates":[[75.7502389,26.8794402],[75.764466,26.880154],[75.768407,26.8884539],[75.7706279,26.8964768],[75.7746219,26.9017699],[75.7811364,26.9094527],[75.790129,26.9181132],[75.799635,26.9224737],[75.807892,26.9266005],[75.8184589,26.9247317],[75.8268223,26.9229585]]}}]}