{"type": "FeatureCollection", "name": "pcs", "crs": {"type": "name", "properties": {"name": "urn:ogc:def:crs:OGC:1.3:CRS84"}}, "features": [{"type": "Feature", "properties": {"pc_id": 806, "st_code": 8, "st_name": "Rajasthan", "pc_no": 6, "pc_name": "Jaipur Rural", "pc_name_hi": "जयपुर ग्रामीण", "pc_category": "GEN", "wikidata_qid": "Q6124137", "status": null, "2019_election_phase": 5, "2019_election_date": "2019-05-06", "representative": "Rao Rajendra Singh", "party": "BJP", "office": "MP"}, "geometry": {"type": "MultiPolygon", "coordinates": [[[[76.115, 27.851], [76.135, 27.839], [76.132, 27.825], [76.178, 27.797], [76.2, 27.821], [76.218, 27.817], [76.239, 27.848], [76.286, 27.802], [76.315, 27.805], [76.34, 27.847], [76.372, 27.839], [76.366, 27.82], [76.376, 27.837], [76.399, 27.833], [76.398, 27.804], [76.41, 27.801], [76.438, 27.811], [76.449, 27.832], [76.464, 27.804], [76.48, 27.796], [76.477, 27.776], [76.488, 27.776], [76.501, 27.758], [76.492, 27.743], [76.5, 27.724], [76.492, 27.705], [76.505, 27.68], [76.477, 27.645], [76.462, 27.648], [76.457, 27.674], [76.44, 27.622], [76.449, 27.576], [76.415, 27.54], [76.411, 27.46], [76.396, 27.439], [76.369, 27.446], [76.361, 27.487], [76.348, 27.461], [76.328, 27.464], [76.325, 27.499], [76.277, 27.457], [76.272, 27.439], [76.27, 27.508], [76.244, 27.512], [76.239, 27.476], [76.214, 27.454], [76.225, 27.447], [76.224, 27.403], [76.194, 27.374], [76.198, 27.361], [76.176, 27.338], [76.169, 27.31], [76.15, 27.311], [76.144, 27.28], [76.134, 27.281], [76.117, 27.248], [76.115, 27.228], [76.133, 27.223], [76.119, 27.194], [76.131, 27.196], [76.143, 27.22], [76.154, 27.216], [76.149, 27.18], [76.177, 27.183], [76.174, 27.128], [76.185, 27.118], [76.199, 27.114], [76.265, 27.182], [76.283, 27.151], [76.277, 27.041], [76.202, 26.98], [76.175, 26.976], [76.169, 26.917], [76.188, 26.909], [76.186, 26.879], [76.141, 26.877], [76.145, 26.893], [76.065, 26.906], [76.035, 26.933], [75.99, 26.936], [75.963, 26.962], [75.943, 26.951], [75.939, 26.937], [75.947, 26.894], [75.924, 26.891], [75.909, 26.901], [75.91, 26.92], [75.866, 26.941], [75.857, 26.973], [75.804, 26.983], [75.793, 27.009], [75.776, 26.991], [75.769, 27.01], [75.759, 26.978], [75.742, 26.976], [75.731, 26.955], [75.734, 26.913], [75.747, 26.912], [75.754, 26.893], [75.727, 26.885], [75.707, 26.906], [75.684, 26.907], [75.669, 26.884], [75.627, 26.878], [75.623, 26.888], [75.585, 26.889], [75.578, 26.868], [75.556, 26.866], [75.51, 26.881], [75.511, 26.911], [75.39, 26.921], [75.367, 26.874], [75.379, 26.862], [75.377, 26.847], [75.331, 26.85], [75.312, 26.78], [75.299, 26.781], [75.303, 26.798], [75.288, 26.805], [75.272, 26.765], [75.249, 26.75], [75.228, 26.763], [75.21, 26.745], [75.197, 26.752], [75.174, 26.739], [75.139, 26.779], [75.131, 26.808], [75.086, 26.831], [75.062, 26.831], [75.043, 26.815], [75.048, 26.8], [75.031, 26.796], [74.998, 26.817], [74.988, 26.839], [74.955, 26.833], [74.935, 26.843], [74.956, 26.851], [74.955, 26.866], [74.976, 26.891], [75.011, 26.895], [75.011, 26.946], [75.162, 26.933], [75.159, 26.972], [75.201, 26.975], [75.202, 27.008], [75.24, 27.014], [75.255, 27.031], [75.22, 27.052], [75.219, 27.08], [75.331, 27.092], [75.364, 27.083], [75.362, 27.108], [75.346, 27.106], [75.338, 27.135], [75.316, 27.144], [75.313, 27.185], [75.328, 27.211], [75.39, 27.229], [75.393, 27.279], [75.38, 27.288], [75.444, 27.292], [75.469, 27.281], [75.497, 27.3], [75.488, 27.254], [75.51, 27.245], [75.503, 27.177], [75.52, 27.174], [75.524, 27.151], [75.557, 27.163], [75.578, 27.155], [75.582, 27.187], [75.598, 27.201], [75.61, 27.2], [75.615, 27.179], [75.646, 27.196], [75.654, 27.185], [75.714, 27.179], [75.713, 27.163], [75.729, 27.145], [75.774, 27.145], [75.791, 27.159], [75.823, 27.152], [75.838, 27.172], [75.875, 27.189], [75.872, 27.275], [75.855, 27.252], [75.783, 27.232], [75.769, 27.208], [75.748, 27.202], [75.754, 27.227], [75.733, 27.257], [75.74, 27.274], [75.694, 27.283], [75.707, 27.304], [75.679, 27.317], [75.679, 27.339], [75.665, 27.356], [75.689, 27.367], [75.724, 27.361], [75.721, 27.378], [75.741, 27.4], [75.777, 27.398], [75.779, 27.38], [75.798, 27.376], [75.813, 27.401], [75.827, 27.387], [75.848, 27.4], [75.876, 27.388], [75.884, 27.397], [75.871, 27.417], [75.889, 27.453], [75.92, 27.452], [75.954, 27.472], [75.987, 27.469], [75.985, 27.496], [75.939, 27.497], [75.954, 27.562], [75.944, 27.571], [75.968, 27.591], [75.964, 27.599], [75.946, 27.591], [75.942, 27.619], [75.965, 27.622], [75.958, 27.637], [75.979, 27.652], [75.991, 27.692], [76.03, 27.719], [76.053, 27.769], [76.069, 27.768], [76.092, 27.817], [76.075, 27.844], [76.087, 27.845], [76.089, 27.86], [76.115, 27.851]]]]}}, {"type": "Feature", "properties": {"pc_id": 807, "st_code": 8, "st_name": "Rajasthan", "pc_no": 7, "pc_name": "Jaipur", "pc_name_hi": "जयपुर", "pc_category": "GEN", "wikidata_qid": "Q6124117", "status": null, "2019_election_phase": 5, "2019_election_date": "2019-05-06", "representative": "Manju Sharma", "party": "BJP", "office": "MP"}, "geometry": {"type": "MultiPolygon", "coordinates": [[[[75.776, 26.991], [75.793, 27.009], [75.804, 26.983], [75.857, 26.973], [75.866, 26.941], [75.91, 26.92], [75.917, 26.893], [75.947, 26.894], [75.947, 26.878], [75.924, 26.857], [75.944, 26.816], [75.937, 26.768], [75.916, 26.738], [75.92, 26.767], [75.89, 26.766], [75.883, 26.753], [75.899, 26.752], [75.902, 26.737], [75.884, 26.739], [75.886, 26.719], [75.86, 26.721], [75.831, 26.689], [75.808, 26.693], [75.795, 26.673], [75.757, 26.702], [75.775, 26.733], [75.739, 26.749], [75.725, 26.748], [75.718, 26.723], [75.706, 26.719], [75.662, 26.733], [75.647, 26.751], [75.635, 26.743], [75.554, 26.764], [75.551, 26.749], [75.536, 26.744], [75.526, 26.765], [75.49, 26.77], [75.481, 26.798], [75.495, 26.801], [75.493, 26.815], [75.505, 26.82], [75.494, 26.846], [75.507, 26.879], [75.577, 26.868], [75.585, 26.889], [75.623, 26.888], [75.627, 26.878], [75.669, 26.884], [75.684, 26.907], [75.707, 26.906], [75.727, 26.885], [75.748, 26.89], [75.749, 26.907], [75.733, 26.919], [75.732, 26.959], [75.742, 26.976], [75.759, 26.978], [75.767, 27.009], [75.776, 26.991]]]]}}]}