{"type": "FeatureCollection", "crs": {"type": "name", "properties": {"name": "urn:ogc:def:crs:OGC:1.3:CRS84"}}, "features": [{"type": "Feature", "properties": {"amenity": "police", "name": "Police Station Gandhi Circle", "osm_id": 2725295485, "osm_type": "node"}, "geometry": {"type": "Point", "coordinates": [75.8129569, 26.8840927]}}, {"type": "Feature", "properties": {"amenity": "police", "name": "Police Station Murlipura", "osm_id": 4141428087, "osm_type": "node"}, "geometry": {"type": "Point", "coordinates": [75.7647832, 26.970402]}}, {"type": "Feature", "properties": {"amenity": "police", "name": "Police Station", "osm_id": 5473212045, "osm_type": "node"}, "geometry": {"type": "Point", "coordinates": [75.7950769, 26.9177909]}}, {"type": "Feature", "properties": {"amenity": "police", "name:en": "Police Station", "osm_id": 6955659885, "osm_type": "node"}, "geometry": {"type": "Point", "coordinates": [75.8176035, 26.9320929]}}, {"type": "Feature", "properties": {"addr:street": "Vaishali Marg", "amenity": "police", "name": "Police Station Vaishali Nagar", "osm_id": 6968230689, "osm_type": "node"}, "geometry": {"type": "Point", "coordinates": [75.7355845, 26.9153921]}}, {"type": "Feature", "properties": {"amenity": "police", "name": "Sodala Thana", "name:en": "Sodala Police Station", "osm_id": 6968230696, "osm_type": "node"}, "geometry": {"type": "Point", "coordinates": [75.7763672, 26.9019038]}}, {"type": "Feature", "properties": {"amenity": "police", "name": "Chitrakoot police Station", "osm_id": 6976031005, "osm_type": "node"}, "geometry": {"type": "Point", "coordinates": [75.7342969, 26.8994432]}}, {"type": "Feature", "properties": {"amenity": "police", "name": "Karni Vihar Police Station Jaipur", "osm_id": 7041224033, "osm_type": "node"}, "geometry": {"type": "Point", "coordinates": [75.7331235, 26.8967564]}}, {"type": "Feature", "properties": {"addr:district": "Jaipur", "addr:postcode": "302015", "addr:state": "Rajasthan", "amenity": "police", "name": "rajasthan police headquaters", "operator": "rajasthan police", "source": "Local Knowledge;close living", "osm_id": 7698410001, "osm_type": "node"}, "geometry": {"type": "Point", "coordinates": [75.7988001, 26.8854969]}}, {"type": "Feature", "properties": {"amenity": "police", "name": "Harmara Police Station", "osm_id": 8041563560, "osm_type": "node"}, "geometry": {"type": "Point", "coordinates": [75.7690247, 27.0131737]}}, {"type": "Feature", "properties": {"addr:street": "Amer Road", "amenity": "police", "name": "Police Station Subhash Chowk , Jaipur", "osm_id": 8043798023, "osm_type": "node"}, "geometry": {"type": "Point", "coordinates": [75.8324821, 26.9290701]}}, {"type": "Feature", "properties": {"amenity": "police", "name": "Police Station Adarsh Nagar", "osm_id": 8125618832, "osm_type": "node"}, "geometry": {"type": "Point", "coordinates": [75.8348836, 26.9024266]}}, {"type": "Feature", "properties": {"addr:city": "Jaipur", "addr:state": "Rajasthan", "amenity": "police", "name": "Bajaj Nagar Police Station", "osm_id": 10554368729, "osm_type": "node"}, "geometry": {"type": "Point", "coordinates": [75.7996764, 26.8776453]}}, {"type": "Feature", "properties": {"amenity": "police", "name": "Mahila Thana East Gandhinagar", "osm_id": 10899269972, "osm_type": "node"}, "geometry": {"type": "Point", "coordinates": [75.8042117, 26.8815478]}}, {"type": "Feature", "properties": {"amenity": "police", "name": "Kardhani Police Station", "osm_id": 11696983714, "osm_type": "node"}, "geometry": {"type": "Point", "coordinates": [75.7119204, 26.953527]}}, {"type": "Feature", "properties": {"addr:city": "Sukhpuria", "addr:district": "Jaipur", "addr:housenumber": "2", "addr:postcode": "302033", "addr:street": "Tonk Road", "amenity": "police", "name": "Sanganer Sadar Police Station", "osm_id": 12149437904, "osm_type": "node"}, "geometry": {"type": "Point", "coordinates": [75.8225385, 26.7834733]}}, {"type": "Feature", "properties": {"addr:postcode": "302013", "amenity": "police", "name": "Police chowki", "osm_id": 13333727901, "osm_type": "node"}, "geometry": {"type": "Point", "coordinates": [75.797715, 27.0078424]}}, {"type": "Feature", "properties": {"addr:city": "Jaipur", "addr:postcode": "302003", "addr:street": "Badi Chaupar", "amenity": "police", "building": "yes", "check_date": "2025-11-03", "name": "Police Thana Manak Chowk", "phone": "0141 260 1366", "website": "https://jaipurpolice.rajasthan.gov.in/", "osm_id": 170101096, "osm_type": "way"}, "geometry": {"type": "Polygon", "coordinates": [[[75.8275757, 26.9232994], [75.82751, 26.9230683], [75.8276171, 26.9230441], [75.8275966, 26.9229719], [75.827416, 26.9230127], [75.8275098, 26.9233426], [75.827523, 26.9233891], [75.8277036, 26.9233483], [75.8276828, 26.9232751], [75.8275757, 26.9232994]]]}}, {"type": "Feature", "properties": {"amenity": "police", "building": "yes", "name": "Kalwad pulia police station.", "osm_id": 754591093, "osm_type": "way"}, "geometry": {"type": "Polygon", "coordinates": [[[75.7310394, 26.9464827], [75.7317681, 26.9463744], [75.7317326, 26.9459942], [75.73162, 26.9459731], [75.7309386, 26.9461262], [75.7310394, 26.9464827]]]}}, {"type": "Feature", "properties": {"amenity": "police", "building": "yes", "name": "rajasthan police headquaters", "operator": "rajasthan police", "osm_id": 824451259, "osm_type": "way"}, "geometry": {"type": "Polygon", "coordinates": [[[75.7981729, 26.8852096], [75.7982743, 26.8856281], [75.7995839, 26.8853757], [75.7994825, 26.8849573], [75.7981729, 26.8852096]]]}}, {"type": "Feature", "properties": {"amenity": "police", "building": "yes", "name": "Sanganer Police Station", "opening_hours": "24/7", "osm_id": 862954955, "osm_type": "way"}, "geometry": {"type": "Polygon", "coordinates": [[[75.7968902, 26.8195252], [75.7969893, 26.8196761], [75.7971438, 26.8195964], [75.797238, 26.8197278], [75.7974385, 26.8196373], [75.797238, 26.8193226], [75.7968902, 26.8195252]]]}}, {"type": "Feature", "properties": {"addr:street": "Sikar Road", "amenity": "police", "name": "Vishwakarma Police Station", "phone": "+911412330507", "osm_id": 863276756, "osm_type": "way"}, "geometry": {"type": "Polygon", "coordinates": [[[75.7740491, 26.9782708], [75.774084, 26.9784177], [75.775, 26.978266], [75.7750375, 26.977764], [75.774662, 26.977807], [75.774662, 26.977862], [75.7740371, 26.9779337], [75.7740612, 26.9782445], [75.7740491, 26.9782708]]]}}, {"type": "Feature", "properties": {"amenity": "police", "building": "yes", "name": "Panipech police Station", "osm_id": 863276773, "osm_type": "way"}, "geometry": {"type": "Polygon", "coordinates": [[[75.787702, 26.9387861], [75.7877797, 26.9389188], [75.7880158, 26.9387837], [75.7879608, 26.9387443], [75.7878468, 26.9387132], [75.787702, 26.9387861]]]}}, {"type": "Feature", "properties": {"amenity": "police", "building": "yes", "layer": "-1", "name": "policr thana manak chowk", "osm_id": 1257701014, "osm_type": "way"}, "geometry": {"type": "Polygon", "coordinates": [[[75.8270829, 26.9226469], [75.827343, 26.9225646], [75.8271323, 26.9221976], [75.8268655, 26.9223004], [75.826938, 26.92255], [75.8270829, 26.9226469]]]}}]}