{"type": "FeatureCollection", "crs": {"type": "name", "properties": {"name": "urn:ogc:def:crs:OGC:1.3:CRS84"}}, "features": [{"type": "Feature", "properties": {"amenity": "toilets", "fee": "yes", "osm_id": 3895030590, "osm_type": "node"}, "geometry": {"type": "Point", "coordinates": [75.825566, 26.9253855]}}, {"type": "Feature", "properties": {"amenity": "toilets", "osm_id": 4466634119, "osm_type": "node"}, "geometry": {"type": "Point", "coordinates": [75.8186256, 26.9093956]}}, {"type": "Feature", "properties": {"amenity": "toilets", "osm_id": 4701563692, "osm_type": "node"}, "geometry": {"type": "Point", "coordinates": [75.8235565, 26.9261061]}}, {"type": "Feature", "properties": {"amenity": "toilets", "fee": "yes", "osm_id": 5010888622, "osm_type": "node"}, "geometry": {"type": "Point", "coordinates": [75.8505167, 26.9866575]}}, {"type": "Feature", "properties": {"amenity": "toilets", "osm_id": 5287237003, "osm_type": "node"}, "geometry": {"type": "Point", "coordinates": [75.8193375, 26.911393]}}, {"type": "Feature", "properties": {"amenity": "toilets", "name": "Toilet, self-cleaning, Jaipur", "osm_id": 5456498252, "osm_type": "node"}, "geometry": {"type": "Point", "coordinates": [75.8176174, 26.9209145]}}, {"type": "Feature", "properties": {"amenity": "toilets", "osm_id": 5456499667, "osm_type": "node"}, "geometry": {"type": "Point", "coordinates": [75.8268237, 26.926182]}}, {"type": "Feature", "properties": {"amenity": "toilets", "name": "Public Toilet, Jaipur", "osm_id": 5456499721, "osm_type": "node"}, "geometry": {"type": "Point", "coordinates": [75.8163568, 26.9177092]}}, {"type": "Feature", "properties": {"amenity": "toilets", "name": "Vip toilets", "osm_id": 5472368646, "osm_type": "node"}, "geometry": {"type": "Point", "coordinates": [75.8584489, 26.9165005]}}, {"type": "Feature", "properties": {"amenity": "toilets", "osm_id": 6178148286, "osm_type": "node"}, "geometry": {"type": "Point", "coordinates": [75.8225483, 26.9248398]}}, {"type": "Feature", "properties": {"amenity": "toilets", "fee": "yes", "osm_id": 6631002085, "osm_type": "node"}, "geometry": {"type": "Point", "coordinates": [75.8419579, 26.9536695]}}, {"type": "Feature", "properties": {"amenity": "toilets", "osm_id": 6632695897, "osm_type": "node"}, "geometry": {"type": "Point", "coordinates": [75.8263141, 26.9245343]}}, {"type": "Feature", "properties": {"access": "yes", "amenity": "toilets", "fee": "yes", "name": "Shulabh Toilet", "toilets:disposal": "pitlatrine", "wheelchair": "yes", "osm_id": 8039170149, "osm_type": "node"}, "geometry": {"type": "Point", "coordinates": [75.8250605, 26.9154032]}}, {"type": "Feature", "properties": {"amenity": "toilets", "osm_id": 8125619140, "osm_type": "node"}, "geometry": {"type": "Point", "coordinates": [75.8418669, 26.9066911]}}, {"type": "Feature", "properties": {"access": "yes", "amenity": "toilets", "unisex": "yes", "osm_id": 8384426604, "osm_type": "node"}, "geometry": {"type": "Point", "coordinates": [75.8436344, 26.981848]}}, {"type": "Feature", "properties": {"amenity": "toilets", "osm_id": 10038880074, "osm_type": "node"}, "geometry": {"type": "Point", "coordinates": [75.8439337, 26.9574355]}}, {"type": "Feature", "properties": {"amenity": "toilets", "fee": "no", "wheelchair": "no", "osm_id": 10936787895, "osm_type": "node"}, "geometry": {"type": "Point", "coordinates": [75.8157847, 26.9389449]}}, {"type": "Feature", "properties": {"amenity": "toilets", "osm_id": 10936808362, "osm_type": "node"}, "geometry": {"type": "Point", "coordinates": [75.8333401, 26.8549363]}}, {"type": "Feature", "properties": {"amenity": "toilets", "osm_id": 10936826581, "osm_type": "node"}, "geometry": {"type": "Point", "coordinates": [75.8253672, 26.9248405]}}, {"type": "Feature", "properties": {"amenity": "toilets", "osm_id": 10936830011, "osm_type": "node"}, "geometry": {"type": "Point", "coordinates": [75.8254313, 26.9305435]}}, {"type": "Feature", "properties": {"access": "yes", "amenity": "toilets", "female": "yes", "male": "yes", "osm_id": 11722037595, "osm_type": "node"}, "geometry": {"type": "Point", "coordinates": [75.7887759, 26.9195677]}}, {"type": "Feature", "properties": {"access": "permissive", "amenity": "toilets", "fee": "no", "female": "yes", "level": "0", "male": "yes", "operator": "Hindustan Petroleum", "toilets:handwashing": "yes", "toilets:position": "seated;squat", "wheelchair": "no", "osm_id": 11722473958, "osm_type": "node"}, "geometry": {"type": "Point", "coordinates": [75.842101, 26.9546114]}}, {"type": "Feature", "properties": {"access": "yes", "amenity": "toilets", "fee": "no", "female": "yes", "level": "0", "toilets:handwashing": "yes", "wheelchair": "no", "osm_id": 11724393149, "osm_type": "node"}, "geometry": {"type": "Point", "coordinates": [75.8263961, 26.9239656]}}, {"type": "Feature", "properties": {"access": "yes", "amenity": "toilets", "fee": "no", "level": "0", "male": "yes", "toilets:disposal": "flush", "toilets:handwashing": "yes", "toilets:position": "squat;urinal", "wheelchair": "no", "osm_id": 11724393150, "osm_type": "node"}, "geometry": {"type": "Point", "coordinates": [75.8263766, 26.9238775]}}, {"type": "Feature", "properties": {"access": "yes", "amenity": "toilets", "fee": "no", "level": "0", "male": "yes", "toilets:disposal": "flush", "toilets:position": "urinal", "wheelchair": "no", "osm_id": 11725249805, "osm_type": "node"}, "geometry": {"type": "Point", "coordinates": [75.8264571, 26.9209188]}}, {"type": "Feature", "properties": {"amenity": "toilets", "osm_id": 12361795402, "osm_type": "node"}, "geometry": {"type": "Point", "coordinates": [75.7997747, 26.9320645]}}, {"type": "Feature", "properties": {"amenity": "toilets", "fee": "no", "wheelchair": "no", "osm_id": 12361795406, "osm_type": "node"}, "geometry": {"type": "Point", "coordinates": [75.8261782, 26.9254404]}}, {"type": "Feature", "properties": {"amenity": "toilets", "osm_id": 12361795801, "osm_type": "node"}, "geometry": {"type": "Point", "coordinates": [75.8052745, 26.9278425]}}, {"type": "Feature", "properties": {"amenity": "toilets", "osm_id": 12361796102, "osm_type": "node"}, "geometry": {"type": "Point", "coordinates": [75.789953, 26.9195589]}}, {"type": "Feature", "properties": {"amenity": "toilets", "osm_id": 12361796201, "osm_type": "node"}, "geometry": {"type": "Point", "coordinates": [75.826621, 26.9285884]}}, {"type": "Feature", "properties": {"amenity": "toilets", "osm_id": 12365120002, "osm_type": "node"}, "geometry": {"type": "Point", "coordinates": [75.7970368, 26.9325041]}}, {"type": "Feature", "properties": {"amenity": "toilets", "osm_id": 12365120003, "osm_type": "node"}, "geometry": {"type": "Point", "coordinates": [75.8040973, 26.9336142]}}, {"type": "Feature", "properties": {"amenity": "toilets", "osm_id": 12365157303, "osm_type": "node"}, "geometry": {"type": "Point", "coordinates": [75.817625, 26.9351967]}}, {"type": "Feature", "properties": {"amenity": "toilets", "osm_id": 12367918003, "osm_type": "node"}, "geometry": {"type": "Point", "coordinates": [75.8013024, 26.9236366]}}, {"type": "Feature", "properties": {"amenity": "toilets", "osm_id": 12373714203, "osm_type": "node"}, "geometry": {"type": "Point", "coordinates": [75.8202034, 26.9131093]}}, {"type": "Feature", "properties": {"access": "yes", "amenity": "toilets", "changing_table": "no", "check_date": "2025-12-26", "wheelchair": "yes", "osm_id": 13408610624, "osm_type": "node"}, "geometry": {"type": "Point", "coordinates": [75.8439383, 26.9587283]}}, {"type": "Feature", "properties": {"amenity": "toilets", "osm_id": 13429994822, "osm_type": "node"}, "geometry": {"type": "Point", "coordinates": [75.8121952, 26.9375491]}}, {"type": "Feature", "properties": {"amenity": "toilets", "building": "yes", "osm_id": 755258608, "osm_type": "way"}, "geometry": {"type": "Polygon", "coordinates": [[[75.8530258, 26.9336087], [75.8531116, 26.9336087], [75.8531304, 26.9335192], [75.8532245, 26.9335248], [75.8531952, 26.9336479], [75.8531513, 26.9336386], [75.8531103, 26.9336869], [75.8530065, 26.933649], [75.8530258, 26.9336087]]]}}, {"type": "Feature", "properties": {"amenity": "toilets", "building": "yes", "unisex": "yes", "osm_id": 759848661, "osm_type": "way"}, "geometry": {"type": "Polygon", "coordinates": [[[75.7392682, 26.9115015], [75.7392738, 26.9114449], [75.7394175, 26.9114543], [75.7394138, 26.9115074], [75.7392682, 26.9115015]]]}}, {"type": "Feature", "properties": {"access": "yes", "amenity": "toilets", "building": "yes", "fee": "yes", "osm_id": 863276761, "osm_type": "way"}, "geometry": {"type": "Polygon", "coordinates": [[[75.7730634, 26.9706999], [75.773072, 26.9706356], [75.7731722, 26.9706462], [75.7731636, 26.9707105], [75.7730634, 26.9706999]]]}}, {"type": "Feature", "properties": {"amenity": "toilets", "building": "yes", "unisex": "yes", "osm_id": 865107578, "osm_type": "way"}, "geometry": {"type": "Polygon", "coordinates": [[[75.7627895, 26.9241683], [75.7627801, 26.9241453], [75.7627748, 26.9241322], [75.7628193, 26.9241178], [75.762834, 26.924154], [75.7627895, 26.9241683]]]}}, {"type": "Feature", "properties": {"amenity": "toilets", "building": "yes", "unisex": "yes", "osm_id": 866422934, "osm_type": "way"}, "geometry": {"type": "Polygon", "coordinates": [[[75.8014655, 26.8666337], [75.8015059, 26.8666326], [75.8015044, 26.8665923], [75.801464, 26.8665935], [75.8014655, 26.8666337]]]}}, {"type": "Feature", "properties": {"amenity": "toilets", "building": "yes", "osm_id": 867012542, "osm_type": "way"}, "geometry": {"type": "Polygon", "coordinates": [[[75.9257236, 26.8504108], [75.9257845, 26.8504097], [75.9257831, 26.8503483], [75.9257222, 26.8503494], [75.9257236, 26.8504108]]]}}, {"type": "Feature", "properties": {"amenity": "toilets", "building": "yes", "osm_id": 867233964, "osm_type": "way"}, "geometry": {"type": "Polygon", "coordinates": [[[75.7862784, 26.9028853], [75.7863189, 26.9029014], [75.7863088, 26.9029217], [75.7863475, 26.9029371], [75.7863578, 26.9029164], [75.7863938, 26.9029307], [75.7864184, 26.9028814], [75.7863032, 26.9028358], [75.7862784, 26.9028853]]]}}, {"type": "Feature", "properties": {"amenity": "toilets", "building": "yes", "layer": "-1", "osm_id": 867633010, "osm_type": "way"}, "geometry": {"type": "Polygon", "coordinates": [[[75.7386671, 26.9055258], [75.7387398, 26.9055265], [75.7387405, 26.9055124], [75.7386675, 26.9055116], [75.7386671, 26.9055258]]]}}, {"type": "Feature", "properties": {"amenity": "toilets", "building": "yes", "fee": "yes", "wheelchair": "no", "osm_id": 868008930, "osm_type": "way"}, "geometry": {"type": "Polygon", "coordinates": [[[75.7362302, 26.9018373], [75.736219, 26.9017882], [75.7362597, 26.9017809], [75.7363004, 26.9017735], [75.7363116, 26.9018226], [75.7362302, 26.9018373]]]}}, {"type": "Feature", "properties": {"amenity": "toilets", "building": "yes", "osm_id": 868219553, "osm_type": "way"}, "geometry": {"type": "Polygon", "coordinates": [[[75.7700383, 26.8825757], [75.7699999, 26.8825187], [75.7701158, 26.8824565], [75.7701543, 26.8825135], [75.7700383, 26.8825757]]]}}, {"type": "Feature", "properties": {"amenity": "toilets", "building": "yes", "osm_id": 892173127, "osm_type": "way"}, "geometry": {"type": "Polygon", "coordinates": [[[75.7571672, 26.7542371], [75.7572123, 26.7542791], [75.7572703, 26.7542294], [75.7572252, 26.7541874], [75.7571672, 26.7542371]]]}}, {"type": "Feature", "properties": {"amenity": "toilets", "building": "yes", "osm_id": 892173129, "osm_type": "way"}, "geometry": {"type": "Polygon", "coordinates": [[[75.9241378, 26.8463005], [75.9241328, 26.846238], [75.9242116, 26.8462329], [75.9242166, 26.8462954], [75.9241378, 26.8463005]]]}}, {"type": "Feature", "properties": {"amenity": "toilets", "building": "yes", "osm_id": 892173130, "osm_type": "way"}, "geometry": {"type": "Polygon", "coordinates": [[[75.9253, 26.8573495], [75.9253015, 26.8572911], [75.9253768, 26.8572927], [75.9253752, 26.8573511], [75.9253, 26.8573495]]]}}, {"type": "Feature", "properties": {"amenity": "toilets", "building": "yes", "osm_id": 905190351, "osm_type": "way"}, "geometry": {"type": "Polygon", "coordinates": [[[75.8638581, 27.01633], [75.8638397, 27.0163305], [75.8638223, 27.0163362], [75.8638079, 27.0163465], [75.8637979, 27.0163604], [75.8637932, 27.0163773], [75.8637952, 27.0163947], [75.8638035, 27.0164105], [75.8638173, 27.0164229], [75.863835, 27.0164304], [75.8638545, 27.0164323], [75.8638736, 27.0164283], [75.86389, 27.0164188], [75.8639019, 27.0164049], [75.8639078, 27.0163893], [75.8639078, 27.0163728], [75.863902, 27.0163572], [75.863891, 27.016344], [75.8638758, 27.0163346], [75.8638581, 27.01633]]]}}, {"type": "Feature", "properties": {"access": "yes", "amenity": "toilets", "building": "yes", "changing_table": "no", "toilets:disposal": "flush", "wheelchair": "yes", "osm_id": 1037901016, "osm_type": "way"}, "geometry": {"type": "Polygon", "coordinates": [[[75.855289, 26.9877959], [75.8553095, 26.987749], [75.855338, 26.9877617], [75.8553157, 26.9878054], [75.855289, 26.9877959]]]}}]}