{
"type": "FeatureCollection",
"name": "bwssb_divisions",
"crs": { "type": "name", "properties": { "name": "urn:ogc:def:crs:OGC:1.3:CRS84" } },
"xy_coordinate_resolution": 1e-06,
"features": [
{ "type": "Feature", "properties": { "DivisionCode": "", "DivisionName": "East-1", "KGISDivisionID": 14, "OBJECTID": 2, "SHAPE_STArea__": 85483977.268399999, "SHAPE_STLength__": 67121.631412899995, "source": "OpenCity (data.opencity.in)", "publisher": "Bangalore Water Supply and Sewerage Board (BWSSB)" }, "geometry": { "type": "MultiPolygon", "coordinates": [ [ [ [ 77.747826, 13.011566, 0.0 ], [ 77.747968, 13.012619, 0.0 ], [ 77.749324, 13.012004, 0.0 ], [ 77.749722, 13.01151, 0.0 ], [ 77.752387, 13.010682, 0.0 ], [ 77.754569, 13.008758, 0.0 ], [ 77.755179, 13.009145, 0.0 ], [ 77.755358, 13.010212, 0.0 ], [ 77.755755, 13.009372, 0.0 ], [ 77.757096, 13.009046, 0.0 ], [ 77.759472, 13.007682, 0.0 ], [ 77.759684, 13.007049, 0.0 ], [ 77.7595, 13.005822, 0.0 ], [ 77.76083, 13.004848, 0.0 ], [ 77.762051, 13.005035, 0.0 ], [ 77.76369, 13.002903, 0.0 ], [ 77.763504, 13.002568, 0.0 ], [ 77.775571, 12.997642, 0.0 ], [ 77.774312, 12.99217, 0.0 ], [ 77.775503, 12.991504, 0.0 ], [ 77.776537, 12.988619, 0.0 ], [ 77.775904, 12.986391, 0.0 ], [ 77.776068, 12.985872, 0.0 ], [ 77.777024, 12.985292, 0.0 ], [ 77.776203, 12.984927, 0.0 ], [ 77.776508, 12.984546, 0.0 ], [ 77.77607, 12.982402, 0.0 ], [ 77.775456, 12.982162, 0.0 ], [ 77.775349, 12.981483, 0.0 ], [ 77.774623, 12.980536, 0.0 ], [ 77.775893, 12.979918, 0.0 ], [ 77.777212, 12.978411, 0.0 ], [ 77.778425, 12.978562, 0.0 ], [ 77.778748, 12.977152, 0.0 ], [ 77.778261, 12.976289, 0.0 ], [ 77.777686, 12.976187, 0.0 ], [ 77.777295, 12.97662, 0.0 ], [ 77.777033, 12.976526, 0.0 ], [ 77.776142, 12.974613, 0.0 ], [ 77.779217, 12.972468, 0.0 ], [ 77.778576, 12.970757, 0.0 ], [ 77.778911, 12.970192, 0.0 ], [ 77.780674, 12.970071, 0.0 ], [ 77.781477, 12.970795, 0.0 ], [ 77.783533, 12.970776, 0.0 ], [ 77.784361, 12.968558, 0.0 ], [ 77.78418, 12.96679, 0.0 ], [ 77.781848, 12.966134, 0.0 ], [ 77.781224, 12.966957, 0.0 ], [ 77.780535, 12.967124, 0.0 ], [ 77.778596, 12.966765, 0.0 ], [ 77.778657, 12.967719, 0.0 ], [ 77.777451, 12.968224, 0.0 ], [ 77.777173, 12.96782, 0.0 ], [ 77.774188, 12.966293, 0.0 ], [ 77.771984, 12.965923, 0.0 ], [ 77.770689, 12.964233, 0.0 ], [ 77.769878, 12.961746, 0.0 ], [ 77.768229, 12.961128, 0.0 ], [ 77.767962, 12.960343, 0.0 ], [ 77.767299, 12.960066, 0.0 ], [ 77.766993, 12.95936, 0.0 ], [ 77.766603, 12.959216, 0.0 ], [ 77.764881, 12.959896, 0.0 ], [ 77.764567, 12.95949, 0.0 ], [ 77.76456, 12.951914, 0.0 ], [ 77.764924, 12.951078, 0.0 ], [ 77.765524, 12.946593, 0.0 ], [ 77.765253, 12.942657, 0.0 ], [ 77.765512, 12.937016, 0.0 ], [ 77.766321, 12.935081, 0.0 ], [ 77.764651, 12.928775, 0.0 ], [ 77.762288, 12.92838, 0.0 ], [ 77.756821, 12.926394, 0.0 ], [ 77.752215, 12.92526, 0.0 ], [ 77.751441, 12.922142, 0.0 ], [ 77.745636, 12.919842, 0.0 ], [ 77.744748, 12.913804, 0.0 ], [ 77.740796, 12.914546, 0.0 ], [ 77.738617, 12.914305, 0.0 ], [ 77.737506, 12.914722, 0.0 ], [ 77.737285, 12.9135, 0.0 ], [ 77.734391, 12.913076, 0.0 ], [ 77.73435, 12.914183, 0.0 ], [ 77.73207, 12.913924, 0.0 ], [ 77.727569, 12.914413, 0.0 ], [ 77.727613, 12.910887, 0.0 ], [ 77.726244, 12.906603, 0.0 ], [ 77.723005, 12.907243, 0.0 ], [ 77.721275, 12.907944, 0.0 ], [ 77.720778, 12.908207, 0.0 ], [ 77.720765, 12.908908, 0.0 ], [ 77.719658, 12.908783, 0.0 ], [ 77.719699, 12.908135, 0.0 ], [ 77.717856, 12.908374, 0.0 ], [ 77.717913, 12.908872, 0.0 ], [ 77.717639, 12.908966, 0.0 ], [ 77.716114, 12.907371, 0.0 ], [ 77.714228, 12.908084, 0.0 ], [ 77.7113, 12.907863, 0.0 ], [ 77.708353, 12.908146, 0.0 ], [ 77.708261, 12.911778, 0.0 ], [ 77.707742, 12.913558, 0.0 ], [ 77.703472, 12.915198, 0.0 ], [ 77.709317, 12.922132, 0.0 ], [ 77.710573, 12.924228, 0.0 ], [ 77.713615, 12.925913, 0.0 ], [ 77.716733, 12.92652, 0.0 ], [ 77.718091, 12.928104, 0.0 ], [ 77.718847, 12.929428, 0.0 ], [ 77.719096, 12.933098, 0.0 ], [ 77.717969, 12.938981, 0.0 ], [ 77.713403, 12.937919, 0.0 ], [ 77.711827, 12.938092, 0.0 ], [ 77.711901, 12.938453, 0.0 ], [ 77.710841, 12.938919, 0.0 ], [ 77.709613, 12.938529, 0.0 ], [ 77.709495, 12.938868, 0.0 ], [ 77.707777, 12.939449, 0.0 ], [ 77.707435, 12.939175, 0.0 ], [ 77.70643, 12.940244, 0.0 ], [ 77.706211, 12.939932, 0.0 ], [ 77.705723, 12.940148, 0.0 ], [ 77.705943, 12.940591, 0.0 ], [ 77.704746, 12.941443, 0.0 ], [ 77.704392, 12.94075, 0.0 ], [ 77.701352, 12.942307, 0.0 ], [ 77.698274, 12.943144, 0.0 ], [ 77.697675, 12.943854, 0.0 ], [ 77.699396, 12.948386, 0.0 ], [ 77.699732, 12.95125, 0.0 ], [ 77.701151, 12.956943, 0.0 ], [ 77.69906, 12.95707, 0.0 ], [ 77.689688, 12.95543, 0.0 ], [ 77.688298, 12.957121, 0.0 ], [ 77.689008, 12.958926, 0.0 ], [ 77.688767, 12.95913, 0.0 ], [ 77.689144, 12.959474, 0.0 ], [ 77.689066, 12.960861, 0.0 ], [ 77.688271, 12.963278, 0.0 ], [ 77.689312, 12.966076, 0.0 ], [ 77.688569, 12.966804, 0.0 ], [ 77.687733, 12.966435, 0.0 ], [ 77.683018, 12.966069, 0.0 ], [ 77.682177, 12.964276, 0.0 ], [ 77.681501, 12.961583, 0.0 ], [ 77.677517, 12.96234, 0.0 ], [ 77.674967, 12.960663, 0.0 ], [ 77.673397, 12.960699, 0.0 ], [ 77.670356, 12.961735, 0.0 ], [ 77.668311, 12.961649, 0.0 ], [ 77.66536, 12.962261, 0.0 ], [ 77.665039, 12.9621, 0.0 ], [ 77.661982, 12.966835, 0.0 ], [ 77.662704, 12.967438, 0.0 ], [ 77.663569, 12.970653, 0.0 ], [ 77.664276, 12.970622, 0.0 ], [ 77.664452, 12.971757, 0.0 ], [ 77.665263, 12.971877, 0.0 ], [ 77.66561, 12.971554, 0.0 ], [ 77.667026, 12.971322, 0.0 ], [ 77.670255, 12.974852, 0.0 ], [ 77.674432, 12.973483, 0.0 ], [ 77.678104, 12.972704, 0.0 ], [ 77.679338, 12.976519, 0.0 ], [ 77.679373, 12.978486, 0.0 ], [ 77.680383, 12.983516, 0.0 ], [ 77.666375, 12.991579, 0.0 ], [ 77.662998, 12.996896, 0.0 ], [ 77.66622, 12.998642, 0.0 ], [ 77.672365, 13.000442, 0.0 ], [ 77.675637, 13.000678, 0.0 ], [ 77.676834, 13.00027, 0.0 ], [ 77.680411, 13.000377, 0.0 ], [ 77.681343, 13.000025, 0.0 ], [ 77.68537, 12.993996, 0.0 ], [ 77.687183, 12.997105, 0.0 ], [ 77.688502, 12.998513, 0.0 ], [ 77.69072, 12.997259, 0.0 ], [ 77.695172, 12.995543, 0.0 ], [ 77.700357, 12.994284, 0.0 ], [ 77.701059, 12.999974, 0.0 ], [ 77.705492, 13.000089, 0.0 ], [ 77.705662, 13.001062, 0.0 ], [ 77.705258, 13.001117, 0.0 ], [ 77.705905, 13.004357, 0.0 ], [ 77.719187, 13.004565, 0.0 ], [ 77.72346, 13.003583, 0.0 ], [ 77.725488, 13.003563, 0.0 ], [ 77.728102, 13.004182, 0.0 ], [ 77.729271, 13.005441, 0.0 ], [ 77.733668, 13.005636, 0.0 ], [ 77.735521, 13.006496, 0.0 ], [ 77.737361, 13.00684, 0.0 ], [ 77.741145, 13.007256, 0.0 ], [ 77.747198, 13.007007, 0.0 ], [ 77.746971, 13.007096, 0.0 ], [ 77.746925, 13.010438, 0.0 ], [ 77.747364, 13.01163, 0.0 ], [ 77.747826, 13.011566, 0.0 ] ] ], [ [ [ 77.747968, 13.012619, 0.0 ], [ 77.746689, 13.014098, 0.0 ], [ 77.74502, 13.01444, 0.0 ], [ 77.745462, 13.015876, 0.0 ], [ 77.745221, 13.016056, 0.0 ], [ 77.744073, 13.016386, 0.0 ], [ 77.743896, 13.015993, 0.0 ], [ 77.742147, 13.016722, 0.0 ], [ 77.741934, 13.016366, 0.0 ], [ 77.74352, 13.01563, 0.0 ], [ 77.743236, 13.014995, 0.0 ], [ 77.740142, 13.015843, 0.0 ], [ 77.740987, 13.01719, 0.0 ], [ 77.739234, 13.018341, 0.0 ], [ 77.738157, 13.018235, 0.0 ], [ 77.737934, 13.018925, 0.0 ], [ 77.738154, 13.019914, 0.0 ], [ 77.738969, 13.019512, 0.0 ], [ 77.739203, 13.020034, 0.0 ], [ 77.739531, 13.019991, 0.0 ], [ 77.740439, 13.019593, 0.0 ], [ 77.740507, 13.019156, 0.0 ], [ 77.741041, 13.018892, 0.0 ], [ 77.742148, 13.019037, 0.0 ], [ 77.742063, 13.018495, 0.0 ], [ 77.744262, 13.01789, 0.0 ], [ 77.744847, 13.018086, 0.0 ], [ 77.74608, 13.017649, 0.0 ], [ 77.746911, 13.018653, 0.0 ], [ 77.748618, 13.018526, 0.0 ], [ 77.748482, 13.017613, 0.0 ], [ 77.748128, 13.017633, 0.0 ], [ 77.748016, 13.01733, 0.0 ], [ 77.749476, 13.017389, 0.0 ], [ 77.749313, 13.016264, 0.0 ], [ 77.750786, 13.016137, 0.0 ], [ 77.750605, 13.015534, 0.0 ], [ 77.74976, 13.015469, 0.0 ], [ 77.747145, 13.016374, 0.0 ], [ 77.746835, 13.016392, 0.0 ], [ 77.746527, 13.015911, 0.0 ], [ 77.747837, 13.015255, 0.0 ], [ 77.749714, 13.015009, 0.0 ], [ 77.749929, 13.014251, 0.0 ], [ 77.750687, 13.013937, 0.0 ], [ 77.750756, 13.013523, 0.0 ], [ 77.751341, 13.013098, 0.0 ], [ 77.751025, 13.012946, 0.0 ], [ 77.751212, 13.012492, 0.0 ], [ 77.750134, 13.012891, 0.0 ], [ 77.749902, 13.01223, 0.0 ], [ 77.74963, 13.012769, 0.0 ], [ 77.748095, 13.013737, 0.0 ], [ 77.747968, 13.012619, 0.0 ] ] ], [ [ [ 77.769223, 13.00646, 0.0 ], [ 77.768831, 13.006384, 0.0 ], [ 77.767947, 13.005104, 0.0 ], [ 77.766216, 13.005527, 0.0 ], [ 77.766751, 13.00753, 0.0 ], [ 77.769264, 13.006863, 0.0 ], [ 77.769223, 13.00646, 0.0 ] ] ], [ [ [ 77.765633, 13.009106, 0.0 ], [ 77.764417, 13.005905, 0.0 ], [ 77.763982, 13.006248, 0.0 ], [ 77.765023, 13.009221, 0.0 ], [ 77.765633, 13.009106, 0.0 ] ] ], [ [ [ 77.738015, 13.017645, 0.0 ], [ 77.740226, 13.016464, 0.0 ], [ 77.740069, 13.016058, 0.0 ], [ 77.737657, 13.017312, 0.0 ], [ 77.737821, 13.018442, 0.0 ], [ 77.738258, 13.017974, 0.0 ], [ 77.738015, 13.017645, 0.0 ] ] ], [ [ [ 77.74866, 13.019498, 0.0 ], [ 77.748654, 13.018953, 0.0 ], [ 77.747102, 13.018976, 0.0 ], [ 77.747123, 13.019504, 0.0 ], [ 77.74866, 13.019498, 0.0 ] ] ], [ [ [ 77.767575, 13.004898, 0.0 ], [ 77.766854, 13.004651, 0.0 ], [ 77.765977, 13.004801, 0.0 ], [ 77.766127, 13.005218, 0.0 ], [ 77.767575, 13.004898, 0.0 ] ] ] ] } },
{ "type": "Feature", "properties": { "DivisionCode": "", "DivisionName": "South-1", "KGISDivisionID": 8, "OBJECTID": 5, "SHAPE_STArea__": 54398586.236199997, "SHAPE_STLength__": 54706.720816000001, "source": "OpenCity (data.opencity.in)", "publisher": "Bangalore Water Supply and Sewerage Board (BWSSB)" }, "geometry": { "type": "Polygon", "coordinates": [ [ [ 77.613802, 12.9316, 0.0 ], [ 77.625234, 12.91303, 0.0 ], [ 77.623652, 12.912692, 0.0 ], [ 77.622233, 12.912804, 0.0 ], [ 77.621599, 12.911978, 0.0 ], [ 77.621123, 12.909786, 0.0 ], [ 77.621237, 12.907385, 0.0 ], [ 77.620618, 12.906724, 0.0 ], [ 77.618758, 12.905791, 0.0 ], [ 77.617703, 12.902756, 0.0 ], [ 77.619237, 12.902454, 0.0 ], [ 77.618599, 12.900885, 0.0 ], [ 77.619944, 12.900741, 0.0 ], [ 77.619711, 12.898267, 0.0 ], [ 77.618084, 12.897998, 0.0 ], [ 77.61775, 12.89602, 0.0 ], [ 77.617174, 12.895952, 0.0 ], [ 77.617175, 12.894404, 0.0 ], [ 77.616512, 12.894475, 0.0 ], [ 77.616275, 12.892945, 0.0 ], [ 77.616018, 12.892986, 0.0 ], [ 77.615792, 12.889872, 0.0 ], [ 77.615206, 12.88993, 0.0 ], [ 77.615132, 12.889388, 0.0 ], [ 77.613849, 12.889931, 0.0 ], [ 77.613631, 12.889226, 0.0 ], [ 77.613131, 12.889335, 0.0 ], [ 77.612962, 12.888677, 0.0 ], [ 77.612883, 12.888185, 0.0 ], [ 77.615342, 12.887923, 0.0 ], [ 77.615272, 12.886586, 0.0 ], [ 77.615847, 12.885469, 0.0 ], [ 77.615886, 12.884566, 0.0 ], [ 77.61675, 12.884321, 0.0 ], [ 77.616925, 12.883271, 0.0 ], [ 77.617743, 12.883033, 0.0 ], [ 77.617655, 12.881763, 0.0 ], [ 77.616562, 12.879008, 0.0 ], [ 77.61618, 12.876148, 0.0 ], [ 77.613094, 12.876065, 0.0 ], [ 77.609985, 12.876907, 0.0 ], [ 77.609356, 12.876302, 0.0 ], [ 77.608999, 12.874505, 0.0 ], [ 77.607518, 12.873682, 0.0 ], [ 77.606437, 12.873465, 0.0 ], [ 77.603869, 12.874132, 0.0 ], [ 77.602839, 12.876458, 0.0 ], [ 77.602607, 12.876405, 0.0 ], [ 77.602585, 12.87347, 0.0 ], [ 77.600673, 12.866475, 0.0 ], [ 77.599562, 12.866503, 0.0 ], [ 77.599143, 12.866891, 0.0 ], [ 77.597919, 12.866823, 0.0 ], [ 77.597566, 12.869091, 0.0 ], [ 77.596887, 12.869988, 0.0 ], [ 77.596058, 12.872735, 0.0 ], [ 77.594262, 12.873211, 0.0 ], [ 77.591618, 12.865417, 0.0 ], [ 77.593863, 12.864673, 0.0 ], [ 77.596965, 12.864603, 0.0 ], [ 77.59702, 12.864178, 0.0 ], [ 77.597381, 12.864028, 0.0 ], [ 77.596941, 12.862891, 0.0 ], [ 77.597299, 12.862689, 0.0 ], [ 77.596526, 12.860484, 0.0 ], [ 77.599643, 12.860291, 0.0 ], [ 77.599332, 12.857703, 0.0 ], [ 77.601254, 12.857247, 0.0 ], [ 77.602007, 12.857679, 0.0 ], [ 77.602622, 12.856331, 0.0 ], [ 77.603306, 12.856224, 0.0 ], [ 77.604475, 12.85659, 0.0 ], [ 77.605283, 12.857832, 0.0 ], [ 77.606704, 12.857851, 0.0 ], [ 77.606507, 12.854742, 0.0 ], [ 77.607045, 12.852673, 0.0 ], [ 77.608998, 12.851355, 0.0 ], [ 77.609302, 12.84606, 0.0 ], [ 77.607365, 12.8473, 0.0 ], [ 77.604553, 12.848242, 0.0 ], [ 77.599327, 12.848007, 0.0 ], [ 77.595597, 12.849186, 0.0 ], [ 77.594452, 12.84619, 0.0 ], [ 77.593851, 12.840446, 0.0 ], [ 77.592854, 12.837119, 0.0 ], [ 77.591541, 12.83452, 0.0 ], [ 77.590608, 12.834888, 0.0 ], [ 77.590679, 12.835592, 0.0 ], [ 77.589992, 12.835547, 0.0 ], [ 77.589099, 12.835346, 0.0 ], [ 77.587079, 12.833625, 0.0 ], [ 77.582432, 12.836899, 0.0 ], [ 77.579768, 12.838083, 0.0 ], [ 77.572885, 12.839092, 0.0 ], [ 77.565682, 12.83968, 0.0 ], [ 77.562199, 12.83902, 0.0 ], [ 77.559395, 12.840652, 0.0 ], [ 77.557145, 12.841498, 0.0 ], [ 77.557272, 12.843879, 0.0 ], [ 77.554744, 12.84789, 0.0 ], [ 77.553203, 12.847702, 0.0 ], [ 77.553059, 12.847096, 0.0 ], [ 77.551289, 12.847959, 0.0 ], [ 77.544778, 12.847686, 0.0 ], [ 77.544361, 12.848517, 0.0 ], [ 77.545194, 12.848839, 0.0 ], [ 77.545864, 12.849547, 0.0 ], [ 77.545816, 12.850016, 0.0 ], [ 77.544802, 12.850987, 0.0 ], [ 77.545878, 12.852938, 0.0 ], [ 77.546014, 12.854507, 0.0 ], [ 77.546498, 12.855353, 0.0 ], [ 77.545934, 12.856638, 0.0 ], [ 77.546656, 12.857803, 0.0 ], [ 77.545589, 12.859164, 0.0 ], [ 77.54517, 12.858729, 0.0 ], [ 77.545032, 12.859538, 0.0 ], [ 77.546039, 12.861092, 0.0 ], [ 77.54655, 12.863187, 0.0 ], [ 77.547614, 12.863835, 0.0 ], [ 77.547763, 12.864553, 0.0 ], [ 77.548474, 12.864751, 0.0 ], [ 77.546211, 12.86594, 0.0 ], [ 77.546222, 12.866169, 0.0 ], [ 77.541241, 12.867591, 0.0 ], [ 77.539676, 12.867415, 0.0 ], [ 77.539587, 12.86599, 0.0 ], [ 77.538066, 12.8658, 0.0 ], [ 77.538657, 12.864216, 0.0 ], [ 77.538182, 12.864256, 0.0 ], [ 77.538068, 12.863693, 0.0 ], [ 77.53763, 12.86375, 0.0 ], [ 77.537647, 12.864257, 0.0 ], [ 77.535831, 12.864308, 0.0 ], [ 77.535792, 12.863687, 0.0 ], [ 77.536553, 12.863798, 0.0 ], [ 77.536562, 12.863322, 0.0 ], [ 77.536287, 12.863304, 0.0 ], [ 77.536405, 12.861959, 0.0 ], [ 77.53548, 12.861847, 0.0 ], [ 77.535727, 12.860061, 0.0 ], [ 77.53492, 12.859374, 0.0 ], [ 77.532766, 12.859141, 0.0 ], [ 77.532171, 12.857744, 0.0 ], [ 77.531019, 12.857777, 0.0 ], [ 77.531188, 12.858673, 0.0 ], [ 77.530238, 12.858892, 0.0 ], [ 77.529434, 12.856096, 0.0 ], [ 77.528639, 12.855693, 0.0 ], [ 77.528364, 12.854883, 0.0 ], [ 77.527267, 12.855073, 0.0 ], [ 77.527341, 12.856284, 0.0 ], [ 77.525528, 12.857748, 0.0 ], [ 77.525384, 12.861443, 0.0 ], [ 77.52704, 12.862322, 0.0 ], [ 77.527753, 12.863346, 0.0 ], [ 77.527355, 12.868006, 0.0 ], [ 77.525696, 12.869182, 0.0 ], [ 77.524516, 12.86924, 0.0 ], [ 77.52414, 12.871729, 0.0 ], [ 77.525416, 12.872189, 0.0 ], [ 77.527048, 12.872159, 0.0 ], [ 77.528328, 12.878862, 0.0 ], [ 77.529924, 12.882022, 0.0 ], [ 77.530288, 12.882019, 0.0 ], [ 77.53083, 12.880286, 0.0 ], [ 77.531286, 12.880154, 0.0 ], [ 77.531451, 12.880983, 0.0 ], [ 77.532344, 12.880742, 0.0 ], [ 77.532551, 12.881571, 0.0 ], [ 77.53347, 12.881211, 0.0 ], [ 77.53367, 12.880041, 0.0 ], [ 77.535707, 12.879926, 0.0 ], [ 77.53686, 12.879078, 0.0 ], [ 77.537593, 12.880611, 0.0 ], [ 77.537564, 12.883279, 0.0 ], [ 77.535846, 12.884558, 0.0 ], [ 77.53258, 12.885299, 0.0 ], [ 77.533094, 12.887261, 0.0 ], [ 77.534358, 12.887469, 0.0 ], [ 77.534736, 12.886509, 0.0 ], [ 77.537383, 12.885682, 0.0 ], [ 77.538291, 12.884989, 0.0 ], [ 77.539267, 12.883365, 0.0 ], [ 77.539636, 12.881374, 0.0 ], [ 77.54275, 12.880999, 0.0 ], [ 77.5432, 12.88155, 0.0 ], [ 77.544213, 12.880144, 0.0 ], [ 77.545636, 12.879587, 0.0 ], [ 77.54722, 12.883073, 0.0 ], [ 77.560117, 12.887031, 0.0 ], [ 77.561757, 12.888141, 0.0 ], [ 77.568133, 12.893868, 0.0 ], [ 77.571013, 12.89703, 0.0 ], [ 77.57278, 12.899517, 0.0 ], [ 77.573426, 12.90187, 0.0 ], [ 77.57325, 12.906462, 0.0 ], [ 77.596448, 12.90613, 0.0 ], [ 77.600567, 12.907323, 0.0 ], [ 77.599952, 12.911843, 0.0 ], [ 77.599917, 12.91678, 0.0 ], [ 77.600756, 12.93191, 0.0 ], [ 77.601694, 12.93715, 0.0 ], [ 77.606585, 12.936427, 0.0 ], [ 77.608322, 12.935685, 0.0 ], [ 77.613802, 12.9316, 0.0 ] ] ] } },
{ "type": "Feature", "properties": { "DivisionCode": "", "DivisionName": "South West-1", "KGISDivisionID": 4, "OBJECTID": 9, "SHAPE_STArea__": 24654526.604699999, "SHAPE_STLength__": 30827.457717599998, "source": "OpenCity (data.opencity.in)", "publisher": "Bangalore Water Supply and Sewerage Board (BWSSB)" }, "geometry": { "type": "Polygon", "coordinates": [ [ [ 77.584418, 12.997796, 0.0 ], [ 77.586585, 12.997501, 0.0 ], [ 77.589494, 12.995739, 0.0 ], [ 77.589785, 12.995192, 0.0 ], [ 77.5888, 12.993013, 0.0 ], [ 77.588535, 12.991449, 0.0 ], [ 77.588858, 12.986834, 0.0 ], [ 77.589506, 12.985924, 0.0 ], [ 77.588382, 12.98478, 0.0 ], [ 77.592003, 12.983268, 0.0 ], [ 77.592592, 12.982652, 0.0 ], [ 77.594755, 12.981914, 0.0 ], [ 77.59446, 12.981608, 0.0 ], [ 77.594854, 12.980656, 0.0 ], [ 77.595383, 12.980938, 0.0 ], [ 77.596716, 12.980357, 0.0 ], [ 77.597076, 12.981053, 0.0 ], [ 77.597301, 12.980976, 0.0 ], [ 77.599308, 12.976661, 0.0 ], [ 77.595206, 12.973564, 0.0 ], [ 77.593704, 12.971901, 0.0 ], [ 77.594022, 12.971768, 0.0 ], [ 77.595285, 12.966071, 0.0 ], [ 77.595996, 12.965105, 0.0 ], [ 77.596969, 12.964774, 0.0 ], [ 77.595966, 12.963289, 0.0 ], [ 77.594496, 12.961998, 0.0 ], [ 77.59052, 12.951553, 0.0 ], [ 77.586896, 12.952856, 0.0 ], [ 77.585707, 12.953902, 0.0 ], [ 77.584202, 12.954397, 0.0 ], [ 77.581873, 12.949516, 0.0 ], [ 77.579971, 12.948183, 0.0 ], [ 77.580109, 12.934202, 0.0 ], [ 77.577407, 12.93431, 0.0 ], [ 77.577001, 12.93476, 0.0 ], [ 77.575238, 12.934422, 0.0 ], [ 77.575552, 12.933137, 0.0 ], [ 77.573728, 12.933221, 0.0 ], [ 77.573643, 12.92938, 0.0 ], [ 77.569447, 12.929919, 0.0 ], [ 77.566617, 12.929818, 0.0 ], [ 77.563664, 12.930371, 0.0 ], [ 77.564067, 12.932413, 0.0 ], [ 77.562684, 12.933103, 0.0 ], [ 77.562297, 12.934551, 0.0 ], [ 77.56071, 12.935136, 0.0 ], [ 77.558524, 12.937264, 0.0 ], [ 77.55623, 12.938271, 0.0 ], [ 77.551238, 12.938966, 0.0 ], [ 77.549497, 12.937699, 0.0 ], [ 77.546757, 12.934458, 0.0 ], [ 77.543814, 12.935896, 0.0 ], [ 77.543663, 12.935435, 0.0 ], [ 77.541716, 12.936013, 0.0 ], [ 77.540268, 12.935983, 0.0 ], [ 77.539664, 12.933417, 0.0 ], [ 77.534468, 12.936375, 0.0 ], [ 77.530199, 12.943841, 0.0 ], [ 77.530459, 12.944099, 0.0 ], [ 77.531635, 12.944854, 0.0 ], [ 77.532364, 12.944668, 0.0 ], [ 77.534214, 12.945036, 0.0 ], [ 77.535544, 12.945733, 0.0 ], [ 77.54043, 12.945833, 0.0 ], [ 77.541206, 12.950165, 0.0 ], [ 77.542345, 12.949829, 0.0 ], [ 77.542399, 12.95008, 0.0 ], [ 77.54295, 12.949982, 0.0 ], [ 77.54317, 12.951132, 0.0 ], [ 77.545175, 12.950433, 0.0 ], [ 77.546189, 12.951554, 0.0 ], [ 77.548173, 12.951775, 0.0 ], [ 77.548157, 12.951347, 0.0 ], [ 77.549895, 12.950963, 0.0 ], [ 77.549768, 12.950434, 0.0 ], [ 77.54838, 12.950635, 0.0 ], [ 77.548281, 12.950045, 0.0 ], [ 77.54898, 12.949953, 0.0 ], [ 77.548755, 12.949342, 0.0 ], [ 77.549917, 12.949097, 0.0 ], [ 77.550372, 12.952131, 0.0 ], [ 77.551399, 12.95235, 0.0 ], [ 77.549328, 12.955038, 0.0 ], [ 77.545881, 12.961207, 0.0 ], [ 77.543806, 12.964054, 0.0 ], [ 77.548288, 12.965197, 0.0 ], [ 77.549764, 12.966237, 0.0 ], [ 77.551552, 12.968108, 0.0 ], [ 77.556332, 12.969547, 0.0 ], [ 77.559677, 12.968947, 0.0 ], [ 77.561246, 12.967736, 0.0 ], [ 77.562522, 12.967295, 0.0 ], [ 77.564082, 12.968031, 0.0 ], [ 77.566415, 12.970695, 0.0 ], [ 77.567096, 12.970209, 0.0 ], [ 77.567413, 12.968924, 0.0 ], [ 77.568023, 12.968826, 0.0 ], [ 77.568242, 12.970791, 0.0 ], [ 77.569334, 12.973702, 0.0 ], [ 77.568876, 12.976273, 0.0 ], [ 77.569803, 12.980651, 0.0 ], [ 77.57269, 12.98348, 0.0 ], [ 77.575932, 12.985091, 0.0 ], [ 77.58245, 12.995136, 0.0 ], [ 77.583489, 12.995838, 0.0 ], [ 77.584778, 12.996046, 0.0 ], [ 77.584418, 12.997796, 0.0 ] ] ] } },
{ "type": "Feature", "properties": { "DivisionCode": "", "DivisionName": "West-2", "KGISDivisionID": 1, "OBJECTID": 13, "SHAPE_STArea__": 59145291.697099999, "SHAPE_STLength__": 48846.536682999998, "source": "OpenCity (data.opencity.in)", "publisher": "Bangalore Water Supply and Sewerage Board (BWSSB)" }, "geometry": { "type": "MultiPolygon", "coordinates": [ [ [ [ 77.508832, 12.988652, 0.0 ], [ 77.509446, 12.988121, 0.0 ], [ 77.51101, 12.988352, 0.0 ], [ 77.513681, 12.987663, 0.0 ], [ 77.516587, 12.988219, 0.0 ], [ 77.518656, 12.987512, 0.0 ], [ 77.519487, 12.987542, 0.0 ], [ 77.519682, 12.988144, 0.0 ], [ 77.520181, 12.988214, 0.0 ], [ 77.519988, 12.987682, 0.0 ], [ 77.520404, 12.986921, 0.0 ], [ 77.5194, 12.987277, 0.0 ], [ 77.518788, 12.984, 0.0 ], [ 77.517409, 12.981931, 0.0 ], [ 77.517363, 12.981429, 0.0 ], [ 77.518395, 12.980794, 0.0 ], [ 77.518577, 12.980085, 0.0 ], [ 77.518882, 12.980047, 0.0 ], [ 77.519171, 12.978553, 0.0 ], [ 77.518563, 12.975532, 0.0 ], [ 77.517854, 12.973685, 0.0 ], [ 77.516968, 12.968803, 0.0 ], [ 77.517111, 12.961951, 0.0 ], [ 77.515906, 12.961885, 0.0 ], [ 77.515658, 12.960213, 0.0 ], [ 77.51452, 12.957761, 0.0 ], [ 77.513293, 12.958289, 0.0 ], [ 77.512262, 12.959593, 0.0 ], [ 77.511881, 12.959589, 0.0 ], [ 77.511537, 12.959176, 0.0 ], [ 77.511718, 12.958192, 0.0 ], [ 77.511428, 12.955376, 0.0 ], [ 77.504752, 12.957681, 0.0 ], [ 77.50281, 12.956656, 0.0 ], [ 77.500531, 12.953453, 0.0 ], [ 77.499413, 12.950913, 0.0 ], [ 77.500924, 12.949704, 0.0 ], [ 77.501524, 12.948413, 0.0 ], [ 77.508568, 12.938289, 0.0 ], [ 77.511601, 12.937231, 0.0 ], [ 77.512956, 12.935536, 0.0 ], [ 77.515725, 12.936202, 0.0 ], [ 77.518674, 12.936428, 0.0 ], [ 77.520541, 12.937072, 0.0 ], [ 77.523838, 12.939971, 0.0 ], [ 77.526325, 12.943519, 0.0 ], [ 77.528131, 12.945451, 0.0 ], [ 77.529521, 12.944728, 0.0 ], [ 77.530199, 12.943841, 0.0 ], [ 77.531552, 12.941401, 0.0 ], [ 77.531201, 12.940463, 0.0 ], [ 77.531808, 12.939064, 0.0 ], [ 77.531325, 12.935404, 0.0 ], [ 77.531825, 12.928058, 0.0 ], [ 77.533337, 12.928209, 0.0 ], [ 77.5351, 12.929514, 0.0 ], [ 77.535151, 12.927408, 0.0 ], [ 77.536994, 12.926713, 0.0 ], [ 77.536855, 12.924274, 0.0 ], [ 77.538234, 12.923717, 0.0 ], [ 77.538163, 12.920397, 0.0 ], [ 77.532341, 12.920516, 0.0 ], [ 77.530177, 12.92088, 0.0 ], [ 77.528525, 12.921563, 0.0 ], [ 77.52856, 12.920701, 0.0 ], [ 77.529215, 12.919485, 0.0 ], [ 77.528071, 12.913815, 0.0 ], [ 77.528427, 12.913588, 0.0 ], [ 77.52737, 12.910312, 0.0 ], [ 77.526826, 12.906645, 0.0 ], [ 77.524868, 12.906667, 0.0 ], [ 77.524663, 12.906397, 0.0 ], [ 77.525841, 12.905631, 0.0 ], [ 77.525695, 12.904051, 0.0 ], [ 77.528862, 12.905057, 0.0 ], [ 77.531194, 12.904276, 0.0 ], [ 77.532177, 12.905027, 0.0 ], [ 77.534049, 12.904762, 0.0 ], [ 77.534161, 12.903421, 0.0 ], [ 77.534509, 12.903363, 0.0 ], [ 77.534456, 12.899223, 0.0 ], [ 77.532653, 12.897979, 0.0 ], [ 77.531096, 12.89467, 0.0 ], [ 77.52914, 12.89541, 0.0 ], [ 77.526332, 12.895499, 0.0 ], [ 77.525975, 12.895629, 0.0 ], [ 77.525887, 12.896253, 0.0 ], [ 77.525298, 12.895708, 0.0 ], [ 77.524689, 12.895759, 0.0 ], [ 77.524517, 12.896234, 0.0 ], [ 77.524833, 12.896275, 0.0 ], [ 77.525053, 12.897294, 0.0 ], [ 77.524216, 12.897839, 0.0 ], [ 77.522562, 12.897606, 0.0 ], [ 77.521506, 12.898061, 0.0 ], [ 77.520346, 12.897948, 0.0 ], [ 77.514914, 12.895857, 0.0 ], [ 77.513683, 12.894979, 0.0 ], [ 77.512971, 12.893638, 0.0 ], [ 77.503714, 12.893556, 0.0 ], [ 77.498955, 12.894492, 0.0 ], [ 77.49839, 12.893422, 0.0 ], [ 77.497431, 12.893926, 0.0 ], [ 77.496226, 12.894047, 0.0 ], [ 77.494848, 12.893628, 0.0 ], [ 77.494648, 12.892754, 0.0 ], [ 77.492247, 12.893212, 0.0 ], [ 77.491236, 12.894443, 0.0 ], [ 77.490451, 12.894177, 0.0 ], [ 77.489795, 12.893277, 0.0 ], [ 77.489303, 12.893552, 0.0 ], [ 77.488621, 12.893273, 0.0 ], [ 77.486984, 12.893605, 0.0 ], [ 77.481804, 12.89137, 0.0 ], [ 77.48155, 12.890171, 0.0 ], [ 77.481798, 12.889557, 0.0 ], [ 77.481053, 12.890145, 0.0 ], [ 77.479308, 12.88979, 0.0 ], [ 77.478975, 12.89227, 0.0 ], [ 77.47588, 12.894522, 0.0 ], [ 77.474868, 12.895791, 0.0 ], [ 77.473492, 12.896642, 0.0 ], [ 77.472371, 12.896842, 0.0 ], [ 77.470406, 12.894418, 0.0 ], [ 77.469643, 12.892837, 0.0 ], [ 77.469249, 12.887397, 0.0 ], [ 77.460345, 12.898461, 0.0 ], [ 77.459826, 12.902145, 0.0 ], [ 77.459905, 12.905047, 0.0 ], [ 77.461051, 12.90526, 0.0 ], [ 77.462174, 12.906158, 0.0 ], [ 77.465099, 12.905919, 0.0 ], [ 77.465937, 12.906176, 0.0 ], [ 77.466431, 12.906623, 0.0 ], [ 77.466836, 12.908657, 0.0 ], [ 77.467554, 12.909864, 0.0 ], [ 77.467161, 12.91153, 0.0 ], [ 77.467191, 12.913568, 0.0 ], [ 77.46929, 12.92201, 0.0 ], [ 77.469282, 12.926827, 0.0 ], [ 77.467186, 12.927857, 0.0 ], [ 77.464877, 12.930996, 0.0 ], [ 77.465525, 12.935503, 0.0 ], [ 77.467187, 12.938047, 0.0 ], [ 77.467419, 12.940741, 0.0 ], [ 77.468628, 12.944598, 0.0 ], [ 77.46988, 12.945038, 0.0 ], [ 77.470763, 12.94957, 0.0 ], [ 77.471462, 12.955947, 0.0 ], [ 77.47151, 12.963126, 0.0 ], [ 77.472284, 12.963672, 0.0 ], [ 77.473486, 12.966986, 0.0 ], [ 77.473272, 12.967102, 0.0 ], [ 77.475017, 12.970042, 0.0 ], [ 77.474837, 12.975671, 0.0 ], [ 77.473473, 12.983726, 0.0 ], [ 77.469866, 12.986351, 0.0 ], [ 77.468405, 12.986709, 0.0 ], [ 77.470116, 12.989855, 0.0 ], [ 77.478701, 12.985829, 0.0 ], [ 77.483587, 12.984963, 0.0 ], [ 77.497421, 12.988678, 0.0 ], [ 77.49951, 12.988913, 0.0 ], [ 77.499524, 12.988584, 0.0 ], [ 77.50336, 12.99015, 0.0 ], [ 77.504631, 12.990181, 0.0 ], [ 77.508832, 12.988652, 0.0 ] ] ], [ [ [ 77.530829, 12.944359, 0.0 ], [ 77.530798, 12.944337, 0.0 ], [ 77.530832, 12.944361, 0.0 ], [ 77.530829, 12.944359, 0.0 ] ] ] ] } },
{ "type": "Feature", "properties": { "DivisionCode": "", "DivisionName": "North West-2", "KGISDivisionID": 9, "OBJECTID": 14, "SHAPE_STArea__": 39165849.102499999, "SHAPE_STLength__": 55246.5092544, "source": "OpenCity (data.opencity.in)", "publisher": "Bangalore Water Supply and Sewerage Board (BWSSB)" }, "geometry": { "type": "MultiPolygon", "coordinates": [ [ [ [ 77.525872, 13.083602, 0.0 ], [ 77.525817, 13.082903, 0.0 ], [ 77.527377, 13.082946, 0.0 ], [ 77.528409, 13.08219, 0.0 ], [ 77.529411, 13.082167, 0.0 ], [ 77.530493, 13.082762, 0.0 ], [ 77.530221, 13.081917, 0.0 ], [ 77.530328, 13.077874, 0.0 ], [ 77.530783, 13.077833, 0.0 ], [ 77.531002, 13.07629, 0.0 ], [ 77.531516, 13.075417, 0.0 ], [ 77.531229, 13.074151, 0.0 ], [ 77.531684, 13.072559, 0.0 ], [ 77.531505, 13.07191, 0.0 ], [ 77.532822, 13.070824, 0.0 ], [ 77.53886, 13.069142, 0.0 ], [ 77.541231, 13.067992, 0.0 ], [ 77.541774, 13.067219, 0.0 ], [ 77.543145, 13.062904, 0.0 ], [ 77.546185, 13.056215, 0.0 ], [ 77.546797, 13.056764, 0.0 ], [ 77.550969, 13.053239, 0.0 ], [ 77.550592, 13.050237, 0.0 ], [ 77.549806, 13.047981, 0.0 ], [ 77.553781, 13.043834, 0.0 ], [ 77.544816, 13.040987, 0.0 ], [ 77.542951, 13.039283, 0.0 ], [ 77.544362, 13.03767, 0.0 ], [ 77.545524, 13.035661, 0.0 ], [ 77.550804, 13.024518, 0.0 ], [ 77.551281, 13.022311, 0.0 ], [ 77.543219, 13.027069, 0.0 ], [ 77.54342, 13.02794, 0.0 ], [ 77.543159, 13.028263, 0.0 ], [ 77.542234, 13.028426, 0.0 ], [ 77.541669, 13.027949, 0.0 ], [ 77.530417, 13.03439, 0.0 ], [ 77.526183, 13.03568, 0.0 ], [ 77.518463, 13.039946, 0.0 ], [ 77.516089, 13.041854, 0.0 ], [ 77.511334, 13.043527, 0.0 ], [ 77.507962, 13.045148, 0.0 ], [ 77.496651, 13.048966, 0.0 ], [ 77.495745, 13.044463, 0.0 ], [ 77.495953, 13.044313, 0.0 ], [ 77.495785, 13.041689, 0.0 ], [ 77.496449, 13.041426, 0.0 ], [ 77.496183, 13.03936, 0.0 ], [ 77.496702, 13.038264, 0.0 ], [ 77.497744, 13.038104, 0.0 ], [ 77.497707, 13.037636, 0.0 ], [ 77.498327, 13.036922, 0.0 ], [ 77.498356, 13.03554, 0.0 ], [ 77.499366, 13.035372, 0.0 ], [ 77.498794, 13.033637, 0.0 ], [ 77.49725, 13.031636, 0.0 ], [ 77.494998, 13.023367, 0.0 ], [ 77.495545, 13.022515, 0.0 ], [ 77.494078, 13.023218, 0.0 ], [ 77.49293, 13.025816, 0.0 ], [ 77.492695, 13.027116, 0.0 ], [ 77.492075, 13.027858, 0.0 ], [ 77.483698, 13.029407, 0.0 ], [ 77.479579, 13.029233, 0.0 ], [ 77.477285, 13.031173, 0.0 ], [ 77.477038, 13.031433, 0.0 ], [ 77.477254, 13.031978, 0.0 ], [ 77.478811, 13.034997, 0.0 ], [ 77.479924, 13.035681, 0.0 ], [ 77.48008, 13.037934, 0.0 ], [ 77.482554, 13.040592, 0.0 ], [ 77.481676, 13.041072, 0.0 ], [ 77.4815, 13.042665, 0.0 ], [ 77.480965, 13.043211, 0.0 ], [ 77.480049, 13.04339, 0.0 ], [ 77.479568, 13.044666, 0.0 ], [ 77.479821, 13.045793, 0.0 ], [ 77.47953, 13.046389, 0.0 ], [ 77.480075, 13.048509, 0.0 ], [ 77.482539, 13.048021, 0.0 ], [ 77.490956, 13.045064, 0.0 ], [ 77.492018, 13.048138, 0.0 ], [ 77.492271, 13.051284, 0.0 ], [ 77.491696, 13.054415, 0.0 ], [ 77.490674, 13.056785, 0.0 ], [ 77.490829, 13.058425, 0.0 ], [ 77.491989, 13.060845, 0.0 ], [ 77.492974, 13.062143, 0.0 ], [ 77.492586, 13.065519, 0.0 ], [ 77.492997, 13.072945, 0.0 ], [ 77.49432, 13.076416, 0.0 ], [ 77.502038, 13.079687, 0.0 ], [ 77.506436, 13.080699, 0.0 ], [ 77.509417, 13.080912, 0.0 ], [ 77.514936, 13.080349, 0.0 ], [ 77.520867, 13.079146, 0.0 ], [ 77.521252, 13.080357, 0.0 ], [ 77.52208, 13.08028, 0.0 ], [ 77.522834, 13.080955, 0.0 ], [ 77.523207, 13.08092, 0.0 ], [ 77.523561, 13.083497, 0.0 ], [ 77.525872, 13.083602, 0.0 ] ] ], [ [ [ 77.526437, 13.015761, 0.0 ], [ 77.528385, 13.015425, 0.0 ], [ 77.527833, 13.014729, 0.0 ], [ 77.528104, 13.014185, 0.0 ], [ 77.528032, 13.012804, 0.0 ], [ 77.528931, 13.01195, 0.0 ], [ 77.528408, 13.011382, 0.0 ], [ 77.529648, 13.010044, 0.0 ], [ 77.52945, 13.00973, 0.0 ], [ 77.530228, 13.009522, 0.0 ], [ 77.529921, 13.005769, 0.0 ], [ 77.529538, 13.005002, 0.0 ], [ 77.5296, 13.00433, 0.0 ], [ 77.528965, 13.003309, 0.0 ], [ 77.529214, 13.002396, 0.0 ], [ 77.527815, 13.001275, 0.0 ], [ 77.527877, 12.999447, 0.0 ], [ 77.528468, 12.998911, 0.0 ], [ 77.52504, 12.998298, 0.0 ], [ 77.52473, 12.996912, 0.0 ], [ 77.523706, 12.995673, 0.0 ], [ 77.523091, 12.994119, 0.0 ], [ 77.523027, 12.993202, 0.0 ], [ 77.522201, 12.992192, 0.0 ], [ 77.521651, 12.992034, 0.0 ], [ 77.520249, 12.988223, 0.0 ], [ 77.519682, 12.988144, 0.0 ], [ 77.519487, 12.987542, 0.0 ], [ 77.518656, 12.987512, 0.0 ], [ 77.516587, 12.988219, 0.0 ], [ 77.514075, 12.987659, 0.0 ], [ 77.51101, 12.988352, 0.0 ], [ 77.509446, 12.988121, 0.0 ], [ 77.508443, 12.988949, 0.0 ], [ 77.50399, 12.990224, 0.0 ], [ 77.502379, 12.989884, 0.0 ], [ 77.499524, 12.988584, 0.0 ], [ 77.49951, 12.988913, 0.0 ], [ 77.497421, 12.988678, 0.0 ], [ 77.484731, 12.985164, 0.0 ], [ 77.483216, 12.984977, 0.0 ], [ 77.478701, 12.985829, 0.0 ], [ 77.470116, 12.989855, 0.0 ], [ 77.471331, 12.993856, 0.0 ], [ 77.471253, 12.994604, 0.0 ], [ 77.472465, 12.996814, 0.0 ], [ 77.472882, 12.996726, 0.0 ], [ 77.473567, 12.998871, 0.0 ], [ 77.474202, 12.999218, 0.0 ], [ 77.477289, 12.998776, 0.0 ], [ 77.482008, 12.997237, 0.0 ], [ 77.486063, 12.997411, 0.0 ], [ 77.488613, 12.998028, 0.0 ], [ 77.491099, 12.999686, 0.0 ], [ 77.492213, 13.000854, 0.0 ], [ 77.493288, 13.00077, 0.0 ], [ 77.497312, 13.005927, 0.0 ], [ 77.498066, 13.00762, 0.0 ], [ 77.499238, 13.008575, 0.0 ], [ 77.500827, 13.007943, 0.0 ], [ 77.50113, 13.009442, 0.0 ], [ 77.506189, 13.009939, 0.0 ], [ 77.504999, 13.004643, 0.0 ], [ 77.507222, 13.004231, 0.0 ], [ 77.505978, 12.998926, 0.0 ], [ 77.51094, 12.997378, 0.0 ], [ 77.511019, 12.997994, 0.0 ], [ 77.513828, 12.997594, 0.0 ], [ 77.513986, 12.998837, 0.0 ], [ 77.516217, 12.9984, 0.0 ], [ 77.516225, 12.998805, 0.0 ], [ 77.516934, 12.999014, 0.0 ], [ 77.518035, 12.99819, 0.0 ], [ 77.518743, 12.998387, 0.0 ], [ 77.51939, 12.999291, 0.0 ], [ 77.519405, 12.999833, 0.0 ], [ 77.518176, 13.001392, 0.0 ], [ 77.518292, 13.002887, 0.0 ], [ 77.517772, 13.003717, 0.0 ], [ 77.517289, 13.008299, 0.0 ], [ 77.518251, 13.009146, 0.0 ], [ 77.519083, 13.010927, 0.0 ], [ 77.519645, 13.010785, 0.0 ], [ 77.52, 13.01254, 0.0 ], [ 77.521221, 13.01263, 0.0 ], [ 77.520953, 13.013393, 0.0 ], [ 77.522682, 13.013941, 0.0 ], [ 77.522257, 13.015418, 0.0 ], [ 77.524418, 13.015673, 0.0 ], [ 77.526146, 13.01548, 0.0 ], [ 77.526437, 13.015761, 0.0 ] ] ] ] } },
{ "type": "Feature", "properties": { "DivisionCode": "", "DivisionName": "North East", "KGISDivisionID": 16, "OBJECTID": 15, "SHAPE_STArea__": 26986155.663600001, "SHAPE_STLength__": 31510.580877, "source": "OpenCity (data.opencity.in)", "publisher": "Bangalore Water Supply and Sewerage Board (BWSSB)" }, "geometry": { "type": "Polygon", "coordinates": [ [ [ 77.584646, 13.043545, 0.0 ], [ 77.588342, 13.042603, 0.0 ], [ 77.590301, 13.042737, 0.0 ], [ 77.589566, 13.040065, 0.0 ], [ 77.589206, 13.036378, 0.0 ], [ 77.588184, 13.033153, 0.0 ], [ 77.585936, 13.028084, 0.0 ], [ 77.584905, 13.024404, 0.0 ], [ 77.584092, 13.024549, 0.0 ], [ 77.583854, 13.023517, 0.0 ], [ 77.584579, 13.023124, 0.0 ], [ 77.583894, 13.019849, 0.0 ], [ 77.583966, 13.014537, 0.0 ], [ 77.586434, 13.014356, 0.0 ], [ 77.587733, 13.013856, 0.0 ], [ 77.59061, 13.010024, 0.0 ], [ 77.593263, 13.011787, 0.0 ], [ 77.594089, 13.011971, 0.0 ], [ 77.593599, 13.012785, 0.0 ], [ 77.593449, 13.014194, 0.0 ], [ 77.591388, 13.01577, 0.0 ], [ 77.592306, 13.019204, 0.0 ], [ 77.594743, 13.018564, 0.0 ], [ 77.594596, 13.017631, 0.0 ], [ 77.597656, 13.016246, 0.0 ], [ 77.600278, 13.0212, 0.0 ], [ 77.604393, 13.020031, 0.0 ], [ 77.603419, 13.018336, 0.0 ], [ 77.603277, 13.017087, 0.0 ], [ 77.602049, 13.014514, 0.0 ], [ 77.601683, 13.012873, 0.0 ], [ 77.602819, 13.012716, 0.0 ], [ 77.602277, 13.01035, 0.0 ], [ 77.602395, 13.007736, 0.0 ], [ 77.600622, 13.005254, 0.0 ], [ 77.600735, 13.004998, 0.0 ], [ 77.599993, 13.004676, 0.0 ], [ 77.599259, 13.003111, 0.0 ], [ 77.600939, 13.002353, 0.0 ], [ 77.600799, 13.001529, 0.0 ], [ 77.599436, 13.001141, 0.0 ], [ 77.600127, 12.999172, 0.0 ], [ 77.601127, 12.999117, 0.0 ], [ 77.604611, 12.996649, 0.0 ], [ 77.604129, 12.994808, 0.0 ], [ 77.605772, 12.994136, 0.0 ], [ 77.604185, 12.992105, 0.0 ], [ 77.602959, 12.991819, 0.0 ], [ 77.601163, 12.991944, 0.0 ], [ 77.598899, 12.99271, 0.0 ], [ 77.594694, 12.995379, 0.0 ], [ 77.593438, 12.995535, 0.0 ], [ 77.589785, 12.995192, 0.0 ], [ 77.589494, 12.995739, 0.0 ], [ 77.586585, 12.997501, 0.0 ], [ 77.584392, 12.997797, 0.0 ], [ 77.584778, 12.996046, 0.0 ], [ 77.583489, 12.995838, 0.0 ], [ 77.58245, 12.995136, 0.0 ], [ 77.578791, 12.989257, 0.0 ], [ 77.575509, 12.984727, 0.0 ], [ 77.573004, 12.983697, 0.0 ], [ 77.570224, 12.981209, 0.0 ], [ 77.570033, 12.981361, 0.0 ], [ 77.570501, 12.982115, 0.0 ], [ 77.569103, 12.98267, 0.0 ], [ 77.566375, 12.981941, 0.0 ], [ 77.561644, 12.982641, 0.0 ], [ 77.560779, 12.98664, 0.0 ], [ 77.561852, 12.987242, 0.0 ], [ 77.561153, 12.988692, 0.0 ], [ 77.561026, 12.989766, 0.0 ], [ 77.561646, 12.990092, 0.0 ], [ 77.560158, 12.992486, 0.0 ], [ 77.560103, 12.993954, 0.0 ], [ 77.560404, 12.9946, 0.0 ], [ 77.558747, 12.995336, 0.0 ], [ 77.559059, 12.995857, 0.0 ], [ 77.558368, 12.995733, 0.0 ], [ 77.556863, 12.996127, 0.0 ], [ 77.557015, 12.998047, 0.0 ], [ 77.557386, 12.998396, 0.0 ], [ 77.558956, 13.004519, 0.0 ], [ 77.559385, 13.004421, 0.0 ], [ 77.559486, 13.004826, 0.0 ], [ 77.561534, 13.004409, 0.0 ], [ 77.559375, 13.010833, 0.0 ], [ 77.558071, 13.013254, 0.0 ], [ 77.55579, 13.015813, 0.0 ], [ 77.554146, 13.015125, 0.0 ], [ 77.552982, 13.019404, 0.0 ], [ 77.551281, 13.022311, 0.0 ], [ 77.550804, 13.024518, 0.0 ], [ 77.549076, 13.028366, 0.0 ], [ 77.545524, 13.035661, 0.0 ], [ 77.544362, 13.03767, 0.0 ], [ 77.542951, 13.039283, 0.0 ], [ 77.544816, 13.040987, 0.0 ], [ 77.5549, 13.044241, 0.0 ], [ 77.558389, 13.043715, 0.0 ], [ 77.561325, 13.04385, 0.0 ], [ 77.565283, 13.046382, 0.0 ], [ 77.568056, 13.04689, 0.0 ], [ 77.578545, 13.047721, 0.0 ], [ 77.57951, 13.047317, 0.0 ], [ 77.584646, 13.043545, 0.0 ] ] ] } },
{ "type": "Feature", "properties": { "DivisionCode": "", "DivisionName": "South East-2", "KGISDivisionID": 5, "OBJECTID": 18, "SHAPE_STArea__": 66388042.943099998, "SHAPE_STLength__": 97253.622900600007, "source": "OpenCity (data.opencity.in)", "publisher": "Bangalore Water Supply and Sewerage Board (BWSSB)" }, "geometry": { "type": "MultiPolygon", "coordinates": [ [ [ [ 77.692693, 12.949788, 0.0 ], [ 77.695999, 12.949447, 0.0 ], [ 77.699034, 12.947792, 0.0 ], [ 77.697675, 12.943854, 0.0 ], [ 77.695566, 12.944416, 0.0 ], [ 77.693258, 12.943506, 0.0 ], [ 77.690679, 12.939872, 0.0 ], [ 77.689962, 12.939472, 0.0 ], [ 77.688465, 12.939102, 0.0 ], [ 77.68801, 12.941294, 0.0 ], [ 77.685996, 12.940725, 0.0 ], [ 77.68517, 12.939596, 0.0 ], [ 77.685479, 12.938317, 0.0 ], [ 77.682942, 12.937485, 0.0 ], [ 77.681732, 12.935911, 0.0 ], [ 77.681328, 12.934779, 0.0 ], [ 77.681335, 12.93324, 0.0 ], [ 77.681911, 12.932775, 0.0 ], [ 77.682, 12.931566, 0.0 ], [ 77.68121, 12.931507, 0.0 ], [ 77.681407, 12.930233, 0.0 ], [ 77.680701, 12.93012, 0.0 ], [ 77.680716, 12.929888, 0.0 ], [ 77.681925, 12.929981, 0.0 ], [ 77.681884, 12.928893, 0.0 ], [ 77.681342, 12.928742, 0.0 ], [ 77.681414, 12.928334, 0.0 ], [ 77.66485, 12.92069, 0.0 ], [ 77.662106, 12.917555, 0.0 ], [ 77.661391, 12.915566, 0.0 ], [ 77.660418, 12.91497, 0.0 ], [ 77.660854, 12.913695, 0.0 ], [ 77.660131, 12.910137, 0.0 ], [ 77.65893, 12.909571, 0.0 ], [ 77.657088, 12.909684, 0.0 ], [ 77.656614, 12.909211, 0.0 ], [ 77.65475, 12.901799, 0.0 ], [ 77.654918, 12.900159, 0.0 ], [ 77.656515, 12.899932, 0.0 ], [ 77.656366, 12.899072, 0.0 ], [ 77.656883, 12.898856, 0.0 ], [ 77.656324, 12.897642, 0.0 ], [ 77.65549, 12.89781, 0.0 ], [ 77.654526, 12.896586, 0.0 ], [ 77.653993, 12.895506, 0.0 ], [ 77.653914, 12.894526, 0.0 ], [ 77.652663, 12.894617, 0.0 ], [ 77.650515, 12.893382, 0.0 ], [ 77.649078, 12.890963, 0.0 ], [ 77.646433, 12.891226, 0.0 ], [ 77.646532, 12.891958, 0.0 ], [ 77.644656, 12.892255, 0.0 ], [ 77.644077, 12.891974, 0.0 ], [ 77.643793, 12.890563, 0.0 ], [ 77.640162, 12.88926, 0.0 ], [ 77.642375, 12.885737, 0.0 ], [ 77.64675, 12.888238, 0.0 ], [ 77.649135, 12.888624, 0.0 ], [ 77.649606, 12.887707, 0.0 ], [ 77.649356, 12.883687, 0.0 ], [ 77.649934, 12.883003, 0.0 ], [ 77.651755, 12.882442, 0.0 ], [ 77.65234, 12.881925, 0.0 ], [ 77.654028, 12.878421, 0.0 ], [ 77.653343, 12.878025, 0.0 ], [ 77.653447, 12.876563, 0.0 ], [ 77.65382, 12.876347, 0.0 ], [ 77.654802, 12.876901, 0.0 ], [ 77.654085, 12.873567, 0.0 ], [ 77.657997, 12.872622, 0.0 ], [ 77.657642, 12.870407, 0.0 ], [ 77.656431, 12.870553, 0.0 ], [ 77.656415, 12.869788, 0.0 ], [ 77.653534, 12.869694, 0.0 ], [ 77.652869, 12.870536, 0.0 ], [ 77.647213, 12.870608, 0.0 ], [ 77.643097, 12.871194, 0.0 ], [ 77.641582, 12.871697, 0.0 ], [ 77.640734, 12.873068, 0.0 ], [ 77.639322, 12.87669, 0.0 ], [ 77.636989, 12.879858, 0.0 ], [ 77.63713, 12.881908, 0.0 ], [ 77.635519, 12.881969, 0.0 ], [ 77.633815, 12.882509, 0.0 ], [ 77.635172, 12.884656, 0.0 ], [ 77.635271, 12.886136, 0.0 ], [ 77.634953, 12.887643, 0.0 ], [ 77.634629, 12.887618, 0.0 ], [ 77.634512, 12.888295, 0.0 ], [ 77.634051, 12.888319, 0.0 ], [ 77.633853, 12.888738, 0.0 ], [ 77.631365, 12.888553, 0.0 ], [ 77.631402, 12.889593, 0.0 ], [ 77.630495, 12.889677, 0.0 ], [ 77.630352, 12.889956, 0.0 ], [ 77.627436, 12.888833, 0.0 ], [ 77.625685, 12.88902, 0.0 ], [ 77.625599, 12.88855, 0.0 ], [ 77.619892, 12.888856, 0.0 ], [ 77.619259, 12.888136, 0.0 ], [ 77.618236, 12.884751, 0.0 ], [ 77.615867, 12.885193, 0.0 ], [ 77.615272, 12.886586, 0.0 ], [ 77.615342, 12.887923, 0.0 ], [ 77.612883, 12.888185, 0.0 ], [ 77.613131, 12.889335, 0.0 ], [ 77.613631, 12.889226, 0.0 ], [ 77.613849, 12.889931, 0.0 ], [ 77.615132, 12.889388, 0.0 ], [ 77.615206, 12.88993, 0.0 ], [ 77.615792, 12.889872, 0.0 ], [ 77.616018, 12.892986, 0.0 ], [ 77.616275, 12.892945, 0.0 ], [ 77.616512, 12.894475, 0.0 ], [ 77.617175, 12.894404, 0.0 ], [ 77.617174, 12.895952, 0.0 ], [ 77.61775, 12.89602, 0.0 ], [ 77.618084, 12.897998, 0.0 ], [ 77.619711, 12.898267, 0.0 ], [ 77.619944, 12.900741, 0.0 ], [ 77.618599, 12.900885, 0.0 ], [ 77.619237, 12.902454, 0.0 ], [ 77.617703, 12.902756, 0.0 ], [ 77.618758, 12.905791, 0.0 ], [ 77.620618, 12.906724, 0.0 ], [ 77.621237, 12.907385, 0.0 ], [ 77.621123, 12.909786, 0.0 ], [ 77.621599, 12.911978, 0.0 ], [ 77.622233, 12.912804, 0.0 ], [ 77.623652, 12.912692, 0.0 ], [ 77.625234, 12.91303, 0.0 ], [ 77.61392, 12.931461, 0.0 ], [ 77.608251, 12.942032, 0.0 ], [ 77.607223, 12.945289, 0.0 ], [ 77.608172, 12.944804, 0.0 ], [ 77.610739, 12.944981, 0.0 ], [ 77.610482, 12.943874, 0.0 ], [ 77.614168, 12.942609, 0.0 ], [ 77.615467, 12.943081, 0.0 ], [ 77.615618, 12.943733, 0.0 ], [ 77.616235, 12.943856, 0.0 ], [ 77.616913, 12.944887, 0.0 ], [ 77.616163, 12.94605, 0.0 ], [ 77.616058, 12.946939, 0.0 ], [ 77.616421, 12.948427, 0.0 ], [ 77.616974, 12.949104, 0.0 ], [ 77.61949, 12.947703, 0.0 ], [ 77.620812, 12.950081, 0.0 ], [ 77.623699, 12.947361, 0.0 ], [ 77.623936, 12.946428, 0.0 ], [ 77.62624, 12.945164, 0.0 ], [ 77.626521, 12.943989, 0.0 ], [ 77.626161, 12.941695, 0.0 ], [ 77.626881, 12.941347, 0.0 ], [ 77.627762, 12.938265, 0.0 ], [ 77.633869, 12.938515, 0.0 ], [ 77.635281, 12.938991, 0.0 ], [ 77.636147, 12.939724, 0.0 ], [ 77.640112, 12.946077, 0.0 ], [ 77.640847, 12.947782, 0.0 ], [ 77.639622, 12.949279, 0.0 ], [ 77.640426, 12.949361, 0.0 ], [ 77.643181, 12.948424, 0.0 ], [ 77.643846, 12.947796, 0.0 ], [ 77.643715, 12.947286, 0.0 ], [ 77.644995, 12.946661, 0.0 ], [ 77.645575, 12.945731, 0.0 ], [ 77.652905, 12.940615, 0.0 ], [ 77.654866, 12.939887, 0.0 ], [ 77.657104, 12.939501, 0.0 ], [ 77.658254, 12.937616, 0.0 ], [ 77.659766, 12.937513, 0.0 ], [ 77.661248, 12.9377, 0.0 ], [ 77.662464, 12.941312, 0.0 ], [ 77.66371, 12.941976, 0.0 ], [ 77.664919, 12.941984, 0.0 ], [ 77.66714, 12.940833, 0.0 ], [ 77.668605, 12.941158, 0.0 ], [ 77.668798, 12.940044, 0.0 ], [ 77.669976, 12.939826, 0.0 ], [ 77.671972, 12.941596, 0.0 ], [ 77.677293, 12.941199, 0.0 ], [ 77.679087, 12.943222, 0.0 ], [ 77.679547, 12.942546, 0.0 ], [ 77.679246, 12.941659, 0.0 ], [ 77.680019, 12.941566, 0.0 ], [ 77.680908, 12.942245, 0.0 ], [ 77.681313, 12.941737, 0.0 ], [ 77.682543, 12.941843, 0.0 ], [ 77.682631, 12.942456, 0.0 ], [ 77.683519, 12.943271, 0.0 ], [ 77.685158, 12.944239, 0.0 ], [ 77.686869, 12.944631, 0.0 ], [ 77.68691, 12.945371, 0.0 ], [ 77.687772, 12.945684, 0.0 ], [ 77.688937, 12.947772, 0.0 ], [ 77.689104, 12.94936, 0.0 ], [ 77.689481, 12.949563, 0.0 ], [ 77.689666, 12.951499, 0.0 ], [ 77.690015, 12.95207, 0.0 ], [ 77.690821, 12.951913, 0.0 ], [ 77.69111, 12.950982, 0.0 ], [ 77.692693, 12.949788, 0.0 ] ] ], [ [ [ 77.671997, 12.846365, 0.0 ], [ 77.675175, 12.847678, 0.0 ], [ 77.678207, 12.847056, 0.0 ], [ 77.682132, 12.846757, 0.0 ], [ 77.684309, 12.846169, 0.0 ], [ 77.688156, 12.843878, 0.0 ], [ 77.683172, 12.836809, 0.0 ], [ 77.680687, 12.836918, 0.0 ], [ 77.679267, 12.835957, 0.0 ], [ 77.681978, 12.827845, 0.0 ], [ 77.683339, 12.825315, 0.0 ], [ 77.689959, 12.817837, 0.0 ], [ 77.699702, 12.805623, 0.0 ], [ 77.699734, 12.805214, 0.0 ], [ 77.69822, 12.803758, 0.0 ], [ 77.696065, 12.802359, 0.0 ], [ 77.690868, 12.800921, 0.0 ], [ 77.689506, 12.800989, 0.0 ], [ 77.688225, 12.801851, 0.0 ], [ 77.686305, 12.801865, 0.0 ], [ 77.680474, 12.804902, 0.0 ], [ 77.67819, 12.806401, 0.0 ], [ 77.677738, 12.807329, 0.0 ], [ 77.675418, 12.808757, 0.0 ], [ 77.674942, 12.810066, 0.0 ], [ 77.671493, 12.815586, 0.0 ], [ 77.671901, 12.817977, 0.0 ], [ 77.673069, 12.819778, 0.0 ], [ 77.672193, 12.820496, 0.0 ], [ 77.669688, 12.821609, 0.0 ], [ 77.669784, 12.822995, 0.0 ], [ 77.668749, 12.824563, 0.0 ], [ 77.668898, 12.827407, 0.0 ], [ 77.6659, 12.828263, 0.0 ], [ 77.665507, 12.829477, 0.0 ], [ 77.665358, 12.832832, 0.0 ], [ 77.661448, 12.839861, 0.0 ], [ 77.661253, 12.840716, 0.0 ], [ 77.660317, 12.841743, 0.0 ], [ 77.660141, 12.845115, 0.0 ], [ 77.659239, 12.845221, 0.0 ], [ 77.657939, 12.848079, 0.0 ], [ 77.65749, 12.850897, 0.0 ], [ 77.660474, 12.853273, 0.0 ], [ 77.66068, 12.853798, 0.0 ], [ 77.662918, 12.854519, 0.0 ], [ 77.664287, 12.856069, 0.0 ], [ 77.671997, 12.846365, 0.0 ] ] ], [ [ [ 77.649793, 13.004869, 0.0 ], [ 77.650128, 13.005062, 0.0 ], [ 77.655617, 13.004317, 0.0 ], [ 77.658657, 13.002894, 0.0 ], [ 77.660463, 13.001219, 0.0 ], [ 77.666375, 12.991579, 0.0 ], [ 77.680383, 12.983516, 0.0 ], [ 77.679373, 12.978486, 0.0 ], [ 77.679338, 12.976519, 0.0 ], [ 77.678104, 12.972704, 0.0 ], [ 77.674432, 12.973483, 0.0 ], [ 77.670255, 12.974852, 0.0 ], [ 77.667026, 12.971322, 0.0 ], [ 77.66561, 12.971554, 0.0 ], [ 77.665263, 12.971877, 0.0 ], [ 77.664452, 12.971757, 0.0 ], [ 77.664276, 12.970622, 0.0 ], [ 77.663569, 12.970653, 0.0 ], [ 77.662704, 12.967438, 0.0 ], [ 77.661982, 12.966835, 0.0 ], [ 77.665039, 12.9621, 0.0 ], [ 77.66536, 12.962261, 0.0 ], [ 77.668311, 12.961649, 0.0 ], [ 77.670356, 12.961735, 0.0 ], [ 77.673397, 12.960699, 0.0 ], [ 77.674967, 12.960663, 0.0 ], [ 77.677517, 12.96234, 0.0 ], [ 77.681501, 12.961583, 0.0 ], [ 77.682177, 12.964276, 0.0 ], [ 77.683018, 12.966069, 0.0 ], [ 77.687733, 12.966435, 0.0 ], [ 77.688569, 12.966804, 0.0 ], [ 77.689312, 12.966076, 0.0 ], [ 77.688271, 12.963278, 0.0 ], [ 77.689066, 12.960861, 0.0 ], [ 77.689144, 12.959474, 0.0 ], [ 77.688767, 12.95913, 0.0 ], [ 77.689008, 12.958926, 0.0 ], [ 77.688298, 12.957121, 0.0 ], [ 77.689688, 12.95543, 0.0 ], [ 77.680338, 12.954421, 0.0 ], [ 77.672856, 12.957925, 0.0 ], [ 77.666522, 12.958332, 0.0 ], [ 77.661428, 12.959281, 0.0 ], [ 77.657335, 12.959229, 0.0 ], [ 77.6575, 12.960528, 0.0 ], [ 77.657139, 12.96112, 0.0 ], [ 77.657778, 12.963306, 0.0 ], [ 77.656766, 12.963034, 0.0 ], [ 77.649956, 12.963455, 0.0 ], [ 77.64931, 12.965325, 0.0 ], [ 77.650262, 12.967413, 0.0 ], [ 77.649144, 12.967875, 0.0 ], [ 77.648337, 12.966941, 0.0 ], [ 77.648023, 12.967925, 0.0 ], [ 77.646472, 12.964412, 0.0 ], [ 77.645944, 12.965389, 0.0 ], [ 77.644786, 12.96611, 0.0 ], [ 77.644216, 12.966162, 0.0 ], [ 77.64413, 12.965489, 0.0 ], [ 77.641502, 12.966059, 0.0 ], [ 77.641616, 12.963304, 0.0 ], [ 77.638544, 12.965094, 0.0 ], [ 77.636672, 12.967575, 0.0 ], [ 77.63505, 12.967194, 0.0 ], [ 77.63578, 12.965809, 0.0 ], [ 77.6351, 12.965207, 0.0 ], [ 77.633865, 12.965452, 0.0 ], [ 77.633137, 12.968477, 0.0 ], [ 77.634753, 12.968333, 0.0 ], [ 77.632739, 12.975114, 0.0 ], [ 77.631643, 12.976516, 0.0 ], [ 77.628481, 12.978144, 0.0 ], [ 77.631495, 12.981665, 0.0 ], [ 77.629658, 12.981539, 0.0 ], [ 77.626233, 12.982098, 0.0 ], [ 77.622962, 12.981518, 0.0 ], [ 77.622437, 12.983986, 0.0 ], [ 77.622482, 12.987704, 0.0 ], [ 77.633492, 12.990412, 0.0 ], [ 77.634137, 12.991547, 0.0 ], [ 77.634479, 12.993266, 0.0 ], [ 77.643314, 12.991643, 0.0 ], [ 77.643005, 12.992291, 0.0 ], [ 77.643492, 12.993326, 0.0 ], [ 77.643535, 12.99542, 0.0 ], [ 77.642737, 12.995834, 0.0 ], [ 77.641158, 12.998071, 0.0 ], [ 77.638535, 13.002688, 0.0 ], [ 77.636294, 13.003987, 0.0 ], [ 77.636664, 13.004297, 0.0 ], [ 77.643989, 13.005466, 0.0 ], [ 77.649793, 13.004869, 0.0 ] ] ] ] } },
{ "type": "Feature", "properties": { "DivisionCode": "", "DivisionName": "South-2", "KGISDivisionID": 7, "OBJECTID": 19, "SHAPE_STArea__": 40477050.687600002, "SHAPE_STLength__": 64974.153574600001, "source": "OpenCity (data.opencity.in)", "publisher": "Bangalore Water Supply and Sewerage Board (BWSSB)" }, "geometry": { "type": "MultiPolygon", "coordinates": [ [ [ [ 77.673832, 12.893024, 0.0 ], [ 77.672312, 12.884619, 0.0 ], [ 77.673756, 12.884363, 0.0 ], [ 77.674192, 12.883449, 0.0 ], [ 77.674053, 12.881248, 0.0 ], [ 77.673726, 12.879874, 0.0 ], [ 77.671041, 12.880301, 0.0 ], [ 77.673752, 12.876961, 0.0 ], [ 77.674741, 12.875037, 0.0 ], [ 77.675316, 12.872609, 0.0 ], [ 77.672799, 12.86929, 0.0 ], [ 77.672893, 12.868252, 0.0 ], [ 77.671204, 12.867918, 0.0 ], [ 77.667829, 12.866384, 0.0 ], [ 77.666731, 12.866186, 0.0 ], [ 77.664946, 12.863323, 0.0 ], [ 77.665623, 12.863192, 0.0 ], [ 77.665501, 12.862258, 0.0 ], [ 77.665764, 12.862024, 0.0 ], [ 77.66686, 12.862223, 0.0 ], [ 77.669209, 12.861798, 0.0 ], [ 77.668945, 12.860964, 0.0 ], [ 77.668631, 12.86056, 0.0 ], [ 77.668261, 12.860585, 0.0 ], [ 77.668391, 12.860367, 0.0 ], [ 77.665118, 12.860314, 0.0 ], [ 77.664962, 12.859218, 0.0 ], [ 77.664645, 12.85908, 0.0 ], [ 77.664111, 12.857423, 0.0 ], [ 77.663995, 12.855979, 0.0 ], [ 77.66306, 12.855629, 0.0 ], [ 77.662095, 12.856086, 0.0 ], [ 77.661735, 12.854112, 0.0 ], [ 77.66068, 12.853798, 0.0 ], [ 77.660474, 12.853273, 0.0 ], [ 77.65749, 12.850897, 0.0 ], [ 77.657939, 12.848079, 0.0 ], [ 77.659239, 12.845221, 0.0 ], [ 77.660141, 12.845115, 0.0 ], [ 77.660317, 12.841743, 0.0 ], [ 77.661253, 12.840716, 0.0 ], [ 77.663593, 12.835882, 0.0 ], [ 77.661128, 12.834357, 0.0 ], [ 77.657107, 12.835415, 0.0 ], [ 77.657232, 12.835594, 0.0 ], [ 77.655261, 12.836449, 0.0 ], [ 77.651783, 12.837257, 0.0 ], [ 77.651953, 12.837498, 0.0 ], [ 77.650807, 12.838394, 0.0 ], [ 77.650234, 12.838006, 0.0 ], [ 77.649584, 12.839038, 0.0 ], [ 77.648975, 12.839276, 0.0 ], [ 77.647783, 12.838641, 0.0 ], [ 77.646395, 12.838972, 0.0 ], [ 77.646225, 12.839566, 0.0 ], [ 77.644883, 12.83983, 0.0 ], [ 77.640351, 12.839989, 0.0 ], [ 77.641967, 12.843577, 0.0 ], [ 77.643643, 12.849193, 0.0 ], [ 77.643246, 12.850407, 0.0 ], [ 77.643332, 12.851191, 0.0 ], [ 77.643027, 12.851143, 0.0 ], [ 77.642927, 12.852686, 0.0 ], [ 77.643029, 12.859456, 0.0 ], [ 77.641346, 12.864961, 0.0 ], [ 77.638871, 12.864901, 0.0 ], [ 77.638833, 12.863414, 0.0 ], [ 77.637492, 12.86286, 0.0 ], [ 77.636525, 12.863092, 0.0 ], [ 77.635351, 12.862908, 0.0 ], [ 77.634654, 12.862592, 0.0 ], [ 77.634394, 12.861862, 0.0 ], [ 77.633048, 12.86156, 0.0 ], [ 77.631559, 12.86072, 0.0 ], [ 77.630681, 12.86002, 0.0 ], [ 77.630287, 12.858381, 0.0 ], [ 77.629025, 12.856753, 0.0 ], [ 77.620328, 12.858102, 0.0 ], [ 77.619617, 12.858148, 0.0 ], [ 77.619506, 12.857536, 0.0 ], [ 77.617007, 12.857531, 0.0 ], [ 77.61647, 12.855747, 0.0 ], [ 77.614426, 12.854283, 0.0 ], [ 77.612751, 12.851828, 0.0 ], [ 77.608998, 12.851355, 0.0 ], [ 77.607045, 12.852673, 0.0 ], [ 77.606507, 12.854742, 0.0 ], [ 77.606704, 12.857851, 0.0 ], [ 77.605283, 12.857832, 0.0 ], [ 77.604475, 12.85659, 0.0 ], [ 77.603306, 12.856224, 0.0 ], [ 77.602622, 12.856331, 0.0 ], [ 77.602007, 12.857679, 0.0 ], [ 77.601254, 12.857247, 0.0 ], [ 77.599332, 12.857703, 0.0 ], [ 77.599643, 12.860291, 0.0 ], [ 77.596526, 12.860484, 0.0 ], [ 77.597299, 12.862689, 0.0 ], [ 77.596941, 12.862892, 0.0 ], [ 77.597381, 12.864028, 0.0 ], [ 77.59702, 12.864178, 0.0 ], [ 77.596966, 12.864603, 0.0 ], [ 77.593863, 12.864673, 0.0 ], [ 77.591618, 12.865417, 0.0 ], [ 77.594262, 12.873211, 0.0 ], [ 77.596058, 12.872735, 0.0 ], [ 77.596887, 12.869988, 0.0 ], [ 77.597566, 12.869091, 0.0 ], [ 77.597919, 12.866823, 0.0 ], [ 77.599143, 12.866891, 0.0 ], [ 77.599562, 12.866503, 0.0 ], [ 77.600673, 12.866475, 0.0 ], [ 77.602585, 12.87347, 0.0 ], [ 77.602607, 12.876405, 0.0 ], [ 77.602839, 12.876458, 0.0 ], [ 77.603869, 12.874132, 0.0 ], [ 77.606438, 12.873465, 0.0 ], [ 77.607518, 12.873682, 0.0 ], [ 77.608999, 12.874505, 0.0 ], [ 77.609356, 12.876302, 0.0 ], [ 77.609985, 12.876907, 0.0 ], [ 77.613094, 12.876065, 0.0 ], [ 77.61618, 12.876148, 0.0 ], [ 77.616562, 12.879008, 0.0 ], [ 77.617655, 12.881763, 0.0 ], [ 77.617743, 12.883033, 0.0 ], [ 77.616925, 12.883271, 0.0 ], [ 77.616751, 12.884321, 0.0 ], [ 77.615886, 12.884566, 0.0 ], [ 77.615868, 12.885193, 0.0 ], [ 77.618236, 12.884751, 0.0 ], [ 77.619259, 12.888136, 0.0 ], [ 77.619892, 12.888856, 0.0 ], [ 77.625599, 12.88855, 0.0 ], [ 77.625685, 12.88902, 0.0 ], [ 77.627436, 12.888833, 0.0 ], [ 77.630352, 12.889956, 0.0 ], [ 77.630495, 12.889677, 0.0 ], [ 77.631402, 12.889593, 0.0 ], [ 77.631365, 12.888553, 0.0 ], [ 77.633853, 12.888738, 0.0 ], [ 77.634051, 12.888319, 0.0 ], [ 77.634513, 12.888295, 0.0 ], [ 77.634629, 12.887618, 0.0 ], [ 77.634953, 12.887643, 0.0 ], [ 77.635218, 12.884858, 0.0 ], [ 77.633815, 12.882509, 0.0 ], [ 77.635519, 12.881969, 0.0 ], [ 77.63713, 12.881908, 0.0 ], [ 77.636989, 12.879858, 0.0 ], [ 77.639322, 12.87669, 0.0 ], [ 77.640734, 12.873068, 0.0 ], [ 77.641582, 12.871697, 0.0 ], [ 77.643097, 12.871194, 0.0 ], [ 77.647213, 12.870608, 0.0 ], [ 77.65287, 12.870536, 0.0 ], [ 77.653534, 12.869695, 0.0 ], [ 77.656415, 12.869788, 0.0 ], [ 77.656432, 12.870553, 0.0 ], [ 77.657642, 12.870407, 0.0 ], [ 77.657997, 12.872622, 0.0 ], [ 77.654085, 12.873567, 0.0 ], [ 77.654802, 12.876901, 0.0 ], [ 77.65382, 12.876347, 0.0 ], [ 77.653448, 12.876563, 0.0 ], [ 77.653343, 12.878025, 0.0 ], [ 77.654028, 12.878421, 0.0 ], [ 77.652384, 12.881848, 0.0 ], [ 77.651755, 12.882442, 0.0 ], [ 77.649934, 12.883003, 0.0 ], [ 77.649356, 12.883687, 0.0 ], [ 77.649606, 12.887707, 0.0 ], [ 77.649136, 12.888624, 0.0 ], [ 77.64675, 12.888238, 0.0 ], [ 77.642375, 12.885737, 0.0 ], [ 77.640162, 12.88926, 0.0 ], [ 77.643793, 12.890563, 0.0 ], [ 77.644077, 12.891974, 0.0 ], [ 77.644656, 12.892255, 0.0 ], [ 77.646532, 12.891958, 0.0 ], [ 77.646433, 12.891226, 0.0 ], [ 77.649078, 12.890963, 0.0 ], [ 77.650279, 12.893198, 0.0 ], [ 77.652663, 12.894617, 0.0 ], [ 77.656288, 12.893792, 0.0 ], [ 77.660168, 12.894716, 0.0 ], [ 77.673832, 12.893024, 0.0 ] ] ], [ [ [ 77.600365, 12.949738, 0.0 ], [ 77.603464, 12.950571, 0.0 ], [ 77.605718, 12.950187, 0.0 ], [ 77.606215, 12.948795, 0.0 ], [ 77.605938, 12.948408, 0.0 ], [ 77.605211, 12.947826, 0.0 ], [ 77.602928, 12.948197, 0.0 ], [ 77.602683, 12.946856, 0.0 ], [ 77.603264, 12.946522, 0.0 ], [ 77.604601, 12.944183, 0.0 ], [ 77.607589, 12.944037, 0.0 ], [ 77.608251, 12.942032, 0.0 ], [ 77.61392, 12.931461, 0.0 ], [ 77.607908, 12.935926, 0.0 ], [ 77.606585, 12.936427, 0.0 ], [ 77.601694, 12.93715, 0.0 ], [ 77.600756, 12.93191, 0.0 ], [ 77.599917, 12.91678, 0.0 ], [ 77.599952, 12.911843, 0.0 ], [ 77.600568, 12.907323, 0.0 ], [ 77.596448, 12.90613, 0.0 ], [ 77.57325, 12.906462, 0.0 ], [ 77.57289, 12.911777, 0.0 ], [ 77.573565, 12.914973, 0.0 ], [ 77.573549, 12.917537, 0.0 ], [ 77.577371, 12.917575, 0.0 ], [ 77.578212, 12.917177, 0.0 ], [ 77.580283, 12.917132, 0.0 ], [ 77.579971, 12.948183, 0.0 ], [ 77.581873, 12.949516, 0.0 ], [ 77.584202, 12.954397, 0.0 ], [ 77.585707, 12.953902, 0.0 ], [ 77.586896, 12.952856, 0.0 ], [ 77.59052, 12.951553, 0.0 ], [ 77.59228, 12.956182, 0.0 ], [ 77.600365, 12.949738, 0.0 ] ] ] ] } },
{ "type": "Feature", "properties": { "DivisionCode": "", "DivisionName": "South East-1", "KGISDivisionID": 6, "OBJECTID": 22, "SHAPE_STArea__": 49275294.067100003, "SHAPE_STLength__": 64803.496315900004, "source": "OpenCity (data.opencity.in)", "publisher": "Bangalore Water Supply and Sewerage Board (BWSSB)" }, "geometry": { "type": "MultiPolygon", "coordinates": [ [ [ [ 77.622437, 12.983986, 0.0 ], [ 77.622962, 12.981518, 0.0 ], [ 77.626233, 12.982098, 0.0 ], [ 77.629658, 12.981539, 0.0 ], [ 77.631495, 12.981665, 0.0 ], [ 77.628481, 12.978144, 0.0 ], [ 77.631643, 12.976516, 0.0 ], [ 77.632739, 12.975114, 0.0 ], [ 77.634753, 12.968333, 0.0 ], [ 77.633137, 12.968477, 0.0 ], [ 77.633926, 12.965393, 0.0 ], [ 77.6351, 12.965207, 0.0 ], [ 77.63578, 12.965809, 0.0 ], [ 77.63505, 12.967194, 0.0 ], [ 77.636672, 12.967575, 0.0 ], [ 77.638544, 12.965094, 0.0 ], [ 77.641616, 12.963304, 0.0 ], [ 77.641502, 12.966059, 0.0 ], [ 77.64413, 12.965489, 0.0 ], [ 77.644216, 12.966162, 0.0 ], [ 77.644786, 12.96611, 0.0 ], [ 77.645944, 12.965389, 0.0 ], [ 77.646472, 12.964412, 0.0 ], [ 77.648023, 12.967925, 0.0 ], [ 77.648337, 12.966941, 0.0 ], [ 77.649144, 12.967875, 0.0 ], [ 77.650262, 12.967413, 0.0 ], [ 77.64931, 12.965325, 0.0 ], [ 77.649956, 12.963455, 0.0 ], [ 77.656766, 12.963034, 0.0 ], [ 77.657778, 12.963306, 0.0 ], [ 77.657139, 12.96112, 0.0 ], [ 77.6575, 12.960528, 0.0 ], [ 77.657335, 12.959229, 0.0 ], [ 77.661428, 12.959281, 0.0 ], [ 77.666522, 12.958332, 0.0 ], [ 77.672856, 12.957925, 0.0 ], [ 77.680338, 12.954421, 0.0 ], [ 77.689384, 12.955376, 0.0 ], [ 77.69906, 12.95707, 0.0 ], [ 77.701151, 12.956943, 0.0 ], [ 77.699732, 12.95125, 0.0 ], [ 77.699396, 12.948386, 0.0 ], [ 77.699034, 12.947792, 0.0 ], [ 77.695999, 12.949447, 0.0 ], [ 77.692693, 12.949788, 0.0 ], [ 77.69111, 12.950982, 0.0 ], [ 77.690821, 12.951913, 0.0 ], [ 77.690015, 12.95207, 0.0 ], [ 77.689666, 12.951499, 0.0 ], [ 77.689481, 12.949563, 0.0 ], [ 77.689104, 12.94936, 0.0 ], [ 77.688937, 12.947772, 0.0 ], [ 77.687772, 12.945684, 0.0 ], [ 77.68691, 12.945371, 0.0 ], [ 77.686869, 12.944631, 0.0 ], [ 77.685158, 12.944239, 0.0 ], [ 77.683519, 12.943271, 0.0 ], [ 77.682631, 12.942456, 0.0 ], [ 77.682543, 12.941843, 0.0 ], [ 77.681313, 12.941737, 0.0 ], [ 77.680908, 12.942245, 0.0 ], [ 77.680019, 12.941566, 0.0 ], [ 77.679246, 12.941659, 0.0 ], [ 77.679547, 12.942546, 0.0 ], [ 77.679087, 12.943222, 0.0 ], [ 77.677293, 12.941199, 0.0 ], [ 77.671972, 12.941596, 0.0 ], [ 77.669976, 12.939826, 0.0 ], [ 77.668798, 12.940044, 0.0 ], [ 77.668605, 12.941158, 0.0 ], [ 77.66714, 12.940833, 0.0 ], [ 77.664919, 12.941984, 0.0 ], [ 77.66371, 12.941976, 0.0 ], [ 77.662464, 12.941312, 0.0 ], [ 77.661248, 12.9377, 0.0 ], [ 77.659766, 12.937513, 0.0 ], [ 77.658254, 12.937616, 0.0 ], [ 77.657104, 12.939501, 0.0 ], [ 77.654866, 12.939887, 0.0 ], [ 77.652905, 12.940615, 0.0 ], [ 77.645575, 12.945731, 0.0 ], [ 77.644995, 12.946661, 0.0 ], [ 77.643715, 12.947286, 0.0 ], [ 77.643846, 12.947796, 0.0 ], [ 77.643181, 12.948424, 0.0 ], [ 77.640426, 12.949361, 0.0 ], [ 77.639622, 12.949279, 0.0 ], [ 77.640847, 12.947782, 0.0 ], [ 77.640112, 12.946077, 0.0 ], [ 77.636289, 12.939897, 0.0 ], [ 77.635281, 12.938991, 0.0 ], [ 77.634142, 12.938553, 0.0 ], [ 77.627762, 12.938265, 0.0 ], [ 77.626881, 12.941347, 0.0 ], [ 77.626161, 12.941695, 0.0 ], [ 77.626521, 12.943989, 0.0 ], [ 77.62624, 12.945164, 0.0 ], [ 77.623936, 12.946428, 0.0 ], [ 77.623699, 12.947361, 0.0 ], [ 77.620812, 12.950081, 0.0 ], [ 77.61949, 12.947703, 0.0 ], [ 77.617041, 12.949151, 0.0 ], [ 77.616421, 12.948427, 0.0 ], [ 77.61609, 12.946402, 0.0 ], [ 77.616934, 12.944943, 0.0 ], [ 77.616235, 12.943856, 0.0 ], [ 77.615618, 12.943733, 0.0 ], [ 77.615467, 12.943081, 0.0 ], [ 77.614168, 12.942609, 0.0 ], [ 77.610846, 12.94367, 0.0 ], [ 77.610482, 12.943874, 0.0 ], [ 77.610739, 12.944981, 0.0 ], [ 77.608172, 12.944804, 0.0 ], [ 77.607223, 12.945289, 0.0 ], [ 77.607589, 12.944037, 0.0 ], [ 77.604601, 12.944183, 0.0 ], [ 77.603264, 12.946522, 0.0 ], [ 77.602683, 12.946856, 0.0 ], [ 77.602903, 12.948179, 0.0 ], [ 77.605211, 12.947826, 0.0 ], [ 77.606215, 12.948795, 0.0 ], [ 77.605718, 12.950187, 0.0 ], [ 77.603464, 12.950571, 0.0 ], [ 77.600317, 12.949757, 0.0 ], [ 77.59228, 12.956182, 0.0 ], [ 77.594496, 12.961998, 0.0 ], [ 77.596074, 12.96342, 0.0 ], [ 77.597141, 12.965337, 0.0 ], [ 77.600209, 12.967913, 0.0 ], [ 77.601799, 12.976591, 0.0 ], [ 77.613869, 12.973728, 0.0 ], [ 77.615386, 12.978917, 0.0 ], [ 77.614107, 12.979558, 0.0 ], [ 77.614517, 12.98087, 0.0 ], [ 77.615453, 12.980879, 0.0 ], [ 77.616093, 12.982826, 0.0 ], [ 77.617358, 12.983621, 0.0 ], [ 77.620241, 12.987235, 0.0 ], [ 77.622513, 12.987504, 0.0 ], [ 77.622437, 12.983986, 0.0 ] ] ], [ [ [ 77.701022, 12.942429, 0.0 ], [ 77.704392, 12.94075, 0.0 ], [ 77.704746, 12.941443, 0.0 ], [ 77.705943, 12.940591, 0.0 ], [ 77.705723, 12.940148, 0.0 ], [ 77.706211, 12.939932, 0.0 ], [ 77.70643, 12.940244, 0.0 ], [ 77.707435, 12.939175, 0.0 ], [ 77.707777, 12.939449, 0.0 ], [ 77.709495, 12.938868, 0.0 ], [ 77.709613, 12.938529, 0.0 ], [ 77.710841, 12.938919, 0.0 ], [ 77.711492, 12.938769, 0.0 ], [ 77.711901, 12.938453, 0.0 ], [ 77.711827, 12.938092, 0.0 ], [ 77.715069, 12.938111, 0.0 ], [ 77.717969, 12.938981, 0.0 ], [ 77.719096, 12.933098, 0.0 ], [ 77.718847, 12.929428, 0.0 ], [ 77.717678, 12.927556, 0.0 ], [ 77.716733, 12.92652, 0.0 ], [ 77.713615, 12.925913, 0.0 ], [ 77.710573, 12.924228, 0.0 ], [ 77.709317, 12.922132, 0.0 ], [ 77.703472, 12.915198, 0.0 ], [ 77.707742, 12.913558, 0.0 ], [ 77.708261, 12.911778, 0.0 ], [ 77.708353, 12.908146, 0.0 ], [ 77.706864, 12.901954, 0.0 ], [ 77.702928, 12.904072, 0.0 ], [ 77.702412, 12.903557, 0.0 ], [ 77.697853, 12.904545, 0.0 ], [ 77.697659, 12.904179, 0.0 ], [ 77.696326, 12.903986, 0.0 ], [ 77.69334, 12.904481, 0.0 ], [ 77.693007, 12.904144, 0.0 ], [ 77.691527, 12.903976, 0.0 ], [ 77.691096, 12.904532, 0.0 ], [ 77.690925, 12.905525, 0.0 ], [ 77.688335, 12.905485, 0.0 ], [ 77.688122, 12.9062, 0.0 ], [ 77.687243, 12.906566, 0.0 ], [ 77.686354, 12.906342, 0.0 ], [ 77.686499, 12.90538, 0.0 ], [ 77.685994, 12.905391, 0.0 ], [ 77.68596, 12.904595, 0.0 ], [ 77.685742, 12.904583, 0.0 ], [ 77.686319, 12.903879, 0.0 ], [ 77.687582, 12.903339, 0.0 ], [ 77.687451, 12.902478, 0.0 ], [ 77.685385, 12.902425, 0.0 ], [ 77.685265, 12.901873, 0.0 ], [ 77.682359, 12.901346, 0.0 ], [ 77.682277, 12.899959, 0.0 ], [ 77.679853, 12.897598, 0.0 ], [ 77.677336, 12.894321, 0.0 ], [ 77.675727, 12.893805, 0.0 ], [ 77.674081, 12.893701, 0.0 ], [ 77.673832, 12.893024, 0.0 ], [ 77.660416, 12.894712, 0.0 ], [ 77.656288, 12.893792, 0.0 ], [ 77.653914, 12.894526, 0.0 ], [ 77.653993, 12.895506, 0.0 ], [ 77.654526, 12.896586, 0.0 ], [ 77.65549, 12.89781, 0.0 ], [ 77.656324, 12.897642, 0.0 ], [ 77.656883, 12.898856, 0.0 ], [ 77.656366, 12.899072, 0.0 ], [ 77.656515, 12.899932, 0.0 ], [ 77.654918, 12.900159, 0.0 ], [ 77.65475, 12.901799, 0.0 ], [ 77.656614, 12.909211, 0.0 ], [ 77.657088, 12.909684, 0.0 ], [ 77.65893, 12.909571, 0.0 ], [ 77.660131, 12.910137, 0.0 ], [ 77.660854, 12.913695, 0.0 ], [ 77.660418, 12.91497, 0.0 ], [ 77.661391, 12.915566, 0.0 ], [ 77.662106, 12.917555, 0.0 ], [ 77.66485, 12.92069, 0.0 ], [ 77.681414, 12.928334, 0.0 ], [ 77.681342, 12.928742, 0.0 ], [ 77.681884, 12.928893, 0.0 ], [ 77.681925, 12.929981, 0.0 ], [ 77.680716, 12.929888, 0.0 ], [ 77.680701, 12.93012, 0.0 ], [ 77.681407, 12.930233, 0.0 ], [ 77.68121, 12.931507, 0.0 ], [ 77.682, 12.931566, 0.0 ], [ 77.681911, 12.932775, 0.0 ], [ 77.681335, 12.93324, 0.0 ], [ 77.681328, 12.934779, 0.0 ], [ 77.681732, 12.935911, 0.0 ], [ 77.682942, 12.937485, 0.0 ], [ 77.685479, 12.938317, 0.0 ], [ 77.68517, 12.939596, 0.0 ], [ 77.685996, 12.940725, 0.0 ], [ 77.68801, 12.941294, 0.0 ], [ 77.688465, 12.939102, 0.0 ], [ 77.689962, 12.939472, 0.0 ], [ 77.690679, 12.939872, 0.0 ], [ 77.693258, 12.943506, 0.0 ], [ 77.695566, 12.944416, 0.0 ], [ 77.69694, 12.944195, 0.0 ], [ 77.698579, 12.942936, 0.0 ], [ 77.701022, 12.942429, 0.0 ] ] ] ] } },
{ "type": "Feature", "properties": { "DivisionCode": "", "DivisionName": "Central", "KGISDivisionID": 15, "OBJECTID": 23, "SHAPE_STArea__": 16648902.3806, "SHAPE_STLength__": 27156.578463900001, "source": "OpenCity (data.opencity.in)", "publisher": "Bangalore Water Supply and Sewerage Board (BWSSB)" }, "geometry": { "type": "Polygon", "coordinates": [ [ [ 77.623064, 13.022386, 0.0 ], [ 77.62347, 13.020363, 0.0 ], [ 77.623401, 13.01832, 0.0 ], [ 77.620724, 13.011586, 0.0 ], [ 77.620775, 13.010129, 0.0 ], [ 77.621124, 13.009399, 0.0 ], [ 77.621938, 13.00853, 0.0 ], [ 77.630998, 13.004859, 0.0 ], [ 77.63452, 13.004053, 0.0 ], [ 77.636664, 13.004297, 0.0 ], [ 77.636405, 13.003878, 0.0 ], [ 77.638535, 13.002688, 0.0 ], [ 77.641158, 12.998071, 0.0 ], [ 77.642737, 12.995834, 0.0 ], [ 77.643535, 12.99542, 0.0 ], [ 77.643492, 12.993326, 0.0 ], [ 77.643005, 12.992291, 0.0 ], [ 77.643314, 12.991643, 0.0 ], [ 77.634479, 12.993266, 0.0 ], [ 77.634137, 12.991547, 0.0 ], [ 77.633492, 12.990412, 0.0 ], [ 77.627262, 12.988971, 0.0 ], [ 77.622513, 12.987504, 0.0 ], [ 77.620241, 12.987235, 0.0 ], [ 77.617358, 12.983621, 0.0 ], [ 77.616093, 12.982826, 0.0 ], [ 77.615453, 12.980879, 0.0 ], [ 77.614517, 12.98087, 0.0 ], [ 77.614107, 12.979558, 0.0 ], [ 77.615386, 12.978917, 0.0 ], [ 77.613869, 12.973728, 0.0 ], [ 77.601799, 12.976591, 0.0 ], [ 77.600209, 12.967913, 0.0 ], [ 77.596875, 12.964905, 0.0 ], [ 77.596152, 12.965011, 0.0 ], [ 77.595285, 12.966071, 0.0 ], [ 77.594022, 12.971768, 0.0 ], [ 77.593704, 12.971901, 0.0 ], [ 77.595206, 12.973564, 0.0 ], [ 77.599308, 12.976661, 0.0 ], [ 77.597301, 12.980976, 0.0 ], [ 77.597076, 12.981053, 0.0 ], [ 77.596716, 12.980357, 0.0 ], [ 77.595383, 12.980938, 0.0 ], [ 77.594854, 12.980656, 0.0 ], [ 77.59446, 12.981608, 0.0 ], [ 77.594755, 12.981914, 0.0 ], [ 77.592592, 12.982652, 0.0 ], [ 77.592003, 12.983268, 0.0 ], [ 77.588382, 12.98478, 0.0 ], [ 77.589506, 12.985924, 0.0 ], [ 77.588858, 12.986834, 0.0 ], [ 77.588535, 12.991449, 0.0 ], [ 77.589403, 12.994414, 0.0 ], [ 77.589785, 12.995192, 0.0 ], [ 77.594295, 12.995491, 0.0 ], [ 77.596199, 12.994654, 0.0 ], [ 77.596104, 12.994268, 0.0 ], [ 77.598899, 12.99271, 0.0 ], [ 77.600118, 12.992285, 0.0 ], [ 77.60208, 12.991808, 0.0 ], [ 77.604185, 12.992105, 0.0 ], [ 77.605772, 12.994136, 0.0 ], [ 77.604129, 12.994808, 0.0 ], [ 77.604611, 12.996649, 0.0 ], [ 77.601127, 12.999117, 0.0 ], [ 77.600127, 12.999172, 0.0 ], [ 77.599436, 13.001141, 0.0 ], [ 77.600799, 13.001529, 0.0 ], [ 77.600939, 13.002353, 0.0 ], [ 77.599259, 13.003111, 0.0 ], [ 77.599993, 13.004676, 0.0 ], [ 77.600735, 13.004998, 0.0 ], [ 77.600622, 13.005254, 0.0 ], [ 77.602395, 13.007736, 0.0 ], [ 77.602277, 13.01035, 0.0 ], [ 77.602819, 13.012716, 0.0 ], [ 77.601683, 13.012873, 0.0 ], [ 77.602049, 13.014514, 0.0 ], [ 77.603277, 13.017087, 0.0 ], [ 77.603419, 13.018336, 0.0 ], [ 77.604393, 13.020031, 0.0 ], [ 77.605991, 13.019747, 0.0 ], [ 77.605618, 13.017325, 0.0 ], [ 77.608386, 13.017405, 0.0 ], [ 77.609243, 13.018244, 0.0 ], [ 77.609789, 13.018301, 0.0 ], [ 77.611413, 13.019855, 0.0 ], [ 77.612294, 13.022365, 0.0 ], [ 77.612685, 13.022357, 0.0 ], [ 77.612715, 13.021542, 0.0 ], [ 77.613536, 13.021455, 0.0 ], [ 77.613644, 13.021741, 0.0 ], [ 77.61449, 13.021721, 0.0 ], [ 77.614769, 13.022072, 0.0 ], [ 77.615648, 13.024067, 0.0 ], [ 77.615709, 13.026029, 0.0 ], [ 77.614832, 13.026775, 0.0 ], [ 77.616378, 13.028081, 0.0 ], [ 77.621517, 13.025238, 0.0 ], [ 77.623064, 13.022386, 0.0 ] ] ] } },
{ "type": "Feature", "properties": { "DivisionCode": "", "DivisionName": "South West-2", "KGISDivisionID": 3, "OBJECTID": 24, "SHAPE_STArea__": 43979697.560900003, "SHAPE_STLength__": 59139.493595200001, "source": "OpenCity (data.opencity.in)", "publisher": "Bangalore Water Supply and Sewerage Board (BWSSB)" }, "geometry": { "type": "MultiPolygon", "coordinates": [ [ [ [ 77.539976, 12.933938, 0.0 ], [ 77.540268, 12.935983, 0.0 ], [ 77.541716, 12.936013, 0.0 ], [ 77.543663, 12.935435, 0.0 ], [ 77.543814, 12.935896, 0.0 ], [ 77.546757, 12.934458, 0.0 ], [ 77.549497, 12.937699, 0.0 ], [ 77.551533, 12.939051, 0.0 ], [ 77.556505, 12.938215, 0.0 ], [ 77.558406, 12.937336, 0.0 ], [ 77.559747, 12.936337, 0.0 ], [ 77.56071, 12.935136, 0.0 ], [ 77.562297, 12.934551, 0.0 ], [ 77.562684, 12.933103, 0.0 ], [ 77.564067, 12.932413, 0.0 ], [ 77.563664, 12.930372, 0.0 ], [ 77.566617, 12.929818, 0.0 ], [ 77.569447, 12.929919, 0.0 ], [ 77.573643, 12.92938, 0.0 ], [ 77.573728, 12.933221, 0.0 ], [ 77.575552, 12.933137, 0.0 ], [ 77.575238, 12.934422, 0.0 ], [ 77.577001, 12.934761, 0.0 ], [ 77.577407, 12.93431, 0.0 ], [ 77.580109, 12.934202, 0.0 ], [ 77.580283, 12.917132, 0.0 ], [ 77.578212, 12.917177, 0.0 ], [ 77.577371, 12.917575, 0.0 ], [ 77.573549, 12.917537, 0.0 ], [ 77.573565, 12.914973, 0.0 ], [ 77.57289, 12.911777, 0.0 ], [ 77.573426, 12.90187, 0.0 ], [ 77.572781, 12.899517, 0.0 ], [ 77.568664, 12.894397, 0.0 ], [ 77.561757, 12.888141, 0.0 ], [ 77.559532, 12.886792, 0.0 ], [ 77.547302, 12.883122, 0.0 ], [ 77.545636, 12.879587, 0.0 ], [ 77.544213, 12.880144, 0.0 ], [ 77.5432, 12.88155, 0.0 ], [ 77.54275, 12.880999, 0.0 ], [ 77.539636, 12.881374, 0.0 ], [ 77.539267, 12.883365, 0.0 ], [ 77.538292, 12.884989, 0.0 ], [ 77.537383, 12.885682, 0.0 ], [ 77.534736, 12.886509, 0.0 ], [ 77.534358, 12.887469, 0.0 ], [ 77.533094, 12.887261, 0.0 ], [ 77.53258, 12.885299, 0.0 ], [ 77.535846, 12.884558, 0.0 ], [ 77.537564, 12.883279, 0.0 ], [ 77.537518, 12.880264, 0.0 ], [ 77.53686, 12.879078, 0.0 ], [ 77.535707, 12.879926, 0.0 ], [ 77.53367, 12.880041, 0.0 ], [ 77.53347, 12.881211, 0.0 ], [ 77.532551, 12.881571, 0.0 ], [ 77.532344, 12.880742, 0.0 ], [ 77.531451, 12.880983, 0.0 ], [ 77.531286, 12.880155, 0.0 ], [ 77.530708, 12.880499, 0.0 ], [ 77.530289, 12.882019, 0.0 ], [ 77.529924, 12.882022, 0.0 ], [ 77.528328, 12.878862, 0.0 ], [ 77.527048, 12.872159, 0.0 ], [ 77.525416, 12.872189, 0.0 ], [ 77.52414, 12.871729, 0.0 ], [ 77.524516, 12.86924, 0.0 ], [ 77.525696, 12.869182, 0.0 ], [ 77.527355, 12.868006, 0.0 ], [ 77.527753, 12.863346, 0.0 ], [ 77.52704, 12.862322, 0.0 ], [ 77.525384, 12.861443, 0.0 ], [ 77.525528, 12.857748, 0.0 ], [ 77.524148, 12.858388, 0.0 ], [ 77.521471, 12.858522, 0.0 ], [ 77.519532, 12.862189, 0.0 ], [ 77.520357, 12.866643, 0.0 ], [ 77.52305, 12.870526, 0.0 ], [ 77.520267, 12.872178, 0.0 ], [ 77.519437, 12.87179, 0.0 ], [ 77.515465, 12.867899, 0.0 ], [ 77.512414, 12.868274, 0.0 ], [ 77.511527, 12.868086, 0.0 ], [ 77.51061, 12.868988, 0.0 ], [ 77.510269, 12.868953, 0.0 ], [ 77.508459, 12.870968, 0.0 ], [ 77.506264, 12.874563, 0.0 ], [ 77.505425, 12.876612, 0.0 ], [ 77.504563, 12.877066, 0.0 ], [ 77.502346, 12.87608, 0.0 ], [ 77.500327, 12.874316, 0.0 ], [ 77.498486, 12.873296, 0.0 ], [ 77.497549, 12.872234, 0.0 ], [ 77.496732, 12.873247, 0.0 ], [ 77.495229, 12.873422, 0.0 ], [ 77.494851, 12.871949, 0.0 ], [ 77.492864, 12.87237, 0.0 ], [ 77.491928, 12.87087, 0.0 ], [ 77.488902, 12.871839, 0.0 ], [ 77.486221, 12.871193, 0.0 ], [ 77.484634, 12.871623, 0.0 ], [ 77.483134, 12.874143, 0.0 ], [ 77.481107, 12.874129, 0.0 ], [ 77.481714, 12.878074, 0.0 ], [ 77.478255, 12.877927, 0.0 ], [ 77.475847, 12.878449, 0.0 ], [ 77.474758, 12.879913, 0.0 ], [ 77.474907, 12.880842, 0.0 ], [ 77.476863, 12.882459, 0.0 ], [ 77.478712, 12.884697, 0.0 ], [ 77.478492, 12.886207, 0.0 ], [ 77.478934, 12.886436, 0.0 ], [ 77.482543, 12.886287, 0.0 ], [ 77.481551, 12.890171, 0.0 ], [ 77.481805, 12.89137, 0.0 ], [ 77.486984, 12.893605, 0.0 ], [ 77.488621, 12.893273, 0.0 ], [ 77.489303, 12.893552, 0.0 ], [ 77.489795, 12.893277, 0.0 ], [ 77.490451, 12.894177, 0.0 ], [ 77.491236, 12.894443, 0.0 ], [ 77.492247, 12.893212, 0.0 ], [ 77.494648, 12.892754, 0.0 ], [ 77.494848, 12.893628, 0.0 ], [ 77.496226, 12.894047, 0.0 ], [ 77.497431, 12.893926, 0.0 ], [ 77.49839, 12.893422, 0.0 ], [ 77.498955, 12.894492, 0.0 ], [ 77.503714, 12.893556, 0.0 ], [ 77.512971, 12.893638, 0.0 ], [ 77.513683, 12.894979, 0.0 ], [ 77.514914, 12.895857, 0.0 ], [ 77.520346, 12.897948, 0.0 ], [ 77.521506, 12.898061, 0.0 ], [ 77.522562, 12.897606, 0.0 ], [ 77.523332, 12.897896, 0.0 ], [ 77.524916, 12.897577, 0.0 ], [ 77.525002, 12.896835, 0.0 ], [ 77.524833, 12.896275, 0.0 ], [ 77.524517, 12.896234, 0.0 ], [ 77.524809, 12.895709, 0.0 ], [ 77.525298, 12.895708, 0.0 ], [ 77.525887, 12.896253, 0.0 ], [ 77.525975, 12.895629, 0.0 ], [ 77.526445, 12.895465, 0.0 ], [ 77.52914, 12.89541, 0.0 ], [ 77.530797, 12.894678, 0.0 ], [ 77.531326, 12.894832, 0.0 ], [ 77.532653, 12.897979, 0.0 ], [ 77.534456, 12.899224, 0.0 ], [ 77.534509, 12.903364, 0.0 ], [ 77.534161, 12.903421, 0.0 ], [ 77.534049, 12.904762, 0.0 ], [ 77.532177, 12.905027, 0.0 ], [ 77.531194, 12.904276, 0.0 ], [ 77.528862, 12.905057, 0.0 ], [ 77.525696, 12.904051, 0.0 ], [ 77.525841, 12.905631, 0.0 ], [ 77.524663, 12.906397, 0.0 ], [ 77.524868, 12.906667, 0.0 ], [ 77.526827, 12.906645, 0.0 ], [ 77.52737, 12.910312, 0.0 ], [ 77.528427, 12.913588, 0.0 ], [ 77.528071, 12.913815, 0.0 ], [ 77.529215, 12.919485, 0.0 ], [ 77.528443, 12.921436, 0.0 ], [ 77.532341, 12.920517, 0.0 ], [ 77.538163, 12.920397, 0.0 ], [ 77.538266, 12.92136, 0.0 ], [ 77.538234, 12.923717, 0.0 ], [ 77.536855, 12.924274, 0.0 ], [ 77.536994, 12.926713, 0.0 ], [ 77.535151, 12.927408, 0.0 ], [ 77.5351, 12.929514, 0.0 ], [ 77.533337, 12.928209, 0.0 ], [ 77.531825, 12.928058, 0.0 ], [ 77.531325, 12.935404, 0.0 ], [ 77.531871, 12.938234, 0.0 ], [ 77.531201, 12.940463, 0.0 ], [ 77.531552, 12.941401, 0.0 ], [ 77.53437, 12.936466, 0.0 ], [ 77.53962, 12.933448, 0.0 ], [ 77.539976, 12.933938, 0.0 ] ] ], [ [ [ 77.537814, 12.858186, 0.0 ], [ 77.538622, 12.858031, 0.0 ], [ 77.538627, 12.857574, 0.0 ], [ 77.539587, 12.856503, 0.0 ], [ 77.541963, 12.855095, 0.0 ], [ 77.542178, 12.85062, 0.0 ], [ 77.541901, 12.846946, 0.0 ], [ 77.542333, 12.843754, 0.0 ], [ 77.542106, 12.843295, 0.0 ], [ 77.541505, 12.843872, 0.0 ], [ 77.541455, 12.844454, 0.0 ], [ 77.538642, 12.84525, 0.0 ], [ 77.539014, 12.842161, 0.0 ], [ 77.536079, 12.840882, 0.0 ], [ 77.535411, 12.839714, 0.0 ], [ 77.526444, 12.840738, 0.0 ], [ 77.524352, 12.8401, 0.0 ], [ 77.521789, 12.848541, 0.0 ], [ 77.522225, 12.849393, 0.0 ], [ 77.522606, 12.852361, 0.0 ], [ 77.5231, 12.853308, 0.0 ], [ 77.526577, 12.856781, 0.0 ], [ 77.527341, 12.856284, 0.0 ], [ 77.527267, 12.855073, 0.0 ], [ 77.528364, 12.854883, 0.0 ], [ 77.528639, 12.855693, 0.0 ], [ 77.529434, 12.856097, 0.0 ], [ 77.530239, 12.858892, 0.0 ], [ 77.531188, 12.858673, 0.0 ], [ 77.531019, 12.857778, 0.0 ], [ 77.532171, 12.857744, 0.0 ], [ 77.532942, 12.859208, 0.0 ], [ 77.53492, 12.859374, 0.0 ], [ 77.53569, 12.860029, 0.0 ], [ 77.536275, 12.859733, 0.0 ], [ 77.5377, 12.860162, 0.0 ], [ 77.537814, 12.858186, 0.0 ] ] ] ] } },
{ "type": "Feature", "properties": { "DivisionCode": "", "DivisionName": "East-2", "KGISDivisionID": 13, "OBJECTID": 30, "SHAPE_STArea__": 62943155.890699998, "SHAPE_STLength__": 47851.543981199997, "source": "OpenCity (data.opencity.in)", "publisher": "Bangalore Water Supply and Sewerage Board (BWSSB)" }, "geometry": { "type": "Polygon", "coordinates": [ [ [ 77.649603, 13.081257, 0.0 ], [ 77.654857, 13.081913, 0.0 ], [ 77.656431, 13.074864, 0.0 ], [ 77.65787, 13.072928, 0.0 ], [ 77.659759, 13.068067, 0.0 ], [ 77.660143, 13.067801, 0.0 ], [ 77.663633, 13.06719, 0.0 ], [ 77.663667, 13.066953, 0.0 ], [ 77.667026, 13.065939, 0.0 ], [ 77.667278, 13.064034, 0.0 ], [ 77.67012, 13.065997, 0.0 ], [ 77.673302, 13.065545, 0.0 ], [ 77.673282, 13.065241, 0.0 ], [ 77.675321, 13.064866, 0.0 ], [ 77.676907, 13.065064, 0.0 ], [ 77.676621, 13.063576, 0.0 ], [ 77.677051, 13.06349, 0.0 ], [ 77.676949, 13.062948, 0.0 ], [ 77.679029, 13.062799, 0.0 ], [ 77.679542, 13.06182, 0.0 ], [ 77.679298, 13.060403, 0.0 ], [ 77.679444, 13.058583, 0.0 ], [ 77.678962, 13.057844, 0.0 ], [ 77.679426, 13.055768, 0.0 ], [ 77.678899, 13.055218, 0.0 ], [ 77.678371, 13.052395, 0.0 ], [ 77.679893, 13.052447, 0.0 ], [ 77.68102, 13.051997, 0.0 ], [ 77.683337, 13.049956, 0.0 ], [ 77.68504, 13.045072, 0.0 ], [ 77.683538, 13.033069, 0.0 ], [ 77.686657, 13.033523, 0.0 ], [ 77.690843, 13.032596, 0.0 ], [ 77.694406, 13.026731, 0.0 ], [ 77.702131, 13.027577, 0.0 ], [ 77.704026, 13.028392, 0.0 ], [ 77.705514, 13.02864, 0.0 ], [ 77.705689, 13.02767, 0.0 ], [ 77.708883, 13.027435, 0.0 ], [ 77.710035, 13.027669, 0.0 ], [ 77.710194, 13.028075, 0.0 ], [ 77.711428, 13.027736, 0.0 ], [ 77.712629, 13.029678, 0.0 ], [ 77.712896, 13.033159, 0.0 ], [ 77.715478, 13.033476, 0.0 ], [ 77.71796, 13.033166, 0.0 ], [ 77.720404, 13.033737, 0.0 ], [ 77.72488, 13.030431, 0.0 ], [ 77.72472, 13.028806, 0.0 ], [ 77.725069, 13.026831, 0.0 ], [ 77.725066, 13.026369, 0.0 ], [ 77.724375, 13.026134, 0.0 ], [ 77.72388, 13.025276, 0.0 ], [ 77.721005, 13.023836, 0.0 ], [ 77.720758, 13.022147, 0.0 ], [ 77.721083, 13.02075, 0.0 ], [ 77.723505, 13.020216, 0.0 ], [ 77.726196, 13.017684, 0.0 ], [ 77.730011, 13.016072, 0.0 ], [ 77.732619, 13.013712, 0.0 ], [ 77.737688, 13.012062, 0.0 ], [ 77.740656, 13.010741, 0.0 ], [ 77.74078, 13.008207, 0.0 ], [ 77.741145, 13.007256, 0.0 ], [ 77.735521, 13.006496, 0.0 ], [ 77.733668, 13.005636, 0.0 ], [ 77.729271, 13.005441, 0.0 ], [ 77.728102, 13.004182, 0.0 ], [ 77.725488, 13.003563, 0.0 ], [ 77.72346, 13.003583, 0.0 ], [ 77.719187, 13.004565, 0.0 ], [ 77.705905, 13.004357, 0.0 ], [ 77.705258, 13.001117, 0.0 ], [ 77.705662, 13.001062, 0.0 ], [ 77.705492, 13.000089, 0.0 ], [ 77.701059, 12.999974, 0.0 ], [ 77.700357, 12.994284, 0.0 ], [ 77.695172, 12.995543, 0.0 ], [ 77.69072, 12.997259, 0.0 ], [ 77.688502, 12.998513, 0.0 ], [ 77.687183, 12.997105, 0.0 ], [ 77.68537, 12.993996, 0.0 ], [ 77.681442, 12.999894, 0.0 ], [ 77.680898, 13.000316, 0.0 ], [ 77.676834, 13.00027, 0.0 ], [ 77.675637, 13.000678, 0.0 ], [ 77.672365, 13.000442, 0.0 ], [ 77.66622, 12.998642, 0.0 ], [ 77.662998, 12.996896, 0.0 ], [ 77.660031, 13.001794, 0.0 ], [ 77.657673, 13.003547, 0.0 ], [ 77.655768, 13.004279, 0.0 ], [ 77.650128, 13.005062, 0.0 ], [ 77.650084, 13.004825, 0.0 ], [ 77.643989, 13.005466, 0.0 ], [ 77.63452, 13.004053, 0.0 ], [ 77.630998, 13.004859, 0.0 ], [ 77.621938, 13.00853, 0.0 ], [ 77.621124, 13.009399, 0.0 ], [ 77.620648, 13.011071, 0.0 ], [ 77.623401, 13.01832, 0.0 ], [ 77.62347, 13.020363, 0.0 ], [ 77.622901, 13.022861, 0.0 ], [ 77.621517, 13.025238, 0.0 ], [ 77.620604, 13.025925, 0.0 ], [ 77.617055, 13.027488, 0.0 ], [ 77.615639, 13.028904, 0.0 ], [ 77.611636, 13.033947, 0.0 ], [ 77.610245, 13.038192, 0.0 ], [ 77.611456, 13.040339, 0.0 ], [ 77.613495, 13.040241, 0.0 ], [ 77.613551, 13.04219, 0.0 ], [ 77.61722, 13.040939, 0.0 ], [ 77.623067, 13.041154, 0.0 ], [ 77.624295, 13.04021, 0.0 ], [ 77.625655, 13.043343, 0.0 ], [ 77.627523, 13.045593, 0.0 ], [ 77.62863, 13.047491, 0.0 ], [ 77.630353, 13.047023, 0.0 ], [ 77.631993, 13.045611, 0.0 ], [ 77.633712, 13.044755, 0.0 ], [ 77.63715, 13.04397, 0.0 ], [ 77.637238, 13.045825, 0.0 ], [ 77.638407, 13.050048, 0.0 ], [ 77.638148, 13.050075, 0.0 ], [ 77.638451, 13.051591, 0.0 ], [ 77.637801, 13.05171, 0.0 ], [ 77.638339, 13.054535, 0.0 ], [ 77.638188, 13.060894, 0.0 ], [ 77.638598, 13.065838, 0.0 ], [ 77.639527, 13.069689, 0.0 ], [ 77.639506, 13.075023, 0.0 ], [ 77.638238, 13.075194, 0.0 ], [ 77.639559, 13.076668, 0.0 ], [ 77.641578, 13.077229, 0.0 ], [ 77.646609, 13.085278, 0.0 ], [ 77.649603, 13.081257, 0.0 ] ] ] } },
{ "type": "Feature", "properties": { "DivisionCode": "", "DivisionName": "West-1", "KGISDivisionID": 2, "OBJECTID": 34, "SHAPE_STArea__": 26932846.177499998, "SHAPE_STLength__": 31665.456031500002, "source": "OpenCity (data.opencity.in)", "publisher": "Bangalore Water Supply and Sewerage Board (BWSSB)" }, "geometry": { "type": "Polygon", "coordinates": [ [ [ 77.548781, 13.005985, 0.0 ], [ 77.550958, 12.994514, 0.0 ], [ 77.551008, 12.99229, 0.0 ], [ 77.549048, 12.984417, 0.0 ], [ 77.549004, 12.980812, 0.0 ], [ 77.553866, 12.98062, 0.0 ], [ 77.553782, 12.979901, 0.0 ], [ 77.555275, 12.980128, 0.0 ], [ 77.554553, 12.977328, 0.0 ], [ 77.555173, 12.97706, 0.0 ], [ 77.556656, 12.978216, 0.0 ], [ 77.558891, 12.978877, 0.0 ], [ 77.559249, 12.97995, 0.0 ], [ 77.560839, 12.980488, 0.0 ], [ 77.561212, 12.981852, 0.0 ], [ 77.561652, 12.981927, 0.0 ], [ 77.561581, 12.982648, 0.0 ], [ 77.566375, 12.981941, 0.0 ], [ 77.568977, 12.982683, 0.0 ], [ 77.570501, 12.982115, 0.0 ], [ 77.569535, 12.97996, 0.0 ], [ 77.568876, 12.976273, 0.0 ], [ 77.569334, 12.973702, 0.0 ], [ 77.568242, 12.970791, 0.0 ], [ 77.568023, 12.968826, 0.0 ], [ 77.567413, 12.968924, 0.0 ], [ 77.567096, 12.970209, 0.0 ], [ 77.566415, 12.970695, 0.0 ], [ 77.564082, 12.968031, 0.0 ], [ 77.562522, 12.967295, 0.0 ], [ 77.561246, 12.967736, 0.0 ], [ 77.559677, 12.968947, 0.0 ], [ 77.556332, 12.969547, 0.0 ], [ 77.551552, 12.968108, 0.0 ], [ 77.549764, 12.966237, 0.0 ], [ 77.548288, 12.965197, 0.0 ], [ 77.543806, 12.964054, 0.0 ], [ 77.545881, 12.961207, 0.0 ], [ 77.549328, 12.955038, 0.0 ], [ 77.551399, 12.95235, 0.0 ], [ 77.550372, 12.952131, 0.0 ], [ 77.549917, 12.949097, 0.0 ], [ 77.548755, 12.949342, 0.0 ], [ 77.54898, 12.949953, 0.0 ], [ 77.548281, 12.950045, 0.0 ], [ 77.54838, 12.950635, 0.0 ], [ 77.549768, 12.950434, 0.0 ], [ 77.549895, 12.950963, 0.0 ], [ 77.548157, 12.951347, 0.0 ], [ 77.548173, 12.951775, 0.0 ], [ 77.546189, 12.951554, 0.0 ], [ 77.545175, 12.950433, 0.0 ], [ 77.54317, 12.951132, 0.0 ], [ 77.54295, 12.949982, 0.0 ], [ 77.542399, 12.95008, 0.0 ], [ 77.542345, 12.949829, 0.0 ], [ 77.541206, 12.950165, 0.0 ], [ 77.54043, 12.945833, 0.0 ], [ 77.539994, 12.945667, 0.0 ], [ 77.539413, 12.945687, 0.0 ], [ 77.539396, 12.94591, 0.0 ], [ 77.535544, 12.945733, 0.0 ], [ 77.534214, 12.945036, 0.0 ], [ 77.532364, 12.944668, 0.0 ], [ 77.531635, 12.944854, 0.0 ], [ 77.530199, 12.943841, 0.0 ], [ 77.529521, 12.944728, 0.0 ], [ 77.528131, 12.945451, 0.0 ], [ 77.526764, 12.94407, 0.0 ], [ 77.523106, 12.93917, 0.0 ], [ 77.520541, 12.937072, 0.0 ], [ 77.518897, 12.936475, 0.0 ], [ 77.515725, 12.936202, 0.0 ], [ 77.512956, 12.935536, 0.0 ], [ 77.511601, 12.937231, 0.0 ], [ 77.508602, 12.938259, 0.0 ], [ 77.501524, 12.948413, 0.0 ], [ 77.500924, 12.949704, 0.0 ], [ 77.499413, 12.950913, 0.0 ], [ 77.500531, 12.953453, 0.0 ], [ 77.50281, 12.956656, 0.0 ], [ 77.504752, 12.957681, 0.0 ], [ 77.511428, 12.955376, 0.0 ], [ 77.511718, 12.958192, 0.0 ], [ 77.511537, 12.959176, 0.0 ], [ 77.511881, 12.959589, 0.0 ], [ 77.512262, 12.959593, 0.0 ], [ 77.513293, 12.958289, 0.0 ], [ 77.51452, 12.957761, 0.0 ], [ 77.515658, 12.960213, 0.0 ], [ 77.515906, 12.961885, 0.0 ], [ 77.517111, 12.961951, 0.0 ], [ 77.516968, 12.968803, 0.0 ], [ 77.517854, 12.973685, 0.0 ], [ 77.518563, 12.975532, 0.0 ], [ 77.519171, 12.978553, 0.0 ], [ 77.518882, 12.980047, 0.0 ], [ 77.518577, 12.980085, 0.0 ], [ 77.518395, 12.980794, 0.0 ], [ 77.517363, 12.981429, 0.0 ], [ 77.517409, 12.981931, 0.0 ], [ 77.518788, 12.984, 0.0 ], [ 77.5194, 12.987277, 0.0 ], [ 77.520404, 12.986921, 0.0 ], [ 77.519988, 12.987738, 0.0 ], [ 77.52089, 12.990342, 0.0 ], [ 77.521651, 12.992034, 0.0 ], [ 77.522201, 12.992192, 0.0 ], [ 77.523027, 12.993202, 0.0 ], [ 77.523091, 12.994119, 0.0 ], [ 77.523706, 12.995673, 0.0 ], [ 77.52473, 12.996912, 0.0 ], [ 77.52504, 12.998298, 0.0 ], [ 77.527279, 12.998824, 0.0 ], [ 77.528338, 12.998702, 0.0 ], [ 77.528514, 12.999306, 0.0 ], [ 77.539829, 13.001842, 0.0 ], [ 77.548781, 13.005985, 0.0 ] ] ] } },
{ "type": "Feature", "properties": { "DivisionCode": "", "DivisionName": "North-1", "KGISDivisionID": 12, "OBJECTID": 36, "SHAPE_STArea__": 32806115.5392, "SHAPE_STLength__": 45926.469391400002, "source": "OpenCity (data.opencity.in)", "publisher": "Bangalore Water Supply and Sewerage Board (BWSSB)" }, "geometry": { "type": "Polygon", "coordinates": [ [ [ 77.633519, 13.108908, 0.0 ], [ 77.634858, 13.101692, 0.0 ], [ 77.632457, 13.102224, 0.0 ], [ 77.632376, 13.101779, 0.0 ], [ 77.629785, 13.100127, 0.0 ], [ 77.62666, 13.09307, 0.0 ], [ 77.626034, 13.088892, 0.0 ], [ 77.624531, 13.088387, 0.0 ], [ 77.624148, 13.087244, 0.0 ], [ 77.622769, 13.085999, 0.0 ], [ 77.622585, 13.082085, 0.0 ], [ 77.622781, 13.080378, 0.0 ], [ 77.623573, 13.079635, 0.0 ], [ 77.623928, 13.078686, 0.0 ], [ 77.624468, 13.078394, 0.0 ], [ 77.626415, 13.078113, 0.0 ], [ 77.628941, 13.076971, 0.0 ], [ 77.633715, 13.076367, 0.0 ], [ 77.633699, 13.07523, 0.0 ], [ 77.633189, 13.07527, 0.0 ], [ 77.632383, 13.071817, 0.0 ], [ 77.627728, 13.072171, 0.0 ], [ 77.62697, 13.070027, 0.0 ], [ 77.624938, 13.067047, 0.0 ], [ 77.622287, 13.064261, 0.0 ], [ 77.619054, 13.062894, 0.0 ], [ 77.619047, 13.062629, 0.0 ], [ 77.616038, 13.062242, 0.0 ], [ 77.612663, 13.064471, 0.0 ], [ 77.611528, 13.065652, 0.0 ], [ 77.611548, 13.066159, 0.0 ], [ 77.608504, 13.067075, 0.0 ], [ 77.608195, 13.064233, 0.0 ], [ 77.607295, 13.064133, 0.0 ], [ 77.606647, 13.063774, 0.0 ], [ 77.606605, 13.06315, 0.0 ], [ 77.605976, 13.06309, 0.0 ], [ 77.606151, 13.062286, 0.0 ], [ 77.605301, 13.061935, 0.0 ], [ 77.60539, 13.061429, 0.0 ], [ 77.604711, 13.060966, 0.0 ], [ 77.604666, 13.06055, 0.0 ], [ 77.603308, 13.06054, 0.0 ], [ 77.602768, 13.060231, 0.0 ], [ 77.602675, 13.059548, 0.0 ], [ 77.601707, 13.0588, 0.0 ], [ 77.598879, 13.055095, 0.0 ], [ 77.606625, 13.052463, 0.0 ], [ 77.607637, 13.051381, 0.0 ], [ 77.607387, 13.046441, 0.0 ], [ 77.610758, 13.04696, 0.0 ], [ 77.612217, 13.047925, 0.0 ], [ 77.614598, 13.048382, 0.0 ], [ 77.615618, 13.048113, 0.0 ], [ 77.61588, 13.04876, 0.0 ], [ 77.618283, 13.048594, 0.0 ], [ 77.617968, 13.048296, 0.0 ], [ 77.624418, 13.04742, 0.0 ], [ 77.627402, 13.045445, 0.0 ], [ 77.625655, 13.043343, 0.0 ], [ 77.624295, 13.04021, 0.0 ], [ 77.623067, 13.041154, 0.0 ], [ 77.61722, 13.040939, 0.0 ], [ 77.613551, 13.04219, 0.0 ], [ 77.613495, 13.040241, 0.0 ], [ 77.611456, 13.040339, 0.0 ], [ 77.610687, 13.039093, 0.0 ], [ 77.610245, 13.038192, 0.0 ], [ 77.611285, 13.034611, 0.0 ], [ 77.616378, 13.028081, 0.0 ], [ 77.614832, 13.026775, 0.0 ], [ 77.615709, 13.026029, 0.0 ], [ 77.615648, 13.024067, 0.0 ], [ 77.61449, 13.021721, 0.0 ], [ 77.612715, 13.021542, 0.0 ], [ 77.612685, 13.022357, 0.0 ], [ 77.612294, 13.022365, 0.0 ], [ 77.611413, 13.019855, 0.0 ], [ 77.608665, 13.017551, 0.0 ], [ 77.607251, 13.017222, 0.0 ], [ 77.605618, 13.017325, 0.0 ], [ 77.605991, 13.019747, 0.0 ], [ 77.602884, 13.020292, 0.0 ], [ 77.600278, 13.0212, 0.0 ], [ 77.597656, 13.016246, 0.0 ], [ 77.594596, 13.017631, 0.0 ], [ 77.594743, 13.018564, 0.0 ], [ 77.592306, 13.019204, 0.0 ], [ 77.591388, 13.01577, 0.0 ], [ 77.593449, 13.014194, 0.0 ], [ 77.593599, 13.012785, 0.0 ], [ 77.594089, 13.011971, 0.0 ], [ 77.593263, 13.011787, 0.0 ], [ 77.59061, 13.010024, 0.0 ], [ 77.587733, 13.013856, 0.0 ], [ 77.586434, 13.014356, 0.0 ], [ 77.583966, 13.014537, 0.0 ], [ 77.583887, 13.019239, 0.0 ], [ 77.584579, 13.023124, 0.0 ], [ 77.583854, 13.023517, 0.0 ], [ 77.584092, 13.024549, 0.0 ], [ 77.584905, 13.024404, 0.0 ], [ 77.585936, 13.028084, 0.0 ], [ 77.588184, 13.033153, 0.0 ], [ 77.589206, 13.036378, 0.0 ], [ 77.589566, 13.040065, 0.0 ], [ 77.590301, 13.042737, 0.0 ], [ 77.588342, 13.042603, 0.0 ], [ 77.58517, 13.043253, 0.0 ], [ 77.57951, 13.047317, 0.0 ], [ 77.578545, 13.047721, 0.0 ], [ 77.56603, 13.046668, 0.0 ], [ 77.564205, 13.045664, 0.0 ], [ 77.572744, 13.060476, 0.0 ], [ 77.574537, 13.062051, 0.0 ], [ 77.586312, 13.070004, 0.0 ], [ 77.587904, 13.071567, 0.0 ], [ 77.589163, 13.073907, 0.0 ], [ 77.595505, 13.089005, 0.0 ], [ 77.596304, 13.092033, 0.0 ], [ 77.597056, 13.092341, 0.0 ], [ 77.600586, 13.092201, 0.0 ], [ 77.603626, 13.091226, 0.0 ], [ 77.607849, 13.090869, 0.0 ], [ 77.610045, 13.091056, 0.0 ], [ 77.61309, 13.100729, 0.0 ], [ 77.614561, 13.103231, 0.0 ], [ 77.61579, 13.104116, 0.0 ], [ 77.618365, 13.104689, 0.0 ], [ 77.622309, 13.104147, 0.0 ], [ 77.622334, 13.103575, 0.0 ], [ 77.629027, 13.102514, 0.0 ], [ 77.629542, 13.104927, 0.0 ], [ 77.626503, 13.104903, 0.0 ], [ 77.625997, 13.105132, 0.0 ], [ 77.626052, 13.105849, 0.0 ], [ 77.627351, 13.107995, 0.0 ], [ 77.63012, 13.111042, 0.0 ], [ 77.634308, 13.11204, 0.0 ], [ 77.633519, 13.108908, 0.0 ] ] ] } },
{ "type": "Feature", "properties": { "DivisionCode": "", "DivisionName": "North West-1", "KGISDivisionID": 10, "OBJECTID": 38, "SHAPE_STArea__": 32156002.636500001, "SHAPE_STLength__": 42358.519747400002, "source": "OpenCity (data.opencity.in)", "publisher": "Bangalore Water Supply and Sewerage Board (BWSSB)" }, "geometry": { "type": "Polygon", "coordinates": [ [ [ 77.516089, 13.041854, 0.0 ], [ 77.518463, 13.039946, 0.0 ], [ 77.526183, 13.03568, 0.0 ], [ 77.530417, 13.03439, 0.0 ], [ 77.541669, 13.027949, 0.0 ], [ 77.542234, 13.028426, 0.0 ], [ 77.543159, 13.028263, 0.0 ], [ 77.54342, 13.02794, 0.0 ], [ 77.543219, 13.027069, 0.0 ], [ 77.551562, 13.022044, 0.0 ], [ 77.552982, 13.019404, 0.0 ], [ 77.554146, 13.015125, 0.0 ], [ 77.55579, 13.015813, 0.0 ], [ 77.558861, 13.012076, 0.0 ], [ 77.561534, 13.004409, 0.0 ], [ 77.559486, 13.004826, 0.0 ], [ 77.559385, 13.004421, 0.0 ], [ 77.558956, 13.004519, 0.0 ], [ 77.557386, 12.998396, 0.0 ], [ 77.557015, 12.998047, 0.0 ], [ 77.556863, 12.996127, 0.0 ], [ 77.558368, 12.995733, 0.0 ], [ 77.559059, 12.995857, 0.0 ], [ 77.558747, 12.995336, 0.0 ], [ 77.560404, 12.9946, 0.0 ], [ 77.560037, 12.992978, 0.0 ], [ 77.56163, 12.990197, 0.0 ], [ 77.561026, 12.989766, 0.0 ], [ 77.561153, 12.988692, 0.0 ], [ 77.561852, 12.987242, 0.0 ], [ 77.560779, 12.98664, 0.0 ], [ 77.561652, 12.981927, 0.0 ], [ 77.561212, 12.981852, 0.0 ], [ 77.560839, 12.980488, 0.0 ], [ 77.559249, 12.97995, 0.0 ], [ 77.558891, 12.978877, 0.0 ], [ 77.556656, 12.978216, 0.0 ], [ 77.555173, 12.97706, 0.0 ], [ 77.554553, 12.977328, 0.0 ], [ 77.555275, 12.980128, 0.0 ], [ 77.553782, 12.979901, 0.0 ], [ 77.553866, 12.98062, 0.0 ], [ 77.549004, 12.980812, 0.0 ], [ 77.549048, 12.984417, 0.0 ], [ 77.55094, 12.991323, 0.0 ], [ 77.551051, 12.993645, 0.0 ], [ 77.548781, 13.005985, 0.0 ], [ 77.539829, 13.001842, 0.0 ], [ 77.528514, 12.999306, 0.0 ], [ 77.528469, 12.998911, 0.0 ], [ 77.527981, 12.99932, 0.0 ], [ 77.527815, 13.001275, 0.0 ], [ 77.529214, 13.002396, 0.0 ], [ 77.529002, 13.003545, 0.0 ], [ 77.5296, 13.00433, 0.0 ], [ 77.530223, 13.007787, 0.0 ], [ 77.530228, 13.009522, 0.0 ], [ 77.52945, 13.00973, 0.0 ], [ 77.529648, 13.010044, 0.0 ], [ 77.528408, 13.011382, 0.0 ], [ 77.528931, 13.01195, 0.0 ], [ 77.528032, 13.012804, 0.0 ], [ 77.528104, 13.014185, 0.0 ], [ 77.527833, 13.014729, 0.0 ], [ 77.528385, 13.015425, 0.0 ], [ 77.528197, 13.015498, 0.0 ], [ 77.526437, 13.015761, 0.0 ], [ 77.526146, 13.01548, 0.0 ], [ 77.524418, 13.015673, 0.0 ], [ 77.522257, 13.015418, 0.0 ], [ 77.522682, 13.013941, 0.0 ], [ 77.520953, 13.013393, 0.0 ], [ 77.521221, 13.01263, 0.0 ], [ 77.52, 13.01254, 0.0 ], [ 77.519645, 13.010785, 0.0 ], [ 77.519083, 13.010927, 0.0 ], [ 77.518251, 13.009146, 0.0 ], [ 77.517289, 13.008299, 0.0 ], [ 77.517772, 13.003717, 0.0 ], [ 77.518292, 13.002887, 0.0 ], [ 77.518176, 13.001392, 0.0 ], [ 77.519405, 12.999833, 0.0 ], [ 77.51939, 12.999291, 0.0 ], [ 77.518743, 12.998387, 0.0 ], [ 77.518035, 12.99819, 0.0 ], [ 77.516934, 12.999014, 0.0 ], [ 77.516225, 12.998805, 0.0 ], [ 77.516217, 12.9984, 0.0 ], [ 77.513986, 12.998837, 0.0 ], [ 77.513828, 12.997594, 0.0 ], [ 77.511019, 12.997994, 0.0 ], [ 77.51094, 12.997378, 0.0 ], [ 77.505978, 12.998926, 0.0 ], [ 77.507222, 13.004231, 0.0 ], [ 77.504999, 13.004643, 0.0 ], [ 77.506189, 13.009939, 0.0 ], [ 77.50113, 13.009442, 0.0 ], [ 77.500827, 13.007943, 0.0 ], [ 77.499238, 13.008575, 0.0 ], [ 77.498066, 13.00762, 0.0 ], [ 77.497312, 13.005927, 0.0 ], [ 77.493288, 13.00077, 0.0 ], [ 77.492213, 13.000854, 0.0 ], [ 77.491099, 12.999686, 0.0 ], [ 77.488613, 12.998028, 0.0 ], [ 77.486063, 12.997411, 0.0 ], [ 77.482008, 12.997237, 0.0 ], [ 77.478611, 12.99848, 0.0 ], [ 77.474315, 12.999206, 0.0 ], [ 77.474407, 13.000408, 0.0 ], [ 77.474781, 13.000745, 0.0 ], [ 77.47542, 13.003392, 0.0 ], [ 77.475194, 13.003426, 0.0 ], [ 77.474999, 13.004865, 0.0 ], [ 77.475405, 13.006374, 0.0 ], [ 77.472848, 13.007319, 0.0 ], [ 77.473132, 13.008826, 0.0 ], [ 77.473533, 13.008748, 0.0 ], [ 77.474148, 13.009597, 0.0 ], [ 77.475401, 13.013346, 0.0 ], [ 77.476953, 13.014872, 0.0 ], [ 77.477404, 13.017387, 0.0 ], [ 77.478281, 13.019113, 0.0 ], [ 77.478829, 13.022012, 0.0 ], [ 77.478406, 13.022206, 0.0 ], [ 77.478566, 13.026289, 0.0 ], [ 77.479445, 13.029199, 0.0 ], [ 77.483698, 13.029407, 0.0 ], [ 77.492075, 13.027858, 0.0 ], [ 77.492695, 13.027116, 0.0 ], [ 77.49293, 13.025816, 0.0 ], [ 77.494078, 13.023218, 0.0 ], [ 77.495545, 13.022515, 0.0 ], [ 77.494998, 13.023367, 0.0 ], [ 77.49725, 13.031636, 0.0 ], [ 77.498794, 13.033637, 0.0 ], [ 77.499366, 13.035372, 0.0 ], [ 77.498356, 13.03554, 0.0 ], [ 77.498327, 13.036922, 0.0 ], [ 77.497707, 13.037636, 0.0 ], [ 77.497744, 13.038104, 0.0 ], [ 77.496702, 13.038264, 0.0 ], [ 77.496183, 13.03936, 0.0 ], [ 77.496449, 13.041426, 0.0 ], [ 77.495785, 13.041689, 0.0 ], [ 77.495953, 13.044313, 0.0 ], [ 77.495745, 13.044463, 0.0 ], [ 77.496651, 13.048966, 0.0 ], [ 77.508647, 13.044891, 0.0 ], [ 77.511334, 13.043527, 0.0 ], [ 77.516089, 13.041854, 0.0 ] ] ] } },
{ "type": "Feature", "properties": { "DivisionCode": "", "DivisionName": "North-2", "KGISDivisionID": 11, "OBJECTID": 40, "SHAPE_STArea__": 69039121.546499997, "SHAPE_STLength__": 69195.860507799996, "source": "OpenCity (data.opencity.in)", "publisher": "Bangalore Water Supply and Sewerage Board (BWSSB)" }, "geometry": { "type": "MultiPolygon", "coordinates": [ [ [ [ 77.582384, 13.1402, 0.0 ], [ 77.584086, 13.134521, 0.0 ], [ 77.5849, 13.13309, 0.0 ], [ 77.585527, 13.13265, 0.0 ], [ 77.585853, 13.132629, 0.0 ], [ 77.585711, 13.133273, 0.0 ], [ 77.591173, 13.133229, 0.0 ], [ 77.596535, 13.132776, 0.0 ], [ 77.599664, 13.131774, 0.0 ], [ 77.599916, 13.130846, 0.0 ], [ 77.599203, 13.127042, 0.0 ], [ 77.599183, 13.119654, 0.0 ], [ 77.600578, 13.119245, 0.0 ], [ 77.600656, 13.117707, 0.0 ], [ 77.604685, 13.116675, 0.0 ], [ 77.607411, 13.115584, 0.0 ], [ 77.608384, 13.117068, 0.0 ], [ 77.612017, 13.116594, 0.0 ], [ 77.612154, 13.117402, 0.0 ], [ 77.611791, 13.117474, 0.0 ], [ 77.6118, 13.118648, 0.0 ], [ 77.612119, 13.120851, 0.0 ], [ 77.615706, 13.130971, 0.0 ], [ 77.61959, 13.130932, 0.0 ], [ 77.625981, 13.127532, 0.0 ], [ 77.630579, 13.12601, 0.0 ], [ 77.638607, 13.113437, 0.0 ], [ 77.63012, 13.111042, 0.0 ], [ 77.627351, 13.107995, 0.0 ], [ 77.626052, 13.105849, 0.0 ], [ 77.625997, 13.105132, 0.0 ], [ 77.629542, 13.104927, 0.0 ], [ 77.629027, 13.102514, 0.0 ], [ 77.622334, 13.103575, 0.0 ], [ 77.622309, 13.104147, 0.0 ], [ 77.618365, 13.104689, 0.0 ], [ 77.61579, 13.104116, 0.0 ], [ 77.614561, 13.103231, 0.0 ], [ 77.61309, 13.100729, 0.0 ], [ 77.610045, 13.091056, 0.0 ], [ 77.607849, 13.090869, 0.0 ], [ 77.603626, 13.091226, 0.0 ], [ 77.600586, 13.092201, 0.0 ], [ 77.597056, 13.092341, 0.0 ], [ 77.596304, 13.092033, 0.0 ], [ 77.595505, 13.089005, 0.0 ], [ 77.589163, 13.073907, 0.0 ], [ 77.587667, 13.071277, 0.0 ], [ 77.586312, 13.070004, 0.0 ], [ 77.574537, 13.062051, 0.0 ], [ 77.572744, 13.060476, 0.0 ], [ 77.564205, 13.045664, 0.0 ], [ 77.561325, 13.04385, 0.0 ], [ 77.558389, 13.043715, 0.0 ], [ 77.555039, 13.044263, 0.0 ], [ 77.553781, 13.043834, 0.0 ], [ 77.549806, 13.047981, 0.0 ], [ 77.550592, 13.050237, 0.0 ], [ 77.550969, 13.053239, 0.0 ], [ 77.546797, 13.056764, 0.0 ], [ 77.546185, 13.056215, 0.0 ], [ 77.543145, 13.062904, 0.0 ], [ 77.541479, 13.067749, 0.0 ], [ 77.53886, 13.069142, 0.0 ], [ 77.532822, 13.070824, 0.0 ], [ 77.531505, 13.07191, 0.0 ], [ 77.531684, 13.072559, 0.0 ], [ 77.531229, 13.074151, 0.0 ], [ 77.531516, 13.075417, 0.0 ], [ 77.531002, 13.07629, 0.0 ], [ 77.530783, 13.077833, 0.0 ], [ 77.530328, 13.077874, 0.0 ], [ 77.530239, 13.082072, 0.0 ], [ 77.530489, 13.082685, 0.0 ], [ 77.536626, 13.084831, 0.0 ], [ 77.536756, 13.08448, 0.0 ], [ 77.537561, 13.084444, 0.0 ], [ 77.537588, 13.085117, 0.0 ], [ 77.538317, 13.086185, 0.0 ], [ 77.541557, 13.089071, 0.0 ], [ 77.540816, 13.090028, 0.0 ], [ 77.540906, 13.093295, 0.0 ], [ 77.53933, 13.094204, 0.0 ], [ 77.541081, 13.095682, 0.0 ], [ 77.542336, 13.095634, 0.0 ], [ 77.544552, 13.101319, 0.0 ], [ 77.551362, 13.100863, 0.0 ], [ 77.556954, 13.100033, 0.0 ], [ 77.560194, 13.109262, 0.0 ], [ 77.561688, 13.108892, 0.0 ], [ 77.565176, 13.109061, 0.0 ], [ 77.565221, 13.110653, 0.0 ], [ 77.56623, 13.111957, 0.0 ], [ 77.564126, 13.113096, 0.0 ], [ 77.561606, 13.113854, 0.0 ], [ 77.562329, 13.115641, 0.0 ], [ 77.563264, 13.120516, 0.0 ], [ 77.565508, 13.126008, 0.0 ], [ 77.569577, 13.124997, 0.0 ], [ 77.571937, 13.13585, 0.0 ], [ 77.57224, 13.135789, 0.0 ], [ 77.572384, 13.136251, 0.0 ], [ 77.572789, 13.136324, 0.0 ], [ 77.573425, 13.136088, 0.0 ], [ 77.573519, 13.136388, 0.0 ], [ 77.57425, 13.141561, 0.0 ], [ 77.58, 13.14266, 0.0 ], [ 77.582384, 13.1402, 0.0 ] ] ], [ [ [ 77.642214, 13.105506, 0.0 ], [ 77.643804, 13.105752, 0.0 ], [ 77.650443, 13.104805, 0.0 ], [ 77.646734, 13.095087, 0.0 ], [ 77.642733, 13.086858, 0.0 ], [ 77.646131, 13.086338, 0.0 ], [ 77.646524, 13.086147, 0.0 ], [ 77.646609, 13.085278, 0.0 ], [ 77.641578, 13.077229, 0.0 ], [ 77.639559, 13.076668, 0.0 ], [ 77.638238, 13.075194, 0.0 ], [ 77.639506, 13.075023, 0.0 ], [ 77.639527, 13.069689, 0.0 ], [ 77.638598, 13.065838, 0.0 ], [ 77.638188, 13.060894, 0.0 ], [ 77.638339, 13.054535, 0.0 ], [ 77.637801, 13.05171, 0.0 ], [ 77.638451, 13.051591, 0.0 ], [ 77.638148, 13.050075, 0.0 ], [ 77.638407, 13.050048, 0.0 ], [ 77.637238, 13.045825, 0.0 ], [ 77.63715, 13.04397, 0.0 ], [ 77.633712, 13.044755, 0.0 ], [ 77.631993, 13.045611, 0.0 ], [ 77.630353, 13.047023, 0.0 ], [ 77.629367, 13.047332, 0.0 ], [ 77.62863, 13.047491, 0.0 ], [ 77.627402, 13.045445, 0.0 ], [ 77.624418, 13.04742, 0.0 ], [ 77.617968, 13.048296, 0.0 ], [ 77.618283, 13.048594, 0.0 ], [ 77.61588, 13.04876, 0.0 ], [ 77.615618, 13.048113, 0.0 ], [ 77.614598, 13.048382, 0.0 ], [ 77.612217, 13.047925, 0.0 ], [ 77.610758, 13.04696, 0.0 ], [ 77.607387, 13.046441, 0.0 ], [ 77.607637, 13.051381, 0.0 ], [ 77.606649, 13.052438, 0.0 ], [ 77.598879, 13.055095, 0.0 ], [ 77.59899, 13.055371, 0.0 ], [ 77.601707, 13.0588, 0.0 ], [ 77.602675, 13.059548, 0.0 ], [ 77.602768, 13.060231, 0.0 ], [ 77.603308, 13.06054, 0.0 ], [ 77.604666, 13.06055, 0.0 ], [ 77.604711, 13.060966, 0.0 ], [ 77.60539, 13.061429, 0.0 ], [ 77.605301, 13.061935, 0.0 ], [ 77.606151, 13.062286, 0.0 ], [ 77.605976, 13.06309, 0.0 ], [ 77.606605, 13.06315, 0.0 ], [ 77.606647, 13.063774, 0.0 ], [ 77.607295, 13.064133, 0.0 ], [ 77.608195, 13.064233, 0.0 ], [ 77.608504, 13.067075, 0.0 ], [ 77.611548, 13.066159, 0.0 ], [ 77.611528, 13.065652, 0.0 ], [ 77.612663, 13.064471, 0.0 ], [ 77.616038, 13.062242, 0.0 ], [ 77.619047, 13.062629, 0.0 ], [ 77.619054, 13.062894, 0.0 ], [ 77.622287, 13.064261, 0.0 ], [ 77.624938, 13.067047, 0.0 ], [ 77.62697, 13.070027, 0.0 ], [ 77.627728, 13.072171, 0.0 ], [ 77.632383, 13.071817, 0.0 ], [ 77.633189, 13.07527, 0.0 ], [ 77.633699, 13.07523, 0.0 ], [ 77.633715, 13.076367, 0.0 ], [ 77.628941, 13.076971, 0.0 ], [ 77.626415, 13.078113, 0.0 ], [ 77.623928, 13.078686, 0.0 ], [ 77.623573, 13.079635, 0.0 ], [ 77.622781, 13.080378, 0.0 ], [ 77.622769, 13.085999, 0.0 ], [ 77.624148, 13.087244, 0.0 ], [ 77.624531, 13.088387, 0.0 ], [ 77.626034, 13.088892, 0.0 ], [ 77.62666, 13.09307, 0.0 ], [ 77.629785, 13.100127, 0.0 ], [ 77.632376, 13.101779, 0.0 ], [ 77.632457, 13.102224, 0.0 ], [ 77.634858, 13.101692, 0.0 ], [ 77.636696, 13.104833, 0.0 ], [ 77.636998, 13.106369, 0.0 ], [ 77.642214, 13.105506, 0.0 ] ] ] ] } }
]
}
