{
"type": "FeatureCollection",
"name": "gba_corporations",
"crs": { "type": "name", "properties": { "name": "urn:ogc:def:crs:OGC:1.3:CRS84" } },
"xy_coordinate_resolution": 1e-06,
"features": [
{ "type": "Feature", "properties": { "corporatio": "North", "source": "OpenCity (data.opencity.in)", "publisher": "Greater Bengaluru Authority (GBA)" }, "geometry": { "type": "Polygon", "coordinates": [ [ [ 77.55004, 13.026052 ], [ 77.547688, 13.031476 ], [ 77.544842, 13.036979 ], [ 77.542955, 13.03929 ], [ 77.541951, 13.038312 ], [ 77.540749, 13.032502 ], [ 77.522192, 13.045901 ], [ 77.518441, 13.03989 ], [ 77.51628, 13.041794 ], [ 77.511617, 13.043411 ], [ 77.508417, 13.045055 ], [ 77.496654, 13.048958 ], [ 77.497294, 13.050614 ], [ 77.492465, 13.051571 ], [ 77.492343, 13.054619 ], [ 77.490999, 13.056969 ], [ 77.49272, 13.062134 ], [ 77.493062, 13.062121 ], [ 77.492732, 13.066623 ], [ 77.493106, 13.072092 ], [ 77.499446, 13.071892 ], [ 77.501433, 13.072845 ], [ 77.502707, 13.074655 ], [ 77.504108, 13.075394 ], [ 77.504796, 13.076477 ], [ 77.506332, 13.077613 ], [ 77.507369, 13.077949 ], [ 77.50861, 13.077724 ], [ 77.508963, 13.077976 ], [ 77.509565, 13.076854 ], [ 77.511307, 13.07558 ], [ 77.511462, 13.075821 ], [ 77.514288, 13.075158 ], [ 77.514442, 13.075356 ], [ 77.517971, 13.074254 ], [ 77.518212, 13.076702 ], [ 77.51898, 13.079665 ], [ 77.520883, 13.079151 ], [ 77.521281, 13.080405 ], [ 77.522067, 13.080352 ], [ 77.523222, 13.080925 ], [ 77.523586, 13.082875 ], [ 77.523448, 13.088114 ], [ 77.523779, 13.093068 ], [ 77.534394, 13.092137 ], [ 77.535452, 13.090174 ], [ 77.540723, 13.089969 ], [ 77.540775, 13.091883 ], [ 77.542205, 13.094295 ], [ 77.542395, 13.095658 ], [ 77.544429, 13.100788 ], [ 77.544229, 13.101319 ], [ 77.55079, 13.10095 ], [ 77.55616, 13.100225 ], [ 77.556552, 13.10071 ], [ 77.55733, 13.100416 ], [ 77.557295, 13.101165 ], [ 77.559357, 13.103386 ], [ 77.558923, 13.103344 ], [ 77.559027, 13.104338 ], [ 77.561095, 13.10837 ], [ 77.56096, 13.108917 ], [ 77.560047, 13.10931 ], [ 77.560313, 13.111151 ], [ 77.559675, 13.112111 ], [ 77.561062, 13.113775 ], [ 77.561683, 13.113937 ], [ 77.562687, 13.116345 ], [ 77.56339, 13.120939 ], [ 77.56551, 13.125955 ], [ 77.569573, 13.125005 ], [ 77.571334, 13.133936 ], [ 77.571911, 13.135973 ], [ 77.572789, 13.136324 ], [ 77.573426, 13.136089 ], [ 77.57425, 13.141561 ], [ 77.579999, 13.14266 ], [ 77.582384, 13.1402 ], [ 77.584086, 13.134522 ], [ 77.5849, 13.133091 ], [ 77.585601, 13.132693 ], [ 77.585895, 13.132768 ], [ 77.585748, 13.133305 ], [ 77.591173, 13.13323 ], [ 77.596535, 13.132776 ], [ 77.599663, 13.131774 ], [ 77.60182, 13.134146 ], [ 77.604517, 13.134163 ], [ 77.604498, 13.133863 ], [ 77.607608, 13.133817 ], [ 77.607573, 13.133397 ], [ 77.61201, 13.13324 ], [ 77.613863, 13.131643 ], [ 77.614926, 13.131121 ], [ 77.61954, 13.130958 ], [ 77.625981, 13.127532 ], [ 77.630485, 13.126039 ], [ 77.638714, 13.113271 ], [ 77.636991, 13.106251 ], [ 77.641923, 13.105485 ], [ 77.643804, 13.105752 ], [ 77.650443, 13.104806 ], [ 77.646734, 13.095087 ], [ 77.642752, 13.086759 ], [ 77.646131, 13.086338 ], [ 77.646524, 13.086147 ], [ 77.646603, 13.085152 ], [ 77.644551, 13.082317 ], [ 77.642146, 13.077826 ], [ 77.640974, 13.07696 ], [ 77.639559, 13.076668 ], [ 77.638309, 13.07516 ], [ 77.639491, 13.074935 ], [ 77.639527, 13.06969 ], [ 77.638696, 13.066544 ], [ 77.638195, 13.061533 ], [ 77.638339, 13.054535 ], [ 77.63778, 13.051809 ], [ 77.638428, 13.051554 ], [ 77.638334, 13.050064 ], [ 77.637314, 13.046035 ], [ 77.637118, 13.0435 ], [ 77.63729, 13.04281 ], [ 77.638008, 13.043217 ], [ 77.639263, 13.043314 ], [ 77.641326, 13.042486 ], [ 77.641458, 13.039511 ], [ 77.642368, 13.038977 ], [ 77.643768, 13.038966 ], [ 77.644421, 13.036226 ], [ 77.64494, 13.035881 ], [ 77.643231, 13.035906 ], [ 77.643268, 13.034067 ], [ 77.641032, 13.034259 ], [ 77.639398, 13.031385 ], [ 77.637916, 13.030015 ], [ 77.637605, 13.027986 ], [ 77.636354, 13.0278 ], [ 77.633496, 13.028689 ], [ 77.632716, 13.027773 ], [ 77.635815, 13.026632 ], [ 77.640115, 13.025707 ], [ 77.661707, 13.016407 ], [ 77.662095, 13.015726 ], [ 77.662328, 13.012409 ], [ 77.658131, 13.01045 ], [ 77.656203, 13.009069 ], [ 77.652876, 13.005815 ], [ 77.651262, 13.006079 ], [ 77.651568, 13.00669 ], [ 77.649737, 13.00746 ], [ 77.647981, 13.007529 ], [ 77.646704, 13.007991 ], [ 77.645528, 13.00639 ], [ 77.641094, 13.006051 ], [ 77.637593, 13.005171 ], [ 77.636339, 13.003884 ], [ 77.638566, 13.002633 ], [ 77.64058, 12.998919 ], [ 77.642719, 12.995803 ], [ 77.641324, 12.995778 ], [ 77.641232, 12.995388 ], [ 77.640659, 12.995684 ], [ 77.640449, 12.994871 ], [ 77.637939, 12.995101 ], [ 77.637962, 12.993818 ], [ 77.637471, 12.993671 ], [ 77.63734, 12.992682 ], [ 77.628892, 12.994186 ], [ 77.629155, 12.994475 ], [ 77.626232, 12.995185 ], [ 77.624617, 12.99605 ], [ 77.620183, 12.999965 ], [ 77.618977, 12.99877 ], [ 77.617936, 12.998284 ], [ 77.61678, 12.995749 ], [ 77.617599, 12.99509 ], [ 77.619358, 12.991692 ], [ 77.619496, 12.988404 ], [ 77.619307, 12.987203 ], [ 77.619079, 12.987182 ], [ 77.617205, 12.988696 ], [ 77.613046, 12.991081 ], [ 77.611159, 12.991753 ], [ 77.608815, 12.993457 ], [ 77.607356, 12.993406 ], [ 77.607162, 12.99032 ], [ 77.605363, 12.99015 ], [ 77.604981, 12.99135 ], [ 77.603872, 12.992727 ], [ 77.602857, 12.992404 ], [ 77.601821, 12.992485 ], [ 77.596593, 12.994442 ], [ 77.600676, 12.9957 ], [ 77.605629, 12.994241 ], [ 77.608769, 12.998973 ], [ 77.606851, 12.999492 ], [ 77.606468, 12.997823 ], [ 77.605093, 12.997795 ], [ 77.604598, 12.998673 ], [ 77.601849, 12.999876 ], [ 77.601516, 13.001436 ], [ 77.602332, 13.001324 ], [ 77.602587, 13.001559 ], [ 77.60387, 13.003528 ], [ 77.603797, 13.004316 ], [ 77.605237, 13.006669 ], [ 77.595768, 13.011217 ], [ 77.593328, 13.005588 ], [ 77.58812, 13.0135 ], [ 77.586667, 13.014298 ], [ 77.583973, 13.014513 ], [ 77.583971, 13.020389 ], [ 77.584655, 13.022912 ], [ 77.582737, 13.024551 ], [ 77.581279, 13.025215 ], [ 77.580085, 13.026539 ], [ 77.571251, 13.028462 ], [ 77.569477, 13.032876 ], [ 77.562112, 13.041976 ], [ 77.561056, 13.040101 ], [ 77.560083, 13.039216 ], [ 77.558766, 13.038679 ], [ 77.557297, 13.038578 ], [ 77.557576, 13.03611 ], [ 77.557381, 13.034678 ], [ 77.559976, 13.030931 ], [ 77.555486, 13.019842 ], [ 77.554342, 13.019816 ], [ 77.553765, 13.019322 ], [ 77.55004, 13.026052 ] ] ] } },
{ "type": "Feature", "properties": { "corporatio": "West", "source": "OpenCity (data.opencity.in)", "publisher": "Greater Bengaluru Authority (GBA)" }, "geometry": { "type": "Polygon", "coordinates": [ [ [ 77.513112, 12.893014 ], [ 77.509898, 12.888861 ], [ 77.508135, 12.887469 ], [ 77.501067, 12.883827 ], [ 77.496417, 12.880562 ], [ 77.496485, 12.879884 ], [ 77.495724, 12.880034 ], [ 77.490151, 12.873003 ], [ 77.482247, 12.864475 ], [ 77.476716, 12.865229 ], [ 77.477635, 12.866656 ], [ 77.477241, 12.866755 ], [ 77.476925, 12.866288 ], [ 77.476559, 12.866731 ], [ 77.476016, 12.866759 ], [ 77.475984, 12.867252 ], [ 77.476393, 12.867345 ], [ 77.476426, 12.868418 ], [ 77.478171, 12.868471 ], [ 77.477495, 12.871444 ], [ 77.477748, 12.877933 ], [ 77.475594, 12.87826 ], [ 77.475827, 12.87843 ], [ 77.474865, 12.880417 ], [ 77.478902, 12.88445 ], [ 77.478767, 12.88612 ], [ 77.482078, 12.885756 ], [ 77.48285, 12.885946 ], [ 77.482968, 12.886402 ], [ 77.482009, 12.8893 ], [ 77.481128, 12.890132 ], [ 77.479307, 12.88979 ], [ 77.47907, 12.892172 ], [ 77.477832, 12.893024 ], [ 77.476737, 12.894471 ], [ 77.475862, 12.894197 ], [ 77.47549, 12.894424 ], [ 77.475867, 12.895593 ], [ 77.477333, 12.896505 ], [ 77.474693, 12.898134 ], [ 77.473359, 12.898403 ], [ 77.470221, 12.894095 ], [ 77.468368, 12.888477 ], [ 77.462173, 12.897285 ], [ 77.461543, 12.89872 ], [ 77.460677, 12.898499 ], [ 77.460713, 12.90003 ], [ 77.4602, 12.900387 ], [ 77.460051, 12.905067 ], [ 77.460317, 12.906611 ], [ 77.463718, 12.906483 ], [ 77.466672, 12.906878 ], [ 77.466499, 12.910147 ], [ 77.470027, 12.915129 ], [ 77.473192, 12.926664 ], [ 77.475887, 12.926696 ], [ 77.479595, 12.925917 ], [ 77.479733, 12.926399 ], [ 77.479119, 12.927227 ], [ 77.480263, 12.927641 ], [ 77.480987, 12.927406 ], [ 77.481917, 12.928913 ], [ 77.48252, 12.929271 ], [ 77.483229, 12.93069 ], [ 77.482895, 12.931261 ], [ 77.48347, 12.93156 ], [ 77.483073, 12.932685 ], [ 77.483529, 12.932923 ], [ 77.484181, 12.936894 ], [ 77.478357, 12.937562 ], [ 77.476273, 12.938309 ], [ 77.476398, 12.938617 ], [ 77.474736, 12.939915 ], [ 77.473252, 12.940333 ], [ 77.474745, 12.943422 ], [ 77.47507, 12.945468 ], [ 77.476279, 12.948823 ], [ 77.471059, 12.949586 ], [ 77.471122, 12.950725 ], [ 77.472142, 12.950869 ], [ 77.472512, 12.951601 ], [ 77.471477, 12.952268 ], [ 77.471995, 12.955043 ], [ 77.473505, 12.957108 ], [ 77.475284, 12.960389 ], [ 77.472913, 12.96359 ], [ 77.472284, 12.963671 ], [ 77.473485, 12.966986 ], [ 77.473272, 12.967102 ], [ 77.475017, 12.970042 ], [ 77.474837, 12.975671 ], [ 77.473793, 12.982224 ], [ 77.473278, 12.98366 ], [ 77.472259, 12.984847 ], [ 77.469803, 12.9863 ], [ 77.468405, 12.986709 ], [ 77.470363, 12.990654 ], [ 77.47133, 12.993857 ], [ 77.471253, 12.994604 ], [ 77.47245, 12.996806 ], [ 77.472882, 12.996726 ], [ 77.473567, 12.998871 ], [ 77.474202, 12.999219 ], [ 77.475266, 13.002557 ], [ 77.47542, 13.003393 ], [ 77.475194, 13.003426 ], [ 77.474999, 13.004865 ], [ 77.475398, 13.006447 ], [ 77.472839, 13.007268 ], [ 77.473121, 13.008829 ], [ 77.473443, 13.008762 ], [ 77.473989, 13.009652 ], [ 77.475261, 13.013114 ], [ 77.476952, 13.014872 ], [ 77.477471, 13.017303 ], [ 77.478372, 13.019068 ], [ 77.478963, 13.022023 ], [ 77.478436, 13.022158 ], [ 77.478439, 13.024363 ], [ 77.478683, 13.026253 ], [ 77.479607, 13.029274 ], [ 77.476939, 13.031537 ], [ 77.478841, 13.035067 ], [ 77.479898, 13.035721 ], [ 77.480047, 13.037906 ], [ 77.48257, 13.04058 ], [ 77.481665, 13.041177 ], [ 77.481346, 13.042913 ], [ 77.480027, 13.043347 ], [ 77.479572, 13.044354 ], [ 77.479821, 13.045794 ], [ 77.47953, 13.046389 ], [ 77.480075, 13.048509 ], [ 77.482539, 13.048021 ], [ 77.490992, 13.045072 ], [ 77.492026, 13.048093 ], [ 77.492465, 13.051571 ], [ 77.497294, 13.050614 ], [ 77.496653, 13.048958 ], [ 77.508417, 13.045055 ], [ 77.511617, 13.043411 ], [ 77.51628, 13.041794 ], [ 77.518441, 13.03989 ], [ 77.522192, 13.045901 ], [ 77.540749, 13.032502 ], [ 77.541951, 13.038312 ], [ 77.542955, 13.03929 ], [ 77.544842, 13.036979 ], [ 77.547688, 13.031476 ], [ 77.55004, 13.026052 ], [ 77.553911, 13.019221 ], [ 77.554342, 13.019816 ], [ 77.555486, 13.019842 ], [ 77.559976, 13.030931 ], [ 77.557381, 13.034678 ], [ 77.557576, 13.03611 ], [ 77.557297, 13.038578 ], [ 77.558766, 13.038679 ], [ 77.560083, 13.039216 ], [ 77.561056, 13.040101 ], [ 77.562112, 13.041976 ], [ 77.569477, 13.032876 ], [ 77.571251, 13.028462 ], [ 77.580085, 13.026539 ], [ 77.581279, 13.025215 ], [ 77.582737, 13.024551 ], [ 77.584655, 13.022912 ], [ 77.583971, 13.020389 ], [ 77.583973, 13.014513 ], [ 77.586522, 13.014326 ], [ 77.587795, 13.013791 ], [ 77.591701, 13.008419 ], [ 77.593263, 13.005654 ], [ 77.596254, 12.994974 ], [ 77.596103, 12.99469 ], [ 77.59395, 12.995482 ], [ 77.589679, 12.995329 ], [ 77.586552, 12.997505 ], [ 77.584361, 12.997827 ], [ 77.584186, 12.999463 ], [ 77.582998, 12.999251 ], [ 77.580839, 12.997235 ], [ 77.578316, 12.997504 ], [ 77.578335, 12.999161 ], [ 77.573975, 12.998906 ], [ 77.573799, 13.000961 ], [ 77.572579, 13.001003 ], [ 77.572166, 13.003372 ], [ 77.571295, 13.003321 ], [ 77.571456, 12.996856 ], [ 77.566787, 12.996857 ], [ 77.5661, 12.996609 ], [ 77.56833, 12.993369 ], [ 77.567811, 12.99338 ], [ 77.567933, 12.988396 ], [ 77.56145, 12.988282 ], [ 77.561848, 12.987204 ], [ 77.560785, 12.986689 ], [ 77.561729, 12.981916 ], [ 77.561182, 12.981758 ], [ 77.56076, 12.980461 ], [ 77.559249, 12.97995 ], [ 77.558939, 12.978893 ], [ 77.557354, 12.978521 ], [ 77.555446, 12.977484 ], [ 77.554472, 12.975573 ], [ 77.558712, 12.975736 ], [ 77.557897, 12.973739 ], [ 77.557979, 12.97302 ], [ 77.557113, 12.969384 ], [ 77.554383, 12.96906 ], [ 77.554501, 12.96889 ], [ 77.551592, 12.968049 ], [ 77.548495, 12.965141 ], [ 77.546372, 12.964301 ], [ 77.543865, 12.963993 ], [ 77.544424, 12.963281 ], [ 77.545528, 12.96269 ], [ 77.545171, 12.962238 ], [ 77.549581, 12.954711 ], [ 77.549346, 12.954731 ], [ 77.549123, 12.952348 ], [ 77.551583, 12.952071 ], [ 77.553188, 12.950024 ], [ 77.552767, 12.950563 ], [ 77.553535, 12.950803 ], [ 77.554254, 12.950542 ], [ 77.554796, 12.949789 ], [ 77.554989, 12.950563 ], [ 77.556767, 12.949969 ], [ 77.558073, 12.950142 ], [ 77.55714, 12.951181 ], [ 77.55565, 12.951658 ], [ 77.556534, 12.95326 ], [ 77.558482, 12.953132 ], [ 77.559811, 12.95368 ], [ 77.561692, 12.953368 ], [ 77.561794, 12.95165 ], [ 77.562272, 12.950358 ], [ 77.561495, 12.949258 ], [ 77.564239, 12.948519 ], [ 77.564296, 12.941738 ], [ 77.565099, 12.941747 ], [ 77.564979, 12.941007 ], [ 77.563973, 12.939305 ], [ 77.565907, 12.939332 ], [ 77.565988, 12.940001 ], [ 77.566648, 12.940176 ], [ 77.566849, 12.941529 ], [ 77.567845, 12.942803 ], [ 77.567835, 12.943601 ], [ 77.57378, 12.943681 ], [ 77.573845, 12.940628 ], [ 77.577757, 12.940596 ], [ 77.577676, 12.939689 ], [ 77.580035, 12.936775 ], [ 77.584909, 12.936633 ], [ 77.584861, 12.9329 ], [ 77.579617, 12.933045 ], [ 77.579702, 12.923436 ], [ 77.573589, 12.923559 ], [ 77.573561, 12.921026 ], [ 77.574402, 12.920838 ], [ 77.573513, 12.917826 ], [ 77.573534, 12.916979 ], [ 77.572893, 12.916633 ], [ 77.570404, 12.916335 ], [ 77.569567, 12.915502 ], [ 77.568775, 12.917184 ], [ 77.568699, 12.91815 ], [ 77.566027, 12.918765 ], [ 77.565467, 12.917404 ], [ 77.564855, 12.916751 ], [ 77.563577, 12.919246 ], [ 77.562203, 12.920248 ], [ 77.561612, 12.92161 ], [ 77.556281, 12.922978 ], [ 77.555646, 12.920999 ], [ 77.554155, 12.92096 ], [ 77.553026, 12.92026 ], [ 77.552639, 12.91966 ], [ 77.552173, 12.91977 ], [ 77.551956, 12.917879 ], [ 77.551531, 12.917052 ], [ 77.550692, 12.916557 ], [ 77.550919, 12.916469 ], [ 77.550604, 12.915784 ], [ 77.548036, 12.916492 ], [ 77.548624, 12.91803 ], [ 77.546857, 12.918326 ], [ 77.546724, 12.91803 ], [ 77.544764, 12.918287 ], [ 77.544698, 12.917519 ], [ 77.543172, 12.917643 ], [ 77.541929, 12.918221 ], [ 77.541987, 12.918799 ], [ 77.541774, 12.918813 ], [ 77.539308, 12.917519 ], [ 77.536429, 12.919249 ], [ 77.534427, 12.91836 ], [ 77.531782, 12.917793 ], [ 77.531086, 12.913104 ], [ 77.529498, 12.909917 ], [ 77.525871, 12.904291 ], [ 77.517833, 12.897868 ], [ 77.513112, 12.893014 ] ] ] } },
{ "type": "Feature", "properties": { "corporatio": "East", "source": "OpenCity (data.opencity.in)", "publisher": "Greater Bengaluru Authority (GBA)" }, "geometry": { "type": "Polygon", "coordinates": [ [ [ 77.673572, 12.91612 ], [ 77.673186, 12.91696 ], [ 77.66477, 12.920619 ], [ 77.665182, 12.92107 ], [ 77.666619, 12.920982 ], [ 77.667793, 12.921564 ], [ 77.668202, 12.923236 ], [ 77.668773, 12.923316 ], [ 77.668898, 12.927151 ], [ 77.668459, 12.928708 ], [ 77.667691, 12.928793 ], [ 77.668035, 12.931243 ], [ 77.666402, 12.931006 ], [ 77.665855, 12.930351 ], [ 77.665115, 12.928355 ], [ 77.664594, 12.928052 ], [ 77.663024, 12.928332 ], [ 77.661817, 12.928961 ], [ 77.661085, 12.929827 ], [ 77.659124, 12.929418 ], [ 77.655021, 12.934968 ], [ 77.660564, 12.938029 ], [ 77.660434, 12.938269 ], [ 77.65891, 12.938297 ], [ 77.658908, 12.937915 ], [ 77.658139, 12.937896 ], [ 77.658056, 12.939851 ], [ 77.6544, 12.940248 ], [ 77.649157, 12.94293 ], [ 77.647329, 12.944285 ], [ 77.647455, 12.944967 ], [ 77.640615, 12.950457 ], [ 77.639739, 12.951534 ], [ 77.640773, 12.953294 ], [ 77.642073, 12.953944 ], [ 77.644254, 12.953334 ], [ 77.644499, 12.951723 ], [ 77.645403, 12.949401 ], [ 77.646533, 12.947867 ], [ 77.649025, 12.946013 ], [ 77.649374, 12.947401 ], [ 77.649051, 12.947902 ], [ 77.649255, 12.949072 ], [ 77.650542, 12.950638 ], [ 77.652298, 12.951837 ], [ 77.652524, 12.952523 ], [ 77.660983, 12.952869 ], [ 77.660992, 12.954328 ], [ 77.662368, 12.954237 ], [ 77.6624, 12.954784 ], [ 77.661776, 12.954955 ], [ 77.661818, 12.955393 ], [ 77.660847, 12.955419 ], [ 77.660913, 12.955666 ], [ 77.66337, 12.955722 ], [ 77.663029, 12.956828 ], [ 77.663374, 12.958092 ], [ 77.663582, 12.958892 ], [ 77.663588, 12.958916 ], [ 77.660889, 12.959254 ], [ 77.659664, 12.959062 ], [ 77.660164, 12.96087 ], [ 77.659773, 12.961026 ], [ 77.659968, 12.961689 ], [ 77.66082, 12.961607 ], [ 77.660947, 12.962212 ], [ 77.661447, 12.962137 ], [ 77.661708, 12.962902 ], [ 77.661791, 12.964272 ], [ 77.661087, 12.964154 ], [ 77.660546, 12.964962 ], [ 77.661559, 12.965532 ], [ 77.661965, 12.966306 ], [ 77.661645, 12.966804 ], [ 77.658461, 12.967192 ], [ 77.657952, 12.968165 ], [ 77.657274, 12.968244 ], [ 77.657702, 12.970712 ], [ 77.658735, 12.971254 ], [ 77.658637, 12.971453 ], [ 77.661518, 12.97162 ], [ 77.661566, 12.971979 ], [ 77.663057, 12.971538 ], [ 77.665335, 12.971844 ], [ 77.666158, 12.971446 ], [ 77.666573, 12.97245 ], [ 77.666965, 12.972618 ], [ 77.666661, 12.973009 ], [ 77.666914, 12.974301 ], [ 77.666611, 12.974425 ], [ 77.666516, 12.975333 ], [ 77.667314, 12.975574 ], [ 77.668847, 12.975403 ], [ 77.674491, 12.973488 ], [ 77.678116, 12.972709 ], [ 77.679299, 12.976162 ], [ 77.679505, 12.979047 ], [ 77.680439, 12.982755 ], [ 77.679842, 12.983568 ], [ 77.674924, 12.986368 ], [ 77.672933, 12.98637 ], [ 77.671712, 12.985878 ], [ 77.66948, 12.986122 ], [ 77.667973, 12.985491 ], [ 77.667526, 12.985937 ], [ 77.66741, 12.988671 ], [ 77.667629, 12.989526 ], [ 77.668164, 12.989842 ], [ 77.668362, 12.990196 ], [ 77.666907, 12.991053 ], [ 77.665532, 12.992383 ], [ 77.662791, 12.99676 ], [ 77.66407, 12.997484 ], [ 77.663592, 12.998259 ], [ 77.662095, 13.015726 ], [ 77.661798, 13.016336 ], [ 77.640115, 13.025707 ], [ 77.635815, 13.026632 ], [ 77.632716, 13.027773 ], [ 77.633496, 13.028689 ], [ 77.636354, 13.0278 ], [ 77.637605, 13.027986 ], [ 77.637916, 13.030015 ], [ 77.639398, 13.031385 ], [ 77.641032, 13.034259 ], [ 77.643268, 13.034067 ], [ 77.643231, 13.035906 ], [ 77.64494, 13.035881 ], [ 77.644421, 13.036226 ], [ 77.643768, 13.038966 ], [ 77.642368, 13.038977 ], [ 77.641458, 13.039511 ], [ 77.641391, 13.042415 ], [ 77.639263, 13.043314 ], [ 77.638008, 13.043217 ], [ 77.63729, 13.04281 ], [ 77.637101, 13.044682 ], [ 77.638334, 13.050064 ], [ 77.638428, 13.051554 ], [ 77.63778, 13.051809 ], [ 77.638339, 13.054535 ], [ 77.638195, 13.061533 ], [ 77.638696, 13.066544 ], [ 77.639527, 13.06969 ], [ 77.639491, 13.074935 ], [ 77.638309, 13.07516 ], [ 77.639559, 13.076668 ], [ 77.640974, 13.07696 ], [ 77.642146, 13.077826 ], [ 77.644551, 13.082317 ], [ 77.646603, 13.085152 ], [ 77.649672, 13.081236 ], [ 77.654857, 13.081913 ], [ 77.656431, 13.074863 ], [ 77.6578, 13.073042 ], [ 77.659727, 13.068044 ], [ 77.660155, 13.067725 ], [ 77.667022, 13.065903 ], [ 77.667146, 13.063946 ], [ 77.670052, 13.065955 ], [ 77.675093, 13.064838 ], [ 77.676926, 13.065061 ], [ 77.677174, 13.064957 ], [ 77.676668, 13.063585 ], [ 77.676837, 13.062913 ], [ 77.67899, 13.062858 ], [ 77.679505, 13.061947 ], [ 77.679444, 13.058583 ], [ 77.678958, 13.057822 ], [ 77.679426, 13.055768 ], [ 77.678899, 13.055219 ], [ 77.678375, 13.052347 ], [ 77.679939, 13.052412 ], [ 77.683338, 13.04995 ], [ 77.684945, 13.04527 ], [ 77.684876, 13.042907 ], [ 77.683539, 13.03312 ], [ 77.686881, 13.033476 ], [ 77.690855, 13.032558 ], [ 77.694404, 13.026725 ], [ 77.701698, 13.027438 ], [ 77.701269, 13.024966 ], [ 77.703275, 13.025752 ], [ 77.705963, 13.026287 ], [ 77.708021, 13.025872 ], [ 77.709244, 13.025269 ], [ 77.710709, 13.026144 ], [ 77.712067, 13.028381 ], [ 77.715083, 13.031992 ], [ 77.717392, 13.031557 ], [ 77.717371, 13.032917 ], [ 77.72152, 13.034115 ], [ 77.721625, 13.033715 ], [ 77.723958, 13.033367 ], [ 77.724229, 13.032303 ], [ 77.724875, 13.032029 ], [ 77.724637, 13.029221 ], [ 77.72525, 13.027019 ], [ 77.725168, 13.025785 ], [ 77.725677, 13.025755 ], [ 77.729898, 13.019686 ], [ 77.730056, 13.018734 ], [ 77.72866, 13.014449 ], [ 77.728011, 13.01048 ], [ 77.732441, 13.010801 ], [ 77.733894, 13.010123 ], [ 77.735671, 13.010933 ], [ 77.736232, 13.010762 ], [ 77.736101, 13.007486 ], [ 77.736523, 13.007829 ], [ 77.738143, 13.007577 ], [ 77.740774, 13.008133 ], [ 77.74099, 13.007147 ], [ 77.745154, 13.007171 ], [ 77.747168, 13.006714 ], [ 77.746925, 13.010438 ], [ 77.747364, 13.011629 ], [ 77.747826, 13.011567 ], [ 77.747968, 13.012619 ], [ 77.749324, 13.012005 ], [ 77.749721, 13.01151 ], [ 77.752686, 13.010658 ], [ 77.754432, 13.008921 ], [ 77.754842, 13.008848 ], [ 77.755302, 13.010335 ], [ 77.756014, 13.010072 ], [ 77.757354, 13.008872 ], [ 77.759439, 13.007751 ], [ 77.759636, 13.006985 ], [ 77.759409, 13.005897 ], [ 77.760764, 13.004907 ], [ 77.761992, 13.005119 ], [ 77.763472, 13.002851 ], [ 77.764124, 13.004082 ], [ 77.768699, 13.00269 ], [ 77.76966, 13.005906 ], [ 77.769782, 13.009365 ], [ 77.771505, 13.015099 ], [ 77.773114, 13.014642 ], [ 77.773175, 13.013675 ], [ 77.774443, 13.013302 ], [ 77.773855, 13.012479 ], [ 77.773714, 13.011249 ], [ 77.774002, 13.010646 ], [ 77.77328, 13.010183 ], [ 77.773365, 13.006378 ], [ 77.773776, 13.006155 ], [ 77.774415, 13.006436 ], [ 77.77568, 13.006015 ], [ 77.775889, 13.005491 ], [ 77.775498, 13.003325 ], [ 77.774769, 13.002881 ], [ 77.773499, 13.00316 ], [ 77.772769, 13.002969 ], [ 77.77247, 13.002521 ], [ 77.772862, 13.001944 ], [ 77.773661, 13.001877 ], [ 77.773822, 13.001249 ], [ 77.774765, 13.001146 ], [ 77.774991, 13.000859 ], [ 77.77511, 12.997049 ], [ 77.774183, 12.992003 ], [ 77.775209, 12.992105 ], [ 77.776114, 12.991533 ], [ 77.775997, 12.990659 ], [ 77.776496, 12.988315 ], [ 77.775942, 12.988294 ], [ 77.776148, 12.98792 ], [ 77.775904, 12.986392 ], [ 77.776068, 12.985872 ], [ 77.777147, 12.985165 ], [ 77.776576, 12.984865 ], [ 77.776095, 12.982498 ], [ 77.77472, 12.980522 ], [ 77.775911, 12.979932 ], [ 77.777413, 12.978369 ], [ 77.778425, 12.978562 ], [ 77.778827, 12.977163 ], [ 77.778625, 12.976797 ], [ 77.778244, 12.976224 ], [ 77.776976, 12.976408 ], [ 77.77616, 12.97497 ], [ 77.776874, 12.974002 ], [ 77.778149, 12.973398 ], [ 77.779243, 12.972236 ], [ 77.778628, 12.971084 ], [ 77.778673, 12.97048 ], [ 77.780217, 12.970164 ], [ 77.780835, 12.970319 ], [ 77.781149, 12.970771 ], [ 77.783262, 12.970891 ], [ 77.783647, 12.970616 ], [ 77.784361, 12.968558 ], [ 77.784078, 12.966563 ], [ 77.781848, 12.966135 ], [ 77.781224, 12.966957 ], [ 77.780535, 12.967124 ], [ 77.778596, 12.966765 ], [ 77.778656, 12.967718 ], [ 77.777451, 12.968224 ], [ 77.77459, 12.96651 ], [ 77.771984, 12.965923 ], [ 77.770689, 12.964233 ], [ 77.769812, 12.96177 ], [ 77.768229, 12.961128 ], [ 77.767962, 12.960342 ], [ 77.767299, 12.960066 ], [ 77.766993, 12.95936 ], [ 77.766603, 12.959216 ], [ 77.764881, 12.959895 ], [ 77.764567, 12.959491 ], [ 77.764331, 12.957583 ], [ 77.76456, 12.951914 ], [ 77.764924, 12.951078 ], [ 77.765524, 12.946593 ], [ 77.765253, 12.942657 ], [ 77.765512, 12.937016 ], [ 77.766345, 12.935018 ], [ 77.765688, 12.933378 ], [ 77.765593, 12.931803 ], [ 77.764651, 12.928775 ], [ 77.762288, 12.92838 ], [ 77.756652, 12.926337 ], [ 77.752216, 12.92526 ], [ 77.751379, 12.922083 ], [ 77.745685, 12.919902 ], [ 77.744734, 12.913721 ], [ 77.743183, 12.913836 ], [ 77.740795, 12.914546 ], [ 77.738617, 12.914305 ], [ 77.737506, 12.914722 ], [ 77.737284, 12.913503 ], [ 77.734447, 12.913197 ], [ 77.734361, 12.914182 ], [ 77.73207, 12.913924 ], [ 77.727569, 12.914412 ], [ 77.727612, 12.910887 ], [ 77.726277, 12.90661 ], [ 77.722809, 12.907262 ], [ 77.720764, 12.908221 ], [ 77.720746, 12.908893 ], [ 77.719672, 12.908754 ], [ 77.719699, 12.908135 ], [ 77.719213, 12.908137 ], [ 77.717856, 12.908374 ], [ 77.717913, 12.908872 ], [ 77.71764, 12.908966 ], [ 77.716122, 12.907387 ], [ 77.714228, 12.908083 ], [ 77.7113, 12.907863 ], [ 77.708353, 12.908147 ], [ 77.706871, 12.902026 ], [ 77.699064, 12.906175 ], [ 77.68803, 12.909359 ], [ 77.682824, 12.911437 ], [ 77.677631, 12.914084 ], [ 77.675531, 12.914569 ], [ 77.673572, 12.91612 ] ] ] } },
{ "type": "Feature", "properties": { "corporatio": "South", "source": "OpenCity (data.opencity.in)", "publisher": "Greater Bengaluru Authority (GBA)" }, "geometry": { "type": "Polygon", "coordinates": [ [ [ 77.579768, 12.838083 ], [ 77.573138, 12.839131 ], [ 77.565681, 12.83968 ], [ 77.562199, 12.83902 ], [ 77.557279, 12.841534 ], [ 77.55718, 12.843933 ], [ 77.554952, 12.847673 ], [ 77.554482, 12.848012 ], [ 77.553246, 12.847769 ], [ 77.553034, 12.847136 ], [ 77.551369, 12.847961 ], [ 77.544865, 12.847691 ], [ 77.544358, 12.84699 ], [ 77.544576, 12.846312 ], [ 77.544314, 12.844369 ], [ 77.542775, 12.843371 ], [ 77.541677, 12.843325 ], [ 77.541272, 12.844287 ], [ 77.540492, 12.844962 ], [ 77.538334, 12.845304 ], [ 77.537575, 12.841737 ], [ 77.535108, 12.840954 ], [ 77.533434, 12.839702 ], [ 77.526057, 12.840642 ], [ 77.523518, 12.839945 ], [ 77.5216, 12.84893 ], [ 77.519148, 12.855 ], [ 77.518409, 12.861166 ], [ 77.519551, 12.862118 ], [ 77.52022, 12.866343 ], [ 77.522982, 12.870566 ], [ 77.520267, 12.872178 ], [ 77.519437, 12.87179 ], [ 77.516368, 12.868804 ], [ 77.516351, 12.868515 ], [ 77.516717, 12.868486 ], [ 77.516794, 12.866637 ], [ 77.515571, 12.862606 ], [ 77.516098, 12.862399 ], [ 77.515475, 12.860985 ], [ 77.515843, 12.860597 ], [ 77.515827, 12.859326 ], [ 77.516535, 12.858489 ], [ 77.516545, 12.857849 ], [ 77.503842, 12.857865 ], [ 77.504294, 12.860014 ], [ 77.505069, 12.860153 ], [ 77.506029, 12.861271 ], [ 77.506899, 12.863467 ], [ 77.506783, 12.864301 ], [ 77.50877, 12.865158 ], [ 77.497995, 12.872785 ], [ 77.497022, 12.870629 ], [ 77.496612, 12.868753 ], [ 77.491878, 12.868434 ], [ 77.490963, 12.868864 ], [ 77.489864, 12.86851 ], [ 77.490107, 12.865362 ], [ 77.487061, 12.864758 ], [ 77.485356, 12.862354 ], [ 77.48557, 12.86019 ], [ 77.482907, 12.860749 ], [ 77.482904, 12.861077 ], [ 77.480969, 12.861543 ], [ 77.480568, 12.861517 ], [ 77.480226, 12.860986 ], [ 77.478365, 12.862106 ], [ 77.478235, 12.86189 ], [ 77.477753, 12.862141 ], [ 77.479211, 12.863799 ], [ 77.48101, 12.862777 ], [ 77.482247, 12.864475 ], [ 77.49061, 12.873534 ], [ 77.493254, 12.877233 ], [ 77.493939, 12.877655 ], [ 77.495724, 12.880034 ], [ 77.496485, 12.879884 ], [ 77.496417, 12.880562 ], [ 77.501067, 12.883827 ], [ 77.507591, 12.887144 ], [ 77.509431, 12.888436 ], [ 77.513112, 12.893014 ], [ 77.517833, 12.897868 ], [ 77.525871, 12.904291 ], [ 77.529498, 12.909917 ], [ 77.531086, 12.913104 ], [ 77.531782, 12.917793 ], [ 77.534427, 12.91836 ], [ 77.536429, 12.919249 ], [ 77.539308, 12.917519 ], [ 77.541774, 12.918813 ], [ 77.541987, 12.918799 ], [ 77.541929, 12.918221 ], [ 77.543172, 12.917643 ], [ 77.544698, 12.917519 ], [ 77.544764, 12.918287 ], [ 77.546724, 12.91803 ], [ 77.546857, 12.918326 ], [ 77.548624, 12.91803 ], [ 77.548036, 12.916492 ], [ 77.550604, 12.915784 ], [ 77.551956, 12.917879 ], [ 77.552173, 12.91977 ], [ 77.552639, 12.91966 ], [ 77.553026, 12.92026 ], [ 77.554155, 12.92096 ], [ 77.555646, 12.920999 ], [ 77.556281, 12.922978 ], [ 77.561612, 12.92161 ], [ 77.562203, 12.920248 ], [ 77.563889, 12.918779 ], [ 77.564897, 12.916647 ], [ 77.566027, 12.918765 ], [ 77.568699, 12.91815 ], [ 77.568775, 12.917184 ], [ 77.569567, 12.915502 ], [ 77.570404, 12.916335 ], [ 77.572893, 12.916633 ], [ 77.573534, 12.916979 ], [ 77.573513, 12.917826 ], [ 77.574402, 12.920838 ], [ 77.573561, 12.921026 ], [ 77.573589, 12.923559 ], [ 77.579702, 12.923436 ], [ 77.579617, 12.933045 ], [ 77.584861, 12.9329 ], [ 77.584909, 12.936633 ], [ 77.586272, 12.936399 ], [ 77.587816, 12.935163 ], [ 77.589135, 12.935811 ], [ 77.589937, 12.9355 ], [ 77.590116, 12.936321 ], [ 77.590556, 12.936128 ], [ 77.591042, 12.93667 ], [ 77.5927, 12.936205 ], [ 77.592498, 12.928475 ], [ 77.600496, 12.928295 ], [ 77.600705, 12.931517 ], [ 77.601698, 12.937089 ], [ 77.599377, 12.937607 ], [ 77.598474, 12.938402 ], [ 77.597659, 12.939954 ], [ 77.597255, 12.943187 ], [ 77.602629, 12.942139 ], [ 77.602844, 12.944096 ], [ 77.602426, 12.947356 ], [ 77.603443, 12.950509 ], [ 77.60569, 12.950116 ], [ 77.605832, 12.94967 ], [ 77.611037, 12.948966 ], [ 77.611665, 12.949307 ], [ 77.616858, 12.949246 ], [ 77.619319, 12.947451 ], [ 77.621499, 12.951664 ], [ 77.623326, 12.950812 ], [ 77.625919, 12.950152 ], [ 77.627508, 12.9488 ], [ 77.629106, 12.946163 ], [ 77.633302, 12.937341 ], [ 77.637169, 12.933254 ], [ 77.638812, 12.930904 ], [ 77.639523, 12.930556 ], [ 77.639579, 12.929686 ], [ 77.641901, 12.929255 ], [ 77.64132, 12.926164 ], [ 77.639166, 12.925843 ], [ 77.639291, 12.924058 ], [ 77.641243, 12.923368 ], [ 77.645166, 12.92446 ], [ 77.649193, 12.924695 ], [ 77.651738, 12.924221 ], [ 77.651501, 12.921184 ], [ 77.6536, 12.920962 ], [ 77.653612, 12.920451 ], [ 77.654664, 12.92045 ], [ 77.660354, 12.916345 ], [ 77.662216, 12.918791 ], [ 77.66279, 12.921198 ], [ 77.66116, 12.921612 ], [ 77.663286, 12.928229 ], [ 77.664933, 12.928137 ], [ 77.666402, 12.931006 ], [ 77.668035, 12.931243 ], [ 77.667691, 12.928793 ], [ 77.668459, 12.928708 ], [ 77.668898, 12.927151 ], [ 77.668773, 12.923316 ], [ 77.668202, 12.923236 ], [ 77.667793, 12.921564 ], [ 77.666619, 12.920982 ], [ 77.665182, 12.92107 ], [ 77.66477, 12.920619 ], [ 77.673186, 12.91696 ], [ 77.673984, 12.91559 ], [ 77.675531, 12.914569 ], [ 77.678485, 12.913626 ], [ 77.682824, 12.911437 ], [ 77.688818, 12.909052 ], [ 77.698784, 12.90629 ], [ 77.702887, 12.904088 ], [ 77.702396, 12.903576 ], [ 77.697853, 12.904545 ], [ 77.697659, 12.90418 ], [ 77.696261, 12.903994 ], [ 77.693394, 12.904489 ], [ 77.691527, 12.903976 ], [ 77.690925, 12.905525 ], [ 77.688255, 12.905488 ], [ 77.687752, 12.906442 ], [ 77.686848, 12.906449 ], [ 77.687311, 12.904728 ], [ 77.68578, 12.904433 ], [ 77.687582, 12.903338 ], [ 77.687447, 12.90245 ], [ 77.682449, 12.901426 ], [ 77.682277, 12.899959 ], [ 77.679592, 12.897598 ], [ 77.677244, 12.894289 ], [ 77.674073, 12.8937 ], [ 77.673839, 12.893194 ], [ 77.672328, 12.88465 ], [ 77.673753, 12.88437 ], [ 77.674341, 12.883833 ], [ 77.674029, 12.879823 ], [ 77.671041, 12.880301 ], [ 77.672474, 12.878457 ], [ 77.673243, 12.878049 ], [ 77.674577, 12.875354 ], [ 77.675289, 12.872633 ], [ 77.672799, 12.86929 ], [ 77.672893, 12.868252 ], [ 77.667821, 12.866407 ], [ 77.666559, 12.866215 ], [ 77.664506, 12.862373 ], [ 77.664007, 12.862427 ], [ 77.66357, 12.86068 ], [ 77.661149, 12.858774 ], [ 77.65766, 12.858146 ], [ 77.657491, 12.858387 ], [ 77.657551, 12.857197 ], [ 77.656382, 12.856998 ], [ 77.656443, 12.856504 ], [ 77.655754, 12.856377 ], [ 77.655848, 12.855717 ], [ 77.655509, 12.855525 ], [ 77.655284, 12.856233 ], [ 77.654913, 12.856188 ], [ 77.653077, 12.855494 ], [ 77.652604, 12.854967 ], [ 77.650344, 12.854394 ], [ 77.650394, 12.853874 ], [ 77.649949, 12.853689 ], [ 77.650278, 12.852183 ], [ 77.649795, 12.852241 ], [ 77.649619, 12.852928 ], [ 77.649215, 12.852752 ], [ 77.649312, 12.852134 ], [ 77.647727, 12.851858 ], [ 77.647595, 12.852354 ], [ 77.64617, 12.852098 ], [ 77.645754, 12.851698 ], [ 77.645596, 12.851969 ], [ 77.644905, 12.851753 ], [ 77.64491, 12.852156 ], [ 77.64288, 12.851208 ], [ 77.642844, 12.859434 ], [ 77.641793, 12.863654 ], [ 77.641478, 12.863704 ], [ 77.641265, 12.864271 ], [ 77.641332, 12.865049 ], [ 77.638836, 12.864906 ], [ 77.638449, 12.86331 ], [ 77.637394, 12.862891 ], [ 77.636429, 12.863129 ], [ 77.635245, 12.862956 ], [ 77.634544, 12.862635 ], [ 77.634254, 12.861924 ], [ 77.632192, 12.861229 ], [ 77.631168, 12.860481 ], [ 77.630638, 12.85993 ], [ 77.630393, 12.858582 ], [ 77.629063, 12.856912 ], [ 77.619043, 12.858137 ], [ 77.618908, 12.857589 ], [ 77.616795, 12.857566 ], [ 77.616398, 12.855827 ], [ 77.614361, 12.854252 ], [ 77.612702, 12.851654 ], [ 77.609176, 12.85126 ], [ 77.609065, 12.847539 ], [ 77.609323, 12.846045 ], [ 77.607186, 12.847477 ], [ 77.604554, 12.848242 ], [ 77.602672, 12.848398 ], [ 77.600196, 12.847939 ], [ 77.597778, 12.848329 ], [ 77.595617, 12.849161 ], [ 77.594524, 12.846334 ], [ 77.593851, 12.840446 ], [ 77.592854, 12.837119 ], [ 77.591537, 12.834512 ], [ 77.590542, 12.834911 ], [ 77.590536, 12.835539 ], [ 77.589561, 12.835448 ], [ 77.587079, 12.833625 ], [ 77.581279, 12.83752 ], [ 77.579768, 12.838083 ] ] ] } },
{ "type": "Feature", "properties": { "corporatio": "Central", "source": "OpenCity (data.opencity.in)", "publisher": "Greater Bengaluru Authority (GBA)" }, "geometry": { "type": "Polygon", "coordinates": [ [ [ 77.56617, 12.940182 ], [ 77.565907, 12.939332 ], [ 77.563973, 12.939305 ], [ 77.564979, 12.941007 ], [ 77.565099, 12.941747 ], [ 77.564296, 12.941738 ], [ 77.564239, 12.948519 ], [ 77.561495, 12.949258 ], [ 77.562272, 12.950358 ], [ 77.561794, 12.95165 ], [ 77.561692, 12.953368 ], [ 77.559811, 12.95368 ], [ 77.558482, 12.953132 ], [ 77.556534, 12.95326 ], [ 77.55565, 12.951658 ], [ 77.55714, 12.951181 ], [ 77.558073, 12.950142 ], [ 77.556767, 12.949969 ], [ 77.554989, 12.950563 ], [ 77.554796, 12.949789 ], [ 77.553948, 12.950733 ], [ 77.552767, 12.950563 ], [ 77.551583, 12.952071 ], [ 77.549123, 12.952348 ], [ 77.549346, 12.954731 ], [ 77.549581, 12.954711 ], [ 77.545171, 12.962238 ], [ 77.545528, 12.96269 ], [ 77.544424, 12.963281 ], [ 77.543865, 12.963993 ], [ 77.546372, 12.964301 ], [ 77.548495, 12.965141 ], [ 77.551592, 12.968049 ], [ 77.557113, 12.969384 ], [ 77.557979, 12.97302 ], [ 77.557897, 12.973739 ], [ 77.558712, 12.975736 ], [ 77.554493, 12.975574 ], [ 77.555446, 12.977484 ], [ 77.557354, 12.978521 ], [ 77.558939, 12.978893 ], [ 77.559249, 12.97995 ], [ 77.56076, 12.980461 ], [ 77.561182, 12.981758 ], [ 77.561729, 12.981916 ], [ 77.560785, 12.986689 ], [ 77.561848, 12.987204 ], [ 77.56145, 12.988282 ], [ 77.567933, 12.988396 ], [ 77.567811, 12.99338 ], [ 77.56833, 12.993369 ], [ 77.5661, 12.996609 ], [ 77.566787, 12.996857 ], [ 77.571456, 12.996856 ], [ 77.571295, 13.003321 ], [ 77.572166, 13.003372 ], [ 77.572579, 13.001003 ], [ 77.573799, 13.000961 ], [ 77.573975, 12.998906 ], [ 77.578335, 12.999161 ], [ 77.578316, 12.997504 ], [ 77.580839, 12.997235 ], [ 77.582998, 12.999251 ], [ 77.584186, 12.999463 ], [ 77.584361, 12.997827 ], [ 77.586552, 12.997505 ], [ 77.589679, 12.995329 ], [ 77.594176, 12.995463 ], [ 77.596103, 12.99469 ], [ 77.595659, 12.997747 ], [ 77.593263, 13.005654 ], [ 77.595768, 13.011217 ], [ 77.605237, 13.006669 ], [ 77.603797, 13.004316 ], [ 77.60387, 13.003528 ], [ 77.602587, 13.001559 ], [ 77.602332, 13.001324 ], [ 77.601516, 13.001436 ], [ 77.601849, 12.999876 ], [ 77.604598, 12.998673 ], [ 77.605093, 12.997795 ], [ 77.606468, 12.997823 ], [ 77.606851, 12.999492 ], [ 77.608769, 12.998973 ], [ 77.605629, 12.994241 ], [ 77.600676, 12.9957 ], [ 77.596593, 12.994442 ], [ 77.601821, 12.992485 ], [ 77.602857, 12.992404 ], [ 77.603872, 12.992727 ], [ 77.604981, 12.99135 ], [ 77.605363, 12.99015 ], [ 77.607162, 12.99032 ], [ 77.607356, 12.993406 ], [ 77.608815, 12.993457 ], [ 77.611159, 12.991753 ], [ 77.613859, 12.990653 ], [ 77.619307, 12.987203 ], [ 77.619554, 12.989858 ], [ 77.619358, 12.991692 ], [ 77.617599, 12.99509 ], [ 77.61678, 12.995749 ], [ 77.617936, 12.998284 ], [ 77.618977, 12.99877 ], [ 77.620183, 12.999965 ], [ 77.624617, 12.99605 ], [ 77.626232, 12.995185 ], [ 77.629155, 12.994475 ], [ 77.628892, 12.994186 ], [ 77.63734, 12.992682 ], [ 77.637471, 12.993671 ], [ 77.637962, 12.993818 ], [ 77.637939, 12.995101 ], [ 77.640449, 12.994871 ], [ 77.640659, 12.995684 ], [ 77.641232, 12.995388 ], [ 77.641324, 12.995778 ], [ 77.642719, 12.995803 ], [ 77.64058, 12.998919 ], [ 77.638566, 13.002633 ], [ 77.636339, 13.003884 ], [ 77.637593, 13.005171 ], [ 77.641094, 13.006051 ], [ 77.645528, 13.00639 ], [ 77.646704, 13.007991 ], [ 77.647981, 13.007529 ], [ 77.649737, 13.00746 ], [ 77.651568, 13.00669 ], [ 77.651262, 13.006079 ], [ 77.652876, 13.005815 ], [ 77.656203, 13.009069 ], [ 77.658131, 13.01045 ], [ 77.662298, 13.012389 ], [ 77.663592, 12.998259 ], [ 77.66407, 12.997484 ], [ 77.662791, 12.99676 ], [ 77.665532, 12.992383 ], [ 77.666907, 12.991053 ], [ 77.668364, 12.990195 ], [ 77.667629, 12.989526 ], [ 77.66741, 12.988671 ], [ 77.667526, 12.985937 ], [ 77.667973, 12.985491 ], [ 77.66948, 12.986122 ], [ 77.671712, 12.985878 ], [ 77.672933, 12.98637 ], [ 77.674924, 12.986368 ], [ 77.679842, 12.983568 ], [ 77.680439, 12.982755 ], [ 77.679505, 12.979047 ], [ 77.679299, 12.976162 ], [ 77.678116, 12.972709 ], [ 77.674491, 12.973488 ], [ 77.668847, 12.975403 ], [ 77.667314, 12.975574 ], [ 77.666516, 12.975333 ], [ 77.666611, 12.974425 ], [ 77.666914, 12.974301 ], [ 77.666661, 12.973009 ], [ 77.666965, 12.972618 ], [ 77.666573, 12.97245 ], [ 77.666158, 12.971446 ], [ 77.665335, 12.971844 ], [ 77.663057, 12.971538 ], [ 77.661566, 12.971979 ], [ 77.661518, 12.97162 ], [ 77.658637, 12.971453 ], [ 77.658735, 12.971254 ], [ 77.657702, 12.970712 ], [ 77.657274, 12.968244 ], [ 77.657952, 12.968165 ], [ 77.658461, 12.967192 ], [ 77.661645, 12.966804 ], [ 77.661965, 12.966306 ], [ 77.661559, 12.965532 ], [ 77.660546, 12.964962 ], [ 77.661087, 12.964154 ], [ 77.661791, 12.964272 ], [ 77.661708, 12.962902 ], [ 77.661447, 12.962137 ], [ 77.660947, 12.962212 ], [ 77.66082, 12.961607 ], [ 77.659968, 12.961689 ], [ 77.659773, 12.961026 ], [ 77.660164, 12.96087 ], [ 77.659664, 12.959062 ], [ 77.661144, 12.959243 ], [ 77.663582, 12.958892 ], [ 77.663029, 12.956828 ], [ 77.66337, 12.955722 ], [ 77.660913, 12.955666 ], [ 77.660847, 12.955419 ], [ 77.661818, 12.955393 ], [ 77.661776, 12.954955 ], [ 77.6624, 12.954784 ], [ 77.662368, 12.954237 ], [ 77.660992, 12.954328 ], [ 77.660983, 12.952869 ], [ 77.652524, 12.952523 ], [ 77.652298, 12.951837 ], [ 77.650542, 12.950638 ], [ 77.649255, 12.949072 ], [ 77.649051, 12.947902 ], [ 77.649374, 12.947401 ], [ 77.649025, 12.946013 ], [ 77.646533, 12.947867 ], [ 77.645403, 12.949401 ], [ 77.644499, 12.951723 ], [ 77.644254, 12.953334 ], [ 77.642073, 12.953944 ], [ 77.640773, 12.953294 ], [ 77.639739, 12.951534 ], [ 77.640615, 12.950457 ], [ 77.647455, 12.944967 ], [ 77.647329, 12.944285 ], [ 77.649157, 12.94293 ], [ 77.6544, 12.940248 ], [ 77.658056, 12.939851 ], [ 77.658139, 12.937896 ], [ 77.658908, 12.937915 ], [ 77.65891, 12.938297 ], [ 77.660434, 12.938269 ], [ 77.660564, 12.93803 ], [ 77.655021, 12.934968 ], [ 77.659124, 12.929418 ], [ 77.661085, 12.929827 ], [ 77.661817, 12.928961 ], [ 77.663286, 12.928229 ], [ 77.66116, 12.921612 ], [ 77.66279, 12.921198 ], [ 77.662216, 12.918791 ], [ 77.660354, 12.916345 ], [ 77.654664, 12.92045 ], [ 77.653612, 12.920451 ], [ 77.6536, 12.920962 ], [ 77.651501, 12.921184 ], [ 77.651738, 12.924221 ], [ 77.649193, 12.924695 ], [ 77.645166, 12.92446 ], [ 77.641243, 12.923368 ], [ 77.639291, 12.924058 ], [ 77.639166, 12.925843 ], [ 77.64132, 12.926164 ], [ 77.641901, 12.929255 ], [ 77.639579, 12.929686 ], [ 77.639523, 12.930556 ], [ 77.638812, 12.930904 ], [ 77.637169, 12.933254 ], [ 77.633114, 12.93759 ], [ 77.62967, 12.945075 ], [ 77.627283, 12.949068 ], [ 77.625919, 12.950152 ], [ 77.623326, 12.950812 ], [ 77.621499, 12.951664 ], [ 77.619319, 12.947451 ], [ 77.616858, 12.949246 ], [ 77.611665, 12.949307 ], [ 77.611037, 12.948966 ], [ 77.605792, 12.949798 ], [ 77.60569, 12.950116 ], [ 77.603447, 12.950521 ], [ 77.602426, 12.947356 ], [ 77.602844, 12.944096 ], [ 77.602629, 12.942139 ], [ 77.597255, 12.943187 ], [ 77.597659, 12.939954 ], [ 77.598474, 12.938402 ], [ 77.599377, 12.937607 ], [ 77.601698, 12.937089 ], [ 77.600705, 12.931517 ], [ 77.600496, 12.928295 ], [ 77.592498, 12.928475 ], [ 77.5927, 12.936205 ], [ 77.591042, 12.93667 ], [ 77.590556, 12.936128 ], [ 77.590116, 12.936321 ], [ 77.589937, 12.9355 ], [ 77.589135, 12.935811 ], [ 77.587749, 12.935166 ], [ 77.585731, 12.936604 ], [ 77.580035, 12.936775 ], [ 77.577676, 12.939689 ], [ 77.577757, 12.940596 ], [ 77.573845, 12.940628 ], [ 77.57378, 12.943681 ], [ 77.567835, 12.943602 ], [ 77.567845, 12.942803 ], [ 77.566849, 12.941529 ], [ 77.566648, 12.940176 ], [ 77.56617, 12.940182 ] ] ] } }
]
}
