{"type": "FeatureCollection", "features": [{"type": "Feature", "properties": {"amenity": "library", "name": "RRI Library", "osm_id": 674755223}, "geometry": {"type": "Point", "coordinates": [77.58161, 13.0133937]}}, {"type": "Feature", "properties": {"amenity": "library", "name": "RT Nagar Public Library", "osm_id": 850751635}, "geometry": {"type": "Point", "coordinates": [77.5932154, 13.0259675]}}, {"type": "Feature", "properties": {"addr:street": "Elephant Cave Road", "amenity": "library", "name": "City Central Library", "name:kn": "ನಗರ ಗ್ರಂಥಾಲಯ", "osm_id": 1018894416}, "geometry": {"type": "Point", "coordinates": [77.5808383, 12.9355883]}}, {"type": "Feature", "properties": {"amenity": "library", "ele": "939.567139", "name": "KSCST Library", "wpt_description": "28-JAN-11 12:18:05AM", "wpt_symbol": "Flag, Blue", "osm_id": 1184210712}, "geometry": {"type": "Point", "coordinates": [77.5696919, 13.013523]}}, {"type": "Feature", "properties": {"amenity": "library", "name": "Christ University Library", "osm_id": 1346450614}, "geometry": {"type": "Point", "coordinates": [77.6058672, 12.9354349]}}, {"type": "Feature", "properties": {"amenity": "library", "name": "Indian Medical Association", "osm_id": 1437223285}, "geometry": {"type": "Point", "coordinates": [77.5728426, 12.9599222]}}, {"type": "Feature", "properties": {"addr:city": "Bangalore", "addr:postcode": "560029", "amenity": "library", "name": "Christ University Library", "osm_id": 1466921785}, "geometry": {"type": "Point", "coordinates": [77.606469, 12.9335033]}}, {"type": "Feature", "properties": {"amenity": "library", "name": "Just Books", "name:kn": "ಜಸ್ಟ್ ಬುಕ್ಸ್", "osm_id": 1471128625}, "geometry": {"type": "Point", "coordinates": [77.6188923, 12.9388934]}}, {"type": "Feature", "properties": {"amenity": "library", "name:kn": "ಗ್ರಂಥಾಲಯ", "osm_id": 1473899970}, "geometry": {"type": "Point", "coordinates": [77.5732596, 12.9408398]}}, {"type": "Feature", "properties": {"access": "private", "amenity": "library", "designation": "Second floor", "name": "Kor 901 Library", "osm_id": 1474324416}, "geometry": {"type": "Point", "coordinates": [77.612113, 12.9366448]}}, {"type": "Feature", "properties": {"amenity": "library", "name": "Vijaynagar Central Library", "osm_id": 1474835642}, "geometry": {"type": "Point", "coordinates": [77.5385798, 12.9734314]}}, {"type": "Feature", "properties": {"amenity": "library", "name": "Just Books", "website": "http://www.justbooksclc.com/", "osm_id": 1595181175}, "geometry": {"type": "Point", "coordinates": [77.6511955, 12.8405853]}}, {"type": "Feature", "properties": {"amenity": "library", "name": "Public Library", "name:kn": "ಸಾರ್ವಜನಿಕ ಗ್ರಂಥಾಲಯ", "osm_id": 1741237720}, "geometry": {"type": "Point", "coordinates": [77.5648322, 12.9252337]}}, {"type": "Feature", "properties": {"amenity": "library", "name": "Public Library", "name:kn": "ಸಾರ್ವಜನಿಕ ಗ್ರಂಥಾಲಯ", "osm_id": 1741564945}, "geometry": {"type": "Point", "coordinates": [77.5566263, 12.9389525]}}, {"type": "Feature", "properties": {"amenity": "library", "name": "Just Books", "osm_id": 1742641459}, "geometry": {"type": "Point", "coordinates": [77.6462571, 13.0147104]}}, {"type": "Feature", "properties": {"amenity": "library", "name": "M S Ramaiah Library", "name:etymology:wikidata": "Q6713104", "osm_id": 1756144144}, "geometry": {"type": "Point", "coordinates": [77.5663599, 13.0287613]}}, {"type": "Feature", "properties": {"amenity": "library", "name:kn": "ಗ್ರಂಥಾಲಯ", "osm_id": 2146315478}, "geometry": {"type": "Point", "coordinates": [77.5176413, 12.9023899]}}, {"type": "Feature", "properties": {"amenity": "library", "name": "Just Books CLC", "osm_id": 2351851726}, "geometry": {"type": "Point", "coordinates": [77.5592094, 13.0789222]}}, {"type": "Feature", "properties": {"amenity": "library", "name": "City Central Library", "name:kn": "ಕೇಂದ್ರಿಯ ಗ್ರಂಥಾಲಯ", "osm_id": 2353259146}, "geometry": {"type": "Point", "coordinates": [77.5594981, 13.0802741]}}, {"type": "Feature", "properties": {"amenity": "library", "name": "Wipro ISD", "osm_id": 2398147877}, "geometry": {"type": "Point", "coordinates": [77.6593981, 12.837238]}}, {"type": "Feature", "properties": {"amenity": "library", "name": "Government Public Library", "name:kn": "ಸರ್ಕಾರಿ ಗ್ರಂಥಾಲಯ", "osm_id": 2767239588}, "geometry": {"type": "Point", "coordinates": [77.5645516, 12.9902879]}}, {"type": "Feature", "properties": {"amenity": "library", "name": "Just Books CLC", "name:kn": "ಜಸ್ಟ್ ಬುಕ್ಸ್", "osm_id": 2850537681}, "geometry": {"type": "Point", "coordinates": [77.5824365, 12.9017134]}}, {"type": "Feature", "properties": {"amenity": "library", "name": "Public Library", "name:kn": "ಸಾರ್ವಜನಿಕ ಗ್ರಂಥಾಲಯ", "osm_id": 2914344547}, "geometry": {"type": "Point", "coordinates": [77.5347682, 12.96021]}}, {"type": "Feature", "properties": {"amenity": "library", "name": "City Central Library", "name:kn": "ಕೇಂದ್ರಿಯ ಗ್ರಂಥಾಲಯ", "operator": "Karnataka government", "osm_id": 3201207024}, "geometry": {"type": "Point", "coordinates": [77.5546879, 12.9955091]}}, {"type": "Feature", "properties": {"amenity": "library", "name": "Max Muller Bhavan", "name:kn": "ಮಾಕ್ಸ್ ಮುಲ್ಲರ್ ಭವನ", "osm_id": 3370028600}, "geometry": {"type": "Point", "coordinates": [77.6443594, 12.9782063]}}, {"type": "Feature", "properties": {"amenity": "library", "name": "Government Central Library", "name:kn": "ಸರ್ಕಾರಿ ಗ್ರಂಥಾಲಯ", "osm_id": 3399331051}, "geometry": {"type": "Point", "coordinates": [77.5775638, 13.0019072]}}, {"type": "Feature", "properties": {"amenity": "library", "name": "Just Books Lending Library", "wheelchair": "no", "osm_id": 3412399008}, "geometry": {"type": "Point", "coordinates": [77.5561073, 12.9893375]}}, {"type": "Feature", "properties": {"amenity": "library", "name": "Rajesh circulating library", "osm_id": 3556364750}, "geometry": {"type": "Point", "coordinates": [77.6399023, 12.9823138]}}, {"type": "Feature", "properties": {"amenity": "library", "name": "Indiranagar Library", "name:kn": "ಇಂದಿರಾನಗರ ಗ್ರಂಥಾಲಯ", "operator": "BBMP", "wheelchair": "no", "osm_id": 3837030325}, "geometry": {"type": "Point", "coordinates": [77.6397762, 12.980827]}}, {"type": "Feature", "properties": {"addr:housenumber": "3168", "addr:street": "Indiranagar Double Road", "amenity": "library", "level": "0", "name": "Just Books", "opening_hours": "Tu-Su 10:00-21:00", "website": "http://justbooksclc.com/", "osm_id": 3838171840}, "geometry": {"type": "Point", "coordinates": [77.6359296, 12.9689288]}}, {"type": "Feature", "properties": {"amenity": "library", "osm_id": 3994774201}, "geometry": {"type": "Point", "coordinates": [77.5789149, 13.0778369]}}, {"type": "Feature", "properties": {"amenity": "library", "designation": "Library", "name": "Nagara Kendra Granthalaya (City Central Library)", "name:kn": "ನಗರ ಕೇಂದ್ರ ಗ್ರಂಥಾಲಯ", "osm_id": 4073025961}, "geometry": {"type": "Point", "coordinates": [77.5358713, 12.9902696]}}, {"type": "Feature", "properties": {"addr:city": "Bangalore", "addr:postcode": "560037", "addr:street": "Yemalur Main Rd, Yemalur, Bellandur,", "amenity": "library", "name": "Yemalur Public Library", "name:kn": "ಯಮಲೂರು ಗ್ರಂಥಾಲಯ", "opening_hours": "09:30-12:30", "osm_id": 4446413888}, "geometry": {"type": "Point", "coordinates": [77.6807231, 12.9471046]}}, {"type": "Feature", "properties": {"addr:city": "BENGALURU", "addr:postcode": "560037", "addr:street": "Challaghatta", "amenity": "library", "name": "kglibrary", "website": "https://kglibrary.webs.com/", "osm_id": 4447050160}, "geometry": {"type": "Point", "coordinates": [77.6517988, 12.943888]}}, {"type": "Feature", "properties": {"amenity": "library", "name:kn": "ಗ್ರಂಥಾಲಯ", "survey:date": "2023-09-14", "osm_id": 4455967989}, "geometry": {"type": "Point", "coordinates": [77.6036221, 12.9719179]}}, {"type": "Feature", "properties": {"amenity": "library", "name": "RPC Layout Central Library", "name:en": "RPC Layout Central Library", "osm_id": 4513110189}, "geometry": {"type": "Point", "coordinates": [77.5345169, 12.9601779]}}, {"type": "Feature", "properties": {"amenity": "library", "internet_access": "wlan", "name": "CMRIT Library", "opening_hours": "Mo-Fr 08:00-19:30", "osm_id": 6034177868}, "geometry": {"type": "Point", "coordinates": [77.7119979, 12.9660184]}}, {"type": "Feature", "properties": {"amenity": "library", "level": "1", "name": "Lending Library", "osm_id": 6449209437}, "geometry": {"type": "Point", "coordinates": [77.5356164, 12.9334557]}}, {"type": "Feature", "properties": {"amenity": "library", "level": "1", "name": "Reference Library", "osm_id": 6449209438}, "geometry": {"type": "Point", "coordinates": [77.5351147, 12.9353489]}}, {"type": "Feature", "properties": {"amenity": "library", "osm_id": 6654524746}, "geometry": {"type": "Point", "coordinates": [77.543415, 13.0286575]}}, {"type": "Feature", "properties": {"addr:street": "ITI Colony", "amenity": "library", "name": "ITI Library", "osm_id": 6991508720}, "geometry": {"type": "Point", "coordinates": [77.6862182, 13.0070518]}}, {"type": "Feature", "properties": {"amenity": "library", "osm_id": 7297227887}, "geometry": {"type": "Point", "coordinates": [77.5500736, 12.9756295]}}, {"type": "Feature", "properties": {"amenity": "library", "name": "Quills Library", "osm_id": 7301656874}, "geometry": {"type": "Point", "coordinates": [77.5760803, 12.9872877]}}, {"type": "Feature", "properties": {"amenity": "library", "email": "haadibadi@gmail.com", "name": "Haadibadi", "website": "http://www.haadibadi.org/", "osm_id": 8320252561}, "geometry": {"type": "Point", "coordinates": [77.6217341, 12.9092387]}}, {"type": "Feature", "properties": {"amenity": "library", "name": "NGMA Library", "osm_id": 9573432808}, "geometry": {"type": "Point", "coordinates": [77.5879309, 12.9898425]}}, {"type": "Feature", "properties": {"amenity": "library", "level": "1", "osm_id": 9866140901}, "geometry": {"type": "Point", "coordinates": [77.721099, 12.9360255]}}, {"type": "Feature", "properties": {"amenity": "library", "name": "Eloor Lending Libraries", "osm_id": 10009339618}, "geometry": {"type": "Point", "coordinates": [77.6052366, 12.9807856]}}, {"type": "Feature", "properties": {"amenity": "library", "name": "Whitefield Granthalaya", "osm_id": 10239407649}, "geometry": {"type": "Point", "coordinates": [77.7487625, 12.9719493]}}, {"type": "Feature", "properties": {"access": "permissive", "amenity": "library", "name": "Bangalore Club Library", "osm_id": 10286307780}, "geometry": {"type": "Point", "coordinates": [77.5975661, 12.9673295]}}, {"type": "Feature", "properties": {"access": "permissive", "amenity": "library", "name": "Bowring Institute Library", "osm_id": 10286307781}, "geometry": {"type": "Point", "coordinates": [77.6004186, 12.9743213]}}, {"type": "Feature", "properties": {"amenity": "library", "osm_id": 10604644063}, "geometry": {"type": "Point", "coordinates": [77.5674972, 13.0436723]}}, {"type": "Feature", "properties": {"amenity": "library", "name": "MAHE Library", "osm_id": 10607698706}, "geometry": {"type": "Point", "coordinates": [77.5888449, 13.1264723]}}, {"type": "Feature", "properties": {"amenity": "library", "name": "MAP Library", "osm_id": 10753340362}, "geometry": {"type": "Point", "coordinates": [77.5968251, 12.9745369]}}, {"type": "Feature", "properties": {"amenity": "library", "name": "JNCASR Library", "osm_id": 10984741482}, "geometry": {"type": "Point", "coordinates": [77.6108859, 13.068637]}}, {"type": "Feature", "properties": {"amenity": "library", "check_date": "2023-09-09", "name": "Autism Resource Library and Training Centre", "osm_id": 11178116151}, "geometry": {"type": "Point", "coordinates": [77.5701028, 12.9535429]}}, {"type": "Feature", "properties": {"amenity": "library", "check_date": "2023-09-09", "name": "Shankara Rotary Children's Library", "osm_id": 11178123506}, "geometry": {"type": "Point", "coordinates": [77.5686792, 12.9541209]}}, {"type": "Feature", "properties": {"amenity": "library", "check_date": "2023-09-09", "name": "Autism Resource Library and Training Centre", "phone": "08026670001", "osm_id": 11178125304}, "geometry": {"type": "Point", "coordinates": [77.5700449, 12.9535319]}}, {"type": "Feature", "properties": {"addr:city": "Bengaluru", "addr:housenumber": "48", "addr:postcode": "560075", "addr:street": "7th Main Road", "amenity": "library", "contact:facebook": "thinkboxlibrary", "contact:instagram": "thinkboxblore", "email": "ethinkbox@gmail.com", "name": "ThinkBox Children's Library", "phone": "+91 9742849955", "website": "https://thinkbox.co.in/", "wheelchair": "limited", "osm_id": 11199831337}, "geometry": {"type": "Point", "coordinates": [77.6736939, 12.9739312]}}, {"type": "Feature", "properties": {"access": "yes", "air_conditioning": "yes", "amenity": "library", "internet_access": "yes", "internet_access:fee": "no", "name": "IIHS Library", "opening_hours": "Mo-Sa 08:00-18:00", "operator": "IIHS", "operator:type": "open_to_public", "osm_id": 11470047334}, "geometry": {"type": "Point", "coordinates": [77.5809194, 13.0055742]}}, {"type": "Feature", "properties": {"amenity": "library", "internet_access": "no", "name": "Kendriya Vihar Library", "operator": "Kendriya Vihar Apartments Owners Association", "operator:type": "private", "osm_id": 11473102399}, "geometry": {"type": "Point", "coordinates": [77.5996495, 13.1067878]}}, {"type": "Feature", "properties": {"amenity": "library", "check_date": "2025-03-14", "level": "2", "name": "BIC Library", "website": "https://bangaloreinternationalcentre.org/", "osm_id": 11542197856}, "geometry": {"type": "Point", "coordinates": [77.6352193, 12.9670247]}}, {"type": "Feature", "properties": {"amenity": "library", "name": "NMIT Library", "osm_id": 11860460523}, "geometry": {"type": "Point", "coordinates": [77.588008, 13.1289081]}}, {"type": "Feature", "properties": {"air_conditioning": "no", "amenity": "library", "level": "1", "wheelchair": "no", "osm_id": 12093192356}, "geometry": {"type": "Point", "coordinates": [77.6401941, 12.9103981]}}, {"type": "Feature", "properties": {"amenity": "library", "check_date": "2025-05-15", "name": "Just Books", "wheelchair": "no", "osm_id": 12752161251}, "geometry": {"type": "Point", "coordinates": [77.7690218, 12.8651043]}}, {"type": "Feature", "properties": {"addr:postcode": "562157", "addr:street": "Sir MVIT College Road", "amenity": "library", "name": "Library", "osm_id": 12753754601}, "geometry": {"type": "Point", "coordinates": [77.6086552, 13.1493363]}}, {"type": "Feature", "properties": {"amenity": "library", "name": "Government Library", "osm_id": 12777774136}, "geometry": {"type": "Point", "coordinates": [77.5551845, 12.9969944]}}, {"type": "Feature", "properties": {"addr:floor": "0", "amenity": "library", "brand": "JustBooks", "brand:wikidata": "Q55615467", "brand:wikipedia": "JustBooks", "check_date": "2025-05-03", "contact:facebook": "https://www.facebook.com/JustBooksCLC/", "contact:instagram": "https://www.instagram.com/justbooksclc/", "contact:twitter": "https://twitter.com/justbooksclc", "internet_access": "no", "level": "0", "name": "JustBooks", "operator:type": "private", "website": "https://www.justbooks.in", "wheelchair": "no", "osm_id": 12805843704}, "geometry": {"type": "Point", "coordinates": [77.7387383, 12.9291335]}}, {"type": "Feature", "properties": {"addr:floor": "0, 1, 2", "amenity": "library", "check_date": "2025-06-17", "internet_access": "no", "level": "0", "name": "Public Library - Suvarna Layout", "name:en": "Public Library - Suvarna Layout", "opening_hours": "Mo,Tu[2,4],PH off; Tu-Su 10:00-17:00", "operator:type": "government", "payment:cards": "no", "payment:cash": "yes", "payment:credit_cards": "no", "payment:debit_cards": "no", "wheelchair": "no", "osm_id": 12921290214}, "geometry": {"type": "Point", "coordinates": [77.5201767, 12.9507653]}}, {"type": "Feature", "properties": {"amenity": "library", "name": "AIT Library", "osm_id": 12990000223}, "geometry": {"type": "Point", "coordinates": [77.5056025, 12.9646529]}}, {"type": "Feature", "properties": {"amenity": "library", "name": "Reading Room", "osm_id": 13046073279}, "geometry": {"type": "Point", "coordinates": [77.5850536, 12.9216307]}}, {"type": "Feature", "properties": {"amenity": "library", "name": "IIMB Library", "operator": "Indian Institute of Management Bangalore", "operator:type": "government", "osm_id": 13092619253}, "geometry": {"type": "Point", "coordinates": [77.6016298, 12.8949803]}}, {"type": "Feature", "properties": {"amenity": "library", "name": "BBMP Reading Room", "osm_id": 13261840378}, "geometry": {"type": "Point", "coordinates": [77.5966183, 12.9025778]}}, {"type": "Feature", "properties": {"access": "private", "amenity": "library", "name": "Urbs Indis Library and Garden", "website": "https://www.urbsindis.com/", "osm_id": 13744127224}, "geometry": {"type": "Point", "coordinates": [77.6592194, 12.9775166]}}]}