{"type": "FeatureCollection", "features": [{"type": "Feature", "properties": {"name": "BAIYYAPPANAHALLI", "stop_code": "BYPH", "mode": "metro", "operator": "Bangalore Metro Rail Corporation Limited", "source": "IUDX Bengaluru Metro Station Locations sample file", "source_dataset_id": "6c5df87a-38d6-4136-aadb-b3b55842d985", "source_resource_id": "938d4b2d-565b-4cee-afca-fe6dbf628ccf"}, "geometry": {"type": "Point", "coordinates": [77.652653, 12.990325]}}, {"type": "Feature", "properties": {"name": "SWAMI VIVEKANANDA ROAD", "stop_code": "SVRD", "mode": "metro", "operator": "Bangalore Metro Rail Corporation Limited", "source": "IUDX Bengaluru Metro Station Locations sample file", "source_dataset_id": "6c5df87a-38d6-4136-aadb-b3b55842d985", "source_resource_id": "938d4b2d-565b-4cee-afca-fe6dbf628ccf"}, "geometry": {"type": "Point", "coordinates": [77.638798, 12.985484]}}, {"type": "Feature", "properties": {"name": "INDIRANAGAR", "stop_code": "IDN", "mode": "metro", "operator": "Bangalore Metro Rail Corporation Limited", "source": "IUDX Bengaluru Metro Station Locations sample file", "source_dataset_id": "6c5df87a-38d6-4136-aadb-b3b55842d985", "source_resource_id": "938d4b2d-565b-4cee-afca-fe6dbf628ccf"}, "geometry": {"type": "Point", "coordinates": [77.638529, 12.978273]}}, {"type": "Feature", "properties": {"name": "HALASURU", "stop_code": "HLRU", "mode": "metro", "operator": "Bangalore Metro Rail Corporation Limited", "source": "IUDX Bengaluru Metro Station Locations sample file", "source_dataset_id": "6c5df87a-38d6-4136-aadb-b3b55842d985", "source_resource_id": "938d4b2d-565b-4cee-afca-fe6dbf628ccf"}, "geometry": {"type": "Point", "coordinates": [77.626722, 12.976372]}}, {"type": "Feature", "properties": {"name": "TRINITY", "stop_code": "TTY", "mode": "metro", "operator": "Bangalore Metro Rail Corporation Limited", "source": "IUDX Bengaluru Metro Station Locations sample file", "source_dataset_id": "6c5df87a-38d6-4136-aadb-b3b55842d985", "source_resource_id": "938d4b2d-565b-4cee-afca-fe6dbf628ccf"}, "geometry": {"type": "Point", "coordinates": [77.616838, 12.973042]}}, {"type": "Feature", "properties": {"name": "MAHATMA GANDHI ROAD", "stop_code": "MAGR", "mode": "metro", "operator": "Bangalore Metro Rail Corporation Limited", "source": "IUDX Bengaluru Metro Station Locations sample file", "source_dataset_id": "6c5df87a-38d6-4136-aadb-b3b55842d985", "source_resource_id": "938d4b2d-565b-4cee-afca-fe6dbf628ccf"}, "geometry": {"type": "Point", "coordinates": [77.606693, 12.975525]}}, {"type": "Feature", "properties": {"name": "CUBBON PARK", "stop_code": "CBPK", "mode": "metro", "operator": "Bangalore Metro Rail Corporation Limited", "source": "IUDX Bengaluru Metro Station Locations sample file", "source_dataset_id": "6c5df87a-38d6-4136-aadb-b3b55842d985", "source_resource_id": "938d4b2d-565b-4cee-afca-fe6dbf628ccf"}, "geometry": {"type": "Point", "coordinates": [77.597468, 12.980913]}}, {"type": "Feature", "properties": {"name": "VIDHANA SOUDA", "stop_code": "VDSA", "mode": "metro", "operator": "Bangalore Metro Rail Corporation Limited", "source": "IUDX Bengaluru Metro Station Locations sample file", "source_dataset_id": "6c5df87a-38d6-4136-aadb-b3b55842d985", "source_resource_id": "938d4b2d-565b-4cee-afca-fe6dbf628ccf"}, "geometry": {"type": "Point", "coordinates": [77.592428, 12.979373]}}, {"type": "Feature", "properties": {"name": "SIR M VISHVESHWARAYYA STN CENTRAL COLLEGE", "stop_code": "VSWA", "mode": "metro", "operator": "Bangalore Metro Rail Corporation Limited", "source": "IUDX Bengaluru Metro Station Locations sample file", "source_dataset_id": "6c5df87a-38d6-4136-aadb-b3b55842d985", "source_resource_id": "938d4b2d-565b-4cee-afca-fe6dbf628ccf"}, "geometry": {"type": "Point", "coordinates": [77.583949, 12.974292]}}, {"type": "Feature", "properties": {"name": "KEMPEGOWDA STN MEJESTIC", "stop_code": "KGWA", "mode": "metro", "operator": "Bangalore Metro Rail Corporation Limited", "source": "IUDX Bengaluru Metro Station Locations sample file", "source_dataset_id": "6c5df87a-38d6-4136-aadb-b3b55842d985", "source_resource_id": "938d4b2d-565b-4cee-afca-fe6dbf628ccf"}, "geometry": {"type": "Point", "coordinates": [77.572843, 12.975708]}}, {"type": "Feature", "properties": {"name": "CITY RAILWAY STN", "stop_code": "BRCS", "mode": "metro", "operator": "Bangalore Metro Rail Corporation Limited", "source": "IUDX Bengaluru Metro Station Locations sample file", "source_dataset_id": "6c5df87a-38d6-4136-aadb-b3b55842d985", "source_resource_id": "938d4b2d-565b-4cee-afca-fe6dbf628ccf"}, "geometry": {"type": "Point", "coordinates": [77.567049, 12.976335]}}, {"type": "Feature", "properties": {"name": "MAGADI ROAD", "stop_code": "MIRD", "mode": "metro", "operator": "Bangalore Metro Rail Corporation Limited", "source": "IUDX Bengaluru Metro Station Locations sample file", "source_dataset_id": "6c5df87a-38d6-4136-aadb-b3b55842d985", "source_resource_id": "938d4b2d-565b-4cee-afca-fe6dbf628ccf"}, "geometry": {"type": "Point", "coordinates": [77.555412, 12.975686]}}, {"type": "Feature", "properties": {"name": "BALAGANGADARANATA SWAMIJI STN HOSAHALLI", "stop_code": "HSLI", "mode": "metro", "operator": "Bangalore Metro Rail Corporation Limited", "source": "IUDX Bengaluru Metro Station Locations sample file", "source_dataset_id": "6c5df87a-38d6-4136-aadb-b3b55842d985", "source_resource_id": "938d4b2d-565b-4cee-afca-fe6dbf628ccf"}, "geometry": {"type": "Point", "coordinates": [77.545448, 12.974309]}}, {"type": "Feature", "properties": {"name": "VIJAYANAGAR", "stop_code": "VJN", "mode": "metro", "operator": "Bangalore Metro Rail Corporation Limited", "source": "IUDX Bengaluru Metro Station Locations sample file", "source_dataset_id": "6c5df87a-38d6-4136-aadb-b3b55842d985", "source_resource_id": "938d4b2d-565b-4cee-afca-fe6dbf628ccf"}, "geometry": {"type": "Point", "coordinates": [77.537363, 12.970826]}}, {"type": "Feature", "properties": {"name": "ATTIGUPPE", "stop_code": "AGPP", "mode": "metro", "operator": "Bangalore Metro Rail Corporation Limited", "source": "IUDX Bengaluru Metro Station Locations sample file", "source_dataset_id": "6c5df87a-38d6-4136-aadb-b3b55842d985", "source_resource_id": "938d4b2d-565b-4cee-afca-fe6dbf628ccf"}, "geometry": {"type": "Point", "coordinates": [77.533711, 12.962122]}}, {"type": "Feature", "properties": {"name": "DEEPANJALI NAGAR", "stop_code": "DJNR", "mode": "metro", "operator": "Bangalore Metro Rail Corporation Limited", "source": "IUDX Bengaluru Metro Station Locations sample file", "source_dataset_id": "6c5df87a-38d6-4136-aadb-b3b55842d985", "source_resource_id": "938d4b2d-565b-4cee-afca-fe6dbf628ccf"}, "geometry": {"type": "Point", "coordinates": [77.537101, 12.952221]}}, {"type": "Feature", "properties": {"name": "MYSORE ROAD", "stop_code": "MYRD", "mode": "metro", "operator": "Bangalore Metro Rail Corporation Limited", "source": "IUDX Bengaluru Metro Station Locations sample file", "source_dataset_id": "6c5df87a-38d6-4136-aadb-b3b55842d985", "source_resource_id": "938d4b2d-565b-4cee-afca-fe6dbf628ccf"}, "geometry": {"type": "Point", "coordinates": [77.530076, 12.946736]}}, {"type": "Feature", "properties": {"name": "NAGASANDRA", "stop_code": "NGSA", "mode": "metro", "operator": "Bangalore Metro Rail Corporation Limited", "source": "IUDX Bengaluru Metro Station Locations sample file", "source_dataset_id": "6c5df87a-38d6-4136-aadb-b3b55842d985", "source_resource_id": "938d4b2d-565b-4cee-afca-fe6dbf628ccf"}, "geometry": {"type": "Point", "coordinates": [77.500091, 13.048041]}}, {"type": "Feature", "properties": {"name": "DASARAHALLI", "stop_code": "DSH", "mode": "metro", "operator": "Bangalore Metro Rail Corporation Limited", "source": "IUDX Bengaluru Metro Station Locations sample file", "source_dataset_id": "6c5df87a-38d6-4136-aadb-b3b55842d985", "source_resource_id": "938d4b2d-565b-4cee-afca-fe6dbf628ccf"}, "geometry": {"type": "Point", "coordinates": [77.512379, 13.043568]}}, {"type": "Feature", "properties": {"name": "JALAHALLI", "stop_code": "JHLI", "mode": "metro", "operator": "Bangalore Metro Rail Corporation Limited", "source": "IUDX Bengaluru Metro Station Locations sample file", "source_dataset_id": "6c5df87a-38d6-4136-aadb-b3b55842d985", "source_resource_id": "938d4b2d-565b-4cee-afca-fe6dbf628ccf"}, "geometry": {"type": "Point", "coordinates": [77.519826, 13.039571]}}, {"type": "Feature", "properties": {"name": "PEENYA INDUSTRY", "stop_code": "PYID", "mode": "metro", "operator": "Bangalore Metro Rail Corporation Limited", "source": "IUDX Bengaluru Metro Station Locations sample file", "source_dataset_id": "6c5df87a-38d6-4136-aadb-b3b55842d985", "source_resource_id": "938d4b2d-565b-4cee-afca-fe6dbf628ccf"}, "geometry": {"type": "Point", "coordinates": [77.525412, 13.036375]}}, {"type": "Feature", "properties": {"name": "PEENYA VILLAGE", "stop_code": "PEYA", "mode": "metro", "operator": "Bangalore Metro Rail Corporation Limited", "source": "IUDX Bengaluru Metro Station Locations sample file", "source_dataset_id": "6c5df87a-38d6-4136-aadb-b3b55842d985", "source_resource_id": "938d4b2d-565b-4cee-afca-fe6dbf628ccf"}, "geometry": {"type": "Point", "coordinates": [77.525639, 13.036119]}}, {"type": "Feature", "properties": {"name": "YASHAVANTAPURA VILLAGE", "stop_code": "YPI", "mode": "metro", "operator": "Bangalore Metro Rail Corporation Limited", "source": "IUDX Bengaluru Metro Station Locations sample file", "source_dataset_id": "6c5df87a-38d6-4136-aadb-b3b55842d985", "source_resource_id": "938d4b2d-565b-4cee-afca-fe6dbf628ccf"}, "geometry": {"type": "Point", "coordinates": [77.540589, 13.028329]}}, {"type": "Feature", "properties": {"name": "YASHWANTHPURA", "stop_code": "YPM", "mode": "metro", "operator": "Bangalore Metro Rail Corporation Limited", "source": "IUDX Bengaluru Metro Station Locations sample file", "source_dataset_id": "6c5df87a-38d6-4136-aadb-b3b55842d985", "source_resource_id": "938d4b2d-565b-4cee-afca-fe6dbf628ccf"}, "geometry": {"type": "Point", "coordinates": [77.55042, 13.025469]}}, {"type": "Feature", "properties": {"name": "SANDAL SOAP FACTORY", "stop_code": "SSFY", "mode": "metro", "operator": "Bangalore Metro Rail Corporation Limited", "source": "IUDX Bengaluru Metro Station Locations sample file", "source_dataset_id": "6c5df87a-38d6-4136-aadb-b3b55842d985", "source_resource_id": "938d4b2d-565b-4cee-afca-fe6dbf628ccf"}, "geometry": {"type": "Point", "coordinates": [77.554018, 13.014817]}}, {"type": "Feature", "properties": {"name": "MAHALAXMI", "stop_code": "MHLI", "mode": "metro", "operator": "Bangalore Metro Rail Corporation Limited", "source": "IUDX Bengaluru Metro Station Locations sample file", "source_dataset_id": "6c5df87a-38d6-4136-aadb-b3b55842d985", "source_resource_id": "938d4b2d-565b-4cee-afca-fe6dbf628ccf"}, "geometry": {"type": "Point", "coordinates": [77.548835, 13.008367]}}, {"type": "Feature", "properties": {"name": "RAJAJINAGAR", "stop_code": "RJNR", "mode": "metro", "operator": "Bangalore Metro Rail Corporation Limited", "source": "IUDX Bengaluru Metro Station Locations sample file", "source_dataset_id": "6c5df87a-38d6-4136-aadb-b3b55842d985", "source_resource_id": "938d4b2d-565b-4cee-afca-fe6dbf628ccf"}, "geometry": {"type": "Point", "coordinates": [77.549749, 13.000355]}}, {"type": "Feature", "properties": {"name": "KUVEMPUROAD", "stop_code": "KVPR", "mode": "metro", "operator": "Bangalore Metro Rail Corporation Limited", "source": "IUDX Bengaluru Metro Station Locations sample file", "source_dataset_id": "6c5df87a-38d6-4136-aadb-b3b55842d985", "source_resource_id": "938d4b2d-565b-4cee-afca-fe6dbf628ccf"}, "geometry": {"type": "Point", "coordinates": [77.556944, 12.998512]}}, {"type": "Feature", "properties": {"name": "SRIRAMPURA", "stop_code": "SPRU", "mode": "metro", "operator": "Bangalore Metro Rail Corporation Limited", "source": "IUDX Bengaluru Metro Station Locations sample file", "source_dataset_id": "6c5df87a-38d6-4136-aadb-b3b55842d985", "source_resource_id": "938d4b2d-565b-4cee-afca-fe6dbf628ccf"}, "geometry": {"type": "Point", "coordinates": [77.563357, 12.996536]}}, {"type": "Feature", "properties": {"name": "MANTRI SQUARE SAMPIGE ROAD", "stop_code": "SPGD", "mode": "metro", "operator": "Bangalore Metro Rail Corporation Limited", "source": "IUDX Bengaluru Metro Station Locations sample file", "source_dataset_id": "6c5df87a-38d6-4136-aadb-b3b55842d985", "source_resource_id": "938d4b2d-565b-4cee-afca-fe6dbf628ccf"}, "geometry": {"type": "Point", "coordinates": [77.571217, 12.989991]}}, {"type": "Feature", "properties": {"name": "CHIKKAPETE", "stop_code": "CKPE", "mode": "metro", "operator": "Bangalore Metro Rail Corporation Limited", "source": "IUDX Bengaluru Metro Station Locations sample file", "source_dataset_id": "6c5df87a-38d6-4136-aadb-b3b55842d985", "source_resource_id": "938d4b2d-565b-4cee-afca-fe6dbf628ccf"}, "geometry": {"type": "Point", "coordinates": [77.574787, 12.967564]}}, {"type": "Feature", "properties": {"name": "KRISHNA RAJENDRA MARKET", "stop_code": "KRMT", "mode": "metro", "operator": "Bangalore Metro Rail Corporation Limited", "source": "IUDX Bengaluru Metro Station Locations sample file", "source_dataset_id": "6c5df87a-38d6-4136-aadb-b3b55842d985", "source_resource_id": "938d4b2d-565b-4cee-afca-fe6dbf628ccf"}, "geometry": {"type": "Point", "coordinates": [77.574483, 12.960171]}}, {"type": "Feature", "properties": {"name": "NATIONAL COLLEGE", "stop_code": "NLC", "mode": "metro", "operator": "Bangalore Metro Rail Corporation Limited", "source": "IUDX Bengaluru Metro Station Locations sample file", "source_dataset_id": "6c5df87a-38d6-4136-aadb-b3b55842d985", "source_resource_id": "938d4b2d-565b-4cee-afca-fe6dbf628ccf"}, "geometry": {"type": "Point", "coordinates": [77.573736, 12.950627]}}, {"type": "Feature", "properties": {"name": "LALBAGH", "stop_code": "LABG", "mode": "metro", "operator": "Bangalore Metro Rail Corporation Limited", "source": "IUDX Bengaluru Metro Station Locations sample file", "source_dataset_id": "6c5df87a-38d6-4136-aadb-b3b55842d985", "source_resource_id": "938d4b2d-565b-4cee-afca-fe6dbf628ccf"}, "geometry": {"type": "Point", "coordinates": [77.580061, 12.946297]}}, {"type": "Feature", "properties": {"name": "SOUTHEND CIRCLE", "stop_code": "SECE", "mode": "metro", "operator": "Bangalore Metro Rail Corporation Limited", "source": "IUDX Bengaluru Metro Station Locations sample file", "source_dataset_id": "6c5df87a-38d6-4136-aadb-b3b55842d985", "source_resource_id": "938d4b2d-565b-4cee-afca-fe6dbf628ccf"}, "geometry": {"type": "Point", "coordinates": [77.580078, 12.938348]}}, {"type": "Feature", "properties": {"name": "JAYANAGAR", "stop_code": "JYN", "mode": "metro", "operator": "Bangalore Metro Rail Corporation Limited", "source": "IUDX Bengaluru Metro Station Locations sample file", "source_dataset_id": "6c5df87a-38d6-4136-aadb-b3b55842d985", "source_resource_id": "938d4b2d-565b-4cee-afca-fe6dbf628ccf"}, "geometry": {"type": "Point", "coordinates": [77.580076, 12.938237]}}, {"type": "Feature", "properties": {"name": "RASTRIYA VIDYALAYA ROAD", "stop_code": "RVR", "mode": "metro", "operator": "Bangalore Metro Rail Corporation Limited", "source": "IUDX Bengaluru Metro Station Locations sample file", "source_dataset_id": "6c5df87a-38d6-4136-aadb-b3b55842d985", "source_resource_id": "938d4b2d-565b-4cee-afca-fe6dbf628ccf"}, "geometry": {"type": "Point", "coordinates": [77.580375, 12.921458]}}, {"type": "Feature", "properties": {"name": "BANASHANKARI", "stop_code": "BSNK", "mode": "metro", "operator": "Bangalore Metro Rail Corporation Limited", "source": "IUDX Bengaluru Metro Station Locations sample file", "source_dataset_id": "6c5df87a-38d6-4136-aadb-b3b55842d985", "source_resource_id": "938d4b2d-565b-4cee-afca-fe6dbf628ccf"}, "geometry": {"type": "Point", "coordinates": [77.573631, 12.915649]}}, {"type": "Feature", "properties": {"name": "JAYAPRAKASH NAGAR", "stop_code": "JPN", "mode": "metro", "operator": "Bangalore Metro Rail Corporation Limited", "source": "IUDX Bengaluru Metro Station Locations sample file", "source_dataset_id": "6c5df87a-38d6-4136-aadb-b3b55842d985", "source_resource_id": "938d4b2d-565b-4cee-afca-fe6dbf628ccf"}, "geometry": {"type": "Point", "coordinates": [77.573133, 12.907299]}}, {"type": "Feature", "properties": {"name": "PUTTENAHALLI", "stop_code": "PUTH", "mode": "metro", "operator": "Bangalore Metro Rail Corporation Limited", "source": "IUDX Bengaluru Metro Station Locations sample file", "source_dataset_id": "6c5df87a-38d6-4136-aadb-b3b55842d985", "source_resource_id": "938d4b2d-565b-4cee-afca-fe6dbf628ccf"}, "geometry": {"type": "Point", "coordinates": [77.570009, 12.895907]}}, {"type": "Feature", "properties": {"name": "KONANAKUNTE CROSS", "stop_code": "APRC", "mode": "metro", "operator": "Bangalore Metro Rail Corporation Limited", "source": "IUDX Bengaluru Metro Station Locations sample file", "source_dataset_id": "6c5df87a-38d6-4136-aadb-b3b55842d985", "source_resource_id": "938d4b2d-565b-4cee-afca-fe6dbf628ccf"}, "geometry": {"type": "Point", "coordinates": [77.552898, 12.884741]}}, {"type": "Feature", "properties": {"name": "DODDA KALLASANDRA", "stop_code": "KLPK", "mode": "metro", "operator": "Bangalore Metro Rail Corporation Limited", "source": "IUDX Bengaluru Metro Station Locations sample file", "source_dataset_id": "6c5df87a-38d6-4136-aadb-b3b55842d985", "source_resource_id": "938d4b2d-565b-4cee-afca-fe6dbf628ccf"}, "geometry": {"type": "Point", "coordinates": [77.500091, 13.048041]}}, {"type": "Feature", "properties": {"name": "VAJARAHALLI", "stop_code": "VJRH", "mode": "metro", "operator": "Bangalore Metro Rail Corporation Limited", "source": "IUDX Bengaluru Metro Station Locations sample file", "source_dataset_id": "6c5df87a-38d6-4136-aadb-b3b55842d985", "source_resource_id": "938d4b2d-565b-4cee-afca-fe6dbf628ccf"}, "geometry": {"type": "Point", "coordinates": [77.570159, 12.895983]}}, {"type": "Feature", "properties": {"name": "TALAGATTAPURA", "stop_code": "TGTP", "mode": "metro", "operator": "Bangalore Metro Rail Corporation Limited", "source": "IUDX Bengaluru Metro Station Locations sample file", "source_dataset_id": "6c5df87a-38d6-4136-aadb-b3b55842d985", "source_resource_id": "938d4b2d-565b-4cee-afca-fe6dbf628ccf"}, "geometry": {"type": "Point", "coordinates": [77.538573, 12.871769]}}, {"type": "Feature", "properties": {"name": "ANJANAPURA TOWNSHIP", "stop_code": "APTS", "mode": "metro", "operator": "Bangalore Metro Rail Corporation Limited", "source": "IUDX Bengaluru Metro Station Locations sample file", "source_dataset_id": "6c5df87a-38d6-4136-aadb-b3b55842d985", "source_resource_id": "938d4b2d-565b-4cee-afca-fe6dbf628ccf"}, "geometry": {"type": "Point", "coordinates": [77.529646, 12.863238]}}]}
