{"type": "FeatureCollection", "features": [{"type": "Feature", "properties": {"alt_name": "BIEC", "code": "BIET", "name": "Madavara", "name:kn": "ಮದವರ", "network": "Namma Metro", "network:wikidata": "Q279343", "note": "Contributors are requested to not edit the \"network\" and the \"operator\" tags. (2023/11/08)", "operator": "Bangalore Metro Rail Corporation Limited", "public_transport": "station", "public_transport:version": "2", "railway": "station", "shelter": "yes", "start_date": "2024-11-07", "station": "subway", "subway": "yes", "website": "https://english.brmc.co.in", "wheelchair": "yes", "wikidata": "Q122143705", "wikipedia": "en:Madavara metro station", "osm_id": 1576973953}, "geometry": {"type": "Point", "coordinates": [77.4728055, 13.0574214]}}, {"type": "Feature", "properties": {"code": "JIDL", "name": "Chikkabidarakallu", "name:kn": "ಚಿಕ್ಕಬಿದರಕಲ್ಲು", "network": "Namma Metro", "network:wikidata": "Q279343", "note": "Contributors are requested to not edit the \"network\" and the \"operator\" tags. (2023/11/08)", "operator": "Bangalore Metro Rail Corporation Limited", "public_transport": "station", "public_transport:version": "2", "railway": "station", "shelter": "yes", "start_date": "2024-11-07", "station": "subway", "subway": "yes", "website": "https://english.brmc.co.in", "wheelchair": "yes", "wikidata": "Q122143708", "wikipedia": "en:Chikkabidarakallu metro station", "osm_id": 1576973954}, "geometry": {"type": "Point", "coordinates": [77.4879154, 13.0523616]}}, {"type": "Feature", "properties": {"code": "MNJN", "name": "Manjunathanagara", "name:kn": "ಮಂಜುನಾಥನಗರ", "network": "Namma Metro", "network:wikidata": "Q279343", "note": "Contributors are requested to not edit the \"network\" and the \"operator\" tags. (2023/11/08)", "old_name": "Jindal", "operator": "Bangalore Metro Rail Corporation Limited", "public_transport": "station", "public_transport:version": "2", "railway": "station", "shelter": "yes", "start_date": "2024-11-07", "station": "subway", "subway": "yes", "website": "https://english.brmc.co.in", "wheelchair": "yes", "wikidata": "Q122143726", "wikipedia": "en:Manjunathanagara metro station", "osm_id": 1576973980}, "geometry": {"type": "Point", "coordinates": [77.4944461, 13.0500898]}}, {"type": "Feature", "properties": {"name": "Nagawara (Proposed)", "network": "Namma Metro", "note": "Contributors are requested to not edit the \"network\" and the \"operator\" tags. (2023/11/08)", "operator": "Bangalore Metro Rail Corporation Limited", "proposed": "station", "railway": "proposed", "station": "subway", "subway": "yes", "osm_id": 1578382524}, "geometry": {"type": "Point", "coordinates": [77.6248577, 13.0422794]}}, {"type": "Feature", "properties": {"code": "JDHP", "layer": "1", "lit": "yes", "name": "Jayadeva Hospital", "name:en": "Jayadeva Hospital", "name:kn": "ಜಯದೇವ ಆಸ್ಪತ್ರೆ", "network": "Namma Metro", "note": "Contributors are requested to not edit the \"network\" and the \"operator\" tags. (2023/11/08)", "operator": "Bangalore Metro Rail Corporation Limited", "platforms": "2", "public_transport": "station", "public_transport:version": "2", "railway": "station", "shelter": "yes", "start_date": "2025-08-10", "station": "subway", "subway": "yes", "website": "https://english.brmc.co.in", "wheelchair": "yes", "osm_id": 3302642058}, "geometry": {"type": "Point", "coordinates": [77.5999663, 12.916731]}}, {"type": "Feature", "properties": {"alt_name": "Tin Factory", "alt_name:kn": "ಟಿನ್ ಫ್ಯಾಕ್ಟರಿ", "name": "Benniganahalli", "name:kn": "ಬೆನ್ನಿಗಾನಹಳ್ಳಿ", "network": "Namma Metro", "note": "Contributors are requested to not edit the \"network\" and the \"operator\" tags. (2023/11/08)", "operator": "Bangalore Metro Rail Corporation Limited", "public_transport": "stop_position", "railway": "stop", "station": "subway", "subway": "yes", "wheelchair": "yes", "osm_id": 4548694596}, "geometry": {"type": "Point", "coordinates": [77.6684788, 12.996496]}}, {"type": "Feature", "properties": {"alt_name": "Kadugodi", "code": "WHTM", "colour": "#e542de", "name": "Whitefield (Kadugodi)", "name:kn": "ವೈಟ್‌ಫೀಲ್ಡ್ (ಕಾಡುಗೋಡಿ)", "network": "Namma Metro", "note": "Contributors are requested to not edit the \"network\" and the \"operator\" tags. (2023/11/08)", "old_name": "Whitefield", "operator": "Bangalore Metro Rail Corporation Limited", "public_transport": "station", "railway": "station", "station": "subway", "subway": "yes", "wheelchair": "yes", "wikidata": "Q112683422", "wikipedia": "en:Whitefield (Kadugodi) metro station", "osm_id": 5760197744}, "geometry": {"type": "Point", "coordinates": [77.7579489, 12.9957428]}}, {"type": "Feature", "properties": {"alt_name": "Hope Farm", "code": "UWVL", "colour": "#e542de", "name": "Hopefarm Channasandra", "name:kn": "ಹೋಪ್ ಫಾರ್ಮ್ ಚನ್ನಸಂದ್ರ", "name:ta": "ஹோப்ஃபார்ம் சன்னசந்த்ரா", "network": "Namma Metro", "note": "Contributors are requested to not edit the \"network\" and the \"operator\" tags. (2023/11/08)", "old_name": "Channasandra", "operator": "Bangalore Metro Rail Corporation Limited", "public_transport": "station", "railway": "station", "station": "subway", "subway": "yes", "wheelchair": "yes", "wikipedia": "en:Channasandra metro station", "osm_id": 5760197745}, "geometry": {"type": "Point", "coordinates": [77.7538033, 12.9873426]}}, {"type": "Feature", "properties": {"alt_name": "ITPL Main Gate", "code": "ITPL", "colour": "#e542de", "name": "Pattandur Agrahara", "name:kn": "ಪಟ್ಟಂದೂರು ಅಗ್ರಹಾರ", "name:ta": "பட்டந்தூர் அக்ரஹாரா", "network": "Namma Metro", "note": "Contributors are requested to not edit the \"network\" and the \"operator\" tags. (2023/11/08)", "operator": "Bangalore Metro Rail Corporation Limited", "public_transport": "station", "railway": "station", "station": "subway", "subway": "yes", "wheelchair": "yes", "wikipedia": "en:Pattandur Agrahara metro station", "osm_id": 5760197749}, "geometry": {"type": "Point", "coordinates": [77.7377718, 12.9876393]}}, {"type": "Feature", "properties": {"alt_name": "Satya Sai Hospital", "code": "SSHP", "colour": "#e542de", "name": "Sri Sathya Sai Hospital", "name:kn": "ಶ್ರೀ ಸತ್ಯ ಸಾಯಿ ಆಸ್ಪತ್ರೆ", "name:ta": "ஸ்ரீ சத்ய சாய் மருத்துவமனை", "network": "Namma Metro", "note": "Contributors are requested to not edit the \"network\" and the \"operator\" tags. (2023/11/08)", "operator": "Bangalore Metro Rail Corporation Limited", "public_transport": "station", "railway": "station", "station": "subway", "subway": "yes", "wheelchair": "yes", "wikipedia": "en:Sri Sathya Sai Hospital metro station", "osm_id": 5760197751}, "geometry": {"type": "Point", "coordinates": [77.7275361, 12.9811949]}}, {"type": "Feature", "properties": {"alt_name": "Nallurhalli", "code": "VDHP", "colour": "#e542de", "name": "Nallurahalli", "name:kn": "ನಲ್ಲೂರಹಳ್ಳಿ", "name:ta": "நல்லூரஹள்ளி", "network": "Namma Metro", "note": "Contributors are requested to not edit the \"network\" and the \"operator\" tags. (2023/11/08)", "operator": "Bangalore Metro Rail Corporation Limited", "public_transport": "station", "railway": "station", "station": "subway", "subway": "yes", "wheelchair": "yes", "wikipedia": "en:Nallurhalli metro station", "osm_id": 5760197754}, "geometry": {"type": "Point", "coordinates": [77.7248845, 12.9766408]}}, {"type": "Feature", "properties": {"code": "KDNH", "colour": "#e542de", "name": "Kundalahalli", "name:kn": "ಕುಂದಲಹಳ್ಳಿ", "name:ta": "குன்டலஹள்ளி", "network": "Namma Metro", "note": "Contributors are requested to not edit the \"network\" and the \"operator\" tags. (2023/11/08)", "operator": "Bangalore Metro Rail Corporation Limited", "public_transport": "station", "railway": "station", "station": "subway", "subway": "yes", "wheelchair": "yes", "wikipedia": "en:Kundalahalli metro station", "osm_id": 5760197755}, "geometry": {"type": "Point", "coordinates": [77.7155586, 12.977594]}}, {"type": "Feature", "properties": {"alt_name": "Sitaramapalya", "code": "VWIA", "name": "Seetharampalya", "name:kn": "ಸೀತಾರಾಮ ಪಾಳ್ಯ", "name:ta": "சீத்தாராம்பாள்யா", "network": "Namma Metro", "note": "Contributors are requested to not edit the \"network\" and the \"operator\" tags. (2023/11/08)", "operator": "Bangalore Metro Rail Corporation Limited", "public_transport": "station", "railway": "station", "station": "subway", "subway": "yes", "wheelchair": "yes", "wikipedia": "en:Sitharama Palya metro station", "osm_id": 5760197757}, "geometry": {"type": "Point", "coordinates": [77.7087854, 12.9808558]}}, {"type": "Feature", "properties": {"code": "DKIA", "colour": "#e542de", "name": "Hoodi", "name:kn": "ಹೂಡಿ", "name:ta": "ஹூடி", "network": "Namma Metro", "note": "Contributors are requested to not edit the \"network\" and the \"operator\" tags. (2023/11/08)", "old_name": "Hoodi Junction", "operator": "Bangalore Metro Rail Corporation Limited", "public_transport": "station", "railway": "station", "station": "subway", "subway": "yes", "wheelchair": "yes", "wikipedia": "en:Hoodi Junction metro station", "osm_id": 5760197761}, "geometry": {"type": "Point", "coordinates": [77.711326, 12.9888029]}}, {"type": "Feature", "properties": {"alt_name": "ಗರುಡಾಚಾರ್ ಪಾಳ್ಯ", "code": "GDCP", "colour": "#e542de", "name": "Garudacharpalya", "name:kn": "ಗರುಡಾಚಾರ್ ಪಾಳ್ಯ", "name:ml": "ഗരുഡാചാര് പാല്യ", "name:ta": "கருடசார்பால்யா", "network": "Namma Metro", "note": "Contributors are requested to not edit the \"network\" and the \"operator\" tags. (2023/11/08)", "operator": "Bangalore Metro Rail Corporation Limited", "public_transport": "station", "railway": "station", "station": "subway", "subway": "yes", "wheelchair": "yes", "wikipedia": "en:Garudacharapalya metro station", "osm_id": 5760197762}, "geometry": {"type": "Point", "coordinates": [77.7036768, 12.9934505]}}, {"type": "Feature", "properties": {"alt_name": "Mahadevapura", "code": "MDVP", "colour": "#e542de", "name": "Singayyanapalya", "name:kn": "ಸಿಂಗಯ್ಯನಪಾಳ್ಯ", "name:ml": "സിംഗയ്യനപാളയ", "network": "Namma Metro", "note": "Contributors are requested to not edit the \"network\" and the \"operator\" tags. (2023/11/08)", "old_name": "Mahadevapura", "operator": "Bangalore Metro Rail Corporation Limited", "public_transport": "station", "railway": "station", "station": "subway", "subway": "yes", "wheelchair": "yes", "wikidata": "Q112683430", "wikipedia": "en:Singayyanapalya metro station", "osm_id": 5760197764}, "geometry": {"type": "Point", "coordinates": [77.6927176, 12.9965445]}}, {"type": "Feature", "properties": {"alt_name": "Krishnarajapuram", "code": "KRAM", "colour": "#e542de", "name": "Krishnarajapura", "name:kn": "ಕೃಷ್ಣರಾಜಪುರ (ಕೆ.ಆರ್.ಪುರ)", "name:ml": "കൃഷ്ണരാജപുരം", "name:ta": "கிருஷ்ணராஜபுரா", "network": "Namma Metro", "note": "Contributors are requested to not edit the \"network\" and the \"operator\" tags. (2023/11/08)", "old_name": "K R Pura", "opening_hours": "Mo-Su 05:00-23:00", "operator": "Bangalore Metro Rail Corporation Limited", "public_transport": "station", "railway": "station", "short_name": "K.R. Pura", "station": "subway", "subway": "yes", "website": "https://english.bmrc.co.in/", "wheelchair": "yes", "wikidata": "Q112683488", "wikipedia": "en:Krishnarajapura metro station", "osm_id": 5760197765}, "geometry": {"type": "Point", "coordinates": [77.6776703, 12.9999024]}}, {"type": "Feature", "properties": {"alt_name": "Tin Factory", "alt_name:kn": "ಟಿನ್ ಫ್ಯಾಕ್ಟರಿ", "code": "JTPM", "name": "Benniganahalli", "name:kn": "ಬೆನ್ನಿಗಾನಹಳ್ಳಿ", "name:ml": "ബെന്നിഗാനഹള്ളി", "name:ta": "பென்னிங்கனஹள்ளி", "network": "Namma Metro", "note": "Contributors are requested to not edit the \"network\" and the \"operator\" tags. (2023/11/08)", "operator": "Bangalore Metro Rail Corporation Limited", "public_transport": "station", "railway": "station", "start_date": "09/10/2023", "station": "subway", "subway": "yes", "osm_id": 5760197766}, "geometry": {"type": "Point", "coordinates": [77.6684619, 12.9965158]}}, {"type": "Feature", "properties": {"alt_name": "Veerasandra", "alt_name:kn": "ವೀರಸಂದ್ರ", "code": "HSKR", "layer": "1", "lit": "yes", "name": "Huskur Road", "name:en": "Huskur Road", "name:kn": "ಹುಸ್ಕೂರು ರಸ್ತೆ", "network": "Namma Metro", "note": "Contributors are requested to not edit the \"network\" and the \"operator\" tags. (2023/11/08)", "operator": "Bangalore Metro Rail Corporation Limited", "platforms": "2", "public_transport": "station", "public_transport:version": "2", "railway": "station", "shelter": "yes", "start_date": "2025-08-10", "station": "subway", "subway": "yes", "website": "https://english.brmc.co.in", "wheelchair": "yes", "osm_id": 5760198122}, "geometry": {"type": "Point", "coordinates": [77.6773716, 12.8391572]}}, {"type": "Feature", "properties": {"code": "ECTN", "layer": "1", "lit": "yes", "name": "Infosys Foundation Konappana Agrahara", "name:en": "Infosys Foundation Konappana Agrahara", "name:kn": "ಇನ್ಫೋಸಿಸ್ ಫೌಂಡೇಶನ್ ಕೊನಪ್ಪನ ಅಗ್ರಹಾರ", "network": "Namma Metro", "note": "Contributors are requested to not edit the \"network\" and the \"operator\" tags. (2023/11/08)", "operator": "Bangalore Metro Rail Corporation Limited", "platforms": "2", "public_transport": "station", "public_transport:version": "2", "railway": "station", "shelter": "yes", "start_date": "2025-08-10", "station": "subway", "subway": "yes", "website": "https://english.brmc.co.in", "wheelchair": "yes", "osm_id": 5760198133}, "geometry": {"type": "Point", "coordinates": [77.6711655, 12.8464134]}}, {"type": "Feature", "properties": {"code": "ETCT", "layer": "1", "lit": "yes", "name": "Electronic City", "name:en": "Electronic City", "name:kn": "ಎಲೆಕ್ಟ್ರಾನಿಕ್ ಸಿಟಿ", "network": "Namma Metro", "note": "Contributors are requested to not edit the \"network\" and the \"operator\" tags. (2023/11/08)", "operator": "Bangalore Metro Rail Corporation Limited", "platforms": "2", "public_transport": "station", "public_transport:version": "2", "railway": "station", "shelter": "yes", "start_date": "2025-08-10", "station": "subway", "subway": "yes", "website": "https://english.brmc.co.in", "wheelchair": "yes", "osm_id": 5760198145}, "geometry": {"type": "Point", "coordinates": [77.6635228, 12.8565053]}}, {"type": "Feature", "properties": {"code": "HOSR", "layer": "1", "lit": "yes", "name": "Beratena Agrahara", "name:en": "Beratena Agrahara", "name:kn": "ಬೆರಟೇನ ಅಗ್ರಹಾರ", "network": "Namma Metro", "note": "Contributors are requested to not edit the \"network\" and the \"operator\" tags. (2023/11/08)", "operator": "Bangalore Metro Rail Corporation Limited", "platforms": "2", "public_transport": "station", "public_transport:version": "2", "railway": "station", "shelter": "yes", "start_date": "2025-08-10", "station": "subway", "subway": "yes", "website": "https://english.brmc.co.in", "wheelchair": "yes", "osm_id": 5760198153}, "geometry": {"type": "Point", "coordinates": [77.6578624, 12.8638665]}}, {"type": "Feature", "properties": {"alt_name": "Basapura Road", "code": "BSRD", "layer": "1", "lit": "yes", "name": "Hosa Road", "name:en": "Hosa Road", "name:kn": "ಹೊಸ ರಸ್ತೆ", "network": "Namma Metro", "note": "Contributors are requested to not edit the \"network\" and the \"operator\" tags. (2023/11/08)", "operator": "Bangalore Metro Rail Corporation Limited", "platforms": "2", "public_transport": "station", "public_transport:version": "2", "railway": "station", "shelter": "yes", "start_date": "2025-08-10", "station": "subway", "subway": "yes", "website": "https://english.brmc.co.in", "wheelchair": "yes", "osm_id": 5760198162}, "geometry": {"type": "Point", "coordinates": [77.652447, 12.8707491]}}, {"type": "Feature", "properties": {"alt_name": "Chikkabegur", "code": "CKBR", "layer": "1", "lit": "yes", "name": "Singasandra", "name:en": "Singasandra", "name:kn": "ಸಿಂಗಸಂದ್ರ", "network": "Namma Metro", "note": "Contributors are requested to not edit the \"network\" and the \"operator\" tags. (2023/11/08)", "operator": "Bangalore Metro Rail Corporation Limited", "platforms": "2", "public_transport": "station", "public_transport:version": "2", "railway": "station", "shelter": "yes", "start_date": "2025-08-10", "station": "subway", "subway": "yes", "website": "https://english.brmc.co.in", "wheelchair": "yes", "osm_id": 5760198182}, "geometry": {"type": "Point", "coordinates": [77.6448456, 12.8808178]}}, {"type": "Feature", "properties": {"alt_name": "Muneshwara Nagar", "code": "MSRN", "layer": "1", "lit": "yes", "name": "Kudlu Gate", "name:en": "Kudlu Gate", "name:kn": "ಕುಡ್ಲು ಗೇಟ್", "network": "Namma Metro", "note": "Contributors are requested to not edit the \"network\" and the \"operator\" tags. (2023/11/08)", "operator": "Bangalore Metro Rail Corporation Limited", "platforms": "2", "public_transport": "station", "public_transport:version": "2", "railway": "station", "shelter": "yes", "start_date": "2025-08-10", "station": "subway", "subway": "yes", "website": "https://english.brmc.co.in", "wheelchair": "yes", "osm_id": 5760198187}, "geometry": {"type": "Point", "coordinates": [77.6392156, 12.8899259]}}, {"type": "Feature", "properties": {"alt_name": "Garvebhavi Palya", "alt_name:kn": "ಗಾರ್ವೇಬಾವಿ ಪಲ್ಯ", "code": "OFDC", "layer": "1", "lit": "yes", "name": "Hongasandra", "name:en": "Hongasandra", "name:kn": "ಹೊಂಗಸಂದ್ರ", "network": "Namma Metro", "note": "Contributors are requested to not edit the \"network\" and the \"operator\" tags. (2023/11/08)", "operator": "Bangalore Metro Rail Corporation Limited", "platforms": "2", "public_transport": "station", "public_transport:version": "2", "railway": "station", "shelter": "yes", "start_date": "2025-08-10", "station": "subway", "subway": "yes", "website": "https://english.brmc.co.in", "wheelchair": "yes", "osm_id": 5760198198}, "geometry": {"type": "Point", "coordinates": [77.6319861, 12.9016952]}}, {"type": "Feature", "properties": {"alt_name": "Roopena Agrahara", "alt_name:kn": "ರೂಪೇನ ಅಗ್ರಹಾರ", "code": "HSRL", "layer": "1", "lit": "yes", "name": "Bommanahalli", "name:en": "Bommanahalli", "name:kn": "ಬೊಮ್ಮನಹಳ್ಳಿ", "network": "Namma Metro", "note": "Contributors are requested to not edit the \"network\" and the \"operator\" tags. (2023/11/08)", "operator": "Bangalore Metro Rail Corporation Limited", "platforms": "2", "public_transport": "station", "public_transport:version": "2", "railway": "station", "shelter": "yes", "start_date": "2025-08-10", "station": "subway", "subway": "yes", "website": "https://english.brmc.co.in", "wheelchair": "yes", "osm_id": 5760198202}, "geometry": {"type": "Point", "coordinates": [77.6264782, 12.9106157]}}, {"type": "Feature", "properties": {"code": "SBJT", "layer": "1", "lit": "yes", "name": "Central Silk Board", "name:en": "Central Silk Board", "name:kn": "ಸೆಂಟ್ರಲ್ ಸಿಲ್ಕ ಬೋರ್ಡ್", "network": "Namma Metro", "note": "Contributors are requested to not edit the \"network\" and the \"operator\" tags. (2023/11/08)", "operator": "Bangalore Metro Rail Corporation Limited", "platforms": "2", "public_transport": "station", "public_transport:version": "2", "railway": "station", "shelter": "yes", "start_date": "2025-08-10", "station": "subway", "subway": "yes", "website": "https://english.brmc.co.in", "wheelchair": "yes", "osm_id": 5760198212}, "geometry": {"type": "Point", "coordinates": [77.620567, 12.9165816]}}, {"type": "Feature", "properties": {"code": "BTML", "layer": "1", "lit": "yes", "name": "BTM Layout", "name:en": "BTM Layout", "name:kn": "ಬಿಟಿಎಂ ಬಡಾವಣೆ", "network": "Namma Metro", "note": "Contributors are requested to not edit the \"network\" and the \"operator\" tags. (2023/11/08)", "operator": "Bangalore Metro Rail Corporation Limited", "platforms": "2", "public_transport": "station", "public_transport:version": "2", "railway": "station", "shelter": "yes", "start_date": "2025-08-10", "station": "subway", "subway": "yes", "website": "https://english.brmc.co.in", "wheelchair": "yes", "osm_id": 5760198226}, "geometry": {"type": "Point", "coordinates": [77.6081182, 12.9165878]}}, {"type": "Feature", "properties": {"code": "RGDT", "layer": "1", "lit": "yes", "name": "Ragigudda", "name:en": "Ragigudda", "name:kn": "ರಾಗಿಗುಡ್ಡ", "network": "Namma Metro", "note": "Contributors are requested to not edit the \"network\" and the \"operator\" tags. (2023/11/08)", "operator": "Bangalore Metro Rail Corporation Limited", "platforms": "2", "public_transport": "station", "public_transport:version": "2", "railway": "station", "shelter": "yes", "start_date": "2025-08-10", "station": "subway", "subway": "yes", "toilets:wheelchair": "yes", "website": "https://english.brmc.co.in", "wheelchair": "yes", "osm_id": 5760198239}, "geometry": {"type": "Point", "coordinates": [77.5883015, 12.9170807]}}, {"type": "Feature", "properties": {"code": "DSH", "lit": "yes", "name": "Dasarahalli", "name:kn": "ದಾಸರಹಳ್ಳಿ", "name:ml": "ദാസറഹള്ളി", "network": "Namma Metro", "note": "Contributors are requested to not edit the \"network\" and the \"operator\" tags. (2023/11/08)", "operator": "Bangalore Metro Rail Corporation Limited", "public_transport": "station", "public_transport:version": "2", "railway": "station", "shelter": "yes", "station": "subway", "subway": "yes", "website": "https://english.brmc.co.in", "wheelchair": "yes", "osm_id": 5960788724}, "geometry": {"type": "Point", "coordinates": [77.5125535, 13.0432607]}}, {"type": "Feature", "properties": {"code": "JLHL", "lit": "yes", "name": "Jalahalli", "name:kn": "ಜಾಲಹಳ್ಳಿ", "name:ml": "ജാലഹള്ളി", "network": "Namma Metro", "note": "Contributors are requested to not edit the \"network\" and the \"operator\" tags. (2023/11/08)", "operator": "Bangalore Metro Rail Corporation Limited", "parking": "yes", "public_transport": "station", "public_transport:version": "2", "railway": "station", "shelter": "yes", "station": "subway", "subway": "yes", "website": "https://english.brmc.co.in", "wheelchair": "yes", "wikidata": "Q30647031", "wikipedia": "en:Jalahalli metro station", "osm_id": 5960788725}, "geometry": {"type": "Point", "coordinates": [77.5197351, 13.0394104]}}, {"type": "Feature", "properties": {"code": "SPRU", "lit": "yes", "name": "Srirampura", "name:hi": "श्रीरामपुरा", "name:kn": "ಶ್ರೀರಾಮಪುರ", "name:ml": "ശ്രീരാംപുര", "name:ta": "ஸ்ரீராம்புரா", "network": "Namma Metro", "network:wikidata": "Q279343", "note": "Contributors are requested to not edit the \"network\" and the \"operator\" tags. (2023/11/08)", "operator": "Bangalore Metro Rail Corporation Limited", "public_transport": "station", "public_transport:version": "2", "railway": "station", "shelter": "yes", "station": "subway", "subway": "yes", "website": "https://english.brmc.co.in", "wheelchair": "yes", "osm_id": 5960788726}, "geometry": {"type": "Point", "coordinates": [77.5631963, 12.9965253]}}, {"type": "Feature", "properties": {"code": "BYPH", "layer": "1", "lit": "yes", "name": "Baiyappanahalli", "name:kn": "ಬೈಯ್ಯಪ್ಪನಹಳ್ಳಿ ಮೆಟ್ರೋ ನಿಲ್ದಾಣ", "name:ml": "ബൈയപ്പനഹള്ളി", "network": "Namma Metro", "note": "Contributors are requested to not edit the \"network\" and the \"operator\" tags. (2023/11/08)", "operator": "Bangalore Metro Rail Corporation Limited", "platforms": "2", "public_transport": "station", "public_transport:version": "2", "railway": "station", "ref": "BYPH", "shelter": "yes", "station": "subway", "subway": "yes", "toilets:wheelchair": "yes", "website": "https://english.brmc.co.in", "wheelchair": "yes", "osm_id": 6400857549}, "geometry": {"type": "Point", "coordinates": [77.6523612, 12.9907594]}}, {"type": "Feature", "properties": {"code": "SVRD", "layer": "1", "lit": "yes", "name": "Swami Vivekananda Road", "name:etymology:wikidata": "Q47478", "name:kn": "ಸ್ವಾಮಿ ವಿವೇಕಾನಂದ ರಸ್ತೆ", "name:ml": "സ്വാമി വിവേകാനന്ദ റോഡ്", "network": "Namma Metro", "note": "Contributors are requested to not edit the \"network\" and the \"operator\" tags. (2023/11/08)", "operator": "Bangalore Metro Rail Corporation Limited", "platforms": "2", "public_transport": "station", "public_transport:version": "2", "railway": "station", "shelter": "yes", "station": "subway", "subway": "yes", "website": "https://english.brmc.co.in", "wheelchair": "yes", "osm_id": 6400857550}, "geometry": {"type": "Point", "coordinates": [77.644897, 12.9859306]}}, {"type": "Feature", "properties": {"code": "IDN", "layer": "1", "lit": "yes", "name": "Indiranagar", "name:hi": "इंदिरानगर", "name:kn": "ಇಂದಿರಾನಗರ", "name:ml": "ഇന്ദിരാനഗർ", "network": "Namma Metro", "note": "Contributors are requested to not edit the \"network\" and the \"operator\" tags. (2023/11/08)", "operator": "Bangalore Metro Rail Corporation Limited", "platforms": "2", "public_transport": "station", "public_transport:version": "2", "railway": "station", "shelter": "yes", "station": "subway", "subway": "yes", "website": "https://english.brmc.co.in", "wheelchair": "yes", "osm_id": 6400857551}, "geometry": {"type": "Point", "coordinates": [77.6386612, 12.9783325]}}, {"type": "Feature", "properties": {"code": "HLRU", "layer": "1", "lit": "yes", "name": "Halasuru", "name:kn": "ಹಲಸೂರು", "name:ml": "ഹലസുരു", "network": "Namma Metro", "note": "Contributors are requested to not edit the \"network\" and the \"operator\" tags. (2023/11/08)", "operator": "Bangalore Metro Rail Corporation Limited", "platforms": "2", "public_transport": "station", "public_transport:version": "2", "railway": "station", "shelter": "yes", "station": "subway", "subway": "yes", "website": "https://english.brmc.co.in", "wheelchair": "yes", "osm_id": 6400857552}, "geometry": {"type": "Point", "coordinates": [77.626686, 12.9764992]}}, {"type": "Feature", "properties": {"code": "TTY", "layer": "1", "lit": "yes", "name": "Trinity", "name:hi": "ट्रिनिटी", "name:kn": "ಟ್ರಿನಿಟಿ ಮೆಟ್ರೊ ನಿಲ್ದಾಣ", "name:ml": "ട്രിനിറ്റി", "network": "Namma Metro", "note": "Contributors are requested to not edit the \"network\" and the \"operator\" tags. (2023/11/08)", "operator": "Bangalore Metro Rail Corporation Limited", "platforms": "2", "public_transport": "station", "public_transport:version": "2", "railway": "station", "shelter": "yes", "station": "subway", "subway": "yes", "website": "https://english.brmc.co.in", "wheelchair": "yes", "osm_id": 6400857553}, "geometry": {"type": "Point", "coordinates": [77.6170205, 12.9730218]}}, {"type": "Feature", "properties": {"alt_name": "Plaza Theatre Metro Station", "code": "MAGR", "layer": "1", "lit": "yes", "name": "Mahatma Gandhi Road", "name:kn": "ಮಹಾತ್ಮ ಗಾಂಧಿ ರಸ್ತೆ", "name:ta": "மகாத்மா காந்தி சாலை", "network": "Namma Metro", "note": "Contributors are requested to not edit the \"network\" and the \"operator\" tags. (2023/11/08)", "operator": "Bangalore Metro Rail Corporation Limited", "platforms": "2", "public_transport": "station", "public_transport:version": "2", "railway": "station", "shelter": "yes", "short_name": "MG Road", "start_date": "20-10-2011", "station": "subway", "subway": "yes", "website": "https://english.brmc.co.in", "wheelchair": "yes", "wikidata": "Q5539354", "wikipedia": "en:Mahatma Gandhi Road metro station (Bangalore)", "osm_id": 6400857554}, "geometry": {"type": "Point", "coordinates": [77.6067902, 12.9755264]}}, {"type": "Feature", "properties": {"code": "CBPK", "name": "Cubbon Park", "name:etymology:wikidata": "Q6767214", "name:hi": "कबन पार्क", "name:kn": "ಕಬ್ಬನ್ ಪಾರ್ಕ್", "name:ml": "കബ്ബൺ പാർക്ക്", "network": "Namma Metro", "note": "Contributors are requested to not edit the \"network\" and the \"operator\" tags. (2023/11/08)", "operator": "Bangalore Metro Rail Corporation Limited", "public_transport": "station", "public_transport:version": "2", "railway": "station", "shelter": "yes", "station": "subway", "subway": "yes", "tunnel": "yes", "website": "https://english.brmc.co.in", "wheelchair": "yes", "osm_id": 6400857555}, "geometry": {"type": "Point", "coordinates": [77.5975756, 12.9809575]}}, {"type": "Feature", "properties": {"code": "VDSA", "name": "Dr. B. R. Ambedkar Station, Vidhana Soudha", "name:kn": "ಡಾ.ಬಿ.ಆರ್. ಅಂಬೇಡ್ಕರ್ ಠಾಣೆ, ವಿಧಾನಸೌಧ", "name:ml": "ഡോ.ബി.ആർ. അംബേദ്കർ സ്റ്റേഷൻ, വിധാന സൗധ", "network": "Namma Metro", "note": "Contributors are requested to not edit the \"network\" and the \"operator\" tags. (2023/11/08)", "operator": "Bangalore Metro Rail Corporation Limited", "public_transport": "station", "public_transport:version": "2", "railway": "station", "ref": "VDSA", "shelter": "yes", "station": "subway", "subway": "yes", "tunnel": "yes", "website": "https://english.brmc.co.in", "wheelchair": "yes", "osm_id": 6400857556}, "geometry": {"type": "Point", "coordinates": [77.5916385, 12.9787419]}}, {"type": "Feature", "properties": {"alt_name": "Central College", "code": "VSWA", "name": "Sir M. Visvesvaraya Stn., Central College", "name:kn": "ಸರ್ ಎಂ ವಿಶ್ವೇಶ್ವರಯ್ಯ - ಸೆಂಟ್ರಲ್ ಕಾಲೇಜು", "name:ml": "സർ എം വിശ്വേശ്വരയ്യ - സെൻട്രൽ കോളേജ്", "network": "Namma Metro", "note": "Contributors are requested to not edit the \"network\" and the \"operator\" tags. (2023/11/08)", "operator": "Bangalore Metro Rail Corporation Limited", "public_transport": "station", "public_transport:version": "2", "railway": "station", "shelter": "yes", "station": "subway", "subway": "yes", "tunnel": "yes", "website": "https://english.brmc.co.in", "wheelchair": "yes", "osm_id": 6400857557}, "geometry": {"type": "Point", "coordinates": [77.58422, 12.9745197]}}, {"type": "Feature", "properties": {"alt_name": "Majestic Metro Station", "code": "KGWA", "level": "-2;-1;0", "name": "Nadaprabhu Kempegowda Station, Majestic", "name:etymology:wikidata": "Q6387049", "name:kn": "ನಾಡಪ್ರಭು ಕೆಂಪೇಗೌಡ ನಿಲ್ದಾಣ, ಮೆಜೆಸ್ಟಿಕ್", "name:ml": "നാടപ്രഭു കെമ്പഗൗഡ സ്റ്റേഷൻ, മജസ്റ്റിക്", "name:ta": "நாடப்பிரபு கெம்பேகவுடா மெஜஸ்டிக்", "network": "Namma Metro", "note": "Contributors are requested to not edit the \"network\" and the \"operator\" tags. (2023/11/08)", "operator": "Bangalore Metro Rail Corporation Limited", "public_transport": "station", "public_transport:version": "2", "railway": "station", "shelter": "yes", "station": "subway", "subway": "yes", "website": "https://english.brmc.co.in", "wheelchair": "yes", "wikidata": "Q6737727", "wikipedia": "en:Majestic metro station", "osm_id": 6400857558}, "geometry": {"type": "Point", "coordinates": [77.5728757, 12.9757079]}}, {"type": "Feature", "properties": {"code": "BRCS", "name": "Krantivira Sangolli Rayanna Railway Station", "name:kn": "ಕ್ರಾಂತಿವೀರ ಸಂಗೊಳ್ಳಿ ರಾಯಣ್ಣ", "name:ml": "ക്രാന്തിവീര സങ്കൊല്ലി രായണ്ണ", "network": "Namma Metro", "note": "Contributors are requested to not edit the \"network\" and the \"operator\" tags. (2023/11/08)", "operator": "Bangalore Metro Rail Corporation Limited", "public_transport": "station", "public_transport:version": "2", "railway": "station", "shelter": "yes", "station": "subway", "subway": "yes", "website": "https://english.brmc.co.in", "wheelchair": "yes", "osm_id": 6400857559}, "geometry": {"type": "Point", "coordinates": [77.5653767, 12.9758768]}}, {"type": "Feature", "properties": {"code": "MIRD", "name": "Magadi Road", "name:kn": "ಮಾಗಡಿ ರಸ್ತೆ ಮೆಟ್ರೊ", "name:ml": "മാഗഡി റോഡ്", "network": "Namma Metro", "network:wikidata": "Q279343", "note": "Contributors are requested to not edit the \"network\" and the \"operator\" tags. (2023/11/08)", "operator": "Bangalore Metro Rail Corporation Limited", "public_transport": "station", "public_transport:version": "2", "railway": "station", "shelter": "yes", "station": "subway", "subway": "yes", "website": "https://english.brmc.co.in", "wheelchair": "yes", "osm_id": 6400857560}, "geometry": {"type": "Point", "coordinates": [77.5553523, 12.975632]}}, {"type": "Feature", "properties": {"code": "HSLI", "name": "Sri Balagangadharanatha Swamiji Station, Hosahalli", "name:kn": "ಶ್ರೀ ಬಾಲಗಂಗಾಧರನಾಥ ಮೆಟ್ರೋ", "name:ml": "ശ്രീ ബാലഗംഗാധരനാഥ സ്വാമി, ഹൊസഹള്ളി", "network": "Namma Metro", "network:wikidata": "Q279343", "note": "Contributors are requested to not edit the \"network\" and the \"operator\" tags. (2023/11/08)", "operator": "Bangalore Metro Rail Corporation Limited", "public_transport": "station", "public_transport:version": "2", "railway": "station", "shelter": "yes", "station": "subway", "subway": "yes", "website": "https://english.brmc.co.in", "wheelchair": "yes", "osm_id": 6400857561}, "geometry": {"type": "Point", "coordinates": [77.5456215, 12.9742933]}}, {"type": "Feature", "properties": {"code": "VJN", "name": "Vijayanagar", "name:kn": "ವಿಜಯನಗರ", "name:ml": "വിജയനഗര", "network": "Namma Metro", "network:wikidata": "Q279343", "note": "Contributors are requested to not edit the \"network\" and the \"operator\" tags. (2023/11/08)", "operator": "Bangalore Metro Rail Corporation Limited", "public_transport": "station", "public_transport:version": "2", "railway": "station", "shelter": "yes", "station": "subway", "subway": "yes", "website": "https://english.brmc.co.in", "wheelchair": "yes", "osm_id": 6400857562}, "geometry": {"type": "Point", "coordinates": [77.5374044, 12.9709559]}}, {"type": "Feature", "properties": {"code": "AGPP", "name": "Attiguppe", "name:kn": "ಅತ್ತಿಗುಪ್ಪೆ ಮೆಟ್ರೋ", "name:ml": "അത്തിഗുപ്പെ", "network": "Namma Metro", "network:wikidata": "Q279343", "note": "Contributors are requested to not edit the \"network\" and the \"operator\" tags. (2023/11/08)", "operator": "Bangalore Metro Rail Corporation Limited", "public_transport": "station", "public_transport:version": "2", "railway": "station", "shelter": "yes", "station": "subway", "subway": "yes", "website": "https://english.brmc.co.in", "wheelchair": "yes", "osm_id": 6400857563}, "geometry": {"type": "Point", "coordinates": [77.5335788, 12.9618931]}}, {"type": "Feature", "properties": {"code": "DJNR", "name": "Deepanjali Nagar", "name:kn": "ದೀಪಾಂಜಲಿ ನಗರ", "name:ml": "ദീപാഞ്ജലി നഗർ", "network": "Namma Metro", "note": "Contributors are requested to not edit the \"network\" and the \"operator\" tags. (2023/11/08)", "operator": "Bangalore Metro Rail Corporation Limited", "public_transport": "station", "public_transport:version": "2", "railway": "station", "shelter": "yes", "station": "subway", "subway": "yes", "website": "https://english.brmc.co.in", "wheelchair": "yes", "osm_id": 6400857564}, "geometry": {"type": "Point", "coordinates": [77.5370122, 12.9520578]}}, {"type": "Feature", "properties": {"code": "MYRD", "name": "Mysore Road", "name:kn": "ಮೈಸೂರು ರಸ್ತೆ ಮೆಟ್ರೋ", "name:ml": "മൈസൂർ റോഡ്", "network": "Namma Metro", "network:wikidata": "Q279343", "note": "Contributors are requested to not edit the \"network\" and the \"operator\" tags. (2023/11/08)", "operator": "Bangalore Metro Rail Corporation Limited", "public_transport": "station", "public_transport:version": "2", "railway": "station", "shelter": "yes", "station": "subway", "subway": "yes", "website": "https://english.brmc.co.in", "wheelchair": "yes", "osm_id": 6400857565}, "geometry": {"type": "Point", "coordinates": [77.5301588, 12.9467183]}}, {"type": "Feature", "properties": {"code": "SPGD", "name": "Mantri Square Sampige Road", "name:kn": "ಮಂತ್ರಿ ಸ್ಕ್ವೇರ್ ಸಂಪಿಗೆ ರಸ್ತೆ", "name:ml": "മന്ത്രി സ്ക്വയർ സമ്പിഗെ റോഡ്", "network": "Namma Metro", "network:wikidata": "Q279343", "note": "Contributors are requested to not edit the \"network\" and the \"operator\" tags. (2023/11/08)", "operator": "Bangalore Metro Rail Corporation Limited", "public_transport": "station", "public_transport:version": "2", "railway": "station", "ref": "SPGD", "shelter": "yes", "station": "subway", "subway": "yes", "website": "https://english.brmc.co.in", "wheelchair": "yes", "osm_id": 6410706688}, "geometry": {"type": "Point", "coordinates": [77.5707293, 12.9904629]}}, {"type": "Feature", "properties": {"code": "KVPR", "name": "Mahakavi Kuvempu Road", "name:etymology:wikidata": "Q3351108", "name:kn": "ಮಹಾಕವಿ ಕುವೆಂಪು ರಸ್ತೆ", "name:ml": "മഹാകവി കുവെമ്പു റോഡ്", "name:ta": "மகாகவி குவேம்பு சாலை", "network": "Namma Metro", "network:wikidata": "Q279343", "note": "Contributors are requested to not edit the \"network\" and the \"operator\" tags. (2023/11/08)", "operator": "Bangalore Metro Rail Corporation Limited", "public_transport": "station", "public_transport:version": "2", "railway": "station", "shelter": "yes", "short_name": "MKK Road", "station": "subway", "subway": "yes", "website": "https://english.brmc.co.in", "wheelchair": "yes", "osm_id": 6410706689}, "geometry": {"type": "Point", "coordinates": [77.5568986, 12.9985297]}}, {"type": "Feature", "properties": {"code": "RJNR", "name": "Rajajinagar", "name:hi": "राजाजीनगर", "name:kn": "ರಾಜಾಜಿನಗರ", "name:ml": "രാജാജിനഗർ", "name:ta": "ராஜாஜி நகர்", "network": "Namma Metro", "note": "Contributors are requested to not edit the \"network\" and the \"operator\" tags. (2023/11/08)", "operator": "Bangalore Metro Rail Corporation Limited", "public_transport": "station", "public_transport:version": "2", "railway": "station", "shelter": "yes", "station": "subway", "subway": "yes", "website": "https://english.brmc.co.in", "wheelchair": "yes", "osm_id": 6410706690}, "geometry": {"type": "Point", "coordinates": [77.5496568, 13.0005247]}}, {"type": "Feature", "properties": {"code": "MHLI", "name": "Mahalakshmi", "name:hi": "महालक्ष्मी", "name:kn": "ಮಹಾಲಕ್ಷ್ಮಿ", "name:ml": "മഹാലക്ഷ്മി", "name:ta": "மகாலட்சுமி", "network": "Namma Metro", "network:wikidata": "Q279343", "note": "Contributors are requested to not edit the \"network\" and the \"operator\" tags. (2023/11/08)", "operator": "Bangalore Metro Rail Corporation Limited", "public_transport": "station", "public_transport:version": "2", "railway": "station", "shelter": "yes", "station": "subway", "subway": "yes", "website": "https://english.brmc.co.in", "wheelchair": "yes", "osm_id": 6410706691}, "geometry": {"type": "Point", "coordinates": [77.5488066, 13.0080475]}}, {"type": "Feature", "properties": {"code": "SSFY", "name": "Sandal Soap Factory", "name:kn": "ಸಾಂಡಲ್ ಸೋಪ್ ಕಾರ್ಖಾನೆ", "name:ml": "സാൻഡൽ സോപ്പ് ഫാക്ടറി", "network": "Namma Metro", "network:wikidata": "Q279343", "note": "Contributors are requested to not edit the \"network\" and the \"operator\" tags. (2023/11/08)", "operator": "Bangalore Metro Rail Corporation Limited", "public_transport": "station", "public_transport:version": "2", "railway": "station", "shelter": "yes", "station": "subway", "subway": "yes", "website": "https://english.brmc.co.in", "wheelchair": "yes", "wikipedia": "en:Sandal Soap Factory metro station", "osm_id": 6410706692}, "geometry": {"type": "Point", "coordinates": [77.5539839, 13.0146544]}}, {"type": "Feature", "properties": {"code": "PEYA", "name": "Peenya", "name:kn": "ಪೀಣ್ಯ", "name:ml": "പീണ്യ", "network": "Namma Metro", "network:wikidata": "Q279343", "note": "Contributors are requested to not edit the \"network\" and the \"operator\" tags. (2023/11/08)", "operator": "Bangalore Metro Rail Corporation Limited", "public_transport": "station", "public_transport:version": "2", "railway": "station", "shelter": "yes", "station": "subway", "subway": "yes", "website": "https://english.brmc.co.in", "wheelchair": "yes", "osm_id": 6410706695}, "geometry": {"type": "Point", "coordinates": [77.533201, 13.0330189]}}, {"type": "Feature", "properties": {"code": "PYID", "name": "Peenya Industry", "name:kn": "ಪೀಣ್ಯ ಇಂಡಸ್ಟ್ರಿ", "name:ml": "പീണ്യ ഇൻഡസ്ട്രി", "network": "Namma Metro", "network:wikidata": "Q279343", "note": "Contributors are requested to not edit the \"network\" and the \"operator\" tags. (2023/11/08)", "operator": "Bangalore Metro Rail Corporation Limited", "public_transport": "station", "public_transport:version": "2", "railway": "station", "ref": "PYID", "shelter": "yes", "station": "subway", "subway": "yes", "website": "https://english.brmc.co.in", "wheelchair": "yes", "osm_id": 6410706696}, "geometry": {"type": "Point", "coordinates": [77.5254924, 13.0363176]}}, {"type": "Feature", "properties": {"code": "PUTH", "layer": "1", "lit": "yes", "name": "Yelachenahalli", "name:kn": "ಯಲಚೇನಹಳ್ಳಿ", "name:ml": "യലച്ചേനഹള്ളി", "name:ta": "எலச்சேனஹல்லி", "network": "Namma Metro", "note": "Contributors are requested to not edit the \"network\" and the \"operator\" tags. (2023/11/08)", "operator": "Bangalore Metro Rail Corporation Limited", "platforms": "2", "public_transport": "station", "public_transport:version": "2", "railway": "station", "shelter": "yes", "station": "subway", "subway": "yes", "website": "https://english.brmc.co.in", "wheelchair": "yes", "osm_id": 6432710292}, "geometry": {"type": "Point", "coordinates": [77.5701194, 12.8960498]}}, {"type": "Feature", "properties": {"code": "JPN", "layer": "1", "lit": "yes", "name": "Jaya Prakash Nagar", "name:kn": "ಜೆಪಿ ನಗರ", "name:ml": "ജെ പി നഗർ", "name:ta": "ஜே பி நகர்", "network": "Namma Metro", "note": "Contributors are requested to not edit the \"network\" and the \"operator\" tags. (2023/11/08)", "operator": "Bangalore Metro Rail Corporation Limited", "platforms": "2", "public_transport": "station", "public_transport:version": "2", "railway": "station", "shelter": "yes", "short_name": "J P Nagar", "station": "subway", "subway": "yes", "website": "https://english.brmc.co.in", "wheelchair": "yes", "osm_id": 6432710293}, "geometry": {"type": "Point", "coordinates": [77.5731279, 12.9074747]}}, {"type": "Feature", "properties": {"code": "BSNK", "layer": "1", "lit": "yes", "name": "Banashankari", "name:kn": "ಬನಶಂಕರಿ", "name:ml": "ബനശങ്കരി", "name:ta": "பனசங்கரி", "network": "Namma Metro", "note": "Contributors are requested to not edit the \"network\" and the \"operator\" tags. (2023/11/08)", "operator": "Bangalore Metro Rail Corporation Limited", "platforms": "2", "public_transport": "station", "public_transport:version": "2", "railway": "station", "ref": "BSNK", "shelter": "yes", "station": "subway", "subway": "yes", "website": "https://english.brmc.co.in", "wheelchair": "yes", "osm_id": 6432710294}, "geometry": {"type": "Point", "coordinates": [77.573598, 12.9152208]}}, {"type": "Feature", "properties": {"alt_name": "RV Road metro station", "code": "RVR", "layer": "1", "lit": "yes", "name": "Rashtreeya Vidyalaya Road", "name:en": "Rashtreeya Vidyalaya Road", "name:kn": "ರಾಷ್ಟ್ರೀಯ ವಿದ್ಯಾಲಯ ರಸ್ತೆ", "name:ml": "രാഷ്ട്രീയ വിദ്യാലയ റോഡ്", "name:ta": "ராஷ்ட்ரீய வித்யாலயா சாலை", "network": "Namma Metro", "note": "Contributors are requested to not edit the \"network\" and the \"operator\" tags. (2023/11/08)", "operator": "Bangalore Metro Rail Corporation Limited", "platforms": "4", "public_transport": "station", "public_transport:version": "2", "railway": "station", "shelter": "yes", "station": "subway", "subway": "yes", "website": "https://english.brmc.co.in", "wheelchair": "yes", "osm_id": 6432710295}, "geometry": {"type": "Point", "coordinates": [77.5802015, 12.9215807]}}, {"type": "Feature", "properties": {"code": "JYN", "layer": "1", "lit": "yes", "name": "Jayanagar", "name:hi": "जयानगर", "name:kn": "ಜಯನಗರ", "name:ml": "ജയനഗർ", "name:ta": "ஜெயாநகர்", "network": "Namma Metro", "note": "Contributors are requested to not edit the \"network\" and the \"operator\" tags. (2023/11/08)", "operator": "Bangalore Metro Rail Corporation Limited", "platforms": "2", "public_transport": "station", "public_transport:version": "2", "railway": "station", "shelter": "yes", "station": "subway", "subway": "yes", "website": "https://english.brmc.co.in", "wheelchair": "yes", "osm_id": 6432710296}, "geometry": {"type": "Point", "coordinates": [77.5801439, 12.9295069]}}, {"type": "Feature", "properties": {"code": "SECE", "layer": "1", "lit": "yes", "name": "South End Circle", "name:kn": "ತಿ.ನಂ.ಶ್ರೀ ವೃತ್ತ", "name:ml": "സൗത്ത് എൻഡ് സർക്കിൾ", "name:ta": "சவுத் என்டு சர்கிள்", "network": "Namma Metro", "note": "Contributors are requested to not edit the \"network\" and the \"operator\" tags. (2023/11/08)", "operator": "Bangalore Metro Rail Corporation Limited", "platforms": "2", "public_transport": "station", "public_transport:version": "2", "railway": "station", "shelter": "yes", "station": "subway", "subway": "yes", "website": "https://english.brmc.co.in", "wheelchair": "yes", "osm_id": 6432710297}, "geometry": {"type": "Point", "coordinates": [77.5800556, 12.9382573]}}, {"type": "Feature", "properties": {"code": "LBGH", "layer": "1", "lit": "yes", "name": "Lalbagh", "name:hi": "लालबाग़", "name:kn": "ಲಾಲ್ ಬಾಗ್", "name:ml": "ലാൽബാഗ്", "name:ta": "லால்பாக்", "network": "Namma Metro", "note": "Contributors are requested to not edit the \"network\" and the \"operator\" tags. (2023/11/08)", "operator": "Bangalore Metro Rail Corporation Limited", "platforms": "2", "public_transport": "station", "public_transport:version": "2", "railway": "station", "ref": "LBGH", "shelter": "yes", "station": "subway", "subway": "yes", "website": "https://english.brmc.co.in", "wheelchair": "yes", "osm_id": 6432710298}, "geometry": {"type": "Point", "coordinates": [77.580016, 12.9465265]}}, {"type": "Feature", "properties": {"code": "NLC", "layer": "1", "lit": "yes", "name": "National College", "name:kn": "ನ್ಯಾಶನಲ್ ಕಾಲೇಜು", "name:ml": "നാഷണൽ കോളേജ്", "name:ta": "நேஷனல் கல்லூரி", "network": "Namma Metro", "note": "Contributors are requested to not edit the \"network\" and the \"operator\" tags. (2023/11/08)", "operator": "Bangalore Metro Rail Corporation Limited", "platforms": "2", "public_transport": "station", "public_transport:version": "2", "railway": "station", "shelter": "yes", "station": "subway", "subway": "yes", "website": "https://english.brmc.co.in", "wheelchair": "yes", "osm_id": 6432710299}, "geometry": {"type": "Point", "coordinates": [77.5736898, 12.9505266]}}, {"type": "Feature", "properties": {"code": "KRMT", "lit": "yes", "name": "Krishna Rajendra Market", "name:kn": "ಕೃಷ್ಣರಾಜೇಂದ್ರ ಮಾರುಕಟ್ಟೆ", "name:ml": "കൃഷ്ണ രാജേന്ദ്ര മാർക്കറ്റ്", "name:ta": "கிருஷ்ண ராஜேந்திர‌ மார்கெட்", "network": "Namma Metro", "note": "Contributors are requested to not edit the \"network\" and the \"operator\" tags. (2023/11/08)", "operator": "Bangalore Metro Rail Corporation Limited", "public_transport": "station", "public_transport:version": "2", "railway": "station", "shelter": "yes", "station": "subway", "subway": "yes", "tunnel": "yes", "website": "https://english.brmc.co.in", "wheelchair": "yes", "osm_id": 6432710300}, "geometry": {"type": "Point", "coordinates": [77.5746578, 12.9608788]}}, {"type": "Feature", "properties": {"code": "CKPE", "lit": "yes", "name": "Chickpete", "name:hi": "चिकपेटे", "name:kn": "ಚಿಕ್ಕಪೇಟೆ", "name:ml": "ചിക്കപ്പേട്ട", "name:ta": "சிக்கபேட்டே", "network": "Namma Metro", "note": "Contributors are requested to not edit the \"network\" and the \"operator\" tags. (2023/11/08)", "operator": "Bangalore Metro Rail Corporation Limited", "public_transport": "station", "public_transport:version": "2", "railway": "station", "shelter": "yes", "station": "subway", "subway": "yes", "tunnel": "yes", "website": "https://english.brmc.co.in", "wheelchair": "yes", "osm_id": 6432710301}, "geometry": {"type": "Point", "coordinates": [77.5745566, 12.9668974]}}, {"type": "Feature", "properties": {"code": "KGIT", "name": "Kengeri", "name:kn": "ಕೆಂಗೇರಿ", "network": "Namma Metro", "note": "Contributors are requested to not edit the \"network\" and the \"operator\" tags. (2023/11/08)", "operator": "Bangalore Metro Rail Corporation Limited", "public_transport": "stop_position", "railway": "stop", "station": "subway", "subway": "yes", "osm_id": 7784456820}, "geometry": {"type": "Point", "coordinates": [77.4765748, 12.9079284]}}, {"type": "Feature", "properties": {"construction": "station", "disused:railway": "stop", "name": "Jayadeva Interchange (u/c)", "network": "Namma Metro", "note": "Contributors are requested to not edit the \"network\" and the \"operator\" tags. (2023/11/08)", "operator": "Bangalore Metro Rail Corporation Limited", "public_transport": "stop_position", "railway": "stop", "station": "subway", "subway": "yes", "osm_id": 7829006597}, "geometry": {"type": "Point", "coordinates": [77.5999985, 12.9167281]}}, {"type": "Feature", "properties": {"code": "KGIT", "name": "Kengeri", "name:kn": "ಕೆಂಗೇರಿ", "network": "Namma Metro", "note": "Contributors are requested to not edit the \"network\" and the \"operator\" tags. (2023/11/08)", "operator": "Bangalore Metro Rail Corporation Limited", "public_transport": "stop_position", "railway": "stop", "station": "subway", "subway": "yes", "osm_id": 9048813172}, "geometry": {"type": "Point", "coordinates": [77.4765871, 12.9078971]}}, {"type": "Feature", "properties": {"code": "BGUC", "name": "Jnanabharathi", "name:kn": "ಜ್ಞಾನ ಭಾರತಿ", "name:ml": "ജ്ഞാന ഭാരതി", "network": "Namma Metro", "note": "Contributors are requested to not edit the \"network\" and the \"operator\" tags. (2023/11/08)", "operator": "Bangalore Metro Rail Corporation Limited", "public_transport": "station", "public_transport:version": "2", "railway": "station", "shelter": "yes", "station": "subway", "subway": "yes", "website": "https://english.brmc.co.in", "wheelchair": "yes", "osm_id": 9049846515}, "geometry": {"type": "Point", "coordinates": [77.5124063, 12.9354357]}}, {"type": "Feature", "properties": {"alt_name": "Pantarapalya", "code": "NYHM", "name": "Pantharapalya - Nayandahalli", "name:kn": "ಪಂತರಪಾಳ್ಯ - ನಾಯಂಡಹಳ್ಳಿ", "name:ml": "നായണ്ടഹള്ളി", "network": "Namma Metro", "network:wikidata": "Q279343", "note": "Contributors are requested to not edit the \"network\" and the \"operator\" tags. (2023/11/08)", "old_name": "Nayandahalli", "operator": "Bangalore Metro Rail Corporation Limited", "public_transport": "station", "railway": "station", "station": "subway", "subway": "yes", "website": "https://english.brmc.co.in", "osm_id": 9050797592}, "geometry": {"type": "Point", "coordinates": [77.5251166, 12.9416715]}}, {"type": "Feature", "properties": {"code": "MLSD", "name": "Kengeri Bus Terminal", "name:kn": "ಕೆಂಗೇರಿ ಬಸ್ ಟರ್ಮಿನಲ್", "name:ml": "കെങ്കേരി ബസ് ടെർമിനൽ", "network": "Namma Metro", "note": "Contributors are requested to not edit the \"network\" and the \"operator\" tags. (2023/11/08)", "operator": "Bangalore Metro Rail Corporation Limited", "public_transport": "station", "railway": "station", "station": "subway", "subway": "yes", "website": "https://english.brmc.co.in", "osm_id": 9051395755}, "geometry": {"type": "Point", "coordinates": [77.4878557, 12.914689]}}, {"type": "Feature", "properties": {"code": "KGIT", "name": "Kengeri", "name:kn": "ಕೆಂಗೇರಿ", "name:ml": "കെങ്കേരി", "name:ta": "கெங்கேரி", "network": "Namma Metro", "note": "Contributors are requested to not edit the \"network\" and the \"operator\" tags. (2023/11/08)", "operator": "Bangalore Metro Rail Corporation Limited", "public_transport": "station", "railway": "station", "station": "subway", "subway": "yes", "website": "https://english.brmc.co.in", "osm_id": 9051405243}, "geometry": {"type": "Point", "coordinates": [77.4765784, 12.9079105]}}, {"type": "Feature", "properties": {"code": "RRRN", "name": "Rajarajeshwari Nagar", "name:kn": "ರಾಜರಾಜೇಶ್ವರಿ ನಗರ", "name:ml": "രാജരാജേശ്വരി നഗർ", "network": "Namma Metro", "note": "Contributors are requested to not edit the \"network\" and the \"operator\" tags. (2023/11/08)", "operator": "Bangalore Metro Rail Corporation Limited", "public_transport": "station", "railway": "station", "station": "subway", "subway": "yes", "website": "https://english.brmc.co.in", "osm_id": 9051410519}, "geometry": {"type": "Point", "coordinates": [77.5196788, 12.9365996]}}, {"type": "Feature", "properties": {"code": "PATG", "name": "Pattanagere", "name:kn": "ಪಟ್ಟಣಗೆರೆ", "name:ml": "പട്ടനഗരെ", "network": "Namma Metro", "note": "Contributors are requested to not edit the \"network\" and the \"operator\" tags. (2023/11/08)", "operator": "Bangalore Metro Rail Corporation Limited", "public_transport": "station", "railway": "station", "station": "subway", "subway": "yes", "website": "https://english.brmc.co.in", "wheelchair": "yes", "osm_id": 9051417969}, "geometry": {"type": "Point", "coordinates": [77.4983509, 12.9242505]}}, {"type": "Feature", "properties": {"construction": "station", "disused:railway": "stop", "name": "Jayadeva Interchange (u/c)", "network": "Namma Metro", "note": "Contributors are requested to not edit the \"network\" and the \"operator\" tags. (2023/11/08)", "operator": "Bangalore Metro Rail Corporation Limited", "public_transport": "stop_position", "railway": "stop", "station": "subway", "subway": "yes", "osm_id": 9906332345}, "geometry": {"type": "Point", "coordinates": [77.5999289, 12.9167328]}}, {"type": "Feature", "properties": {"code": "CLGA", "name": "Challaghatta", "name:kn": "ಚಲ್ಲಘಟ್ಟ", "name:ml": "ചള്ളഘട്ട", "name:ta": "சல்லகட்டா", "network": "Namma Metro", "note": "Contributors are requested to not edit the \"network\" and the \"operator\" tags. (2023/11/08)", "operator": "Bangalore Metro Rail Corporation Limited", "public_transport": "station", "railway": "station", "start_date": "09/10/2023", "station": "subway", "subway": "yes", "osm_id": 9919570131}, "geometry": {"type": "Point", "coordinates": [77.4612877, 12.8973539]}}, {"type": "Feature", "properties": {"code": "APTS", "name": "Silk Institute", "name:kn": "ರೇಷ್ಮೆ ಸಂಸ್ಥೆ", "name:ml": "സിൽക്ക് ഇൻസ്റ്റിറ്റ്യൂട്ട്", "name:ta": "சில்க் இன்ஸ்டிட்யூட்", "network": "Namma Metro", "note": "Contributors are requested to not edit the \"network\" and the \"operator\" tags. (2023/11/08)", "operator": "Bangalore Metro Rail Corporation Limited", "platforms": "2", "public_transport": "station", "railway": "station", "ref": "APTS", "shelter": "yes", "station": "subway", "subway": "yes", "wheelchair": "yes", "osm_id": 9919651773}, "geometry": {"type": "Point", "coordinates": [77.5299545, 12.8617298]}}, {"type": "Feature", "properties": {"code": "TGTP", "name": "Thalaghattapura", "name:kn": "ತಲಘಟ್ಟಪುರ", "name:ml": "തലഘട്ടപുര", "name:ta": "தலகட்டபுரா", "network": "Namma Metro", "note": "Contributors are requested to not edit the \"network\" and the \"operator\" tags. (2023/11/08)", "operator": "Bangalore Metro Rail Corporation Limited", "platforms": "2", "public_transport": "station", "railway": "station", "ref": "TGTP", "shelter": "yes", "station": "subway", "subway": "yes", "wheelchair": "yes", "osm_id": 9919651774}, "geometry": {"type": "Point", "coordinates": [77.5383958, 12.8714097]}}, {"type": "Feature", "properties": {"code": "VJRH", "name": "Vajarahalli", "name:kn": "ವಾಜರಹಳ್ಳಿ", "name:ml": "വാജറഹള്ളി", "name:ta": "வஜ்ஜரஹல்லி", "network": "Namma Metro", "note": "Contributors are requested to not edit the \"network\" and the \"operator\" tags. (2023/11/08)", "operator": "Bangalore Metro Rail Corporation Limited", "platforms": "2", "public_transport": "station", "railway": "station", "ref": "VJRH", "shelter": "yes", "station": "subway", "subway": "yes", "wheelchair": "yes", "osm_id": 9919651775}, "geometry": {"type": "Point", "coordinates": [77.5447414, 12.8774369]}}, {"type": "Feature", "properties": {"code": "KLPK", "name": "Doddakallasandra", "name:kn": "ದೊಡ್ಡಕಲ್ಲಸಂದ್ರ", "name:ml": "ദൊഡ്ഡകല്ലസന്ദ്ര", "name:ta": "டொட்டகல்லசந்த்ரா", "network": "Namma Metro", "note": "Contributors are requested to not edit the \"network\" and the \"operator\" tags. (2023/11/08)", "operator": "Bangalore Metro Rail Corporation Limited", "platforms": "2", "public_transport": "station", "railway": "station", "shelter": "yes", "station": "subway", "subway": "yes", "wheelchair": "yes", "osm_id": 9919651776}, "geometry": {"type": "Point", "coordinates": [77.5527546, 12.8846435]}}, {"type": "Feature", "properties": {"code": "APRC", "layer": "1", "lit": "yes", "name": "Konanakunte Cross", "name:kn": "ಕೋಣನಕುಂಟೆ ಕ್ರಾಸ್", "name:ml": "യലച്ചേനഹള്ളി", "name:ta": "கோனானகுன்டே‌ க்ராஸ்", "network": "Namma Metro", "note": "Contributors are requested to not edit the \"network\" and the \"operator\" tags. (2023/11/08)", "operator": "Bangalore Metro Rail Corporation Limited", "platforms": "2", "public_transport": "station", "public_transport:version": "2", "railway": "station", "shelter": "yes", "station": "subway", "subway": "yes", "website": "https://english.brmc.co.in", "wheelchair": "yes", "osm_id": 9919651777}, "geometry": {"type": "Point", "coordinates": [77.5626665, 12.8889671]}}, {"type": "Feature", "properties": {"alt_name": "Tin Factory", "alt_name:kn": "ಟಿನ್ ಫ್ಯಾಕ್ಟರಿ", "name": "Benniganahalli", "name:kn": "ಬೆನ್ನಿಗಾನಹಳ್ಳಿ", "network": "Namma Metro", "note": "Contributors are requested to not edit the \"network\" and the \"operator\" tags. (2023/11/08)", "operator": "Bangalore Metro Rail Corporation Limited", "public_transport": "stop_position", "railway": "stop", "station": "subway", "subway": "yes", "osm_id": 11248381603}, "geometry": {"type": "Point", "coordinates": [77.6684581, 12.9965359]}}, {"type": "Feature", "properties": {"name": "Challaghatta", "name:kn": "ಚಲ್ಲಘಟ್ಟ", "network": "Namma Metro", "note": "Contributors are requested to not edit the \"network\" and the \"operator\" tags. (2023/11/08)", "operator": "Bangalore Metro Rail Corporation Limited", "public_transport": "stop_position", "railway": "stop", "station": "subway", "subway": "yes", "osm_id": 11248381604}, "geometry": {"type": "Point", "coordinates": [77.4612175, 12.8973303]}}, {"type": "Feature", "properties": {"name": "Challaghatta", "name:kn": "ಚಲ್ಲಘಟ್ಟ", "network": "Namma Metro", "note": "Contributors are requested to not edit the \"network\" and the \"operator\" tags. (2023/11/08)", "operator": "Bangalore Metro Rail Corporation Limited", "public_transport": "stop_position", "railway": "stop", "station": "subway", "subway": "yes", "osm_id": 11248381605}, "geometry": {"type": "Point", "coordinates": [77.4612476, 12.897289]}}, {"type": "Feature", "properties": {"code": "NGSA", "name": "Nagasandra", "name:kn": "ನಾಗಸಂದ್ರ", "name:ml": "നാഗസന്ദ്ര", "network": "Namma Metro", "network:wikidata": "Q279343", "note": "Contributors are requested to not edit the \"network\" and the \"operator\" tags. (2023/11/08)", "operator": "Bangalore Metro Rail Corporation Limited", "public_transport": "station", "public_transport:version": "2", "railway": "station", "shelter": "yes", "station": "subway", "subway": "yes", "website": "https://english.brmc.co.in", "wheelchair": "yes", "wikipedia": "en:Nagasandra metro station", "osm_id": 11941173068}, "geometry": {"type": "Point", "coordinates": [77.5001422, 13.0479536]}}, {"type": "Feature", "properties": {"alt_name": "Yeshwantpura", "code": "YPM", "name": "Yeshwantpur", "name:kn": "ಯಶವಂತಪುರ", "name:ml": "യശ്വന്തപുര", "network": "Namma Metro", "network:wikidata": "Q279343", "note": "Contributors are requested to not edit the \"network\" and the \"operator\" tags. (2023/11/08)", "operator": "Bangalore Metro Rail Corporation Limited", "public_transport": "station", "public_transport:version": "2", "railway": "station", "shelter": "yes", "station": "subway", "subway": "yes", "website": "https://english.brmc.co.in", "wheelchair": "yes", "wikipedia": "en:Yeshwanthpur metro station", "osm_id": 11941186869}, "geometry": {"type": "Point", "coordinates": [77.5498751, 13.0232678]}}, {"type": "Feature", "properties": {"alt_name": "Tree Park", "code": "KDGD", "name": "Kadugodi Tree Park", "name:kn": "ಕಾಡುಗೋಡಿ ಟ್ರೀ ಪಾರ್ಕ್", "name:ta": "கடுகோடி மரப் பூங்கா", "network": "Namma Metro", "network:wikidata": "Q279343", "note": "Contributors are requested to not edit the \"network\" and the \"operator\" tags. (2023/11/08)", "old_name": "Kadugodi", "operator": "Bangalore Metro Rail Corporation Limited", "public_transport": "station", "public_transport:version": "2", "railway": "station", "shelter": "yes", "station": "subway", "subway": "yes", "website": "https://english.brmc.co.in", "wheelchair": "yes", "wikipedia": "en:Kadugodi metro station", "osm_id": 11941186870}, "geometry": {"type": "Point", "coordinates": [77.7470121, 12.9856503]}}]}