{"type": "FeatureCollection", "features": [{"type": "Feature", "properties": {"name": "Baiyappanahalli to Mysuru Road", "route_id": "Line 1", "route_short_name": "Purple Line", "mode": "metro", "operator": "Bangalore Metro Rail Corporation Limited", "station_count": 10, "station_codes": "BYPH; SVRD; IDN; HLRU; TTY; MAGR; CBPK; VDSA; VSWA; KGWA", "source": "IUDX Bengaluru Metro Rail Lines sample file", "source_dataset_id": "6c5df87a-38d6-4136-aadb-b3b55842d985", "source_resource_id": "e2c3b8a9-e03c-4045-9c80-66d463ca5cda"}, "geometry": {"type": "LineString", "coordinates": [[77.652653, 12.990325], [77.638798, 12.985484], [77.638529, 12.978273], [77.626722, 12.976372], [77.616838, 12.973042], [77.606693, 12.975525], [77.597468, 12.980913], [77.592428, 12.979373], [77.583949, 12.974292], [77.572843, 12.975708]]}}, {"type": "Feature", "properties": {"name": "Nagasandra to Anjanpura township", "route_id": "Line 2", "route_short_name": "Green Line", "mode": "metro", "operator": "Bangalore Metro Rail Corporation Limited", "station_count": 10, "station_codes": "NGSA; DSH; JHLI; PYID; PEYA; YPI; YPM; SSFY; MHLI; RJNR", "source": "IUDX Bengaluru Metro Rail Lines sample file", "source_dataset_id": "6c5df87a-38d6-4136-aadb-b3b55842d985", "source_resource_id": "e2c3b8a9-e03c-4045-9c80-66d463ca5cda"}, "geometry": {"type": "LineString", "coordinates": [[77.500091, 13.048041], [77.512464, 13.043567], [77.519703, 13.039491], [77.525465, 13.036341], [77.533297, 13.032921], [77.549942, 13.023181], [77.55042, 13.025469], [77.553962, 13.014707], [77.548821, 13.008217], [77.549701, 13.000334]]}}]}
