{"type": "FeatureCollection", "features": [{"type": "Feature", "properties": {"amenity": "toilets", "created_by": "Potlatch 0.10e", "osm_id": 306603782}, "geometry": {"type": "Point", "coordinates": [77.5835421, 12.930715]}}, {"type": "Feature", "properties": {"amenity": "toilets", "fee": "yes", "wheelchair": "no", "osm_id": 314700175}, "geometry": {"type": "Point", "coordinates": [77.5714978, 12.9766603]}}, {"type": "Feature", "properties": {"amenity": "toilets", "survey:date": "2024-02-01", "osm_id": 315207084}, "geometry": {"type": "Point", "coordinates": [77.5925553, 12.9537994]}}, {"type": "Feature", "properties": {"addr:street": "New BEL Road", "amenity": "toilets", "osm_id": 374216597}, "geometry": {"type": "Point", "coordinates": [77.5710204, 13.0288047]}}, {"type": "Feature", "properties": {"amenity": "toilets", "wheelchair": "no", "osm_id": 428851695}, "geometry": {"type": "Point", "coordinates": [77.572453, 12.9778231]}}, {"type": "Feature", "properties": {"amenity": "toilets", "osm_id": 577394250}, "geometry": {"type": "Point", "coordinates": [77.5919036, 12.9511843]}}, {"type": "Feature", "properties": {"access": "yes", "amenity": "toilets", "fee": "yes", "osm_id": 582392005}, "geometry": {"type": "Point", "coordinates": [77.5712081, 13.0090584]}}, {"type": "Feature", "properties": {"amenity": "toilets", "osm_id": 596456779}, "geometry": {"type": "Point", "coordinates": [77.602792, 12.9838784]}}, {"type": "Feature", "properties": {"amenity": "toilets", "wheelchair": "no", "osm_id": 638989415}, "geometry": {"type": "Point", "coordinates": [77.5536076, 13.0352764]}}, {"type": "Feature", "properties": {"amenity": "toilets", "name": "BBMP", "name:kn": "ಬೃ. ಬೆಂ. ಮ. ಪಾ.", "osm_id": 650629565}, "geometry": {"type": "Point", "coordinates": [77.5707735, 12.9991783]}}, {"type": "Feature", "properties": {"amenity": "toilets", "osm_id": 659639936}, "geometry": {"type": "Point", "coordinates": [77.5728206, 13.0092311]}}, {"type": "Feature", "properties": {"amenity": "toilets", "osm_id": 659639952}, "geometry": {"type": "Point", "coordinates": [77.5751111, 13.0118139]}}, {"type": "Feature", "properties": {"amenity": "toilets", "fee": "yes", "note": "located inside park (requires fee)", "osm_id": 661056809}, "geometry": {"type": "Point", "coordinates": [77.5750928, 13.0126247]}}, {"type": "Feature", "properties": {"amenity": "toilets", "fee": "3 INR", "name": "Sulabh Complex", "name:kn": "ಸುಲಭ್ ಶೌಚಾಲಯ", "osm_id": 661983024}, "geometry": {"type": "Point", "coordinates": [77.6012222, 12.9735064]}}, {"type": "Feature", "properties": {"access": "permissive", "amenity": "toilets", "check_date": "2026-01-17", "fee": "yes", "name": "Public Toilets", "name:kn": "ಸಾರ್ವಜನಿಕ ಶೌಚಾಲಯ", "toilets:disposal": "flush", "unisex": "yes", "wheelchair": "no", "osm_id": 661987296}, "geometry": {"type": "Point", "coordinates": [77.592847, 12.9767675]}}, {"type": "Feature", "properties": {"amenity": "toilets", "name": "Public Toilet", "name:kn": "ಶೌಚಾಲಯ", "osm_id": 662894709}, "geometry": {"type": "Point", "coordinates": [77.6174022, 12.9494393]}}, {"type": "Feature", "properties": {"amenity": "toilets", "osm_id": 663561785}, "geometry": {"type": "Point", "coordinates": [77.5967117, 12.9757574]}}, {"type": "Feature", "properties": {"amenity": "toilets", "name": "Public Toilet", "name:kn": "ಸಾರ್ವಜನಿಕ ಶೌಚಾಲಯ", "ups_other": "toilet", "osm_id": 663604701}, "geometry": {"type": "Point", "coordinates": [77.5696913, 12.9919371]}}, {"type": "Feature", "properties": {"amenity": "toilets", "name": "Public Toilet", "name:kn": "ಶೌಚಾಲಯ", "ups_other": "toilet", "osm_id": 663604705}, "geometry": {"type": "Point", "coordinates": [77.6131253, 12.9498327]}}, {"type": "Feature", "properties": {"amenity": "toilets", "name": "Pubilc Toilet", "name:kn": "ಶೌಚಾಲಯ", "ups_other": "toilet", "osm_id": 663604716}, "geometry": {"type": "Point", "coordinates": [77.6154381, 12.9499624]}}, {"type": "Feature", "properties": {"amenity": "toilets", "check_date": "2023-02-27", "fee": "yes", "level": "0", "osm_id": 665871271}, "geometry": {"type": "Point", "coordinates": [77.5778493, 12.9732382]}}, {"type": "Feature", "properties": {"amenity": "toilets", "fee": "yes", "osm_id": 665871274}, "geometry": {"type": "Point", "coordinates": [77.5802138, 12.9722509]}}, {"type": "Feature", "properties": {"amenity": "toilets", "osm_id": 674529633}, "geometry": {"type": "Point", "coordinates": [77.565392, 12.965341]}}, {"type": "Feature", "properties": {"amenity": "toilets", "check_date": "2022-08-11", "fee": "yes", "wheelchair": "no", "osm_id": 676872647}, "geometry": {"type": "Point", "coordinates": [77.580172, 12.9478734]}}, {"type": "Feature", "properties": {"amenity": "toilets", "fee": "yes", "wheelchair": "no", "osm_id": 676872668}, "geometry": {"type": "Point", "coordinates": [77.5849624, 12.9538673]}}, {"type": "Feature", "properties": {"addr:street": "Jayachamaraja Wodeyar Road", "amenity": "toilets", "osm_id": 683352668}, "geometry": {"type": "Point", "coordinates": [77.5822053, 12.9576358]}}, {"type": "Feature", "properties": {"amenity": "toilets", "osm_id": 683352686}, "geometry": {"type": "Point", "coordinates": [77.5868038, 12.950253]}}, {"type": "Feature", "properties": {"amenity": "toilets", "osm_id": 683352692}, "geometry": {"type": "Point", "coordinates": [77.5750394, 12.9651082]}}, {"type": "Feature", "properties": {"amenity": "toilets", "osm_id": 707256715}, "geometry": {"type": "Point", "coordinates": [77.6574521, 13.0720405]}}, {"type": "Feature", "properties": {"addr:street": "WOC Road", "amenity": "toilets", "fee": "yes", "name": "Public Toilet", "name:kn": "ಸಾರ್ವಜನಿಕ ಶೌಚಾಲಯ", "wheelchair": "no", "osm_id": 997416979}, "geometry": {"type": "Point", "coordinates": [77.5394136, 12.9939121]}}, {"type": "Feature", "properties": {"amenity": "toilets", "check_date": "2023-12-23", "fee": "yes", "wheelchair": "limited", "osm_id": 1097739305}, "geometry": {"type": "Point", "coordinates": [77.7157612, 12.9923059]}}, {"type": "Feature", "properties": {"amenity": "toilets", "operator": "Nirmala", "osm_id": 1339408103}, "geometry": {"type": "Point", "coordinates": [77.6495717, 12.9685208]}}, {"type": "Feature", "properties": {"amenity": "toilets", "osm_id": 1469183215}, "geometry": {"type": "Point", "coordinates": [77.609477, 12.9930687]}}, {"type": "Feature", "properties": {"amenity": "toilets", "osm_id": 1470523379}, "geometry": {"type": "Point", "coordinates": [77.6181785, 12.9369821]}}, {"type": "Feature", "properties": {"addr:city": "Bangalore", "addr:housename": "Forum Mall", "addr:street": "Hosur Road", "amenity": "toilets", "fee": "no", "wheelchair": "limited", "osm_id": 1470856114}, "geometry": {"type": "Point", "coordinates": [77.611365, 12.9343785]}}, {"type": "Feature", "properties": {"amenity": "toilets", "osm_id": 1560168982}, "geometry": {"type": "Point", "coordinates": [77.5725469, 12.9802384]}}, {"type": "Feature", "properties": {"amenity": "toilets", "fee": "yes", "wheelchair": "no", "osm_id": 1580632674}, "geometry": {"type": "Point", "coordinates": [77.551512, 13.0225825]}}, {"type": "Feature", "properties": {"amenity": "toilets", "source": "Local knowledge", "osm_id": 1594751016}, "geometry": {"type": "Point", "coordinates": [77.6574072, 12.9593995]}}, {"type": "Feature", "properties": {"amenity": "toilets", "check_date": "2022-07-03", "designation": "BBMP", "fee": "yes", "source": "survey", "wheelchair": "no", "osm_id": 1636731098}, "geometry": {"type": "Point", "coordinates": [77.579598, 12.9783655]}}, {"type": "Feature", "properties": {"amenity": "toilets", "osm_id": 1739362309}, "geometry": {"type": "Point", "coordinates": [77.5860177, 12.9656908]}}, {"type": "Feature", "properties": {"amenity": "toilets", "osm_id": 1739366972}, "geometry": {"type": "Point", "coordinates": [77.5841683, 12.9646442]}}, {"type": "Feature", "properties": {"amenity": "toilets", "osm_id": 1739366982}, "geometry": {"type": "Point", "coordinates": [77.5893034, 12.9661927]}}, {"type": "Feature", "properties": {"amenity": "toilets", "osm_id": 1741250385}, "geometry": {"type": "Point", "coordinates": [77.5661956, 12.9242666]}}, {"type": "Feature", "properties": {"access": "yes", "amenity": "toilets", "fee": "yes", "female": "yes", "level": "0", "male": "yes", "toilets:handwashing": "yes", "osm_id": 1742857855}, "geometry": {"type": "Point", "coordinates": [77.5713773, 12.9216041]}}, {"type": "Feature", "properties": {"amenity": "toilets", "wheelchair": "no", "osm_id": 1809707904}, "geometry": {"type": "Point", "coordinates": [77.5385163, 12.973074]}}, {"type": "Feature", "properties": {"amenity": "toilets", "designation": "Nirmal Toilet", "osm_id": 1812681877}, "geometry": {"type": "Point", "coordinates": [77.5595726, 12.9183471]}}, {"type": "Feature", "properties": {"amenity": "toilets", "osm_id": 2112118405}, "geometry": {"type": "Point", "coordinates": [77.574173, 13.0552844]}}, {"type": "Feature", "properties": {"amenity": "toilets", "osm_id": 2285461734}, "geometry": {"type": "Point", "coordinates": [77.6058259, 12.9685553]}}, {"type": "Feature", "properties": {"amenity": "toilets", "check_date": "2022-07-03", "source": "survey", "osm_id": 2334547032}, "geometry": {"type": "Point", "coordinates": [77.5772272, 12.97828]}}, {"type": "Feature", "properties": {"amenity": "toilets", "source": "survey", "wheelchair": "no", "osm_id": 2334547033}, "geometry": {"type": "Point", "coordinates": [77.5783186, 12.9785367]}}, {"type": "Feature", "properties": {"amenity": "toilets", "osm_id": 2353259160}, "geometry": {"type": "Point", "coordinates": [77.557739, 13.0361493]}}, {"type": "Feature", "properties": {"amenity": "toilets", "operator": "Manish Mehta", "osm_id": 2353259178}, "geometry": {"type": "Point", "coordinates": [77.5767096, 13.0998272]}}, {"type": "Feature", "properties": {"amenity": "toilets", "osm_id": 2389643458}, "geometry": {"type": "Point", "coordinates": [77.5778697, 13.0791605]}}, {"type": "Feature", "properties": {"amenity": "toilets", "osm_id": 2405795045}, "geometry": {"type": "Point", "coordinates": [77.5916049, 12.9494818]}}, {"type": "Feature", "properties": {"amenity": "toilets", "check_date": "2023-12-30", "fee": "no", "wheelchair": "limited", "osm_id": 2405825692}, "geometry": {"type": "Point", "coordinates": [77.5878507, 12.946762]}}, {"type": "Feature", "properties": {"amenity": "toilets", "osm_id": 2627953880}, "geometry": {"type": "Point", "coordinates": [77.5768342, 12.9269662]}}, {"type": "Feature", "properties": {"access": "yes", "amenity": "toilets", "fee": "yes", "operator": "ಬೃಹತ್ ಬೆಂಗಳೂರು ಮಹಾನಗರ ಪಾಲಿಕೆ", "operator:en": "Bruhat Bengaluru Mahanagara Palike", "operator:ka": "ಬೃಹತ್ ಬೆಂಗಳೂರು ಮಹಾನಗರ ಪಾಲಿಕೆ", "operator:short": "BBMP", "operator:wikidata": "Q4978693", "osm_id": 2649089263}, "geometry": {"type": "Point", "coordinates": [77.5848457, 12.9198895]}}, {"type": "Feature", "properties": {"amenity": "toilets", "osm_id": 2668196901}, "geometry": {"type": "Point", "coordinates": [77.5899521, 12.9675896]}}, {"type": "Feature", "properties": {"access": "yes", "amenity": "toilets", "check_date": "2024-02-15", "fee": "yes", "operator": "BBMP", "osm_id": 3286300987}, "geometry": {"type": "Point", "coordinates": [77.5579088, 13.0179754]}}, {"type": "Feature", "properties": {"amenity": "toilets", "osm_id": 3369894894}, "geometry": {"type": "Point", "coordinates": [77.6447678, 12.9758255]}}, {"type": "Feature", "properties": {"amenity": "toilets", "fee": "yes", "osm_id": 3392655753}, "geometry": {"type": "Point", "coordinates": [77.5971889, 12.9441339]}}, {"type": "Feature", "properties": {"amenity": "toilets", "osm_id": 3402017082}, "geometry": {"type": "Point", "coordinates": [77.5838704, 12.9282437]}}, {"type": "Feature", "properties": {"amenity": "toilets", "osm_id": 3402017083}, "geometry": {"type": "Point", "coordinates": [77.5849114, 12.9283646]}}, {"type": "Feature", "properties": {"access": "yes", "amenity": "toilets", "fee": "yes", "name": "eToilet", "toilets:disposal": "pitlatrine", "unisex": "yes", "osm_id": 3428235500}, "geometry": {"type": "Point", "coordinates": [77.6816641, 12.9619762]}}, {"type": "Feature", "properties": {"amenity": "toilets", "name": "Public Toilets", "name:kn": "ಸಾರ್ವಜನಿಕ ಶೌಚಾಲಯ", "osm_id": 3509485608}, "geometry": {"type": "Point", "coordinates": [77.5893024, 12.9173321]}}, {"type": "Feature", "properties": {"amenity": "toilets", "osm_id": 3546180331}, "geometry": {"type": "Point", "coordinates": [77.5882194, 12.9644469]}}, {"type": "Feature", "properties": {"amenity": "toilets", "osm_id": 3632677613}, "geometry": {"type": "Point", "coordinates": [77.6760122, 12.9111259]}}, {"type": "Feature", "properties": {"amenity": "toilets", "fee": "yes", "osm_id": 3725701348}, "geometry": {"type": "Point", "coordinates": [77.6414586, 12.982438]}}, {"type": "Feature", "properties": {"amenity": "toilets", "check_date": "2022-07-03", "fee": "yes", "name": "Sulabh Toilet Complex", "operator": "Sulabh International", "operator:wikidata": "Q3064151", "osm_id": 3737698474}, "geometry": {"type": "Point", "coordinates": [77.6367276, 12.9610608]}}, {"type": "Feature", "properties": {"amenity": "toilets", "osm_id": 3742854798}, "geometry": {"type": "Point", "coordinates": [77.658372, 12.9655896]}}, {"type": "Feature", "properties": {"access": "yes", "amenity": "toilets", "drinking_water": "no", "fee": "yes", "wheelchair": "no", "osm_id": 3781794357}, "geometry": {"type": "Point", "coordinates": [77.56978, 12.99825]}}, {"type": "Feature", "properties": {"amenity": "toilets", "check_date": "2021-11-28", "fee": "yes", "name": "Pay and Use Toilet", "operator": "Sulabh International", "operator:wikidata": "Q3064151", "wheelchair": "no", "osm_id": 3801694532}, "geometry": {"type": "Point", "coordinates": [77.6338267, 12.9249765]}}, {"type": "Feature", "properties": {"access": "yes", "amenity": "toilets", "fee": "yes", "level": "0", "operator": "BBMP", "osm_id": 3808172768}, "geometry": {"type": "Point", "coordinates": [77.609472, 12.9735202]}}, {"type": "Feature", "properties": {"access": "customers", "amenity": "toilets", "female": "yes", "male": "yes", "osm_id": 3812494747}, "geometry": {"type": "Point", "coordinates": [77.7069354, 12.9016152]}}, {"type": "Feature", "properties": {"amenity": "toilets", "level": "0", "osm_id": 3820189380}, "geometry": {"type": "Point", "coordinates": [77.572322, 12.9784277]}}, {"type": "Feature", "properties": {"amenity": "toilets", "level": "1", "male": "yes", "name": "Gents Toilet", "osm_id": 3846365474}, "geometry": {"type": "Point", "coordinates": [77.615139, 12.9750841]}}, {"type": "Feature", "properties": {"amenity": "toilets", "check_date": "2023-10-24", "osm_id": 3959946665}, "geometry": {"type": "Point", "coordinates": [77.5979463, 12.9772921]}}, {"type": "Feature", "properties": {"access": "customers", "amenity": "toilets", "source": "gps", "osm_id": 4067980536}, "geometry": {"type": "Point", "coordinates": [77.5893647, 12.9845114]}}, {"type": "Feature", "properties": {"amenity": "toilets", "osm_id": 4130934097}, "geometry": {"type": "Point", "coordinates": [77.5548239, 12.96422]}}, {"type": "Feature", "properties": {"access": "yes", "amenity": "toilets", "description": "BBMP", "male": "yes", "osm_id": 4144224292}, "geometry": {"type": "Point", "coordinates": [77.6022827, 12.9766835]}}, {"type": "Feature", "properties": {"access": "yes", "amenity": "toilets", "check_date": "2023-12-03", "fee": "yes", "osm_id": 4144224396}, "geometry": {"type": "Point", "coordinates": [77.606009, 12.975719]}}, {"type": "Feature", "properties": {"amenity": "toilets", "osm_id": 4302478790}, "geometry": {"type": "Point", "coordinates": [77.5756331, 12.9325517]}}, {"type": "Feature", "properties": {"amenity": "toilets", "osm_id": 4360018599}, "geometry": {"type": "Point", "coordinates": [77.580441, 12.9172779]}}, {"type": "Feature", "properties": {"amenity": "toilets", "osm_id": 4369804689}, "geometry": {"type": "Point", "coordinates": [77.5934508, 12.9269106]}}, {"type": "Feature", "properties": {"amenity": "toilets", "osm_id": 4470703092}, "geometry": {"type": "Point", "coordinates": [77.6698033, 12.9118035]}}, {"type": "Feature", "properties": {"amenity": "toilets", "osm_id": 4484938760}, "geometry": {"type": "Point", "coordinates": [77.5491399, 12.9978014]}}, {"type": "Feature", "properties": {"amenity": "toilets", "check_date": "2024-01-27", "fee": "yes", "wheelchair": "no", "osm_id": 4484938761}, "geometry": {"type": "Point", "coordinates": [77.5500123, 13.0042698]}}, {"type": "Feature", "properties": {"amenity": "toilets", "osm_id": 4484938762}, "geometry": {"type": "Point", "coordinates": [77.5538043, 13.005121]}}, {"type": "Feature", "properties": {"amenity": "toilets", "name": "BBMP Public Toilet", "name:kn": "ಸಾರ್ವಜನಿಕ ಶೌಚಾಲಯ", "osm_id": 4485016129}, "geometry": {"type": "Point", "coordinates": [77.5435304, 13.0036302]}}, {"type": "Feature", "properties": {"amenity": "toilets", "osm_id": 4595634973}, "geometry": {"type": "Point", "coordinates": [77.5492444, 13.0037755]}}, {"type": "Feature", "properties": {"amenity": "toilets", "osm_id": 4597818308}, "geometry": {"type": "Point", "coordinates": [77.5463437, 12.9992093]}}, {"type": "Feature", "properties": {"amenity": "toilets", "osm_id": 4603004289}, "geometry": {"type": "Point", "coordinates": [77.6506587, 12.9713803]}}, {"type": "Feature", "properties": {"access": "yes", "amenity": "toilets", "changing_table": "no", "fee": "yes", "osm_id": 4691599027}, "geometry": {"type": "Point", "coordinates": [77.6180355, 12.9244236]}}, {"type": "Feature", "properties": {"amenity": "toilets", "osm_id": 4763213170}, "geometry": {"type": "Point", "coordinates": [77.574606, 12.9773464]}}, {"type": "Feature", "properties": {"amenity": "toilets", "osm_id": 4783350859}, "geometry": {"type": "Point", "coordinates": [77.5844663, 13.0169075]}}, {"type": "Feature", "properties": {"amenity": "toilets", "osm_id": 4840185929}, "geometry": {"type": "Point", "coordinates": [77.6262686, 12.9738255]}}, {"type": "Feature", "properties": {"amenity": "toilets", "fee": "yes", "wheelchair": "limited", "osm_id": 4920189792}, "geometry": {"type": "Point", "coordinates": [77.5725371, 12.9767494]}}, {"type": "Feature", "properties": {"access": "yes", "amenity": "toilets", "fee": "yes", "female": "yes", "male": "yes", "osm_id": 4920190647}, "geometry": {"type": "Point", "coordinates": [77.5714642, 12.9772539]}}, {"type": "Feature", "properties": {"amenity": "toilets", "osm_id": 5003288810}, "geometry": {"type": "Point", "coordinates": [77.5727268, 12.9785357]}}, {"type": "Feature", "properties": {"amenity": "toilets", "name": "Public Toilet", "name:kn": "ಸಾರ್ವಜನಿಕ ಶೌಚಾಲಯ", "osm_id": 5018092228}, "geometry": {"type": "Point", "coordinates": [77.5941277, 13.0672845]}}, {"type": "Feature", "properties": {"amenity": "toilets", "osm_id": 5081989204}, "geometry": {"type": "Point", "coordinates": [77.5896053, 12.9215366]}}, {"type": "Feature", "properties": {"amenity": "toilets", "female": "yes", "male": "no", "osm_id": 5167596348}, "geometry": {"type": "Point", "coordinates": [77.4998622, 12.9223401]}}, {"type": "Feature", "properties": {"amenity": "toilets", "osm_id": 5167596393}, "geometry": {"type": "Point", "coordinates": [77.4986442, 12.9230231]}}, {"type": "Feature", "properties": {"amenity": "toilets", "check_date": "2025-09-19", "fee": "no", "level": "0;-1", "male": "yes", "wheelchair": "yes", "osm_id": 5167596397}, "geometry": {"type": "Point", "coordinates": [77.5002503, 12.9240333]}}, {"type": "Feature", "properties": {"amenity": "toilets", "osm_id": 5168685971}, "geometry": {"type": "Point", "coordinates": [77.5496809, 12.9841839]}}, {"type": "Feature", "properties": {"amenity": "toilets", "osm_id": 5168685972}, "geometry": {"type": "Point", "coordinates": [77.5495899, 12.9843287]}}, {"type": "Feature", "properties": {"amenity": "toilets", "osm_id": 5172789784}, "geometry": {"type": "Point", "coordinates": [77.4987199, 12.9237259]}}, {"type": "Feature", "properties": {"amenity": "toilets", "osm_id": 5175027887}, "geometry": {"type": "Point", "coordinates": [77.5685986, 12.9969169]}}, {"type": "Feature", "properties": {"amenity": "toilets", "unisex": "yes", "osm_id": 5234740176}, "geometry": {"type": "Point", "coordinates": [77.5730845, 12.9403707]}}, {"type": "Feature", "properties": {"access": "yes", "amenity": "toilets", "note": "under flyover", "operator": "BBMP", "osm_id": 5279332263}, "geometry": {"type": "Point", "coordinates": [77.527299, 12.9446342]}}, {"type": "Feature", "properties": {"amenity": "toilets", "osm_id": 5286949433}, "geometry": {"type": "Point", "coordinates": [77.6241619, 13.0400332]}}, {"type": "Feature", "properties": {"amenity": "toilets", "osm_id": 5306017408}, "geometry": {"type": "Point", "coordinates": [77.5657752, 12.9435035]}}, {"type": "Feature", "properties": {"amenity": "toilets", "description": "Unisex toilets", "osm_id": 5342625354}, "geometry": {"type": "Point", "coordinates": [77.5346554, 12.9655852]}}, {"type": "Feature", "properties": {"amenity": "toilets", "osm_id": 5342648481}, "geometry": {"type": "Point", "coordinates": [77.534798, 12.9658602]}}, {"type": "Feature", "properties": {"access": "permissive", "amenity": "toilets", "changing_table": "no", "unisex": "yes", "osm_id": 5362803674}, "geometry": {"type": "Point", "coordinates": [77.7238784, 12.8766966]}}, {"type": "Feature", "properties": {"amenity": "toilets", "check_date": "2025-05-31", "fee": "yes", "osm_id": 5395290526}, "geometry": {"type": "Point", "coordinates": [77.6217728, 12.9192637]}}, {"type": "Feature", "properties": {"amenity": "toilets", "osm_id": 5402302823}, "geometry": {"type": "Point", "coordinates": [77.6113287, 12.9365495]}}, {"type": "Feature", "properties": {"amenity": "toilets", "osm_id": 5402307921}, "geometry": {"type": "Point", "coordinates": [77.5593177, 12.9889292]}}, {"type": "Feature", "properties": {"access": "permissive", "amenity": "toilets", "changing_table": "no", "fee": "no", "male": "yes", "osm_id": 5407171230}, "geometry": {"type": "Point", "coordinates": [77.4980824, 12.9227844]}}, {"type": "Feature", "properties": {"amenity": "toilets", "osm_id": 5412441733}, "geometry": {"type": "Point", "coordinates": [77.5378026, 12.9635234]}}, {"type": "Feature", "properties": {"amenity": "toilets", "osm_id": 5492915021}, "geometry": {"type": "Point", "coordinates": [77.5894298, 12.9326212]}}, {"type": "Feature", "properties": {"amenity": "toilets", "check_date": "2025-09-19", "osm_id": 5562287749}, "geometry": {"type": "Point", "coordinates": [77.4997798, 12.9233082]}}, {"type": "Feature", "properties": {"amenity": "toilets", "osm_id": 5714974451}, "geometry": {"type": "Point", "coordinates": [77.65071, 12.9711384]}}, {"type": "Feature", "properties": {"access": "customers", "amenity": "toilets", "female": "yes", "layer": "1", "level": "1", "male": "yes", "wheelchair": "limited", "osm_id": 6017445195}, "geometry": {"type": "Point", "coordinates": [77.5496297, 13.0005945]}}, {"type": "Feature", "properties": {"amenity": "toilets", "osm_id": 6024722727}, "geometry": {"type": "Point", "coordinates": [77.6097678, 12.9170401]}}, {"type": "Feature", "properties": {"amenity": "toilets", "osm_id": 6034197732}, "geometry": {"type": "Point", "coordinates": [77.7114169, 12.9666784]}}, {"type": "Feature", "properties": {"access": "yes", "amenity": "toilets", "fee": "yes", "osm_id": 6108140989}, "geometry": {"type": "Point", "coordinates": [77.5603577, 12.997195]}}, {"type": "Feature", "properties": {"access": "yes", "amenity": "toilets", "fee": "yes", "osm_id": 6108140990}, "geometry": {"type": "Point", "coordinates": [77.5696166, 12.9975806]}}, {"type": "Feature", "properties": {"amenity": "toilets", "osm_id": 6210748030}, "geometry": {"type": "Point", "coordinates": [77.5737942, 12.9770468]}}, {"type": "Feature", "properties": {"amenity": "toilets", "osm_id": 6284085149}, "geometry": {"type": "Point", "coordinates": [77.4990502, 12.9224052]}}, {"type": "Feature", "properties": {"amenity": "toilets", "male": "yes", "osm_id": 6284085150}, "geometry": {"type": "Point", "coordinates": [77.5005296, 12.9230872]}}, {"type": "Feature", "properties": {"amenity": "toilets", "female": "yes", "osm_id": 6284085151}, "geometry": {"type": "Point", "coordinates": [77.5005516, 12.9231745]}}, {"type": "Feature", "properties": {"amenity": "toilets", "opening_hours": "24/7", "osm_id": 6285710086}, "geometry": {"type": "Point", "coordinates": [77.5506642, 13.0231091]}}, {"type": "Feature", "properties": {"amenity": "toilets", "check_date": "2026-04-12", "fee": "yes", "osm_id": 6348896685}, "geometry": {"type": "Point", "coordinates": [77.5194673, 13.0390731]}}, {"type": "Feature", "properties": {"amenity": "toilets", "fee": "yes", "osm_id": 6515046862}, "geometry": {"type": "Point", "coordinates": [77.613431, 12.9325375]}}, {"type": "Feature", "properties": {"access": "yes", "amenity": "toilets", "fee": "yes", "name": "eToilet", "toilets:disposal": "pitlatrine", "unisex": "yes", "osm_id": 6575118684}, "geometry": {"type": "Point", "coordinates": [77.5505349, 13.0109906]}}, {"type": "Feature", "properties": {"amenity": "toilets", "osm_id": 6813444929}, "geometry": {"type": "Point", "coordinates": [77.4997634, 12.9229823]}}, {"type": "Feature", "properties": {"amenity": "toilets", "osm_id": 6899539649}, "geometry": {"type": "Point", "coordinates": [77.6086932, 13.0867151]}}, {"type": "Feature", "properties": {"amenity": "toilets", "osm_id": 6899539650}, "geometry": {"type": "Point", "coordinates": [77.6094604, 13.0834599]}}, {"type": "Feature", "properties": {"amenity": "toilets", "female": "no", "male": "yes", "osm_id": 6918664411}, "geometry": {"type": "Point", "coordinates": [77.4998975, 12.9223117]}}, {"type": "Feature", "properties": {"access": "yes", "amenity": "toilets", "osm_id": 7087593326}, "geometry": {"type": "Point", "coordinates": [77.5564425, 12.9984069]}}, {"type": "Feature", "properties": {"access": "yes", "amenity": "toilets", "osm_id": 7104329287}, "geometry": {"type": "Point", "coordinates": [77.5470695, 13.003006]}}, {"type": "Feature", "properties": {"access": "customers", "amenity": "toilets", "fee": "yes", "osm_id": 7124643398}, "geometry": {"type": "Point", "coordinates": [77.5342686, 12.9574282]}}, {"type": "Feature", "properties": {"access": "yes", "amenity": "toilets", "fee": "no", "osm_id": 7146770601}, "geometry": {"type": "Point", "coordinates": [77.5546413, 12.9936804]}}, {"type": "Feature", "properties": {"access": "yes", "amenity": "toilets", "fee": "yes", "osm_id": 7156536844}, "geometry": {"type": "Point", "coordinates": [77.5372955, 12.9508515]}}, {"type": "Feature", "properties": {"amenity": "toilets", "opening_hours": "Mo-Su 05:00-22:00", "osm_id": 7208489486}, "geometry": {"type": "Point", "coordinates": [77.5284142, 12.9678533]}}, {"type": "Feature", "properties": {"access": "yes", "amenity": "toilets", "fee": "yes", "osm_id": 7223109303}, "geometry": {"type": "Point", "coordinates": [77.5850059, 13.0259692]}}, {"type": "Feature", "properties": {"access": "yes", "amenity": "toilets", "osm_id": 7228151802}, "geometry": {"type": "Point", "coordinates": [77.5569279, 13.0448155]}}, {"type": "Feature", "properties": {"access": "yes", "amenity": "toilets", "osm_id": 7256979593}, "geometry": {"type": "Point", "coordinates": [77.6330852, 13.0282093]}}, {"type": "Feature", "properties": {"access": "yes", "amenity": "toilets", "osm_id": 7256979625}, "geometry": {"type": "Point", "coordinates": [77.6411768, 13.036817]}}, {"type": "Feature", "properties": {"access": "yes", "amenity": "toilets", "osm_id": 7257189922}, "geometry": {"type": "Point", "coordinates": [77.5896052, 13.0382851]}}, {"type": "Feature", "properties": {"access": "yes", "amenity": "toilets", "check_date": "2024-12-25", "fee": "yes", "wheelchair": "no", "osm_id": 7257189925}, "geometry": {"type": "Point", "coordinates": [77.5892385, 13.0392881]}}, {"type": "Feature", "properties": {"access": "yes", "amenity": "toilets", "fee": "yes", "osm_id": 7276500290}, "geometry": {"type": "Point", "coordinates": [77.5791138, 12.9806334]}}, {"type": "Feature", "properties": {"access": "yes", "amenity": "toilets", "fee": "yes", "osm_id": 7276500312}, "geometry": {"type": "Point", "coordinates": [77.5831076, 12.9844624]}}, {"type": "Feature", "properties": {"access": "yes", "amenity": "toilets", "fee": "yes", "wheelchair": "no", "osm_id": 7276500358}, "geometry": {"type": "Point", "coordinates": [77.5771867, 12.9836286]}}, {"type": "Feature", "properties": {"amenity": "toilets", "osm_id": 7291611532}, "geometry": {"type": "Point", "coordinates": [77.5477387, 13.0015366]}}, {"type": "Feature", "properties": {"access": "yes", "amenity": "toilets", "fee": "yes", "wheelchair": "no", "osm_id": 7292235618}, "geometry": {"type": "Point", "coordinates": [77.5524942, 12.9977823]}}, {"type": "Feature", "properties": {"amenity": "toilets", "osm_id": 7511152439}, "geometry": {"type": "Point", "coordinates": [77.7120227, 12.9658605]}}, {"type": "Feature", "properties": {"amenity": "toilets", "osm_id": 7511152440}, "geometry": {"type": "Point", "coordinates": [77.7110665, 12.9663806]}}, {"type": "Feature", "properties": {"amenity": "toilets", "osm_id": 7511152441}, "geometry": {"type": "Point", "coordinates": [77.7112555, 12.9658788]}}, {"type": "Feature", "properties": {"access": "yes", "amenity": "toilets", "description": "BBMP", "fee": "yes", "female": "yes", "male": "yes", "osm_id": 7658279907}, "geometry": {"type": "Point", "coordinates": [77.5530776, 12.9951493]}}, {"type": "Feature", "properties": {"access": "yes", "amenity": "toilets", "description": "BBMP", "female": "yes", "male": "yes", "osm_id": 7658279910}, "geometry": {"type": "Point", "coordinates": [77.5541264, 12.9930284]}}, {"type": "Feature", "properties": {"access": "yes", "amenity": "toilets", "osm_id": 8240881806}, "geometry": {"type": "Point", "coordinates": [77.5315113, 12.9998836]}}, {"type": "Feature", "properties": {"access": "permissive", "amenity": "toilets", "osm_id": 8254993097}, "geometry": {"type": "Point", "coordinates": [77.5726589, 13.0031804]}}, {"type": "Feature", "properties": {"access": "yes", "amenity": "toilets", "fee": "yes", "osm_id": 8254999682}, "geometry": {"type": "Point", "coordinates": [77.5575755, 13.0249126]}}, {"type": "Feature", "properties": {"amenity": "toilets", "osm_id": 8255020171}, "geometry": {"type": "Point", "coordinates": [77.5684154, 13.0088221]}}, {"type": "Feature", "properties": {"amenity": "toilets", "fee": "yes", "name": "Pay and use public toilet", "osm_id": 8364343833}, "geometry": {"type": "Point", "coordinates": [77.5605187, 13.0343484]}}, {"type": "Feature", "properties": {"access": "yes", "amenity": "toilets", "osm_id": 8442228918}, "geometry": {"type": "Point", "coordinates": [77.5536456, 13.0123861]}}, {"type": "Feature", "properties": {"amenity": "toilets", "fee": "yes", "osm_id": 8463198337}, "geometry": {"type": "Point", "coordinates": [77.5536575, 13.0323599]}}, {"type": "Feature", "properties": {"amenity": "toilets", "name": "Public Toilet", "name:kn": "ಸಾರ್ವಜನಿಕ ಶೌಚಾಲಯ", "osm_id": 8540221706}, "geometry": {"type": "Point", "coordinates": [77.5926546, 13.0264238]}}, {"type": "Feature", "properties": {"amenity": "toilets", "name": "Sulabh Toilet and bath complex", "osm_id": 8873811558}, "geometry": {"type": "Point", "coordinates": [77.5576786, 13.0351408]}}, {"type": "Feature", "properties": {"amenity": "toilets", "osm_id": 8989622939}, "geometry": {"type": "Point", "coordinates": [77.5563151, 12.9862109]}}, {"type": "Feature", "properties": {"access": "permissive", "amenity": "toilets", "fee": "yes", "name": "Public Toilets", "name:kn": "ಸಾರ್ವಜನಿಕ ಶೌಚಾಲಯ", "toilets:disposal": "flush", "unisex": "yes", "wheelchair": "limited", "osm_id": 9103464454}, "geometry": {"type": "Point", "coordinates": [77.5935562, 12.972229]}}, {"type": "Feature", "properties": {"access": "permissive", "amenity": "toilets", "name": "Public Toilets", "name:kn": "ಸಾರ್ವಜನಿಕ ಶೌಚಾಲಯ", "toilets:disposal": "flush", "unisex": "yes", "osm_id": 9142142898}, "geometry": {"type": "Point", "coordinates": [77.5885244, 12.9682273]}}, {"type": "Feature", "properties": {"amenity": "toilets", "operator": "BBMP", "osm_id": 9171580313}, "geometry": {"type": "Point", "coordinates": [77.5509506, 12.9951708]}}, {"type": "Feature", "properties": {"access": "yes", "amenity": "toilets", "operator": "BBMP", "osm_id": 9197307506}, "geometry": {"type": "Point", "coordinates": [77.5505497, 13.011525]}}, {"type": "Feature", "properties": {"access": "permissive", "amenity": "toilets", "female": "yes", "male": "yes", "osm_id": 9200349512}, "geometry": {"type": "Point", "coordinates": [77.5485642, 13.0137953]}}, {"type": "Feature", "properties": {"access": "yes", "amenity": "toilets", "operator": "BBMP", "osm_id": 9214185066}, "geometry": {"type": "Point", "coordinates": [77.5734571, 12.99698]}}, {"type": "Feature", "properties": {"amenity": "toilets", "osm_id": 9573433542}, "geometry": {"type": "Point", "coordinates": [77.5808975, 12.9888545]}}, {"type": "Feature", "properties": {"access": "yes", "amenity": "toilets", "wheelchair": "yes", "osm_id": 9573433543}, "geometry": {"type": "Point", "coordinates": [77.5844286, 12.9935995]}}, {"type": "Feature", "properties": {"access": "yes", "amenity": "toilets", "description": "BBMP Public Toilet", "operator": "BBMP", "osm_id": 9574153224}, "geometry": {"type": "Point", "coordinates": [77.5464432, 12.9972309]}}, {"type": "Feature", "properties": {"access": "yes", "amenity": "toilets", "check_date": "2024-01-28", "osm_id": 9583428980}, "geometry": {"type": "Point", "coordinates": [77.5927442, 13.0481744]}}, {"type": "Feature", "properties": {"access": "yes", "amenity": "toilets", "osm_id": 9632630919}, "geometry": {"type": "Point", "coordinates": [77.5512538, 12.9932335]}}, {"type": "Feature", "properties": {"access": "yes", "amenity": "toilets", "fee": "yes", "operator": "ಬೃಹತ್ ಬೆಂಗಳೂರು ಮಹಾನಗರ ಪಾಲಿಕೆ", "operator:en": "Bruhat Bengaluru Mahanagara Palike", "operator:ka": "ಬೃಹತ್ ಬೆಂಗಳೂರು ಮಹಾನಗರ ಪಾಲಿಕೆ", "operator:short": "BBMP", "operator:wikidata": "Q4978693", "osm_id": 9633893502}, "geometry": {"type": "Point", "coordinates": [77.6017455, 12.9690697]}}, {"type": "Feature", "properties": {"access": "yes", "amenity": "toilets", "fee": "no", "wheelchair": "limited", "osm_id": 9654247749}, "geometry": {"type": "Point", "coordinates": [77.4863912, 12.9141602]}}, {"type": "Feature", "properties": {"access": "yes", "amenity": "toilets", "osm_id": 9672296514}, "geometry": {"type": "Point", "coordinates": [77.6157676, 12.9821075]}}, {"type": "Feature", "properties": {"access": "yes", "amenity": "toilets", "description": "BBMP", "female": "yes", "osm_id": 9775599259}, "geometry": {"type": "Point", "coordinates": [77.6023847, 12.976658]}}, {"type": "Feature", "properties": {"access": "yes", "amenity": "toilets", "fee": "no", "female": "yes", "osm_id": 9777549177}, "geometry": {"type": "Point", "coordinates": [77.5861314, 12.9724806]}}, {"type": "Feature", "properties": {"access": "yes", "amenity": "toilets", "fee": "no", "male": "yes", "osm_id": 9777549178}, "geometry": {"type": "Point", "coordinates": [77.5861369, 12.9724388]}}, {"type": "Feature", "properties": {"access": "yes", "amenity": "toilets", "fee": "no", "osm_id": 9797011343}, "geometry": {"type": "Point", "coordinates": [77.6052399, 12.98481]}}, {"type": "Feature", "properties": {"access": "yes", "amenity": "toilets", "fee": "no", "female": "yes", "osm_id": 9811346770}, "geometry": {"type": "Point", "coordinates": [77.6204856, 12.9737084]}}, {"type": "Feature", "properties": {"access": "yes", "amenity": "toilets", "fee": "no", "male": "yes", "osm_id": 9811346771}, "geometry": {"type": "Point", "coordinates": [77.6204869, 12.973741]}}, {"type": "Feature", "properties": {"access": "yes", "amenity": "toilets", "check_date": "2025-03-18", "operator": "BBMP", "osm_id": 9811397090}, "geometry": {"type": "Point", "coordinates": [77.5532413, 12.9976256]}}, {"type": "Feature", "properties": {"access": "yes", "amenity": "toilets", "description": "Pay and use public toilet and bathroom", "fee": "yes", "osm_id": 9814354822}, "geometry": {"type": "Point", "coordinates": [77.5723419, 13.0032759]}}, {"type": "Feature", "properties": {"access": "permissive", "amenity": "toilets", "osm_id": 9814354828}, "geometry": {"type": "Point", "coordinates": [77.572704, 13.0031805]}}, {"type": "Feature", "properties": {"access": "customers", "amenity": "toilets", "wheelchair": "yes", "osm_id": 9830286757}, "geometry": {"type": "Point", "coordinates": [77.6065435, 13.0556637]}}, {"type": "Feature", "properties": {"access": "yes", "amenity": "toilets", "fee": "yes", "wheelchair": "no", "osm_id": 9870745004}, "geometry": {"type": "Point", "coordinates": [77.5925069, 12.9681101]}}, {"type": "Feature", "properties": {"access": "yes", "amenity": "toilets", "osm_id": 9870839707}, "geometry": {"type": "Point", "coordinates": [77.57063, 12.9752439]}}, {"type": "Feature", "properties": {"access": "yes", "amenity": "toilets", "osm_id": 9872645114}, "geometry": {"type": "Point", "coordinates": [77.5507381, 12.9905083]}}, {"type": "Feature", "properties": {"access": "permissive", "amenity": "toilets", "fee": "no", "female": "yes", "wheelchair": "limited", "osm_id": 9881441098}, "geometry": {"type": "Point", "coordinates": [77.5626229, 13.01763]}}, {"type": "Feature", "properties": {"access": "permissive", "amenity": "toilets", "fee": "no", "male": "yes", "wheelchair": "limited", "osm_id": 9881441099}, "geometry": {"type": "Point", "coordinates": [77.5625888, 13.0176532]}}, {"type": "Feature", "properties": {"access": "yes", "amenity": "toilets", "check_date": "2025-07-12", "fee": "no", "operator": "ಬೃಹತ್ ಬೆಂಗಳೂರು ಮಹಾನಗರ ಪಾಲಿಕೆ", "operator:en": "Bruhat Bengaluru Mahanagara Palike", "operator:ka": "ಬೃಹತ್ ಬೆಂಗಳೂರು ಮಹಾನಗರ ಪಾಲಿಕೆ", "operator:short": "BBMP", "operator:wikidata": "Q4978693", "osm_id": 9906246579}, "geometry": {"type": "Point", "coordinates": [77.5843415, 12.9438302]}}, {"type": "Feature", "properties": {"access": "yes", "amenity": "toilets", "check_date": "2023-10-28", "fee": "no", "female": "yes", "male": "yes", "name": "Public Toilet", "name:en": "Public Toilet", "operator": "BBMP", "payment:cards": "no", "payment:cash": "yes", "payment:credit_cards": "no", "payment:debit_cards": "no", "osm_id": 9906259149}, "geometry": {"type": "Point", "coordinates": [77.5973428, 12.9430742]}}, {"type": "Feature", "properties": {"amenity": "toilets", "female": "yes", "level": "0", "repeat_on": "1", "toilets:position": "seated;urinal", "osm_id": 9906259166}, "geometry": {"type": "Point", "coordinates": [77.5963885, 12.9433165]}}, {"type": "Feature", "properties": {"amenity": "toilets", "fee": "no", "operator": "BBMP", "osm_id": 9910012980}, "geometry": {"type": "Point", "coordinates": [77.5705549, 12.9934596]}}, {"type": "Feature", "properties": {"amenity": "toilets", "fee": "no", "operator": "BBMP", "osm_id": 9912087567}, "geometry": {"type": "Point", "coordinates": [77.5536101, 13.0186371]}}, {"type": "Feature", "properties": {"amenity": "toilets", "fee": "yes", "operator": "BBMP", "osm_id": 9912823316}, "geometry": {"type": "Point", "coordinates": [77.5894859, 13.0426402]}}, {"type": "Feature", "properties": {"amenity": "toilets", "fee": "no", "operator": "BBMP", "osm_id": 9912846653}, "geometry": {"type": "Point", "coordinates": [77.5542565, 13.0438016]}}, {"type": "Feature", "properties": {"access": "yes", "amenity": "toilets", "fee": "no", "operator": "ಬೃಹತ್ ಬೆಂಗಳೂರು ಮಹಾನಗರ ಪಾಲಿಕೆ", "operator:en": "Bruhat Bengaluru Mahanagara Palike", "operator:ka": "ಬೃಹತ್ ಬೆಂಗಳೂರು ಮಹಾನಗರ ಪಾಲಿಕೆ", "operator:short": "BBMP", "operator:wikidata": "Q4978693", "wheelchair": "no", "osm_id": 9922831542}, "geometry": {"type": "Point", "coordinates": [77.5801036, 12.9476859]}}, {"type": "Feature", "properties": {"amenity": "toilets", "osm_id": 9924452289}, "geometry": {"type": "Point", "coordinates": [77.5927218, 12.9584471]}}, {"type": "Feature", "properties": {"amenity": "toilets", "osm_id": 9924452290}, "geometry": {"type": "Point", "coordinates": [77.5927576, 12.9585493]}}, {"type": "Feature", "properties": {"access": "yes", "amenity": "toilets", "fee": "yes", "operator": "BBMP", "osm_id": 9930000943}, "geometry": {"type": "Point", "coordinates": [77.6008786, 12.9906435]}}, {"type": "Feature", "properties": {"access": "private", "amenity": "toilets", "osm_id": 9936582837}, "geometry": {"type": "Point", "coordinates": [77.5493014, 13.0062689]}}, {"type": "Feature", "properties": {"access": "yes", "amenity": "toilets", "fee": "yes", "operator": "BBMP", "wheelchair": "limited", "osm_id": 9936582868}, "geometry": {"type": "Point", "coordinates": [77.5514958, 13.0031177]}}, {"type": "Feature", "properties": {"access": "yes", "amenity": "toilets", "fee": "yes", "operator": "BBMP", "osm_id": 9936631189}, "geometry": {"type": "Point", "coordinates": [77.5507743, 12.9878673]}}, {"type": "Feature", "properties": {"access": "yes", "amenity": "toilets", "fee": "yes", "operator": "BBMP", "osm_id": 9936668906}, "geometry": {"type": "Point", "coordinates": [77.5492541, 12.9832366]}}, {"type": "Feature", "properties": {"amenity": "toilets", "changing_table": "no", "fee": "yes", "wheelchair": "no", "osm_id": 9969109517}, "geometry": {"type": "Point", "coordinates": [77.6318906, 12.916802]}}, {"type": "Feature", "properties": {"access": "yes", "amenity": "toilets", "fee": "yes", "operator": "BBMP", "osm_id": 10032117278}, "geometry": {"type": "Point", "coordinates": [77.6052768, 12.9548574]}}, {"type": "Feature", "properties": {"access": "yes", "amenity": "toilets", "fee": "yes", "operator": "BBMP", "osm_id": 10032117279}, "geometry": {"type": "Point", "coordinates": [77.6052969, 12.9548528]}}, {"type": "Feature", "properties": {"access": "yes", "amenity": "toilets", "fee": "yes", "operator": "BBMP", "osm_id": 10032974911}, "geometry": {"type": "Point", "coordinates": [77.5583925, 13.0125109]}}, {"type": "Feature", "properties": {"amenity": "toilets", "osm_id": 10202015117}, "geometry": {"type": "Point", "coordinates": [77.5767383, 12.9516832]}}, {"type": "Feature", "properties": {"access": "yes", "amenity": "toilets", "fee": "yes", "operator": "BBMP", "osm_id": 10233456232}, "geometry": {"type": "Point", "coordinates": [77.5665276, 13.0375552]}}, {"type": "Feature", "properties": {"access": "customers", "amenity": "toilets", "fee": "yes", "operator": "BBMP", "osm_id": 10285926890}, "geometry": {"type": "Point", "coordinates": [77.5525928, 12.9918327]}}, {"type": "Feature", "properties": {"access": "yes", "amenity": "toilets", "osm_id": 10293629606}, "geometry": {"type": "Point", "coordinates": [77.5984338, 12.9231483]}}, {"type": "Feature", "properties": {"amenity": "toilets", "fee": "yes", "source": "Eshwar", "osm_id": 10558971070}, "geometry": {"type": "Point", "coordinates": [77.5765118, 13.0995257]}}, {"type": "Feature", "properties": {"access": "yes", "amenity": "toilets", "fee": "no", "female": "yes", "male": "yes", "name": "Community Toilet", "opening_hours": "24/7", "operator": "ಬೃಹತ್ ಬೆಂಗಳೂರು ಮಹಾನಗರ ಪಾಲಿಕೆ", "operator:en": "Bruhat Bengaluru Mahanagara Palike", "operator:ka": "ಬೃಹತ್ ಬೆಂಗಳೂರು ಮಹಾನಗರ ಪಾಲಿಕೆ", "operator:short": "BBMP", "operator:wikidata": "Q4978693", "toilets:disposal": "flush", "wheelchair": "yes", "osm_id": 10567529770}, "geometry": {"type": "Point", "coordinates": [77.5261218, 12.9331955]}}, {"type": "Feature", "properties": {"access": "yes", "amenity": "toilets", "check_date": "2025-03-14", "level": "0", "osm_id": 10693248077}, "geometry": {"type": "Point", "coordinates": [77.6351586, 12.9670217]}}, {"type": "Feature", "properties": {"amenity": "toilets", "osm_id": 10740621566}, "geometry": {"type": "Point", "coordinates": [77.6215174, 12.9377909]}}, {"type": "Feature", "properties": {"amenity": "toilets", "male": "yes", "osm_id": 10740635747}, "geometry": {"type": "Point", "coordinates": [77.6201873, 12.9402168]}}, {"type": "Feature", "properties": {"amenity": "toilets", "female": "yes", "osm_id": 10741885471}, "geometry": {"type": "Point", "coordinates": [77.6194835, 12.9383894]}}, {"type": "Feature", "properties": {"amenity": "toilets", "unisex": "yes", "wheelchair": "no", "osm_id": 10743638825}, "geometry": {"type": "Point", "coordinates": [77.6201698, 12.9334275]}}, {"type": "Feature", "properties": {"access": "yes", "amenity": "toilets", "fee": "yes", "female": "yes", "male": "yes", "operator": "BBMP", "osm_id": 10753151433}, "geometry": {"type": "Point", "coordinates": [77.5769245, 13.0319305]}}, {"type": "Feature", "properties": {"access": "yes", "amenity": "toilets", "fee": "yes", "female": "yes", "male": "yes", "operator": "BBMP", "osm_id": 10753151512}, "geometry": {"type": "Point", "coordinates": [77.5789918, 13.0285504]}}, {"type": "Feature", "properties": {"access": "yes", "amenity": "toilets", "fee": "yes", "operator": "BBMP", "osm_id": 10831664290}, "geometry": {"type": "Point", "coordinates": [77.5730708, 12.9993139]}}, {"type": "Feature", "properties": {"access": "yes", "amenity": "toilets", "fee": "yes", "operator": "BBMP", "osm_id": 10895959919}, "geometry": {"type": "Point", "coordinates": [77.6423885, 13.0625178]}}, {"type": "Feature", "properties": {"access": "yes", "amenity": "toilets", "fee": "yes", "operator": "Bruhat Bengaluru Mahanagara Palike", "operator:short": "BBMP", "operator:wikidata": "Q4978693", "osm_id": 10895966348}, "geometry": {"type": "Point", "coordinates": [77.5970484, 12.9482721]}}, {"type": "Feature", "properties": {"access": "yes", "amenity": "toilets", "fee": "yes", "operator": "ಬೃಹತ್ ಬೆಂಗಳೂರು ಮಹಾನಗರ ಪಾಲಿಕೆ", "operator:en": "Bruhat Bengaluru Mahanagara Palike", "operator:ka": "ಬೃಹತ್ ಬೆಂಗಳೂರು ಮಹಾನಗರ ಪಾಲಿಕೆ", "operator:short": "BBMP", "operator:wikidata": "Q4978693", "osm_id": 10895986054}, "geometry": {"type": "Point", "coordinates": [77.6073173, 12.9340175]}}, {"type": "Feature", "properties": {"access": "yes", "amenity": "toilets", "fee": "yes", "operator": "ಬೃಹತ್ ಬೆಂಗಳೂರು ಮಹಾನಗರ ಪಾಲಿಕೆ", "operator:en": "Bruhat Bengaluru Mahanagara Palike", "operator:ka": "ಬೃಹತ್ ಬೆಂಗಳೂರು ಮಹಾನಗರ ಪಾಲಿಕೆ", "operator:short": "BBMP", "operator:wikidata": "Q4978693", "wheelchair": "no", "osm_id": 10895997183}, "geometry": {"type": "Point", "coordinates": [77.6365943, 12.9251848]}}, {"type": "Feature", "properties": {"access": "yes", "amenity": "toilets", "fee": "yes", "operator": "BBMP", "osm_id": 10931530094}, "geometry": {"type": "Point", "coordinates": [77.5669701, 12.8845979]}}, {"type": "Feature", "properties": {"amenity": "toilets", "osm_id": 11005925759}, "geometry": {"type": "Point", "coordinates": [77.5958019, 12.9804949]}}, {"type": "Feature", "properties": {"access": "yes", "amenity": "toilets", "changing_table": "no", "check_date": "2023-06-30", "fee": "no", "source": "survey", "toilets:handwashing": "yes", "toilets:position": "squat", "osm_id": 11014674473}, "geometry": {"type": "Point", "coordinates": [77.6937025, 12.9885512]}}, {"type": "Feature", "properties": {"access": "yes", "amenity": "toilets", "check_date": "2024-06-01", "fee": "yes", "operator": "BBMP", "osm_id": 11096782377}, "geometry": {"type": "Point", "coordinates": [77.5739639, 12.9989932]}}, {"type": "Feature", "properties": {"access": "yes", "amenity": "toilets", "fee": "yes", "operator": "BBMP", "osm_id": 11096882127}, "geometry": {"type": "Point", "coordinates": [77.5972825, 12.9939484]}}, {"type": "Feature", "properties": {"access": "yes", "amenity": "toilets", "fee": "yes", "operator": "BBMP", "osm_id": 11096914888}, "geometry": {"type": "Point", "coordinates": [77.616713, 12.9959033]}}, {"type": "Feature", "properties": {"access": "yes", "amenity": "toilets", "fee": "yes", "operator": "BBMP", "osm_id": 11125643764}, "geometry": {"type": "Point", "coordinates": [77.58524, 13.063013]}}, {"type": "Feature", "properties": {"access": "yes", "addr:floor": "UG", "amenity": "toilets", "fee": "no", "level": "1", "osm_id": 11181022088}, "geometry": {"type": "Point", "coordinates": [77.5554132, 13.0116589]}}, {"type": "Feature", "properties": {"amenity": "toilets", "female": "yes", "male": "yes", "operator": "BBMP", "osm_id": 11195846218}, "geometry": {"type": "Point", "coordinates": [77.5708593, 13.0053548]}}, {"type": "Feature", "properties": {"access": "yes", "addr:floor": "G", "amenity": "toilets", "check_date": "2023-09-20", "osm_id": 11205380684}, "geometry": {"type": "Point", "coordinates": [77.5818993, 12.8873978]}}, {"type": "Feature", "properties": {"amenity": "toilets", "osm_id": 11214888972}, "geometry": {"type": "Point", "coordinates": [77.6097259, 12.9697087]}}, {"type": "Feature", "properties": {"access": "yes", "amenity": "toilets", "check_date": "2025-07-01", "fee": "no", "female": "yes", "male": "yes", "osm_id": 11220766885}, "geometry": {"type": "Point", "coordinates": [77.7267279, 12.9770931]}}, {"type": "Feature", "properties": {"access": "yes", "amenity": "toilets", "osm_id": 11279447635}, "geometry": {"type": "Point", "coordinates": [77.539501, 12.9338966]}}, {"type": "Feature", "properties": {"access": "customers", "amenity": "toilets", "osm_id": 11280734074}, "geometry": {"type": "Point", "coordinates": [77.611409, 13.0668263]}}, {"type": "Feature", "properties": {"access": "customers", "amenity": "toilets", "osm_id": 11280734075}, "geometry": {"type": "Point", "coordinates": [77.611409, 13.0667257]}}, {"type": "Feature", "properties": {"amenity": "toilets", "changing_table": "no", "osm_id": 11283011580}, "geometry": {"type": "Point", "coordinates": [77.5396128, 12.8951016]}}, {"type": "Feature", "properties": {"amenity": "toilets", "check_date": "2023-10-23", "osm_id": 11285259385}, "geometry": {"type": "Point", "coordinates": [77.5637769, 12.9811132]}}, {"type": "Feature", "properties": {"access": "yes", "amenity": "toilets", "female": "yes", "level": "1", "male": "yes", "operator": "BMRCL", "toilets:handwashing": "yes", "toilets:position": "urinal", "osm_id": 11292276525}, "geometry": {"type": "Point", "coordinates": [77.5731978, 12.9068376]}}, {"type": "Feature", "properties": {"access": "permissive", "amenity": "toilets", "level": "0", "unisex": "yes", "osm_id": 11293484217}, "geometry": {"type": "Point", "coordinates": [77.5918426, 12.906496]}}, {"type": "Feature", "properties": {"access": "permissive", "amenity": "toilets", "level": "0", "unisex": "yes", "osm_id": 11293484247}, "geometry": {"type": "Point", "coordinates": [77.5918414, 12.9065058]}}, {"type": "Feature", "properties": {"access": "yes", "amenity": "toilets", "fee": "yes", "osm_id": 11294646363}, "geometry": {"type": "Point", "coordinates": [77.5927599, 12.9363445]}}, {"type": "Feature", "properties": {"amenity": "toilets", "check_date": "2023-10-28", "osm_id": 11295236459}, "geometry": {"type": "Point", "coordinates": [77.595265, 12.9402285]}}, {"type": "Feature", "properties": {"amenity": "toilets", "level": "0", "male": "yes", "repeat_on": "1", "toilets:position": "seated;urinal", "osm_id": 11297708106}, "geometry": {"type": "Point", "coordinates": [77.5964558, 12.9433156]}}, {"type": "Feature", "properties": {"access": "yes", "amenity": "toilets", "check_date": "2023-11-01", "osm_id": 11303736994}, "geometry": {"type": "Point", "coordinates": [77.5858666, 12.9082574]}}, {"type": "Feature", "properties": {"amenity": "toilets", "check_date": "2023-11-01", "toilets:disposal": "flush", "osm_id": 11303742136}, "geometry": {"type": "Point", "coordinates": [77.5843671, 12.9107076]}}, {"type": "Feature", "properties": {"access": "yes", "amenity": "toilets", "check_date": "2023-11-01", "osm_id": 11303767732}, "geometry": {"type": "Point", "coordinates": [77.5843154, 12.9107078]}}, {"type": "Feature", "properties": {"access": "yes", "amenity": "toilets", "check_date": "2023-11-01", "toilets:disposal": "flush", "wheelchair": "no", "osm_id": 11303837286}, "geometry": {"type": "Point", "coordinates": [77.5786884, 12.9072205]}}, {"type": "Feature", "properties": {"amenity": "toilets", "osm_id": 11305149315}, "geometry": {"type": "Point", "coordinates": [77.5900948, 13.0706004]}}, {"type": "Feature", "properties": {"amenity": "toilets", "osm_id": 11305149316}, "geometry": {"type": "Point", "coordinates": [77.5909518, 13.0710981]}}, {"type": "Feature", "properties": {"amenity": "toilets", "check_date": "2024-04-05", "fee": "yes", "wheelchair": "yes", "osm_id": 11323095020}, "geometry": {"type": "Point", "coordinates": [77.5434542, 12.9525544]}}, {"type": "Feature", "properties": {"amenity": "toilets", "fee": "yes", "female": "yes", "male": "yes", "osm_id": 11323095021}, "geometry": {"type": "Point", "coordinates": [77.544301, 12.9523656]}}, {"type": "Feature", "properties": {"access": "permit", "amenity": "toilets", "wheelchair": "no", "osm_id": 11330522956}, "geometry": {"type": "Point", "coordinates": [77.7394757, 12.9704343]}}, {"type": "Feature", "properties": {"amenity": "toilets", "check_date": "2023-11-16", "osm_id": 11355730131}, "geometry": {"type": "Point", "coordinates": [77.5935933, 12.9483269]}}, {"type": "Feature", "properties": {"access": "yes", "amenity": "toilets", "check_date": "2023-11-20", "fee": "yes", "operator": "BBMP", "osm_id": 11364084195}, "geometry": {"type": "Point", "coordinates": [77.5741546, 12.9170727]}}, {"type": "Feature", "properties": {"access": "yes", "addr:floor": "1", "amenity": "toilets", "check_date": "2023-11-20", "female": "yes", "male": "yes", "operator": "BMRCL", "toilets:handwashing": "yes", "toilets:position": "urinal", "osm_id": 11364084196}, "geometry": {"type": "Point", "coordinates": [77.5738355, 12.9160185]}}, {"type": "Feature", "properties": {"access": "customers", "amenity": "toilets", "check_date": "2024-07-27", "level": "1", "operator": "BMRCL", "osm_id": 11365507638}, "geometry": {"type": "Point", "coordinates": [77.5538374, 13.0147854]}}, {"type": "Feature", "properties": {"amenity": "toilets", "check_date": "2023-11-23", "level": "-1", "operator": "BMRCL", "osm_id": 11371332792}, "geometry": {"type": "Point", "coordinates": [77.5748223, 12.961443]}}, {"type": "Feature", "properties": {"access": "customers", "amenity": "toilets", "check_date": "2023-11-30", "level": "1", "operator": "BMRCL", "osm_id": 11385585232}, "geometry": {"type": "Point", "coordinates": [77.6166451, 12.973092]}}, {"type": "Feature", "properties": {"amenity": "toilets", "fee": "yes", "name": "Public toilet", "osm_id": 11386000340}, "geometry": {"type": "Point", "coordinates": [77.5840912, 12.9397127]}}, {"type": "Feature", "properties": {"access": "yes", "amenity": "toilets", "check_date": "2023-12-03", "fee": "yes", "operator": "BBMP", "osm_id": 11391167229}, "geometry": {"type": "Point", "coordinates": [77.5631377, 13.0093093]}}, {"type": "Feature", "properties": {"access": "yes", "amenity": "toilets", "check_date": "2023-12-07", "fee": "yes", "operator": "ಬೃಹತ್ ಬೆಂಗಳೂರು ಮಹಾನಗರ ಪಾಲಿಕೆ", "operator:en": "Bruhat Bengaluru Mahanagara Palike", "operator:ka": "ಬೃಹತ್ ಬೆಂಗಳೂರು ಮಹಾನಗರ ಪಾಲಿಕೆ", "operator:short": "BBMP", "operator:wikidata": "Q4978693", "osm_id": 11399589033}, "geometry": {"type": "Point", "coordinates": [77.6499593, 12.9243686]}}, {"type": "Feature", "properties": {"access": "yes", "amenity": "toilets", "check_date": "2023-12-14", "fee": "yes", "operator": "ಬೃಹತ್ ಬೆಂಗಳೂರು ಮಹಾನಗರ ಪಾಲಿಕೆ", "operator:en": "Bruhat Bengaluru Mahanagara Palike", "operator:ka": "ಬೃಹತ್ ಬೆಂಗಳೂರು ಮಹಾನಗರ ಪಾಲಿಕೆ", "operator:short": "BBMP", "operator:wikidata": "Q4978693", "osm_id": 11417001861}, "geometry": {"type": "Point", "coordinates": [77.582047, 12.9637807]}}, {"type": "Feature", "properties": {"amenity": "toilets", "osm_id": 11455413716}, "geometry": {"type": "Point", "coordinates": [77.5916129, 13.1263579]}}, {"type": "Feature", "properties": {"amenity": "toilets", "osm_id": 11455413717}, "geometry": {"type": "Point", "coordinates": [77.5911096, 13.1262291]}}, {"type": "Feature", "properties": {"amenity": "toilets", "osm_id": 11455413718}, "geometry": {"type": "Point", "coordinates": [77.5912096, 13.1264371]}}, {"type": "Feature", "properties": {"amenity": "toilets", "osm_id": 11455413719}, "geometry": {"type": "Point", "coordinates": [77.5912424, 13.1260038]}}, {"type": "Feature", "properties": {"amenity": "toilets", "osm_id": 11455413720}, "geometry": {"type": "Point", "coordinates": [77.591011, 13.1260029]}}, {"type": "Feature", "properties": {"amenity": "toilets", "osm_id": 11455413721}, "geometry": {"type": "Point", "coordinates": [77.5910269, 13.125561]}}, {"type": "Feature", "properties": {"amenity": "toilets", "osm_id": 11455413722}, "geometry": {"type": "Point", "coordinates": [77.5912475, 13.1255615]}}, {"type": "Feature", "properties": {"amenity": "toilets", "osm_id": 11455413723}, "geometry": {"type": "Point", "coordinates": [77.5917583, 13.1259046]}}, {"type": "Feature", "properties": {"amenity": "toilets", "osm_id": 11455413724}, "geometry": {"type": "Point", "coordinates": [77.5914377, 13.125673]}}, {"type": "Feature", "properties": {"amenity": "toilets", "osm_id": 11455413725}, "geometry": {"type": "Point", "coordinates": [77.5916153, 13.1255701]}}, {"type": "Feature", "properties": {"amenity": "toilets", "osm_id": 11455413726}, "geometry": {"type": "Point", "coordinates": [77.5913359, 13.1253278]}}, {"type": "Feature", "properties": {"amenity": "toilets", "osm_id": 11455413727}, "geometry": {"type": "Point", "coordinates": [77.5912834, 13.1251838]}}, {"type": "Feature", "properties": {"amenity": "toilets", "check_date": "2023-12-27", "osm_id": 11458986881}, "geometry": {"type": "Point", "coordinates": [77.5686653, 13.0087326]}}, {"type": "Feature", "properties": {"access": "customers", "amenity": "toilets", "check_date": "2023-11-21", "level": "1", "operator": "BMRCL", "osm_id": 11465535796}, "geometry": {"type": "Point", "coordinates": [77.5630224, 12.9965458]}}, {"type": "Feature", "properties": {"access": "customers", "amenity": "toilets", "female": "yes", "male": "yes", "osm_id": 11473412154}, "geometry": {"type": "Point", "coordinates": [77.6196688, 12.9998657]}}, {"type": "Feature", "properties": {"amenity": "toilets", "check_date": "2024-01-02", "osm_id": 11478254684}, "geometry": {"type": "Point", "coordinates": [77.6058767, 12.96923]}}, {"type": "Feature", "properties": {"amenity": "toilets", "check_date": "2024-01-13", "osm_id": 11513112487}, "geometry": {"type": "Point", "coordinates": [77.5718717, 13.0084667]}}, {"type": "Feature", "properties": {"amenity": "toilets", "check_date": "2024-01-13", "osm_id": 11513112488}, "geometry": {"type": "Point", "coordinates": [77.5719157, 13.0084286]}}, {"type": "Feature", "properties": {"access": "private", "addr:floor": "1", "amenity": "toilets", "check_date": "2024-01-13", "fee": "no", "level": "1", "osm_id": 11513441177}, "geometry": {"type": "Point", "coordinates": [77.5800142, 13.0093896]}}, {"type": "Feature", "properties": {"access": "private", "addr:floor": "1", "amenity": "toilets", "check_date": "2024-01-13", "level": "1", "osm_id": 11513441178}, "geometry": {"type": "Point", "coordinates": [77.5800144, 13.009398]}}, {"type": "Feature", "properties": {"access": "yes", "amenity": "toilets", "osm_id": 11534655524}, "geometry": {"type": "Point", "coordinates": [77.6446751, 12.9241548]}}, {"type": "Feature", "properties": {"amenity": "toilets", "check_date": "2024-03-02", "osm_id": 11684876148}, "geometry": {"type": "Point", "coordinates": [77.5543909, 13.0197667]}}, {"type": "Feature", "properties": {"access": "yes", "amenity": "toilets", "check_date": "2024-03-03", "fee": "yes", "operator": "ಬೃಹತ್ ಬೆಂಗಳೂರು ಮಹಾನಗರ ಪಾಲಿಕೆ", "operator:en": "Bruhat Bengaluru Mahanagara Palike", "operator:ka": "ಬೃಹತ್ ಬೆಂಗಳೂರು ಮಹಾನಗರ ಪಾಲಿಕೆ", "operator:short": "BBMP", "operator:wikidata": "Q4978693", "osm_id": 11687235826}, "geometry": {"type": "Point", "coordinates": [77.5746398, 12.9826054]}}, {"type": "Feature", "properties": {"access": "yes", "amenity": "toilets", "check_date": "2025-08-24", "fee": "yes", "operator": "BBMP", "osm_id": 11687235832}, "geometry": {"type": "Point", "coordinates": [77.6011912, 12.9605359]}}, {"type": "Feature", "properties": {"access": "yes", "amenity": "toilets", "check_date": "2024-03-09", "fee": "yes", "osm_id": 11708674468}, "geometry": {"type": "Point", "coordinates": [77.6290089, 12.9790267]}}, {"type": "Feature", "properties": {"amenity": "toilets", "osm_id": 11715597225}, "geometry": {"type": "Point", "coordinates": [77.5518816, 13.0104295]}}, {"type": "Feature", "properties": {"access": "yes", "amenity": "toilets", "fee": "yes", "operator": "BBMP", "osm_id": 11804151884}, "geometry": {"type": "Point", "coordinates": [77.5742302, 12.9112635]}}, {"type": "Feature", "properties": {"access": "yes", "amenity": "toilets", "check_date": "2024-11-24", "fee": "no", "osm_id": 11897196504}, "geometry": {"type": "Point", "coordinates": [77.6065418, 12.9729501]}}, {"type": "Feature", "properties": {"amenity": "toilets", "check_date": "2024-05-12", "osm_id": 11897819743}, "geometry": {"type": "Point", "coordinates": [77.566286, 12.9969005]}}, {"type": "Feature", "properties": {"access": "yes", "amenity": "toilets", "check_date": "2025-04-06", "osm_id": 11932321823}, "geometry": {"type": "Point", "coordinates": [77.556118, 13.0181005]}}, {"type": "Feature", "properties": {"access": "yes", "amenity": "toilets", "check_date": "2024-05-25", "osm_id": 11932800644}, "geometry": {"type": "Point", "coordinates": [77.5966615, 13.0979126]}}, {"type": "Feature", "properties": {"access": "yes", "addr:floor": "G", "amenity": "toilets", "check_date": "2024-05-29", "level": "0", "toilets:disposal": "flush", "osm_id": 11942413045}, "geometry": {"type": "Point", "coordinates": [77.5275291, 12.9531055]}}, {"type": "Feature", "properties": {"access": "yes", "amenity": "toilets", "check_date": "2024-06-01", "fee": "yes", "toilets:disposal": "flush", "osm_id": 11949310166}, "geometry": {"type": "Point", "coordinates": [77.5915974, 13.0574895]}}, {"type": "Feature", "properties": {"access": "permissive", "addr:floor": "2", "amenity": "toilets", "check_date": "2024-08-29", "level": "2", "wheelchair": "yes", "osm_id": 11980088131}, "geometry": {"type": "Point", "coordinates": [77.5006631, 13.0494893]}}, {"type": "Feature", "properties": {"access": "yes", "addr:floor": "2", "amenity": "toilets", "fee": "no", "level": "3", "osm_id": 11993660923}, "geometry": {"type": "Point", "coordinates": [77.5548264, 13.0116759]}}, {"type": "Feature", "properties": {"access": "yes", "addr:floor": "2", "amenity": "toilets", "fee": "no", "level": "3", "osm_id": 11993660924}, "geometry": {"type": "Point", "coordinates": [77.5553857, 13.0116348]}}, {"type": "Feature", "properties": {"access": "yes", "addr:floor": "1", "amenity": "toilets", "fee": "no", "level": "2", "osm_id": 11993660925}, "geometry": {"type": "Point", "coordinates": [77.5554138, 13.0116335]}}, {"type": "Feature", "properties": {"access": "yes", "addr:floor": "1", "amenity": "toilets", "fee": "no", "level": "2", "osm_id": 11993660926}, "geometry": {"type": "Point", "coordinates": [77.5554387, 13.0104686]}}, {"type": "Feature", "properties": {"access": "yes", "addr:floor": "G", "amenity": "toilets", "fee": "no", "level": "0", "osm_id": 11993660927}, "geometry": {"type": "Point", "coordinates": [77.5554108, 13.0104898]}}, {"type": "Feature", "properties": {"access": "yes", "addr:floor": "UG", "amenity": "toilets", "fee": "no", "level": "1", "osm_id": 11993660928}, "geometry": {"type": "Point", "coordinates": [77.5554383, 13.0104905]}}, {"type": "Feature", "properties": {"access": "yes", "addr:floor": "G", "amenity": "toilets", "fee": "no", "level": "0", "osm_id": 11993660933}, "geometry": {"type": "Point", "coordinates": [77.5553857, 13.0116583]}}, {"type": "Feature", "properties": {"access": "permissive", "amenity": "toilets", "check_date": "2024-06-21", "fee": "yes", "female": "yes", "level": "1", "male": "yes", "operator": "BMRCL", "toilets:handwashing": "yes", "toilets:position": "urinal", "osm_id": 11998985477}, "geometry": {"type": "Point", "coordinates": [77.5006073, 13.0479053]}}, {"type": "Feature", "properties": {"access": "permissive", "amenity": "toilets", "check_date": "2024-06-22", "female": "yes", "level": "1", "male": "yes", "operator": "BMRCL", "toilets:handwashing": "yes", "toilets:position": "urinal", "osm_id": 12000217925}, "geometry": {"type": "Point", "coordinates": [77.5738513, 12.9503]}}, {"type": "Feature", "properties": {"access": "yes", "amenity": "toilets", "osm_id": 12002046036}, "geometry": {"type": "Point", "coordinates": [77.5811148, 12.9775675]}}, {"type": "Feature", "properties": {"access": "permissive", "amenity": "toilets", "check_date": "2024-06-29", "osm_id": 12019714500}, "geometry": {"type": "Point", "coordinates": [77.5980627, 12.9877097]}}, {"type": "Feature", "properties": {"access": "permissive", "addr:floor": "-1", "amenity": "toilets", "check_date": "2024-06-29", "female": "yes", "level": "-1", "male": "yes", "operator": "BMRCL", "toilets:handwashing": "yes", "toilets:position": "urinal", "osm_id": 12019980192}, "geometry": {"type": "Point", "coordinates": [77.5980619, 12.980659]}}, {"type": "Feature", "properties": {"access": "yes", "amenity": "toilets", "check_date": "2024-08-19", "operator": "BBMP", "osm_id": 12052471404}, "geometry": {"type": "Point", "coordinates": [77.6098456, 12.9740312]}}, {"type": "Feature", "properties": {"access": "private", "amenity": "toilets", "fee": "no", "female": "yes", "osm_id": 12072897006}, "geometry": {"type": "Point", "coordinates": [77.7270444, 12.9866186]}}, {"type": "Feature", "properties": {"access": "private", "amenity": "toilets", "fee": "no", "male": "yes", "osm_id": 12072897007}, "geometry": {"type": "Point", "coordinates": [77.7269981, 12.9866166]}}, {"type": "Feature", "properties": {"access": "customers", "amenity": "toilets", "female": "yes", "level": "1", "operator": "BMRCL", "osm_id": 12072910369}, "geometry": {"type": "Point", "coordinates": [77.7276251, 12.9809]}}, {"type": "Feature", "properties": {"access": "customers", "amenity": "toilets", "level": "1", "male": "yes", "operator": "BMRCL", "osm_id": 12072910370}, "geometry": {"type": "Point", "coordinates": [77.7277203, 12.9813064]}}, {"type": "Feature", "properties": {"access": "yes", "amenity": "toilets", "check_date": "2024-07-28", "fee": "no", "payment:cash": "yes", "payment:upi": "yes", "source": "survey", "osm_id": 12078423950}, "geometry": {"type": "Point", "coordinates": [77.5920517, 12.9539684]}}, {"type": "Feature", "properties": {"amenity": "toilets", "check_date": "2024-08-11", "osm_id": 12103825757}, "geometry": {"type": "Point", "coordinates": [77.5825259, 12.9991829]}}, {"type": "Feature", "properties": {"access": "customers", "amenity": "toilets", "fee": "no", "level": "1", "male": "yes", "operator": "BMRCL", "osm_id": 12135160550}, "geometry": {"type": "Point", "coordinates": [77.7577583, 12.9954341]}}, {"type": "Feature", "properties": {"access": "customers", "amenity": "toilets", "fee": "no", "female": "yes", "level": "1", "operator": "BMRCL", "osm_id": 12135160551}, "geometry": {"type": "Point", "coordinates": [77.757871, 12.9958157]}}, {"type": "Feature", "properties": {"amenity": "toilets", "osm_id": 12135160560}, "geometry": {"type": "Point", "coordinates": [77.7615631, 12.9965828]}}, {"type": "Feature", "properties": {"access": "yes", "amenity": "toilets", "check_date": "2024-08-25", "fee": "yes", "osm_id": 12135686524}, "geometry": {"type": "Point", "coordinates": [77.559742, 13.014829]}}, {"type": "Feature", "properties": {"access": "yes", "amenity": "toilets", "fee": "yes", "operator": "ಬೃಹತ್ ಬೆಂಗಳೂರು ಮಹಾನಗರ ಪಾಲಿಕೆ", "operator:en": "Bruhat Bengaluru Mahanagara Palike", "operator:ka": "ಬೃಹತ್ ಬೆಂಗಳೂರು ಮಹಾನಗರ ಪಾಲಿಕೆ", "operator:short": "BBMP", "operator:wikidata": "Q4978693", "osm_id": 12137671670}, "geometry": {"type": "Point", "coordinates": [77.581687, 12.9731431]}}, {"type": "Feature", "properties": {"access": "yes", "amenity": "toilets", "fee": "no", "female": "yes", "male": "yes", "wheelchair": "yes", "osm_id": 12137776014}, "geometry": {"type": "Point", "coordinates": [77.5877231, 12.9857445]}}, {"type": "Feature", "properties": {"amenity": "toilets", "check_date": "2024-08-29", "source": "survey", "osm_id": 12144442644}, "geometry": {"type": "Point", "coordinates": [77.6724425, 12.8463388]}}, {"type": "Feature", "properties": {"access": "permissive", "addr:floor": "1", "amenity": "toilets", "check_date": "2024-09-01", "level": "1", "osm_id": 12149767436}, "geometry": {"type": "Point", "coordinates": [77.5844357, 13.0258564]}}, {"type": "Feature", "properties": {"access": "permissive", "amenity": "toilets", "female": "yes", "male": "yes", "osm_id": 12163099778}, "geometry": {"type": "Point", "coordinates": [77.595251, 12.945782]}}, {"type": "Feature", "properties": {"access": "permissive", "amenity": "toilets", "fee": "no", "female": "yes", "level": "0", "male": "yes", "toilets:handwashing": "yes", "toilets:position": "urinal", "wheelchair": "no", "osm_id": 12164901541}, "geometry": {"type": "Point", "coordinates": [77.5978202, 12.9759988]}}, {"type": "Feature", "properties": {"amenity": "toilets", "check_date": "2024-09-18", "fee": "yes", "name": "Pay & Use Toilet", "wheelchair": "no", "osm_id": 12187048816}, "geometry": {"type": "Point", "coordinates": [77.6156589, 12.9231056]}}, {"type": "Feature", "properties": {"amenity": "toilets", "check_date": "2025-09-19", "fee": "no", "level": "0;-1", "male": "yes", "wheelchair": "yes", "osm_id": 12206992028}, "geometry": {"type": "Point", "coordinates": [77.5002596, 12.9240283]}}, {"type": "Feature", "properties": {"access": "customers", "amenity": "toilets", "fee": "no", "female": "yes", "male": "yes", "osm_id": 12216014020}, "geometry": {"type": "Point", "coordinates": [77.5663928, 13.126309]}}, {"type": "Feature", "properties": {"access": "customers", "amenity": "toilets", "fee": "no", "female": "yes", "male": "yes", "osm_id": 12216014025}, "geometry": {"type": "Point", "coordinates": [77.5662526, 13.12684]}}, {"type": "Feature", "properties": {"amenity": "toilets", "check_date": "2024-10-06", "osm_id": 12229239088}, "geometry": {"type": "Point", "coordinates": [77.5934781, 13.0053048]}}, {"type": "Feature", "properties": {"amenity": "toilets", "fee": "yes", "wheelchair": "no", "osm_id": 12254670079}, "geometry": {"type": "Point", "coordinates": [77.6948663, 12.9791025]}}, {"type": "Feature", "properties": {"access": "customers", "amenity": "toilets", "osm_id": 12269300829}, "geometry": {"type": "Point", "coordinates": [77.580231, 12.9882613]}}, {"type": "Feature", "properties": {"access": "customers", "amenity": "toilets", "fee": "no", "osm_id": 12270307285}, "geometry": {"type": "Point", "coordinates": [77.6083808, 12.9745324]}}, {"type": "Feature", "properties": {"access": "permissive", "addr:floor": "G", "amenity": "toilets", "changing_table": "no", "check_date": "2024-10-24", "level": "0", "toilets:disposal": "flush", "wheelchair": "no", "osm_id": 12285080587}, "geometry": {"type": "Point", "coordinates": [77.5787619, 13.1361946]}}, {"type": "Feature", "properties": {"amenity": "toilets", "name": "Public Toilet and Bath", "osm_id": 12285685369}, "geometry": {"type": "Point", "coordinates": [77.6443955, 12.9066107]}}, {"type": "Feature", "properties": {"amenity": "toilets", "fee": "yes", "osm_id": 12301590053}, "geometry": {"type": "Point", "coordinates": [77.6501432, 13.0640759]}}, {"type": "Feature", "properties": {"access": "yes", "amenity": "toilets", "fee": "yes", "operator": "ಬೃಹತ್ ಬೆಂಗಳೂರು ಮಹಾನಗರ ಪಾಲಿಕೆ", "operator:en": "Bruhat Bengaluru Mahanagara Palike", "operator:ka": "ಬೃಹತ್ ಬೆಂಗಳೂರು ಮಹಾನಗರ ಪಾಲಿಕೆ", "operator:short": "BBMP", "operator:wikidata": "Q4978693", "osm_id": 12308893243}, "geometry": {"type": "Point", "coordinates": [77.5761245, 12.9304472]}}, {"type": "Feature", "properties": {"access": "yes", "addr:floor": "G", "amenity": "toilets", "check_date": "2024-11-23", "level": "0", "toilets:disposal": "flush", "osm_id": 12367345346}, "geometry": {"type": "Point", "coordinates": [77.5191813, 12.9581471]}}, {"type": "Feature", "properties": {"access": "customers", "amenity": "toilets", "fee": "no", "female": "yes", "osm_id": 12414199211}, "geometry": {"type": "Point", "coordinates": [77.5756719, 13.0064414]}}, {"type": "Feature", "properties": {"access": "customers", "amenity": "toilets", "fee": "no", "male": "yes", "osm_id": 12414199212}, "geometry": {"type": "Point", "coordinates": [77.5753782, 13.0064499]}}, {"type": "Feature", "properties": {"access": "customers", "amenity": "toilets", "female": "no", "male": "no", "osm_id": 12425915428}, "geometry": {"type": "Point", "coordinates": [77.5819932, 12.9921372]}}, {"type": "Feature", "properties": {"amenity": "toilets", "male": "yes", "osm_id": 12441118643}, "geometry": {"type": "Point", "coordinates": [77.5453891, 12.9991427]}}, {"type": "Feature", "properties": {"amenity": "toilets", "female": "yes", "osm_id": 12441118644}, "geometry": {"type": "Point", "coordinates": [77.5455681, 12.9991479]}}, {"type": "Feature", "properties": {"access": "yes", "amenity": "toilets", "fee": "yes", "osm_id": 12441867970}, "geometry": {"type": "Point", "coordinates": [77.5385334, 12.9916231]}}, {"type": "Feature", "properties": {"amenity": "toilets", "osm_id": 12443353162}, "geometry": {"type": "Point", "coordinates": [77.6400607, 12.9235685]}}, {"type": "Feature", "properties": {"access": "yes", "amenity": "toilets", "fee": "no", "female": "yes", "male": "yes", "osm_id": 12461052149}, "geometry": {"type": "Point", "coordinates": [77.5965428, 12.9718003]}}, {"type": "Feature", "properties": {"amenity": "toilets", "check_date": "2025-01-01", "osm_id": 12466417387}, "geometry": {"type": "Point", "coordinates": [77.5675577, 12.9550078]}}, {"type": "Feature", "properties": {"access": "private", "amenity": "toilets", "osm_id": 12470693239}, "geometry": {"type": "Point", "coordinates": [77.5928172, 13.0020645]}}, {"type": "Feature", "properties": {"amenity": "toilets", "check_date": "2025-01-11", "osm_id": 12491723541}, "geometry": {"type": "Point", "coordinates": [77.5826315, 12.9251711]}}, {"type": "Feature", "properties": {"access": "yes", "amenity": "toilets", "fee": "yes", "operator": "BBMP", "osm_id": 12492581612}, "geometry": {"type": "Point", "coordinates": [77.580577, 12.9218794]}}, {"type": "Feature", "properties": {"amenity": "toilets", "wheelchair": "no", "osm_id": 12506944682}, "geometry": {"type": "Point", "coordinates": [77.5734718, 12.9778629]}}, {"type": "Feature", "properties": {"access": "yes", "amenity": "toilets", "osm_id": 12506944697}, "geometry": {"type": "Point", "coordinates": [77.5727047, 12.9777034]}}, {"type": "Feature", "properties": {"amenity": "toilets", "osm_id": 12507070342}, "geometry": {"type": "Point", "coordinates": [77.573158, 12.9175556]}}, {"type": "Feature", "properties": {"access": "yes", "amenity": "toilets", "female": "yes", "osm_id": 12507390921}, "geometry": {"type": "Point", "coordinates": [77.6386927, 12.961628]}}, {"type": "Feature", "properties": {"access": "yes", "amenity": "toilets", "male": "yes", "osm_id": 12507390922}, "geometry": {"type": "Point", "coordinates": [77.6387497, 12.9616829]}}, {"type": "Feature", "properties": {"access": "yes", "amenity": "toilets", "female": "yes", "osm_id": 12507390923}, "geometry": {"type": "Point", "coordinates": [77.6388929, 12.961826]}}, {"type": "Feature", "properties": {"access": "yes", "amenity": "toilets", "male": "yes", "osm_id": 12507390924}, "geometry": {"type": "Point", "coordinates": [77.6389499, 12.9618809]}}, {"type": "Feature", "properties": {"access": "yes", "amenity": "toilets", "fee": "yes", "osm_id": 12512478215}, "geometry": {"type": "Point", "coordinates": [77.580007, 12.9288159]}}, {"type": "Feature", "properties": {"access": "customers", "amenity": "toilets", "check_date": "2025-01-20", "female": "yes", "layer": "1", "level": "1", "male": "yes", "wheelchair": "limited", "osm_id": 12518226616}, "geometry": {"type": "Point", "coordinates": [77.533763, 13.0327979]}}, {"type": "Feature", "properties": {"access": "customers", "amenity": "toilets", "level": "1", "name": "Metro Toilet", "osm_id": 12525787380}, "geometry": {"type": "Point", "coordinates": [77.5406946, 13.028586]}}, {"type": "Feature", "properties": {"amenity": "toilets", "check_date": "2025-01-23", "osm_id": 12525844629}, "geometry": {"type": "Point", "coordinates": [77.5894997, 12.9751161]}}, {"type": "Feature", "properties": {"access": "yes", "amenity": "toilets", "osm_id": 12530833136}, "geometry": {"type": "Point", "coordinates": [77.6080891, 12.9815554]}}, {"type": "Feature", "properties": {"access": "customers", "amenity": "toilets", "layer": "2", "level": "2", "operator": "BMRCL", "osm_id": 12535626937}, "geometry": {"type": "Point", "coordinates": [77.6062514, 12.9758029]}}, {"type": "Feature", "properties": {"amenity": "toilets", "fee": "yes", "osm_id": 12551629153}, "geometry": {"type": "Point", "coordinates": [77.6703852, 12.9969483]}}, {"type": "Feature", "properties": {"access": "yes", "amenity": "toilets", "fee": "yes", "osm_id": 12570933738}, "geometry": {"type": "Point", "coordinates": [77.6241636, 13.040249]}}, {"type": "Feature", "properties": {"amenity": "toilets", "check_date": "2025-03-18", "operator": "BBMP", "osm_id": 12676261368}, "geometry": {"type": "Point", "coordinates": [77.5559839, 13.0198537]}}, {"type": "Feature", "properties": {"amenity": "toilets", "osm_id": 12750126583}, "geometry": {"type": "Point", "coordinates": [77.6111176, 12.9833333]}}, {"type": "Feature", "properties": {"access": "customers", "amenity": "toilets", "female": "yes", "layer": "1", "level": "1", "male": "yes", "wheelchair": "limited", "osm_id": 12777774171}, "geometry": {"type": "Point", "coordinates": [77.5574537, 12.9983704]}}, {"type": "Feature", "properties": {"amenity": "toilets", "check_date": "2025-05-15", "wheelchair": "limited", "osm_id": 12839764748}, "geometry": {"type": "Point", "coordinates": [77.7663986, 12.8747351]}}, {"type": "Feature", "properties": {"access": "yes", "amenity": "toilets", "fee": "no", "osm_id": 12845378955}, "geometry": {"type": "Point", "coordinates": [77.6018838, 12.9755112]}}, {"type": "Feature", "properties": {"access": "yes", "amenity": "toilets", "fee": "no", "osm_id": 12845378962}, "geometry": {"type": "Point", "coordinates": [77.6019274, 12.9735849]}}, {"type": "Feature", "properties": {"amenity": "toilets", "check_date": "2025-07-23", "osm_id": 12852810064}, "geometry": {"type": "Point", "coordinates": [77.7440031, 12.9868453]}}, {"type": "Feature", "properties": {"access": "permissive", "addr:floor": "1", "amenity": "toilets", "female": "yes", "fixme": "Accurate location within station", "level": "1", "male": "yes", "operator": "BMRCL", "toilets:handwashing": "yes", "toilets:position": "urinal", "osm_id": 12856900602}, "geometry": {"type": "Point", "coordinates": [77.5802886, 12.921364]}}, {"type": "Feature", "properties": {"access": "permissive", "addr:floor": "1", "amenity": "toilets", "female": "yes", "fixme": "Accurate location within station", "level": "1", "male": "yes", "operator": "BMRCL", "toilets:handwashing": "yes", "toilets:position": "urinal", "osm_id": 12856900603}, "geometry": {"type": "Point", "coordinates": [77.5802886, 12.9294787]}}, {"type": "Feature", "properties": {"access": "permissive", "addr:floor": "1", "amenity": "toilets", "female": "yes", "fixme": "Accurate location within station", "level": "1", "male": "yes", "operator": "BMRCL", "toilets:handwashing": "yes", "toilets:position": "urinal", "osm_id": 12856900604}, "geometry": {"type": "Point", "coordinates": [77.5800311, 12.9381367]}}, {"type": "Feature", "properties": {"access": "permissive", "addr:floor": "1", "amenity": "toilets", "female": "yes", "fixme": "Accurate location within station", "level": "1", "male": "yes", "operator": "BMRCL", "toilets:handwashing": "yes", "toilets:position": "urinal", "osm_id": 12856900605}, "geometry": {"type": "Point", "coordinates": [77.579999, 12.9461567]}}, {"type": "Feature", "properties": {"access": "permissive", "addr:floor": "-1", "amenity": "toilets", "female": "yes", "fixme": "Accurate location within station", "level": "-1", "male": "yes", "operator": "BMRCL", "toilets:handwashing": "yes", "toilets:position": "urinal", "osm_id": 12856900606}, "geometry": {"type": "Point", "coordinates": [77.5660729, 12.9758922]}}, {"type": "Feature", "properties": {"access": "permissive", "addr:floor": "-1", "amenity": "toilets", "female": "yes", "fixme": "Accurate location within station", "level": "-1", "male": "yes", "operator": "BMRCL", "toilets:handwashing": "yes", "toilets:position": "urinal", "osm_id": 12856900607}, "geometry": {"type": "Point", "coordinates": [77.5841188, 12.9743239]}}, {"type": "Feature", "properties": {"access": "permissive", "addr:floor": "-1", "amenity": "toilets", "female": "yes", "fixme": "Accurate location within station", "level": "-1", "male": "yes", "operator": "BMRCL", "toilets:handwashing": "yes", "toilets:position": "urinal", "osm_id": 12856900608}, "geometry": {"type": "Point", "coordinates": [77.5919831, 12.978809]}}, {"type": "Feature", "properties": {"access": "permissive", "addr:floor": "1", "amenity": "toilets", "fee": "yes", "female": "yes", "fixme": "Accurate location within station", "level": "1", "male": "yes", "operator": "BMRCL", "toilets:handwashing": "yes", "toilets:position": "urinal", "osm_id": 12869993437}, "geometry": {"type": "Point", "coordinates": [77.5702304, 12.8959767]}}, {"type": "Feature", "properties": {"amenity": "toilets", "check_date": "2025-06-13", "osm_id": 12912564359}, "geometry": {"type": "Point", "coordinates": [77.5798782, 12.9242967]}}, {"type": "Feature", "properties": {"access": "yes", "amenity": "toilets", "female": "yes", "male": "yes", "osm_id": 12923032281}, "geometry": {"type": "Point", "coordinates": [77.7487133, 12.9720094]}}, {"type": "Feature", "properties": {"access": "yes", "amenity": "toilets", "check_date": "2025-06-21", "fee": "no", "wheelchair": "yes", "osm_id": 12941965940}, "geometry": {"type": "Point", "coordinates": [77.6625746, 12.9999452]}}, {"type": "Feature", "properties": {"amenity": "toilets", "osm_id": 13043346064}, "geometry": {"type": "Point", "coordinates": [77.6076217, 13.071703]}}, {"type": "Feature", "properties": {"access": "yes", "amenity": "toilets", "fee": "yes", "operator": "BBMP", "osm_id": 13043346101}, "geometry": {"type": "Point", "coordinates": [77.6001665, 13.0730825]}}, {"type": "Feature", "properties": {"access": "yes", "amenity": "toilets", "fee": "yes", "operator": "ಬೃಹತ್ ಬೆಂಗಳೂರು ಮಹಾನಗರ ಪಾಲಿಕೆ", "operator:en": "Bruhat Bengaluru Mahanagara Palike", "operator:ka": "ಬೃಹತ್ ಬೆಂಗಳೂರು ಮಹಾನಗರ ಪಾಲಿಕೆ", "operator:short": "BBMP", "operator:wikidata": "Q4978693", "osm_id": 13046073280}, "geometry": {"type": "Point", "coordinates": [77.5849114, 12.9216071]}}, {"type": "Feature", "properties": {"access": "yes", "amenity": "toilets", "osm_id": 13070823030}, "geometry": {"type": "Point", "coordinates": [77.6775871, 12.9726226]}}, {"type": "Feature", "properties": {"amenity": "toilets", "check_date": "2025-08-16", "osm_id": 13073475396}, "geometry": {"type": "Point", "coordinates": [77.6100483, 12.9196867]}}, {"type": "Feature", "properties": {"access": "yes", "amenity": "toilets", "fee": "yes", "female": "yes", "level": "0", "male": "yes", "toilets:handwashing": "yes", "wheelchair": "no", "osm_id": 13159001736}, "geometry": {"type": "Point", "coordinates": [77.5681057, 12.9793389]}}, {"type": "Feature", "properties": {"access": "yes", "amenity": "toilets", "female": "yes", "toilets:disposal": "flush", "toilets:handwashing": "yes", "wheelchair": "no", "osm_id": 13161243886}, "geometry": {"type": "Point", "coordinates": [77.7606401, 12.9962659]}}, {"type": "Feature", "properties": {"access": "yes", "amenity": "toilets", "male": "yes", "toilets:disposal": "flush", "toilets:handwashing": "yes", "wheelchair": "no", "osm_id": 13161243892}, "geometry": {"type": "Point", "coordinates": [77.7606657, 12.996264]}}, {"type": "Feature", "properties": {"access": "permissive", "amenity": "toilets", "fee": "no", "level": "0", "toilets:disposal": "flush", "toilets:handwashing": "yes", "toilets:position": "squat", "unisex": "yes", "wheelchair": "no", "osm_id": 13164679575}, "geometry": {"type": "Point", "coordinates": [77.5988356, 12.9664994]}}, {"type": "Feature", "properties": {"access": "permissive", "amenity": "toilets", "fee": "no", "level": "0", "toilets:disposal": "flush", "toilets:handwashing": "yes", "toilets:position": "squat", "unisex": "yes", "wheelchair": "no", "osm_id": 13164679576}, "geometry": {"type": "Point", "coordinates": [77.5988551, 12.9665151]}}, {"type": "Feature", "properties": {"amenity": "toilets", "check_date": "2025-10-04", "operator": "KFC", "operator:wikidata": "Q524757", "osm_id": 13192098305}, "geometry": {"type": "Point", "coordinates": [77.7368287, 12.9869592]}}, {"type": "Feature", "properties": {"access": "private", "amenity": "toilets", "female": "yes", "male": "yes", "osm_id": 13261840354}, "geometry": {"type": "Point", "coordinates": [77.5971527, 12.9040105]}}, {"type": "Feature", "properties": {"access": "private", "amenity": "toilets", "female": "yes", "male": "yes", "osm_id": 13261840355}, "geometry": {"type": "Point", "coordinates": [77.5972583, 12.9041112]}}, {"type": "Feature", "properties": {"amenity": "toilets", "check_date": "2026-02-19", "check_date:wheelchair": "2026-02-19", "fee": "yes", "name": "Pay & Use Toilet", "wheelchair": "yes", "osm_id": 13305157141}, "geometry": {"type": "Point", "coordinates": [77.6758356, 13.0005485]}}, {"type": "Feature", "properties": {"addr:floor": "G", "amenity": "toilets", "check_date": "2025-11-30", "fee": "yes", "level": "0", "osm_id": 13342107303}, "geometry": {"type": "Point", "coordinates": [77.6949889, 12.9075051]}}, {"type": "Feature", "properties": {"access": "yes", "amenity": "toilets", "fee": "no", "male": "yes", "osm_id": 13342712910}, "geometry": {"type": "Point", "coordinates": [77.6950496, 12.9446563]}}, {"type": "Feature", "properties": {"access": "yes", "amenity": "toilets", "female": "yes", "male": "yes", "unisex": "yes", "wheelchair": "limited", "osm_id": 13374216883}, "geometry": {"type": "Point", "coordinates": [77.6941596, 13.0084498]}}, {"type": "Feature", "properties": {"amenity": "toilets", "fee": "yes", "female": "yes", "male": "yes", "operator": "Greater Bengaluru Authority", "osm_id": 13514710543}, "geometry": {"type": "Point", "coordinates": [77.6025416, 12.9370728]}}, {"type": "Feature", "properties": {"access": "yes", "amenity": "toilets", "check_date": "2026-03-18", "fee": "yes", "operator": "BBMP", "portable": "no", "toilets:handwashing": "yes", "osm_id": 13516867493}, "geometry": {"type": "Point", "coordinates": [77.7472668, 12.9419029]}}, {"type": "Feature", "properties": {"access": "yes", "addr:floor": "G", "amenity": "toilets", "check_date": "2026-02-04", "level": "0", "toilets:disposal": "flush", "osm_id": 13524359535}, "geometry": {"type": "Point", "coordinates": [77.6462463, 12.9864322]}}, {"type": "Feature", "properties": {"amenity": "toilets", "fee": "yes", "osm_id": 13536126077}, "geometry": {"type": "Point", "coordinates": [77.643325, 12.9606126]}}, {"type": "Feature", "properties": {"access": "permissive", "amenity": "toilets", "osm_id": 13649032586}, "geometry": {"type": "Point", "coordinates": [77.4644001, 12.8814479]}}]}