{"type": "FeatureCollection", "features": [{"type": "Feature", "properties": {"name": "Ramesh Nagar"}, "geometry": {"type": "Point", "coordinates": [77.1316496, 28.6527444]}}, {"type": "Feature", "properties": {"name": "Patel Nagar"}, "geometry": {"type": "Point", "coordinates": [77.1692817, 28.6450127]}}, {"type": "Feature", "properties": {"name": "Rithala"}, "geometry": {"type": "Point", "coordinates": [77.1071813, 28.7208064]}}, {"type": "Feature", "properties": {"name": "Pratap Nagar"}, "geometry": {"type": "Point", "coordinates": [77.1988974, 28.6667177]}}, {"type": "Feature", "properties": {"name": "Pul Bangash"}, "geometry": {"type": "Point", "coordinates": [77.2074156, 28.6664068]}}, {"type": "Feature", "properties": {"name": "Kashmere Gate"}, "geometry": {"type": "Point", "coordinates": [77.2282488, 28.6674493]}}, {"type": "Feature", "properties": {"name": "Kohat Enclave"}, "geometry": {"type": "Point", "coordinates": [77.1405393, 28.6980415]}}, {"type": "Feature", "properties": {"name": "Karol Bagh"}, "geometry": {"type": "Point", "coordinates": [77.1885235, 28.6440122]}}, {"type": "Feature", "properties": {"name": "Kirti Nagar (Blue Line)"}, "geometry": {"type": "Point", "coordinates": [77.1506635, 28.655746]}}, {"type": "Feature", "properties": {"name": "Shadipur"}, "geometry": {"type": "Point", "coordinates": [77.1582587, 28.6515829]}}, {"type": "Feature", "properties": {"name": "Moti Nagar"}, "geometry": {"type": "Point", "coordinates": [77.1424288, 28.657859]}}, {"type": "Feature", "properties": {"name": "Sikanderpur"}, "geometry": {"type": "Point", "coordinates": [77.0930017, 28.4812716]}}, {"type": "Feature", "properties": {"name": "Delhi Aerocity"}, "geometry": {"type": "Point", "coordinates": [77.1207949, 28.5487786]}}, {"type": "Feature", "properties": {"name": "Hauz Khas (Yellow Line)"}, "geometry": {"type": "Point", "coordinates": [77.2067072, 28.5442564]}}, {"type": "Feature", "properties": {"name": "Shivaji Stadium"}, "geometry": {"type": "Point", "coordinates": [77.2113218, 28.6288963]}}, {"type": "Feature", "properties": {"name": "New Delhi"}, "geometry": {"type": "Point", "coordinates": [77.2227421, 28.6434826]}}, {"type": "Feature", "properties": {"name": "Tis Hazari"}, "geometry": {"type": "Point", "coordinates": [77.2166306, 28.6671626]}}, {"type": "Feature", "properties": {"name": "Shastri Park"}, "geometry": {"type": "Point", "coordinates": [77.2505301, 28.6684339]}}, {"type": "Feature", "properties": {"name": "Seelampur"}, "geometry": {"type": "Point", "coordinates": [77.2668137, 28.6698165]}}, {"type": "Feature", "properties": {"name": "Welcome (Red Line)"}, "geometry": {"type": "Point", "coordinates": [77.2778473, 28.6717907]}}, {"type": "Feature", "properties": {"name": "Shahdara"}, "geometry": {"type": "Point", "coordinates": [77.2898858, 28.6734298]}}, {"type": "Feature", "properties": {"name": "Jhilmil"}, "geometry": {"type": "Point", "coordinates": [77.3123949, 28.6757197]}}, {"type": "Feature", "properties": {"name": "Shastri Nagar"}, "geometry": {"type": "Point", "coordinates": [77.1818589, 28.6700885]}}, {"type": "Feature", "properties": {"name": "Inderlok (Red Line)"}, "geometry": {"type": "Point", "coordinates": [77.1703467, 28.6735891]}}, {"type": "Feature", "properties": {"name": "Kanhaiya Nagar"}, "geometry": {"type": "Point", "coordinates": [77.1647754, 28.6824082]}}, {"type": "Feature", "properties": {"name": "Keshav Puram"}, "geometry": {"type": "Point", "coordinates": [77.1616833, 28.6889264]}}, {"type": "Feature", "properties": {"name": "Netaji Subhash Place (Red Line)"}, "geometry": {"type": "Point", "coordinates": [77.1524856, 28.6960485]}}, {"type": "Feature", "properties": {"name": "Madhuban Chowk"}, "geometry": {"type": "Point", "coordinates": [77.1322497, 28.7032676]}}, {"type": "Feature", "properties": {"name": "Rohini East"}, "geometry": {"type": "Point", "coordinates": [77.1259971, 28.7075774]}}, {"type": "Feature", "properties": {"name": "GTB Nagar"}, "geometry": {"type": "Point", "coordinates": [77.2063998, 28.6981333]}}, {"type": "Feature", "properties": {"name": "IGI Airport"}, "geometry": {"type": "Point", "coordinates": [77.0866995, 28.5564626]}}, {"type": "Feature", "properties": {"name": "Kalkaji Mandir"}, "geometry": {"type": "Point", "coordinates": [77.25909, 28.5494785]}}, {"type": "Feature", "properties": {"name": "Dhaula Kuan"}, "geometry": {"type": "Point", "coordinates": [77.1617158, 28.5918719]}}, {"type": "Feature", "properties": {"name": "New Delhi Airport Express Terminal"}, "geometry": {"type": "Point", "coordinates": [77.2231116, 28.6424786]}}, {"type": "Feature", "properties": {"name": "Kirti Nagar (Green Line)"}, "geometry": {"type": "Point", "coordinates": [77.1513605, 28.6545409]}}, {"type": "Feature", "properties": {"name": "Satguru Ramsingh Marg"}, "geometry": {"type": "Point", "coordinates": [77.1577026, 28.6620531]}}, {"type": "Feature", "properties": {"name": "Rohini West"}, "geometry": {"type": "Point", "coordinates": [77.115385, 28.7149569]}}, {"type": "Feature", "properties": {"name": "Belvedere Towers"}, "geometry": {"type": "Point", "coordinates": [77.0881318, 28.4917023]}}, {"type": "Feature", "properties": {"name": "DLF Phase 2"}, "geometry": {"type": "Point", "coordinates": [77.0929909, 28.4875596]}}, {"type": "Feature", "properties": {"name": "Sikanderpur RMRG Station"}, "geometry": {"type": "Point", "coordinates": [77.0944367, 28.4809969]}}, {"type": "Feature", "properties": {"name": "Moulsari Avenue Station"}, "geometry": {"type": "Point", "coordinates": [77.0946306, 28.5007775]}}, {"type": "Feature", "properties": {"name": "Phase 3 Station"}, "geometry": {"type": "Point", "coordinates": [77.093661, 28.4935677]}}, {"type": "Feature", "properties": {"name": "Dhansa Bus Stand"}, "geometry": {"type": "Point", "coordinates": [76.9785264, 28.6119086]}}, {"type": "Feature", "properties": {"name": "Hauz Khas (Magenta Line)"}, "geometry": {"type": "Point", "coordinates": [77.2050447, 28.5433691]}}, {"type": "Feature", "properties": {"name": "Munirka"}, "geometry": {"type": "Point", "coordinates": [77.1750592, 28.5568967]}}, {"type": "Feature", "properties": {"name": "Sukhdev Vihar"}, "geometry": {"type": "Point", "coordinates": [77.2749004, 28.5597477]}}, {"type": "Feature", "properties": {"name": "Vasant Vihar"}, "geometry": {"type": "Point", "coordinates": [77.1611168, 28.557827]}}, {"type": "Feature", "properties": {"name": "Shankar Vihar"}, "geometry": {"type": "Point", "coordinates": [77.1402814, 28.5608462]}}, {"type": "Feature", "properties": {"name": "Sadar Bazar Cantonment"}, "geometry": {"type": "Point", "coordinates": [77.1111279, 28.5771145]}}, {"type": "Feature", "properties": {"name": "Palam"}, "geometry": {"type": "Point", "coordinates": [77.0830764, 28.5889102]}}, {"type": "Feature", "properties": {"name": "Dashrath Puri"}, "geometry": {"type": "Point", "coordinates": [77.0823751, 28.60185]}}, {"type": "Feature", "properties": {"name": "Janakpuri West"}, "geometry": {"type": "Point", "coordinates": [77.0779492, 28.6289471]}}, {"type": "Feature", "properties": {"name": "Okhla Bird Sanctuary"}, "geometry": {"type": "Point", "coordinates": [77.321595, 28.5529418]}}, {"type": "Feature", "properties": {"name": "Greater Kailash"}, "geometry": {"type": "Point", "coordinates": [77.2384925, 28.5419077]}}, {"type": "Feature", "properties": {"name": "Kalindi Kunj"}, "geometry": {"type": "Point", "coordinates": [77.3101107, 28.542916]}}, {"type": "Feature", "properties": {"name": "Kalkaji Mandir"}, "geometry": {"type": "Point", "coordinates": [77.2569441, 28.5503522]}}, {"type": "Feature", "properties": {"name": "Okhla Vihar"}, "geometry": {"type": "Point", "coordinates": [77.291877, 28.5612999]}}, {"type": "Feature", "properties": {"name": "Panchsheel Park"}, "geometry": {"type": "Point", "coordinates": [77.2210916, 28.5423747]}}, {"type": "Feature", "properties": {"name": "R. K. Puram"}, "geometry": {"type": "Point", "coordinates": [77.1855231, 28.5503805]}}, {"type": "Feature", "properties": {"name": "Jasola Vihar Shaheen Bagh"}, "geometry": {"type": "Point", "coordinates": [77.2966578, 28.5458279]}}, {"type": "Feature", "properties": {"name": "Botanical Garden (Magenta Line)"}, "geometry": {"type": "Point", "coordinates": [77.3338373, 28.5639051]}}, {"type": "Feature", "properties": {"name": "Terminal 1 IGI Airport"}, "geometry": {"type": "Point", "coordinates": [77.1226566, 28.564835]}}, {"type": "Feature", "properties": {"name": "Trilokpuri Sanjay Lake"}, "geometry": {"type": "Point", "coordinates": [77.3088549, 28.613453]}}, {"type": "Feature", "properties": {"name": "Anand Vihar (Blue Line)"}, "geometry": {"type": "Point", "coordinates": [77.3158749, 28.6468336]}}, {"type": "Feature", "properties": {"name": "Karkarduma (Pink Line)"}, "geometry": {"type": "Point", "coordinates": [77.3060686, 28.6493434]}}, {"type": "Feature", "properties": {"name": "Samaypur Badli"}, "geometry": {"type": "Point", "coordinates": [77.1382701, 28.7446411]}}, {"type": "Feature", "properties": {"name": "Rohini Sector 18, 19"}, "geometry": {"type": "Point", "coordinates": [77.1398526, 28.7383795]}}, {"type": "Feature", "properties": {"name": "Sector 54 Chowk"}, "geometry": {"type": "Point", "coordinates": [77.1048971, 28.4329768]}}, {"type": "Feature", "properties": {"name": "Sector 53-54"}, "geometry": {"type": "Point", "coordinates": [77.1004632, 28.4463829]}}, {"type": "Feature", "properties": {"name": "Sector 42-43"}, "geometry": {"type": "Point", "coordinates": [77.0969529, 28.4574254]}}, {"type": "Feature", "properties": {"name": "Jamia Millia Islamia"}, "geometry": {"type": "Point", "coordinates": [77.2863387, 28.5630488]}}, {"type": "Feature", "properties": {"name": "Chirag Delhi"}, "geometry": {"type": "Point", "coordinates": [77.2303164, 28.5411108]}}, {"type": "Feature", "properties": {"name": "DLF Phase 1"}, "geometry": {"type": "Point", "coordinates": [77.0939606, 28.4714258]}}, {"type": "Feature", "properties": {"name": "Sector 55\u201356"}, "geometry": {"type": "Point", "coordinates": [77.1051327, 28.4233556]}}, {"type": "Feature", "properties": {"name": "IP Extension"}, "geometry": {"type": "Point", "coordinates": [77.310718, 28.6319032]}}, {"type": "Feature", "properties": {"name": "Karkarduma Court"}, "geometry": {"type": "Point", "coordinates": [77.2957877, 28.6536001]}}, {"type": "Feature", "properties": {"name": "East Vinod Nagar - Mayur Vihar - II"}, "geometry": {"type": "Point", "coordinates": [77.3054069, 28.6200437]}}, {"type": "Feature", "properties": {"name": "Mandawali - West Vinod Nagar"}, "geometry": {"type": "Point", "coordinates": [77.3044525, 28.624979]}}, {"type": "Feature", "properties": {"name": "Deepali Chowk"}, "geometry": {"type": "Point", "coordinates": [77.1182795, 28.6981]}}, {"type": "Feature", "properties": {"name": "Haiderpur Village"}, "geometry": {"type": "Point", "coordinates": [77.142467, 28.7248993]}}, {"type": "Feature", "properties": {"name": "Madhuban Chowk"}, "geometry": {"type": "Point", "coordinates": [77.1300725, 28.7035674]}}, {"type": "Feature", "properties": {"name": "North Pitampura - Prashant Vihar"}, "geometry": {"type": "Point", "coordinates": [77.1387306, 28.7130743]}}, {"type": "Feature", "properties": {"name": "Bhalaswa"}, "geometry": {"type": "Point", "coordinates": [77.168087, 28.7369574]}}, {"type": "Feature", "properties": {"name": "Burari"}, "geometry": {"type": "Point", "coordinates": [77.1995697, 28.7298286]}}, {"type": "Feature", "properties": {"name": "Jagatpur - Wazirabad"}, "geometry": {"type": "Point", "coordinates": [77.223995, 28.7211162]}}, {"type": "Feature", "properties": {"name": "Khajuri Khas"}, "geometry": {"type": "Point", "coordinates": [77.2544989, 28.7052606]}}, {"type": "Feature", "properties": {"name": "Yamuna Vihar"}, "geometry": {"type": "Point", "coordinates": [77.2773106, 28.7023762]}}, {"type": "Feature", "properties": {"name": "Bhajanpura"}, "geometry": {"type": "Point", "coordinates": [77.2626474, 28.7035987]}}, {"type": "Feature", "properties": {"name": "Soorghat"}, "geometry": {"type": "Point", "coordinates": [77.2274526, 28.7102223]}}, {"type": "Feature", "properties": {"name": "Haiderpur Badli Mor"}, "geometry": {"type": "Point", "coordinates": [77.1491044, 28.7299398]}}, {"type": "Feature", "properties": {"name": "Central Secretariat"}, "geometry": {"type": "Point", "coordinates": [77.2122822, 28.6158794]}}, {"type": "Feature", "properties": {"name": "Dwarka Sector 11"}, "geometry": {"type": "Point", "coordinates": [77.0494433, 28.586443]}}, {"type": "Feature", "properties": {"name": "Rajendra Place"}, "geometry": {"type": "Point", "coordinates": [77.1782756, 28.6424955]}}, {"type": "Feature", "properties": {"name": "Nehru Enclave"}, "geometry": {"type": "Point", "coordinates": [77.2515057, 28.5460584]}}, {"type": "Feature", "properties": {"name": "Shiv Vihar"}, "geometry": {"type": "Point", "coordinates": [77.2894599, 28.721381]}}, {"type": "Feature", "properties": {"name": "Johri Enclave"}, "geometry": {"type": "Point", "coordinates": [77.2901293, 28.7128806]}}, {"type": "Feature", "properties": {"name": "Gokulpuri"}, "geometry": {"type": "Point", "coordinates": [77.2861253, 28.7024752]}}, {"type": "Feature", "properties": {"name": "Maujpur-Babarpur"}, "geometry": {"type": "Point", "coordinates": [77.2796973, 28.6920781]}}, {"type": "Feature", "properties": {"name": "Jaffrabad"}, "geometry": {"type": "Point", "coordinates": [77.2748055, 28.6826822]}}, {"type": "Feature", "properties": {"name": "Welcome (Pink Line)"}, "geometry": {"type": "Point", "coordinates": [77.2770239, 28.6724018]}}, {"type": "Feature", "properties": {"name": "East Azad Nagar"}, "geometry": {"type": "Point", "coordinates": [77.2848431, 28.6646764]}}, {"type": "Feature", "properties": {"name": "Krishna Nagar"}, "geometry": {"type": "Point", "coordinates": [77.2901199, 28.6578127]}}, {"type": "Feature", "properties": {"name": "Saket"}, "geometry": {"type": "Point", "coordinates": [77.2022237, 28.521168]}}, {"type": "Feature", "properties": {"name": "Majlis Park"}, "geometry": {"type": "Point", "coordinates": [77.1818406, 28.724403]}}, {"type": "Feature", "properties": {"name": "Vinobapuri"}, "geometry": {"type": "Point", "coordinates": [77.2492973, 28.565871]}}, {"type": "Feature", "properties": {"name": "Mayur Vihar - I (Pink Line)"}, "geometry": {"type": "Point", "coordinates": [77.2909319, 28.6036425]}}, {"type": "Feature", "properties": {"name": "Shree Ram Mandir Mayur Vihar"}, "geometry": {"type": "Point", "coordinates": [77.2987023, 28.6058619]}}, {"type": "Feature", "properties": {"name": "Sarai Kale Khan - Nizamuddin"}, "geometry": {"type": "Point", "coordinates": [77.2572494, 28.5887494]}}, {"type": "Feature", "properties": {"name": "Ashram"}, "geometry": {"type": "Point", "coordinates": [77.2585979, 28.5724231]}}, {"type": "Feature", "properties": {"name": "Shaheed Nagar"}, "geometry": {"type": "Point", "coordinates": [77.3339154, 28.6766619]}}, {"type": "Feature", "properties": {"name": "Raj Bagh"}, "geometry": {"type": "Point", "coordinates": [77.3468279, 28.6770876]}}, {"type": "Feature", "properties": {"name": "Sir M. Vishweshwaraiah Moti Bagh"}, "geometry": {"type": "Point", "coordinates": [77.175741, 28.5785326]}}, {"type": "Feature", "properties": {"name": "Bhikaji Cama Place"}, "geometry": {"type": "Point", "coordinates": [77.1878709, 28.5702618]}}, {"type": "Feature", "properties": {"name": "Dilli Haat - INA (Pink Line)"}, "geometry": {"type": "Point", "coordinates": [77.2075857, 28.5736524]}}, {"type": "Feature", "properties": {"name": "Lajpat Nagar (Pink Line)"}, "geometry": {"type": "Point", "coordinates": [77.2385055, 28.56958]}}, {"type": "Feature", "properties": {"name": "South Extension"}, "geometry": {"type": "Point", "coordinates": [77.2205677, 28.5685664]}}, {"type": "Feature", "properties": {"name": "Mayapuri"}, "geometry": {"type": "Point", "coordinates": [77.1297333, 28.6371795]}}, {"type": "Feature", "properties": {"name": "Rajouri Garden (Pink Line)"}, "geometry": {"type": "Point", "coordinates": [77.1242597, 28.6511896]}}, {"type": "Feature", "properties": {"name": "Rajouri Garden (Blue Line)"}, "geometry": {"type": "Point", "coordinates": [77.1227198, 28.6490563]}}, {"type": "Feature", "properties": {"name": "Netaji Subhash Place (Pink Line)"}, "geometry": {"type": "Point", "coordinates": [77.1542607, 28.6947146]}}, {"type": "Feature", "properties": {"name": "Azadpur (Pink Line)"}, "geometry": {"type": "Point", "coordinates": [77.1819488, 28.7057821]}}, {"type": "Feature", "properties": {"name": "Azadpur (Yellow Line)"}, "geometry": {"type": "Point", "coordinates": [77.1803722, 28.7070448]}}, {"type": "Feature", "properties": {"name": "Dilli Haat - INA (Yellow Line)"}, "geometry": {"type": "Point", "coordinates": [77.2093017, 28.5741769]}}, {"type": "Feature", "properties": {"name": "Lajpat Nagar (Violet Line)"}, "geometry": {"type": "Point", "coordinates": [77.2364011, 28.5705968]}}, {"type": "Feature", "properties": {"name": "Anand Vihar (Pink Line)"}, "geometry": {"type": "Point", "coordinates": [77.3155317, 28.6466157]}}, {"type": "Feature", "properties": {"name": "Karkarduma (Blue Line)"}, "geometry": {"type": "Point", "coordinates": [77.3055178, 28.6483176]}}, {"type": "Feature", "properties": {"name": "Delhi Cantt"}, "geometry": {"type": "Point", "coordinates": [77.1404187, 28.6086201]}}, {"type": "Feature", "properties": {"name": "Shalimar Bagh"}, "geometry": {"type": "Point", "coordinates": [77.1654317, 28.7019574]}}, {"type": "Feature", "properties": {"name": "Shakurpur"}, "geometry": {"type": "Point", "coordinates": [77.1496094, 28.6857668]}}, {"type": "Feature", "properties": {"name": "Sarojini Nagar"}, "geometry": {"type": "Point", "coordinates": [77.1980786, 28.575817]}}, {"type": "Feature", "properties": {"name": "Punjabi Bagh West"}, "geometry": {"type": "Point", "coordinates": [77.1391976, 28.6727671]}}, {"type": "Feature", "properties": {"name": "Naraina Vihar"}, "geometry": {"type": "Point", "coordinates": [77.1364438, 28.6243852]}}, {"type": "Feature", "properties": {"name": "ESI - Basaidarapur"}, "geometry": {"type": "Point", "coordinates": [77.1272678, 28.6580737]}}, {"type": "Feature", "properties": {"name": "Inderlok (Green Line)"}, "geometry": {"type": "Point", "coordinates": [77.1691872, 28.6727066]}}, {"type": "Feature", "properties": {"name": "Ashok Park Main"}, "geometry": {"type": "Point", "coordinates": [77.155291, 28.6716045]}}, {"type": "Feature", "properties": {"name": "Punjabi Bagh"}, "geometry": {"type": "Point", "coordinates": [77.1461239, 28.672995]}}, {"type": "Feature", "properties": {"name": "Shivaji Park"}, "geometry": {"type": "Point", "coordinates": [77.1304722, 28.6750317]}}, {"type": "Feature", "properties": {"name": "Madipur"}, "geometry": {"type": "Point", "coordinates": [77.1193599, 28.6764752]}}, {"type": "Feature", "properties": {"name": "Paschim Vihar East"}, "geometry": {"type": "Point", "coordinates": [77.1122823, 28.6773563]}}, {"type": "Feature", "properties": {"name": "Peera Garhi"}, "geometry": {"type": "Point", "coordinates": [77.0926793, 28.6798074]}}, {"type": "Feature", "properties": {"name": "Udyog Nagar"}, "geometry": {"type": "Point", "coordinates": [77.0808492, 28.681103]}}, {"type": "Feature", "properties": {"name": "Surajmal Stadium"}, "geometry": {"type": "Point", "coordinates": [77.074, 28.6818775]}}, {"type": "Feature", "properties": {"name": "Nangloi"}, "geometry": {"type": "Point", "coordinates": [77.0647319, 28.6824007]}}, {"type": "Feature", "properties": {"name": "Nangloi Railway Station"}, "geometry": {"type": "Point", "coordinates": [77.0562463, 28.6822009]}}, {"type": "Feature", "properties": {"name": "Rajdhani Park"}, "geometry": {"type": "Point", "coordinates": [77.0439437, 28.6823085]}}, {"type": "Feature", "properties": {"name": "Mundka"}, "geometry": {"type": "Point", "coordinates": [77.0305741, 28.6824341]}}, {"type": "Feature", "properties": {"name": "Mundka Industrial Area"}, "geometry": {"type": "Point", "coordinates": [77.0171485, 28.6833701]}}, {"type": "Feature", "properties": {"name": "Ghevra"}, "geometry": {"type": "Point", "coordinates": [76.9961591, 28.6852384]}}, {"type": "Feature", "properties": {"name": "Tikri Kalan"}, "geometry": {"type": "Point", "coordinates": [76.9772082, 28.6868849]}}, {"type": "Feature", "properties": {"name": "Tikri Border"}, "geometry": {"type": "Point", "coordinates": [76.9640828, 28.6880254]}}, {"type": "Feature", "properties": {"name": "Pandit Shree Ram Sharma"}, "geometry": {"type": "Point", "coordinates": [76.9511988, 28.689281]}}, {"type": "Feature", "properties": {"name": "Bahadurgarh City"}, "geometry": {"type": "Point", "coordinates": [76.9354807, 28.6907783]}}, {"type": "Feature", "properties": {"name": "Brigadier Hoshiyar Singh"}, "geometry": {"type": "Point", "coordinates": [76.9192027, 28.6974603]}}, {"type": "Feature", "properties": {"name": "IIT Delhi"}, "geometry": {"type": "Point", "coordinates": [77.1945546, 28.5470121]}}, {"type": "Feature", "properties": {"name": "Indraprastha"}, "geometry": {"type": "Point", "coordinates": [77.249551, 28.6206019]}}, {"type": "Feature", "properties": {"name": "Yamuna Bank"}, "geometry": {"type": "Point", "coordinates": [77.268013, 28.6233124]}}, {"type": "Feature", "properties": {"name": "New Ashok Nagar"}, "geometry": {"type": "Point", "coordinates": [77.3015085, 28.5890885]}}, {"type": "Feature", "properties": {"name": "Noida Golf Course"}, "geometry": {"type": "Point", "coordinates": [77.3463247, 28.5673755]}}, {"type": "Feature", "properties": {"name": "Botanical Garden (Blue Line)"}, "geometry": {"type": "Point", "coordinates": [77.3343995, 28.5639434]}}, {"type": "Feature", "properties": {"name": "Noida Sector 18"}, "geometry": {"type": "Point", "coordinates": [77.3260756, 28.5707583]}}, {"type": "Feature", "properties": {"name": "Noida Sector 16"}, "geometry": {"type": "Point", "coordinates": [77.3177778, 28.578081]}}, {"type": "Feature", "properties": {"name": "Noida Sector 15"}, "geometry": {"type": "Point", "coordinates": [77.3116118, 28.5848835]}}, {"type": "Feature", "properties": {"name": "Mayur Vihar - I (Blue Line)"}, "geometry": {"type": "Point", "coordinates": [77.2895398, 28.604064]}}, {"type": "Feature", "properties": {"name": "Dwarka Sector 12"}, "geometry": {"type": "Point", "coordinates": [77.0407315, 28.5922362]}}, {"type": "Feature", "properties": {"name": "Jhandewalan"}, "geometry": {"type": "Point", "coordinates": [77.1999165, 28.6443188]}}, {"type": "Feature", "properties": {"name": "Ramakrishna Ashram Marg"}, "geometry": {"type": "Point", "coordinates": [77.2085787, 28.6392436]}}, {"type": "Feature", "properties": {"name": "Rajiv Chowk"}, "geometry": {"type": "Point", "coordinates": [77.2193123, 28.6327062]}}, {"type": "Feature", "properties": {"name": "Barakhambha Road"}, "geometry": {"type": "Point", "coordinates": [77.2250046, 28.6297676]}}, {"type": "Feature", "properties": {"name": "Mandi House"}, "geometry": {"type": "Point", "coordinates": [77.2341966, 28.6256122]}}, {"type": "Feature", "properties": {"name": "Supreme Court"}, "geometry": {"type": "Point", "coordinates": [77.2425278, 28.6234752]}}, {"type": "Feature", "properties": {"name": "Dwarka Sector 10"}, "geometry": {"type": "Point", "coordinates": [77.0574996, 28.5810577]}}, {"type": "Feature", "properties": {"name": "Dwarka Sector 9"}, "geometry": {"type": "Point", "coordinates": [77.0653316, 28.574272]}}, {"type": "Feature", "properties": {"name": "Dwarka Sector 8"}, "geometry": {"type": "Point", "coordinates": [77.0670366, 28.5656109]}}, {"type": "Feature", "properties": {"name": "Dwarka Sector 21"}, "geometry": {"type": "Point", "coordinates": [77.0585605, 28.5519218]}}, {"type": "Feature", "properties": {"name": "Janakpuri West"}, "geometry": {"type": "Point", "coordinates": [77.078085, 28.6295839]}}, {"type": "Feature", "properties": {"name": "Uttam Nagar East"}, "geometry": {"type": "Point", "coordinates": [77.0652861, 28.6248465]}}, {"type": "Feature", "properties": {"name": "Uttam Nagar West"}, "geometry": {"type": "Point", "coordinates": [77.0557122, 28.621757]}}, {"type": "Feature", "properties": {"name": "Nawada"}, "geometry": {"type": "Point", "coordinates": [77.0450787, 28.6202758]}}, {"type": "Feature", "properties": {"name": "Dwarka Mor"}, "geometry": {"type": "Point", "coordinates": [77.0332792, 28.61931]}}, {"type": "Feature", "properties": {"name": "Dwarka (Grey Line)"}, "geometry": {"type": "Point", "coordinates": [77.0224342, 28.6158874]}}, {"type": "Feature", "properties": {"name": "Dwarka (Blue Line)"}, "geometry": {"type": "Point", "coordinates": [77.0227628, 28.6149362]}}, {"type": "Feature", "properties": {"name": "Dwarka Sector 14"}, "geometry": {"type": "Point", "coordinates": [77.0259765, 28.6022218]}}, {"type": "Feature", "properties": {"name": "Dwarka Sector 13"}, "geometry": {"type": "Point", "coordinates": [77.0335407, 28.597009]}}, {"type": "Feature", "properties": {"name": "Adarsh Nagar"}, "geometry": {"type": "Point", "coordinates": [77.1704223, 28.7165805]}}, {"type": "Feature", "properties": {"name": "Jahangirpuri"}, "geometry": {"type": "Point", "coordinates": [77.162658, 28.7259717]}}, {"type": "Feature", "properties": {"name": "Janakpuri East"}, "geometry": {"type": "Point", "coordinates": [77.086757, 28.633021]}}, {"type": "Feature", "properties": {"name": "Tilak Nagar"}, "geometry": {"type": "Point", "coordinates": [77.0964961, 28.6365482]}}, {"type": "Feature", "properties": {"name": "Subhash Nagar"}, "geometry": {"type": "Point", "coordinates": [77.1051815, 28.6404593]}}, {"type": "Feature", "properties": {"name": "Tagore Garden"}, "geometry": {"type": "Point", "coordinates": [77.11282, 28.6437265]}}, {"type": "Feature", "properties": {"name": "Guru Dronacharya"}, "geometry": {"type": "Point", "coordinates": [77.1022685, 28.4820212]}}, {"type": "Feature", "properties": {"name": "Model Town"}, "geometry": {"type": "Point", "coordinates": [77.1939912, 28.7027136]}}, {"type": "Feature", "properties": {"name": "M G Road"}, "geometry": {"type": "Point", "coordinates": [77.0798926, 28.4795543]}}, {"type": "Feature", "properties": {"name": "IFFCO Chowk"}, "geometry": {"type": "Point", "coordinates": [77.0724222, 28.4723277]}}, {"type": "Feature", "properties": {"name": "A.I.I.M.S."}, "geometry": {"type": "Point", "coordinates": [77.2078058, 28.5668602]}}, {"type": "Feature", "properties": {"name": "Green Park"}, "geometry": {"type": "Point", "coordinates": [77.2067933, 28.5580071]}}, {"type": "Feature", "properties": {"name": "Civil Lines"}, "geometry": {"type": "Point", "coordinates": [77.2250299, 28.6768508]}}, {"type": "Feature", "properties": {"name": "Vidhan Sabha"}, "geometry": {"type": "Point", "coordinates": [77.2217271, 28.6863222]}}, {"type": "Feature", "properties": {"name": "Vishwa Vidyalaya"}, "geometry": {"type": "Point", "coordinates": [77.2147459, 28.6950772]}}, {"type": "Feature", "properties": {"name": "Millennium City Centre Gurugram"}, "geometry": {"type": "Point", "coordinates": [77.0726571, 28.4593429]}}, {"type": "Feature", "properties": {"name": "Malviya Nagar"}, "geometry": {"type": "Point", "coordinates": [77.2048241, 28.5290656]}}, {"type": "Feature", "properties": {"name": "Chhatarpur"}, "geometry": {"type": "Point", "coordinates": [77.1750019, 28.5067242]}}, {"type": "Feature", "properties": {"name": "Sultanpur"}, "geometry": {"type": "Point", "coordinates": [77.1613745, 28.4991235]}}, {"type": "Feature", "properties": {"name": "Chandni Chowk"}, "geometry": {"type": "Point", "coordinates": [77.2303375, 28.6584227]}}, {"type": "Feature", "properties": {"name": "Chawri Bazaar"}, "geometry": {"type": "Point", "coordinates": [77.2265153, 28.6492649]}}, {"type": "Feature", "properties": {"name": "Patel Chowk"}, "geometry": {"type": "Point", "coordinates": [77.214031, 28.6229664]}}, {"type": "Feature", "properties": {"name": "Seva Teerth"}, "geometry": {"type": "Point", "coordinates": [77.211796, 28.6095136]}}, {"type": "Feature", "properties": {"name": "Lok Kalyan Marg"}, "geometry": {"type": "Point", "coordinates": [77.2110967, 28.5973513]}}, {"type": "Feature", "properties": {"name": "Jor Bagh"}, "geometry": {"type": "Point", "coordinates": [77.2125273, 28.5865094]}}, {"type": "Feature", "properties": {"name": "Qutab Minar"}, "geometry": {"type": "Point", "coordinates": [77.1864532, 28.512951]}}, {"type": "Feature", "properties": {"name": "Ghitorni"}, "geometry": {"type": "Point", "coordinates": [77.1491866, 28.493751]}}, {"type": "Feature", "properties": {"name": "Arjan Garh"}, "geometry": {"type": "Point", "coordinates": [77.1257622, 28.4807352]}}, {"type": "Feature", "properties": {"name": "Nangli"}, "geometry": {"type": "Point", "coordinates": [77.0104375, 28.6173003]}}, {"type": "Feature", "properties": {"name": "Nehru Place"}, "geometry": {"type": "Point", "coordinates": [77.2517386, 28.5514171]}}, {"type": "Feature", "properties": {"name": "Kailash Colony"}, "geometry": {"type": "Point", "coordinates": [77.2419637, 28.5553298]}}, {"type": "Feature", "properties": {"name": "Lal Quila"}, "geometry": {"type": "Point", "coordinates": [77.2366607, 28.657483]}}, {"type": "Feature", "properties": {"name": "Khan Market"}, "geometry": {"type": "Point", "coordinates": [77.2291281, 28.6022446]}}, {"type": "Feature", "properties": {"name": "Delhi Gate"}, "geometry": {"type": "Point", "coordinates": [77.2407795, 28.6392174]}}, {"type": "Feature", "properties": {"name": "Rajiv Chowk"}, "geometry": {"type": "Point", "coordinates": [77.2196985, 28.6327786]}}, {"type": "Feature", "properties": {"name": "Paschim Vihar West"}, "geometry": {"type": "Point", "coordinates": [77.1022154, 28.6786018]}}, {"type": "Feature", "properties": {"name": "Najafgarh"}, "geometry": {"type": "Point", "coordinates": [76.9865067, 28.6124504]}}, {"type": "Feature", "properties": {"name": "Laxmi Nagar"}, "geometry": {"type": "Point", "coordinates": [77.277523, 28.6305974]}}, {"type": "Feature", "properties": {"name": "Preet Vihar"}, "geometry": {"type": "Point", "coordinates": [77.2952819, 28.6414176]}}, {"type": "Feature", "properties": {"name": "Badhkal Mor"}, "geometry": {"type": "Point", "coordinates": [77.3103481, 28.4227134]}}, {"type": "Feature", "properties": {"name": "Moolchand"}, "geometry": {"type": "Point", "coordinates": [77.2342555, 28.5644044]}}, {"type": "Feature", "properties": {"name": "Jangpura"}, "geometry": {"type": "Point", "coordinates": [77.2393151, 28.5830386]}}, {"type": "Feature", "properties": {"name": "Jawaharlal Nehru Stadium"}, "geometry": {"type": "Point", "coordinates": [77.2337833, 28.5882347]}}, {"type": "Feature", "properties": {"name": "Janpath"}, "geometry": {"type": "Point", "coordinates": [77.2192587, 28.6240485]}}, {"type": "Feature", "properties": {"name": "ITO"}, "geometry": {"type": "Point", "coordinates": [77.2410437, 28.6281909]}}, {"type": "Feature", "properties": {"name": "Govind Puri"}, "geometry": {"type": "Point", "coordinates": [77.2642761, 28.5445521]}}, {"type": "Feature", "properties": {"name": "Harkesh Nagar Okhla"}, "geometry": {"type": "Point", "coordinates": [77.2750407, 28.5429338]}}, {"type": "Feature", "properties": {"name": "Mandi House"}, "geometry": {"type": "Point", "coordinates": [77.2341926, 28.6255149]}}, {"type": "Feature", "properties": {"name": "Dabri Mor - Janakpuri South"}, "geometry": {"type": "Point", "coordinates": [77.0851893, 28.61572]}}, {"type": "Feature", "properties": {"name": "Nirman Vihar"}, "geometry": {"type": "Point", "coordinates": [77.2868145, 28.6364592]}}, {"type": "Feature", "properties": {"name": "Vaishali"}, "geometry": {"type": "Point", "coordinates": [77.339575, 28.6496701]}}, {"type": "Feature", "properties": {"name": "Kaushambi"}, "geometry": {"type": "Point", "coordinates": [77.3243429, 28.6452857]}}, {"type": "Feature", "properties": {"name": "Mansarovar Park"}, "geometry": {"type": "Point", "coordinates": [77.3008678, 28.675385]}}, {"type": "Feature", "properties": {"name": "Kashmere Gate"}, "geometry": {"type": "Point", "coordinates": [77.228051, 28.6686728]}}, {"type": "Feature", "properties": {"name": "Yashobhoomi Dwarka Sector 25"}, "geometry": {"type": "Point", "coordinates": [77.0453073, 28.5508323]}}, {"type": "Feature", "properties": {"name": "Krishna Park Extension"}, "geometry": {"type": "Point", "coordinates": [77.0843425, 28.6477917]}}, {"type": "Feature", "properties": {"name": "Cyber City"}, "geometry": {"type": "Point", "coordinates": [77.0892567, 28.4980703]}}, {"type": "Feature", "properties": {"name": "Noida Sector 44"}, "geometry": {"type": "Point", "coordinates": [77.3352465, 28.5512763]}}, {"type": "Feature", "properties": {"name": "Noida Office"}, "geometry": {"type": "Point", "coordinates": [77.3377141, 28.5453808]}}, {"type": "Feature", "properties": {"name": "Nanaksar - Sonia Vihar"}, "geometry": {"type": "Point", "coordinates": [77.2425095, 28.7087185]}}, {"type": "Feature", "properties": {"name": "Jharoda Majra"}, "geometry": {"type": "Point", "coordinates": [77.2137118, 28.7249649]}}, {"type": "Feature", "properties": {"name": "Shalimar Bagh Metro Station"}, "geometry": {"type": "Point", "coordinates": [77.1649348, 28.7022144]}}, {"type": "Feature", "properties": {"name": "Mohan Estate"}, "geometry": {"type": "Point", "coordinates": [77.2946029, 28.5195804]}}]}