{"type": "FeatureCollection", "crs": {"type": "name", "properties": {"name": "urn:ogc:def:crs:OGC:1.3:CRS84"}}, "features": [{"type": "Feature", "properties": {"OBJECTID": 3205, "ST_CODE": "21", "ST_NAME": "ORISSA", "DT_CODE": "17", "DIST_NAME": "KHORDHA  *", "AC_NO": 115.0, "AC_NAME": "JATANI", "PC_NO": 18.0, "PC_NAME": "BHUBANESWAR", "PC_ID": 2118.0, "STATUS": null, "Shape_Leng": 1.71831, "Shape_Area": 0.050188, "representative": "Biswaranjan Badajena", "party": "BJP", "ac_name": "JATANI", "office": "MLA"}, "geometry": {"type": "Polygon", "coordinates": [[[85.82832170298428, 20.404978997382898], [85.82626214668079, 20.395038577668288], [85.81493029859445, 20.38844746078172], [85.81756111415416, 20.36867029339936], [85.81521273068302, 20.36891193134062], [85.80166433883824, 20.36613025270907], [85.7964774215958, 20.370703280132318], [85.78600396920785, 20.36185348265218], [85.79936065616943, 20.34381568684455], [85.79755542094597, 20.340786343015395], [85.79906597081794, 20.320388268403917], [85.78463134566016, 20.31120738011657], [85.77752106814285, 20.313654394934417], [85.76573503454426, 20.308504173628762], [85.75630012824837, 20.280717726841658], [85.7614022376232, 20.279078774465916], [85.75391923518464, 20.26750961957333], [85.77585053247617, 20.26225496719303], [85.77288379315257, 20.24725974604047], [85.78748435761707, 20.23236138457031], [85.79405395102907, 20.2402284236029], [85.81008849708655, 20.232470043357864], [85.81444393264144, 20.228153921666205], [85.8070455411189, 20.216286949982816], [85.81099501640693, 20.215155063255622], [85.8077157186056, 20.206354450597473], [85.81457278120894, 20.20395740391109], [85.81505505164938, 20.18936528677864], [85.82188149683367, 20.186276732485283], [85.8163046236595, 20.17894691696671], [85.80703605956654, 20.17717907015799], [85.80243549490223, 20.16555150339923], [85.80496658733819, 20.159993891904662], [85.79694066777768, 20.151051362630312], [85.77892577500455, 20.158104076342113], [85.78475068569566, 20.164159807029534], [85.78115037399061, 20.16690855248777], [85.76223353584908, 20.168604001173776], [85.76379704050106, 20.152796971902774], [85.75546568599265, 20.15223108969309], [85.7534873276781, 20.146562645749555], [85.75870702610842, 20.14530366862948], [85.75726736259878, 20.141732009324812], [85.74883292420014, 20.139728201994956], [85.74960337069905, 20.145817818237788], [85.74529779086043, 20.148423600268984], [85.72909026290534, 20.149779017987328], [85.72180221370127, 20.142119930090757], [85.7257342088667, 20.134771523786867], [85.72076324312923, 20.129169460602157], [85.71439866007017, 20.136743791892513], [85.72066529256927, 20.141589693409685], [85.7160871830771, 20.14595536145083], [85.70682456530153, 20.145486986435344], [85.70465587267046, 20.14007213242303], [85.70265561676337, 20.151017897957672], [85.6942709693298, 20.152547555725164], [85.69390067887326, 20.156831294628603], [85.68980598735646, 20.15103282760299], [85.68566761936518, 20.15277989107915], [85.68044306999172, 20.135249929840427], [85.6830068168112, 20.1281617810414], [85.675783525989, 20.124202301694936], [85.67556640086877, 20.111853404910732], [85.68619005712549, 20.10418378955029], [85.68528107725996, 20.09772293586485], [85.69370705753471, 20.095261817878622], [85.67218913182302, 20.08833077524514], [85.6749991525889, 20.077932820942976], [85.68104827775585, 20.07656536579907], [85.67636953052948, 20.06941731315851], [85.65030947989862, 20.066268417953154], [85.64933226936881, 20.098048378030285], [85.64918828611059, 20.098299002896738], [85.6510130285285, 20.11017391289579], [85.64006626114912, 20.11572952969408], [85.62726588131545, 20.138392590945386], [85.64458288759027, 20.153745557011916], [85.66018375447675, 20.156310629432028], [85.66102225177553, 20.165370215363225], [85.65060080268495, 20.167599077135776], [85.65508600141789, 20.18897742536791], [85.63909012710775, 20.191864911036873], [85.6301102516868, 20.203727299775096], [85.62077351448619, 20.20388745194441], [85.60492913097465, 20.20338136745619], [85.5998573665243, 20.179300654501674], [85.5901759812366, 20.17718224926142], [85.58650617711845, 20.17119369073629], [85.567459006528, 20.174200792532588], [85.55574911762773, 20.170387364885016], [85.54941047371443, 20.176342649393803], [85.55362175154266, 20.19353963484633], [85.53267285746648, 20.200355292662664], [85.53876657641644, 20.205893611900706], [85.5400881724313, 20.226718629761024], [85.55181340196697, 20.23039186569207], [85.5528131450107, 20.235264727984884], [85.54160577658536, 20.238247210840143], [85.5257231512025, 20.25975721352461], [85.53547220597756, 20.268356981489546], [85.53710564730784, 20.282678939581444], [85.5457781875134, 20.29074971822496], [85.5421855497234, 20.299304639697425], [85.54749660218653, 20.301722467018294], [85.55059933878852, 20.313142926205103], [85.56447140113431, 20.29961465669112], [85.58029629184045, 20.302146704207075], [85.62325340671941, 20.292560355675903], [85.63338658532274, 20.301336873697835], [85.62860135476876, 20.30368794254457], [85.62978081113556, 20.31314193605158], [85.64251479042531, 20.32558634263563], [85.64961928080521, 20.323974789005376], [85.66439367792594, 20.33172447460487], [85.67713598763578, 20.324562087670245], [85.67885892230146, 20.33696164956052], [85.69635148073633, 20.355373021947457], [85.70540143582764, 20.38798021891205], [85.71542767784513, 20.40380590282018], [85.73288561058251, 20.410513797573742], [85.73952128977578, 20.405812374841275], [85.75903380106911, 20.407071474269173], [85.76551149545918, 20.413691587097105], [85.77192471295518, 20.40376893888549], [85.77289213796183, 20.407860412627997], [85.78623165866418, 20.41260009162096], [85.78608291169706, 20.418588079076642], [85.78156776823795, 20.41772055076285], [85.77906064902976, 20.422357514587702], [85.78516166058222, 20.43452580861924], [85.79363809642109, 20.427763212602258], [85.80048107923847, 20.435883482736585], [85.80607692630917, 20.435449053531045], [85.80878265719394, 20.428576029759995], [85.81669768764823, 20.42499276380505], [85.81860887110258, 20.412570693682596], [85.82832170298428, 20.404978997382898]]]}}, {"type": "Feature", "properties": {"OBJECTID": 3206, "ST_CODE": "21", "ST_NAME": "ORISSA", "DT_CODE": "17", "DIST_NAME": "KHORDHA  *", "AC_NO": 113.0, "AC_NAME": "BHUBANESWAR(UTTAR)", "PC_NO": 18.0, "PC_NAME": "BHUBANESWAR", "PC_ID": 2118.0, "STATUS": null, "Shape_Leng": 0.354662, "Shape_Area": 0.004122, "representative": "Priyadarshi Mishra", "party": "BJP", "ac_name": "BHUBANESWAR(UTTAR)", "office": "MLA"}, "geometry": {"type": "Polygon", "coordinates": [[[85.87111254400878, 20.40197494069099], [85.86736789381331, 20.393735400668277], [85.85974703070099, 20.389795853895578], [85.85892447208676, 20.381043827111], [85.86774824498559, 20.37531442621986], [85.87189157903322, 20.351666520993206], [85.87639341072736, 20.34737077524113], [85.87935272704675, 20.351618941461027], [85.8975846280282, 20.3364483444156], [85.89264280302302, 20.332848941025873], [85.89612778476953, 20.321685968532677], [85.88047099354156, 20.3026145908907], [85.86264777057823, 20.31380708542872], [85.85152448966352, 20.330461462226765], [85.84483340953426, 20.331133947373814], [85.84504847071042, 20.34420547550235], [85.83220765735757, 20.351859837461575], [85.83365085070625, 20.357938937931692], [85.82853243302543, 20.364924450702915], [85.81756111415416, 20.36867029339936], [85.81493029859445, 20.38844746078172], [85.82626214668079, 20.395038577668288], [85.82832170298428, 20.404978997382898], [85.83652561996144, 20.405213524384692], [85.83998914388394, 20.409945287545042], [85.85181469189456, 20.401919485795702], [85.86399519062559, 20.40203269335416], [85.86561493258313, 20.413604068672896], [85.87230208537301, 20.413576948717264], [85.87111254400878, 20.40197494069099]]]}}, {"type": "Feature", "properties": {"OBJECTID": 3216, "ST_CODE": "21", "ST_NAME": "ORISSA", "DT_CODE": "17", "DIST_NAME": "KHORDHA  *", "AC_NO": 112.0, "AC_NAME": "BHUBANESWAR(MADHYA)", "PC_NO": 18.0, "PC_NAME": "BHUBANESWAR", "PC_ID": 2118.0, "STATUS": null, "Shape_Leng": 0.453048, "Shape_Area": 0.007694, "representative": "Jagannath Pradhan", "party": "BJP", "ac_name": "BHUBANESWAR(MADHYA)", "office": "MLA"}, "geometry": {"type": "Polygon", "coordinates": [[[85.80897791439929, 20.32418931058828], [85.8608686732507, 20.277834196391098], [85.87897985463667, 20.2771681746716], [85.87092429252215, 20.269464794264877], [85.87052804133612, 20.2571989912405], [85.85813817413748, 20.240187051191526], [85.8505115931356, 20.24128635907823], [85.84004387932163, 20.228955049436024], [85.84340985917771, 20.22271741827427], [85.8403262574509, 20.214365253453707], [85.83497902795983, 20.213975140140633], [85.83321667421018, 20.223802602308297], [85.8283653650696, 20.225083515691722], [85.82049387888947, 20.21407997501086], [85.81099501640693, 20.215155063255622], [85.8070455411189, 20.216286949982816], [85.81444393264144, 20.228153921666205], [85.81008849708655, 20.232470043357864], [85.79405395102907, 20.2402284236029], [85.78748435761707, 20.23236138457031], [85.77288379315257, 20.24725974604047], [85.77585053247617, 20.26225496719303], [85.75391923518464, 20.26750961957333], [85.7614022376232, 20.279078774465916], [85.75630012824837, 20.280717726841658], [85.76573503454426, 20.308504173628762], [85.77752106814285, 20.313654394934417], [85.78463134566016, 20.31120738011657], [85.79906597081794, 20.320388268403917], [85.79755542094597, 20.340786343015395], [85.80897791439929, 20.32418931058828]]]}}, {"type": "Feature", "properties": {"OBJECTID": 3218, "ST_CODE": "21", "ST_NAME": "ORISSA", "DT_CODE": "17", "DIST_NAME": "KHORDHA  *", "AC_NO": 114.0, "AC_NAME": "EKAMRA-BHUBANESHWAR", "PC_NO": 18.0, "PC_NAME": "BHUBANESWAR", "PC_ID": 2118.0, "STATUS": null, "Shape_Leng": 0.718806, "Shape_Area": 0.006843, "representative": "Babu Singh", "party": "BJP", "ac_name": "EKAMRA-BHUBANESHWAR", "office": "MLA"}, "geometry": {"type": "Polygon", "coordinates": [[[85.81521273068302, 20.36891193134062], [85.81756111415416, 20.36867029339936], [85.82853243302543, 20.364924450702915], [85.83365085070625, 20.357938937931692], [85.83220765735757, 20.351859837461575], [85.84504847071042, 20.34420547550235], [85.84483340953426, 20.331133947373814], [85.85152448966352, 20.330461462226765], [85.86264777057823, 20.31380708542872], [85.88047099354156, 20.3026145908907], [85.88611121136336, 20.26515369618619], [85.8824656331825, 20.250033116734983], [85.86548616945123, 20.226246421834958], [85.8604867320771, 20.20028118582809], [85.8470339273739, 20.202013720756668], [85.84156015337845, 20.197228091803026], [85.85371567523828, 20.1920029884472], [85.85414815111636, 20.17626265020118], [85.84436557680999, 20.17508741705069], [85.8422642200178, 20.18813954140677], [85.83634426627492, 20.190564342070786], [85.82548457665195, 20.159262287124875], [85.80496658733819, 20.159993891904662], [85.80243549490223, 20.16555150339923], [85.80703605956654, 20.17717907015799], [85.8163046236595, 20.17894691696671], [85.82188149683367, 20.186276732485283], [85.81505505164938, 20.18936528677864], [85.81457278120894, 20.20395740391109], [85.8077157186056, 20.206354450597473], [85.81099501640693, 20.215155063255622], [85.82049387888947, 20.21407997501086], [85.8283653650696, 20.225083515691722], [85.83321667421018, 20.223802602308297], [85.83497902795983, 20.213975140140633], [85.8403262574509, 20.214365253453707], [85.84340985917771, 20.22271741827427], [85.84004387932163, 20.228955049436024], [85.8505115931356, 20.24128635907823], [85.85813817413748, 20.240187051191526], [85.87052804133612, 20.2571989912405], [85.87092429252215, 20.269464794264877], [85.87897985463667, 20.2771681746716], [85.8608686732507, 20.277834196391098], [85.80897791439929, 20.32418931058828], [85.79755542094597, 20.340786343015395], [85.79936065616943, 20.34381568684455], [85.78600396920785, 20.36185348265218], [85.7964774215958, 20.370703280132318], [85.80166433883824, 20.36613025270907], [85.81521273068302, 20.36891193134062]]]}}, {"type": "Feature", "properties": {"OBJECTID": 3221, "ST_CODE": "21", "ST_NAME": "ORISSA", "DT_CODE": "17", "DIST_NAME": "KHORDHA  *", "AC_NO": 116.0, "AC_NAME": "BEGUNIA", "PC_NO": 18.0, "PC_NAME": "BHUBANESWAR", "PC_ID": 2118.0, "STATUS": null, "Shape_Leng": 1.659875, "Shape_Area": 0.04943, "representative": "Prakash Chandra Ranabijuli", "party": "BJP", "ac_name": "BEGUNIA", "office": "MLA"}, "geometry": {"type": "Polygon", "coordinates": [[[85.54749660218653, 20.301722467018294], [85.5421855497234, 20.299304639697425], [85.5457781875134, 20.29074971822496], [85.53710564730784, 20.282678939581444], [85.53547220597756, 20.268356981489546], [85.5257231512025, 20.25975721352461], [85.54160577658536, 20.238247210840143], [85.5528131450107, 20.235264727984884], [85.55181340196697, 20.23039186569207], [85.5400881724313, 20.226718629761024], [85.53876657641644, 20.205893611900706], [85.53267285746648, 20.200355292662664], [85.55362175154266, 20.19353963484633], [85.54941047371443, 20.176342649393803], [85.55574911762773, 20.170387364885016], [85.5650856596755, 20.147517487442144], [85.54722019015969, 20.151733908493156], [85.53052256496449, 20.17293229249134], [85.51785250139187, 20.162316018769275], [85.52724876741672, 20.149644379584515], [85.52859835393093, 20.140053398645478], [85.51817122652096, 20.129369576844567], [85.5377474026206, 20.103452852966825], [85.53554291427412, 20.0913686770229], [85.51617303096066, 20.083058857680214], [85.50720131149137, 20.08372983556353], [85.48815465441385, 20.07315983196071], [85.468442671692, 20.078287872387477], [85.46566642226765, 20.06341921282649], [85.48091552922835, 20.03998195220538], [85.46297993777398, 20.036274024926342], [85.4435733612217, 20.04306482008542], [85.43382471833615, 20.038226316391444], [85.43101593054081, 20.029082555715434], [85.41549633718626, 20.024737662912855], [85.41512644063278, 20.03306732939376], [85.40627739408654, 20.031762057872697], [85.39714509706863, 20.03774048013912], [85.39578080394102, 20.04689268185183], [85.38770036028347, 20.053833790597025], [85.38022280683714, 20.07056133713604], [85.38437433730587, 20.091663660949223], [85.40061405649357, 20.090413918967215], [85.40810627608386, 20.116673727010948], [85.41642229265472, 20.124671019352093], [85.40729937196852, 20.135712977272135], [85.38832079446917, 20.135711962836865], [85.38709720297362, 20.14309415756935], [85.39102744715899, 20.145842527110972], [85.38544252775051, 20.15620865350661], [85.37647131370022, 20.146757675426443], [85.35514373219752, 20.14362196877886], [85.3613621745248, 20.16432027576019], [85.36969849059295, 20.170713336751135], [85.37002768922656, 20.178323756036548], [85.36130149546767, 20.187537246546754], [85.34664600940584, 20.18730344799576], [85.33992506279145, 20.17087588561367], [85.3317766034076, 20.1731854705331], [85.33112187717296, 20.181645439785257], [85.32743674500983, 20.179830090786083], [85.31339133833967, 20.170333053028003], [85.31204802729468, 20.155006824705254], [85.29022569096293, 20.154975916805142], [85.28779402577374, 20.15044610270553], [85.27088206515526, 20.148542222645517], [85.25586598872445, 20.13209575471535], [85.24859924625827, 20.130307313431842], [85.2479423031948, 20.12333639126149], [85.24688758909105, 20.118908279693414], [85.24052766901679, 20.11545287125307], [85.22491839346912, 20.12832377502224], [85.21303221946141, 20.13111782742584], [85.21361163466923, 20.141501633593577], [85.2038945939604, 20.153773478263474], [85.20453306404971, 20.15875458565563], [85.21209532284092, 20.16064692021922], [85.21409471539886, 20.170455697172713], [85.20300765737755, 20.17546258722865], [85.19909273134454, 20.189309687991738], [85.21053899118158, 20.198520623527997], [85.21352227353418, 20.21204404030027], [85.22528053786658, 20.22475759148972], [85.23261671249134, 20.2122788047231], [85.24170415222488, 20.20866810674778], [85.25487946211751, 20.213909811588564], [85.25464624902526, 20.22656492752941], [85.29907940139333, 20.227626222871947], [85.31345774787684, 20.2338650699171], [85.31413907425895, 20.229932786968618], [85.31679069203688, 20.232641649292702], [85.32267784300808, 20.229641817615857], [85.3259194816988, 20.24482803318722], [85.33719032787138, 20.245339720451796], [85.3409411402215, 20.251919045427655], [85.3252552936969, 20.254594539306595], [85.32824046552514, 20.275554760343937], [85.33290132163876, 20.2811969386878], [85.33490580525876, 20.2730151783079], [85.3476415103475, 20.27306927162965], [85.3691524762059, 20.276669471818707], [85.38073559756981, 20.286466681692048], [85.39354550661989, 20.278113701186385], [85.39656963258255, 20.260407625711423], [85.40614048849278, 20.256969972586205], [85.41976837051396, 20.27309915250396], [85.4289469412484, 20.273800177636133], [85.44499541240839, 20.264795944077605], [85.45249844544696, 20.26740893957094], [85.45932682147571, 20.29537996501341], [85.48229200637104, 20.29803953189895], [85.5099746426157, 20.29105762450979], [85.52124685755649, 20.29327173470284], [85.52497014705472, 20.305671130218514], [85.54749660218653, 20.301722467018294]]]}}, {"type": "Feature", "properties": {"OBJECTID": 3225, "ST_CODE": "21", "ST_NAME": "ORISSA", "DT_CODE": "17", "DIST_NAME": "KHORDHA  *", "AC_NO": 117.0, "AC_NAME": "KHURDA", "PC_NO": 18.0, "PC_NAME": "BHUBANESWAR", "PC_ID": 2118.0, "STATUS": null, "Shape_Leng": 2.187253, "Shape_Area": 0.046968, "representative": "Prasanta Kumar Jagadev", "party": "BJP", "ac_name": "KHURDA", "office": "MLA"}, "geometry": {"type": "Polygon", "coordinates": [[[85.62077351448619, 20.20388745194441], [85.6301102516868, 20.203727299775096], [85.63909012710775, 20.191864911036873], [85.65508600141789, 20.18897742536791], [85.65060080268495, 20.167599077135776], [85.66102225177553, 20.165370215363225], [85.66018375447675, 20.156310629432028], [85.64458288759027, 20.153745557011916], [85.62726588131545, 20.138392590945386], [85.64006626114912, 20.11572952969408], [85.6510130285285, 20.11017391289579], [85.64918828611059, 20.098299002896738], [85.63284535263097, 20.10171493919313], [85.63735033015365, 20.091607328315604], [85.6443719408125, 20.08786847784802], [85.64367964539935, 20.082667605825407], [85.63748329491818, 20.082321240033252], [85.63747803478356, 20.075187765403086], [85.61964473761464, 20.066203455425182], [85.61322131281338, 20.038561278780037], [85.62065557919169, 20.036303100907446], [85.6195852402667, 20.031912620571006], [85.628543413248, 20.024553586978527], [85.6134691740632, 19.992871075639698], [85.6062610008446, 19.996658672060107], [85.61469052984415, 20.019586549479698], [85.60681691766666, 20.01888204576983], [85.58841856296635, 19.99831895095889], [85.58613790474055, 20.006981198423603], [85.58028962696477, 20.010125765191958], [85.58254416438172, 20.021437130319384], [85.57160584433433, 20.0252334150901], [85.56674921300583, 20.009161012071104], [85.57239651928398, 20.00721580276712], [85.57023811489717, 19.998178685497976], [85.56628495059005, 20.003721559802216], [85.56200948994604, 19.995506102724505], [85.5687439686593, 19.98135170002098], [85.56672811940723, 19.978065136596854], [85.56006478246383, 19.981244424390695], [85.55511480600353, 19.97540198951026], [85.56654683766646, 19.97211462748811], [85.56455661459614, 19.95525055756724], [85.55046297908325, 19.95264762908488], [85.55246485826666, 19.962637442264224], [85.54757466873605, 19.95699342031014], [85.53211846499522, 19.958725759186507], [85.53501929210671, 19.965177062071803], [85.5287466494384, 19.971360940754835], [85.53206349483446, 19.97662927272279], [85.52668583318473, 19.97853894621545], [85.51475882815743, 19.970314867337322], [85.51082994194832, 19.952219336852977], [85.50603935683091, 19.95295265394185], [85.50359518566933, 19.946243119724272], [85.49946145638114, 19.946347162291772], [85.50609112720383, 19.944580275059707], [85.50550509298569, 19.947983887046803], [85.51893295139467, 19.94126805667554], [85.50626195972171, 19.93251548400241], [85.50765380717752, 19.927325685332164], [85.52073013049119, 19.93092637295382], [85.52732785469681, 19.94377335385724], [85.53425175491464, 19.93900830588865], [85.5311162164403, 19.92771479500186], [85.56806752019997, 19.916927038552046], [85.56044225760417, 19.90818588277233], [85.56990257964037, 19.904164126273486], [85.56603914339183, 19.900158015280226], [85.56764775983629, 19.88184409792683], [85.56254126716578, 19.863392589696332], [85.5617161256987, 19.854241073266962], [85.4999360259269, 19.869716714954507], [85.50300790678955, 19.88483891318532], [85.4394818631975, 19.882601347774028], [85.4327895159235, 19.888917840485988], [85.43124932169889, 19.90447881254721], [85.4258381432158, 19.910125586426716], [85.4078442010491, 19.91601805598856], [85.40643904362702, 19.90382800196079], [85.39711793934151, 19.908155511767518], [85.39799664712763, 19.90193306835647], [85.38118313709214, 19.909918717175117], [85.3858281786276, 19.897571611840476], [85.37015242789226, 19.906839983478505], [85.35696287273845, 19.893464657168238], [85.3775285162281, 19.88518082373605], [85.37554608938058, 19.858616735474016], [85.34677782753477, 19.86034378363877], [85.33703072608722, 19.86506986398308], [85.33066719703356, 19.861472484967237], [85.32503021137524, 19.866537796781927], [85.30457929709695, 19.84919592425257], [85.2989104925253, 19.852895941094857], [85.2976352394748, 19.861128747893474], [85.30402919169387, 19.883816824686733], [85.26670929180045, 19.913188873367858], [85.26968898495875, 19.91807687214998], [85.27840246769978, 19.915033529473874], [85.30422705153728, 19.927249260944677], [85.32814264716546, 19.92541046931774], [85.32826192514779, 19.930280856676234], [85.35021231324771, 19.943331561002765], [85.36008331789088, 19.956791231130467], [85.37247449090506, 19.95047865406667], [85.38232872589003, 19.951589362659035], [85.3833428418987, 19.940422682261044], [85.39353075054373, 19.94101486064733], [85.39986496619531, 19.93220425202469], [85.415787602416, 19.92844917868672], [85.41789663941842, 19.92436994201927], [85.42212249525699, 19.93903716153585], [85.43555440870904, 19.939988566918885], [85.45511333581186, 19.972794510458357], [85.43757333723977, 19.996550413470857], [85.41485211503311, 19.994510154819864], [85.41560981454137, 20.003574448701897], [85.4229967801773, 20.00340383741724], [85.43170204311485, 20.01494803702235], [85.43608575155622, 20.02821307137617], [85.43101593054081, 20.029082555715434], [85.43382471833615, 20.038226316391444], [85.4435733612217, 20.04306482008542], [85.46297993777398, 20.036274024926342], [85.48091552922835, 20.03998195220538], [85.46566642226765, 20.06341921282649], [85.468442671692, 20.078287872387477], [85.48815465441385, 20.07315983196071], [85.50720131149137, 20.08372983556353], [85.51617303096066, 20.083058857680214], [85.53554291427412, 20.0913686770229], [85.5377474026206, 20.103452852966825], [85.51817122652096, 20.129369576844567], [85.52859835393093, 20.140053398645478], [85.52724876741672, 20.149644379584515], [85.51785250139187, 20.162316018769275], [85.53052256496449, 20.17293229249134], [85.54722019015969, 20.151733908493156], [85.5650856596755, 20.147517487442144], [85.55574911762773, 20.170387364885016], [85.567459006528, 20.174200792532588], [85.58650617711845, 20.17119369073629], [85.5901759812366, 20.17718224926142], [85.5998573665243, 20.179300654501674], [85.60492913097465, 20.20338136745619], [85.62077351448619, 20.20388745194441]]]}}]}