{"type":"FeatureCollection","features":[{"type":"Feature","properties":{"route_id":"5482","route_short_name":"5482","route_long_name":"MayFair - HiTech","agency_id":"BHUBANESWARIUDX","mode":"bus","operator":"Capital Region Urban Transport / Ama Bus","source_feed_id":"bhubaneswar_crut_bus_iudx_sample_constructed_gtfs"},"geometry":{"type":"LineString","coordinates":[[85.81918,20.29973],[85.81884,20.29919],[85.81815,20.29769],[85.8179,20.29712],[85.81757,20.29719],[85.81711,20.2973],[85.81608,20.29752],[85.81496,20.29778],[85.81321,20.2981],[85.81262,20.2982],[85.81235,20.29823],[85.81202,20.29826],[85.81067,20.29843],[85.80946,20.2985],[85.80839,20.29853],[85.80782,20.29857],[85.80649,20.29876],[85.80532,20.29886],[85.80519,20.29884],[85.80505,20.29879],[85.80462,20.29857],[85.80447,20.29845],[85.80435,20.29832],[85.80428,20.29822],[85.80419,20.29798],[85.80416,20.29778],[85.8042,20.29727],[85.80427,20.29659],[85.8043,20.29568],[85.8043,20.29505],[85.80431,20.29405],[85.80435,20.29327],[85.80445,20.29277],[85.8046,20.29215],[85.80488,20.29082],[85.80509,20.29009],[85.8056,20.2887],[85.80587,20.28813],[85.80656,20.28683],[85.80751,20.28528],[85.80773,20.28511],[85.80805,20.28529],[85.80961,20.2862],[85.8102,20.28658],[85.81167,20.28747],[85.81231,20.28784],[85.81294,20.28822],[85.81428,20.2891],[85.81528,20.28973],[85.81786,20.29125],[85.81822,20.29139],[85.81831,20.2914],[85.81933,20.29204],[85.8202,20.29255],[85.82201,20.29363],[85.82412,20.29495],[85.82538,20.29572],[85.82584,20.29597],[85.82637,20.29622],[85.82702,20.29647],[85.82767,20.29669],[85.82849,20.29692],[85.82902,20.29716],[85.8298,20.29725],[85.83075,20.2973],[85.83135,20.29729],[85.83207,20.29725],[85.83331,20.29716],[85.83333,20.2968],[85.83174,20.29691],[85.83094,20.29695],[85.82997,20.29691],[85.82948,20.29686],[85.82904,20.29681],[85.82876,20.29686],[85.82814,20.29672],[85.82741,20.29649],[85.82644,20.29612],[85.82583,20.29583],[85.82517,20.29545],[85.82431,20.29492],[85.82189,20.29341],[85.82072,20.29267],[85.81905,20.29166],[85.81806,20.2911],[85.81569,20.28967],[85.81554,20.28959],[85.81211,20.28747],[85.80824,20.28515],[85.80682,20.28432],[85.80167,20.28121],[85.80098,20.28078],[85.79942,20.27986],[85.7991,20.27963],[85.79821,20.27896],[85.79751,20.27833],[85.79701,20.27783],[85.79633,20.27697],[85.79582,20.27623],[85.79555,20.27575],[85.79507,20.2749],[85.79509,20.27463],[85.79488,20.27413],[85.79411,20.27193],[85.79394,20.27146],[85.79385,20.2715],[85.79374,20.27155],[85.7936,20.27161],[85.79436,20.27381],[85.79465,20.27458],[85.79484,20.27497],[85.79499,20.27527],[85.79503,20.27534],[85.79506,20.27536],[85.79517,20.27539],[85.79523,20.2755],[85.79522,20.27554],[85.79525,20.27567],[85.79546,20.2761],[85.79577,20.27662],[85.79609,20.27709],[85.79669,20.27782],[85.79695,20.27811],[85.7973,20.27844],[85.79748,20.27862],[85.79836,20.27938],[85.79899,20.27984],[85.80103,20.28106],[85.80395,20.28284],[85.80647,20.28437],[85.80763,20.28505],[85.80773,20.28511],[85.80779,20.28504],[85.80798,20.28481],[85.80822,20.2845],[85.80822,20.28443],[85.80828,20.28437],[85.80878,20.2838],[85.80887,20.28368],[85.80897,20.28363],[85.80967,20.28279],[85.81019,20.28219],[85.81086,20.28151],[85.81176,20.28069],[85.81298,20.27959],[85.81374,20.27896],[85.81421,20.27852],[85.81506,20.27778],[85.8157,20.27722],[85.81643,20.27659],[85.81744,20.27572],[85.81754,20.27562],[85.81738,20.27552],[85.81733,20.27552],[85.8167,20.27516],[85.81506,20.27419],[85.81406,20.2736],[85.81341,20.27323],[85.8134,20.27325],[85.81341,20.27323],[85.81298,20.27297],[85.81168,20.27221],[85.81112,20.27189],[85.81136,20.27163],[85.81179,20.27118],[85.81308,20.26985],[85.81311,20.26986],[85.81314,20.26986],[85.8132,20.26984],[85.81322,20.26981],[85.81485,20.26967],[85.81543,20.26961],[85.81708,20.26927],[85.81815,20.26907],[85.81855,20.26905],[85.81926,20.26916],[85.81955,20.26923],[85.81991,20.26934],[85.82062,20.26958],[85.82098,20.26975],[85.82156,20.27001],[85.82176,20.27011],[85.82177,20.27017],[85.82186,20.27027],[85.82201,20.27035],[85.82215,20.27035],[85.82227,20.27031],[85.82232,20.27026],[85.82235,20.27019],[85.82237,20.27005],[85.82337,20.26978],[85.82505,20.26917],[85.826,20.26875],[85.82672,20.26839],[85.82731,20.26807],[85.82804,20.26764],[85.82906,20.26699],[85.82939,20.26684],[85.82988,20.26654],[85.82996,20.26648],[85.82983,20.2663],[85.82946,20.26656],[85.82847,20.26723],[85.82792,20.26651],[85.8289,20.26582],[85.82917,20.26565],[85.82961,20.26622],[85.8298,20.26645],[85.82988,20.26654],[85.82996,20.26648],[85.83028,20.26629],[85.83231,20.26491],[85.83427,20.26345],[85.83623,20.26201],[85.83675,20.26161],[85.83849,20.26035],[85.83915,20.2599],[85.84146,20.25828],[85.84153,20.25823],[85.84145,20.25814],[85.84116,20.25835],[85.83839,20.26032],[85.83831,20.26031],[85.83812,20.2604],[85.83785,20.26057],[85.83699,20.26122],[85.83673,20.26142],[85.83654,20.26122],[85.83605,20.26066],[85.83586,20.26079],[85.8363,20.26136],[85.83637,20.26148],[85.83642,20.26158],[85.83656,20.26175],[85.83666,20.26187],[85.83676,20.2619],[85.83691,20.26197],[85.83709,20.2621],[85.83755,20.2627],[85.83836,20.26387],[85.83913,20.26508],[85.83987,20.26639],[85.84032,20.26725],[85.84057,20.26779],[85.84073,20.2683],[85.84067,20.26841],[85.84067,20.26854],[85.8407,20.26861],[85.84075,20.26867],[85.84083,20.26872],[85.84094,20.26875],[85.84138,20.2697],[85.84208,20.27141],[85.84277,20.27387],[85.84304,20.27495],[85.8431,20.27492],[85.84304,20.27495],[85.84307,20.27511],[85.84343,20.27711],[85.84352,20.27795],[85.84367,20.27893],[85.84535,20.2788],[85.84945,20.27817],[85.85126,20.27791],[85.8515,20.27788],[85.85171,20.27789],[85.85196,20.27794],[85.85208,20.27794],[85.85216,20.27792],[85.85294,20.27747],[85.85309,20.27736],[85.85312,20.27727],[85.85313,20.27717],[85.85287,20.27666],[85.8516,20.27429],[85.85161,20.27428],[85.85162,20.27427],[85.85162,20.27423],[85.85158,20.27418],[85.85148,20.27387],[85.85103,20.27314],[85.84997,20.27114],[85.84844,20.26827],[85.84765,20.26681],[85.84764,20.26678],[85.84755,20.26682],[85.84765,20.26701],[85.84833,20.26826],[85.84842,20.26843],[85.8485,20.2684],[85.84858,20.26844],[85.84886,20.26865],[85.84903,20.26881],[85.84935,20.26909],[85.84963,20.26922],[85.84998,20.26931],[85.85045,20.26939],[85.85081,20.26939],[85.85119,20.26936],[85.85197,20.26923],[85.85228,20.26914],[85.85277,20.26903],[85.85352,20.26895],[85.85411,20.26901],[85.85435,20.26908],[85.85495,20.26939],[85.85563,20.26989],[85.85624,20.27034],[85.8566,20.27061],[85.85699,20.27095],[85.85725,20.2712],[85.85747,20.27154],[85.85756,20.27169],[85.85768,20.27199],[85.85774,20.2722],[85.85795,20.27359],[85.85798,20.274],[85.85805,20.27434],[85.8581,20.27448],[85.8586,20.27528],[85.85896,20.27582],[85.85927,20.27627],[85.8595,20.27656],[85.85965,20.27669],[85.86001,20.27715],[85.86015,20.27738],[85.86019,20.27748],[85.86063,20.27862],[85.86109,20.27977],[85.86141,20.28051],[85.86164,20.28093],[85.86177,20.28113],[85.86182,20.28125],[85.86182,20.28142],[85.86166,20.28255],[85.86141,20.28543],[85.8613,20.2865],[85.86121,20.28722],[85.86119,20.2876],[85.86124,20.28785],[85.86174,20.28972],[85.86185,20.29007],[85.86228,20.29173],[85.86254,20.29275],[85.8629,20.29402],[85.86307,20.29461],[85.86329,20.29435],[85.86339,20.29416],[85.86348,20.294],[85.86363,20.29385],[85.86396,20.29361],[85.86437,20.2934],[85.86466,20.29328],[85.86477,20.29362],[85.8661,20.29326],[85.8672,20.29298],[85.8685,20.29264],[85.86891,20.29244],[85.86903,20.29257],[85.86921,20.29275],[85.86944,20.29304],[85.87007,20.29389],[85.8706,20.29447],[85.87075,20.29461],[85.87114,20.2948],[85.87144,20.29492],[85.87183,20.29505],[85.87235,20.29498],[85.87245,20.295],[85.87256,20.29506],[85.87284,20.29525],[85.87308,20.29546],[85.87354,20.29597],[85.87526,20.2978],[85.87654,20.29923],[85.87643,20.29961],[85.87629,20.29991],[85.87624,20.3001],[85.87624,20.30021],[85.87633,20.30061],[85.87634,20.30091],[85.87621,20.30117]]}},{"type":"Feature","properties":{"route_id":"5494","route_short_name":"5494","route_long_name":"HiTech To MayFair","agency_id":"BHUBANESWARIUDX","mode":"bus","operator":"Capital Region Urban Transport / Ama Bus","source_feed_id":"bhubaneswar_crut_bus_iudx_sample_constructed_gtfs"},"geometry":{"type":"LineString","coordinates":[[85.87625,20.30119],[85.87637,20.30095],[85.87638,20.30077],[85.87638,20.30068],[85.87627,20.30029],[85.87626,20.30016],[85.87628,20.30001],[85.87644,20.29961],[85.87654,20.29923],[85.87638,20.29904],[85.87534,20.29788],[85.87471,20.29721],[85.87342,20.29583],[85.87301,20.29539],[85.87261,20.2951],[85.8725,20.29502],[85.8724,20.29499],[85.87183,20.29505],[85.87134,20.29489],[85.87075,20.29461],[85.87048,20.29435],[85.87012,20.29395],[85.86986,20.2936],[85.86938,20.29295],[85.86891,20.29245],[85.86862,20.29259],[85.86839,20.29266],[85.86702,20.29302],[85.86559,20.29341],[85.86477,20.29362],[85.8647,20.29343],[85.86466,20.29328],[85.86449,20.29334],[85.86397,20.2936],[85.86378,20.29374],[85.86355,20.29393],[85.86343,20.29408],[85.86329,20.29435],[85.86307,20.29461],[85.86305,20.29455],[85.86294,20.29415],[85.86271,20.2933],[85.86229,20.29177],[85.86203,20.29076],[85.86173,20.28969],[85.86134,20.28821],[85.86121,20.28776],[85.86119,20.28753],[85.86124,20.28702],[85.86136,20.28588],[85.86167,20.28246],[85.86182,20.28129],[85.86181,20.28122],[85.86174,20.28107],[85.86155,20.28078],[85.86131,20.28027],[85.86076,20.27896],[85.86016,20.27741],[85.86008,20.27725],[85.85995,20.27707],[85.8597,20.27674],[85.85958,20.27664],[85.8594,20.27644],[85.85909,20.27603],[85.85838,20.27494],[85.85808,20.27443],[85.85803,20.27428],[85.85798,20.27404],[85.85798,20.27391],[85.85785,20.27294],[85.85772,20.27211],[85.85762,20.27183],[85.85753,20.27164],[85.85738,20.27139],[85.85713,20.27108],[85.8566,20.27061],[85.85578,20.26999],[85.85511,20.26949],[85.85476,20.26929],[85.8543,20.26905],[85.85398,20.26899],[85.85373,20.26896],[85.85352,20.26895],[85.85336,20.26897],[85.85298,20.26902],[85.85255,20.26907],[85.85217,20.26919],[85.85144,20.26932],[85.85101,20.26938],[85.85064,20.2694],[85.8504,20.26938],[85.8498,20.26927],[85.84947,20.26916],[85.84921,20.26898],[85.849,20.26877],[85.84862,20.26847],[85.84855,20.26842],[85.8485,20.2684],[85.84844,20.26827],[85.84801,20.2675],[85.84765,20.26681],[85.84764,20.26678],[85.84755,20.26682],[85.84765,20.26701],[85.84871,20.26898],[85.84956,20.27056],[85.84998,20.27136],[85.85035,20.272],[85.85101,20.27324],[85.85139,20.2739],[85.85149,20.27422],[85.85149,20.27423],[85.85149,20.27424],[85.85149,20.27426],[85.8515,20.27428],[85.85156,20.2743],[85.85159,20.2743],[85.85311,20.27711],[85.85313,20.27721],[85.85311,20.2773],[85.85305,20.27739],[85.85271,20.2776],[85.8522,20.2779],[85.85212,20.27793],[85.85202,20.27794],[85.85181,20.27791],[85.85161,20.27788],[85.85139,20.27789],[85.85088,20.27796],[85.84992,20.2781],[85.84921,20.2782],[85.84863,20.27833],[85.84535,20.2788],[85.84386,20.27891],[85.84374,20.27804],[85.84364,20.27744],[85.84334,20.27571],[85.84321,20.27507],[85.84317,20.2749],[85.8431,20.27492],[85.84317,20.2749],[85.8431,20.27456],[85.84276,20.27334],[85.84244,20.27223],[85.84212,20.27112],[85.84119,20.26898],[85.84116,20.26866],[85.84118,20.26864],[85.84122,20.26858],[85.84124,20.26845],[85.84122,20.26837],[85.84118,20.26831],[85.8411,20.26824],[85.84098,20.26821],[85.84095,20.2682],[85.84087,20.26811],[85.84073,20.2679],[85.83982,20.26605],[85.83932,20.26519],[85.83922,20.26503],[85.83913,20.26508],[85.83987,20.26639],[85.84032,20.26725],[85.84057,20.26779],[85.84073,20.2683],[85.84067,20.26841],[85.84067,20.26854],[85.83992,20.26888],[85.83579,20.27066],[85.83438,20.27126],[85.83309,20.27176],[85.83269,20.2709],[85.83199,20.26959],[85.83152,20.26879],[85.83061,20.26747],[85.83025,20.26695],[85.83008,20.26666],[85.83015,20.26638],[85.83105,20.26577],[85.83231,20.26491],[85.83283,20.26451],[85.83463,20.2632],[85.83686,20.26154],[85.83881,20.26012],[85.84105,20.25856],[85.84153,20.25823],[85.84145,20.25814],[85.84138,20.2582],[85.84042,20.25887],[85.83816,20.26049],[85.8342,20.26332],[85.83371,20.26363],[85.83247,20.26445],[85.83092,20.26555],[85.82983,20.2663],[85.82974,20.26637],[85.8298,20.26645],[85.82884,20.26699],[85.82807,20.2675],[85.82748,20.26785],[85.82692,20.26817],[85.82599,20.26866],[85.82503,20.26907],[85.82387,20.26951],[85.82292,20.2698],[85.82231,20.26996],[85.82228,20.26993],[85.82222,20.2699],[85.8221,20.26988],[85.82195,20.2699],[85.8218,20.26997],[85.82176,20.27008],[85.82179,20.2702],[85.82189,20.2703],[85.82197,20.27034],[85.82205,20.27035],[85.82217,20.27034],[85.82229,20.27029],[85.82234,20.27022],[85.82236,20.27016],[85.82237,20.27009],[85.82235,20.27002],[85.82225,20.26991],[85.82213,20.26988],[85.82199,20.26989],[85.82182,20.26996],[85.8218,20.26997],[85.82165,20.26992],[85.82134,20.26983],[85.82049,20.26948],[85.82022,20.26938],[85.81952,20.26914],[85.81901,20.26905],[85.81856,20.26898],[85.81829,20.26898],[85.8179,20.26902],[85.81593,20.26944],[85.81514,20.26957],[85.81395,20.26969],[85.81321,20.26973],[85.81319,20.26971],[85.81317,20.26969],[85.81311,20.26968],[85.81305,20.26971],[85.81303,20.26977],[85.81305,20.26982],[85.81307,20.26985],[85.81297,20.26996],[85.81179,20.27118],[85.81136,20.27163],[85.81112,20.27189],[85.81168,20.27221],[85.81242,20.27264],[85.81341,20.27323],[85.8134,20.27325],[85.81341,20.27323],[85.81384,20.27347],[85.81463,20.27393],[85.8167,20.27516],[85.81733,20.27552],[85.81734,20.27556],[85.81739,20.27561],[85.81631,20.27657],[85.81609,20.27676],[85.81615,20.27682],[85.8165,20.27653],[85.81749,20.27567],[85.81754,20.27562],[85.81745,20.27556],[85.81631,20.27657],[85.81415,20.27847],[85.81178,20.28056],[85.81064,20.28158],[85.81017,20.28207],[85.8101,20.28214],[85.81019,20.28219],[85.81057,20.28181],[85.81086,20.28151],[85.81127,20.28114],[85.81257,20.27996],[85.81298,20.27959],[85.81374,20.27896],[85.81421,20.27852],[85.81506,20.27778],[85.8157,20.27722],[85.81716,20.27595],[85.81723,20.2759],[85.81739,20.27587],[85.81766,20.27586],[85.81783,20.27589],[85.81854,20.2763],[85.81864,20.27633],[85.81873,20.27633],[85.81893,20.27625],[85.82109,20.27531],[85.82431,20.27397],[85.82453,20.274],[85.82467,20.27404],[85.82477,20.2741],[85.82546,20.27564],[85.82562,20.27605],[85.82582,20.27662],[85.82606,20.27738],[85.82616,20.27774],[85.82637,20.27866],[85.82644,20.27906],[85.82658,20.27993],[85.82663,20.2805],[85.82669,20.28125],[85.82669,20.28136],[85.82677,20.28233],[85.82685,20.28347],[85.82686,20.28384],[85.82684,20.28412],[85.82666,20.28554],[85.82569,20.29227],[85.8256,20.29269],[85.82504,20.29455],[85.82485,20.29474],[85.82476,20.29483],[85.82459,20.29485],[85.82388,20.29446],[85.8233,20.29409],[85.82241,20.29357],[85.82184,20.29327],[85.82146,20.29308],[85.82142,20.29307],[85.82136,20.29308],[85.82072,20.29267],[85.81905,20.29166],[85.81806,20.2911],[85.81569,20.28967],[85.81211,20.28747],[85.8078,20.28489],[85.80682,20.28432],[85.80167,20.28121],[85.80098,20.28078],[85.79942,20.27986],[85.7991,20.27963],[85.79821,20.27896],[85.79751,20.27833],[85.79701,20.27783],[85.79633,20.27697],[85.79582,20.27623],[85.79555,20.27575],[85.79507,20.2749],[85.79509,20.27473],[85.79509,20.27463],[85.79505,20.27452],[85.79488,20.27413],[85.79411,20.27193],[85.79394,20.27146],[85.79385,20.2715],[85.79374,20.27155],[85.7936,20.27161],[85.79436,20.27381],[85.79465,20.27458],[85.79484,20.27497],[85.79499,20.27527],[85.79506,20.27536],[85.79517,20.27539],[85.79523,20.2755],[85.79522,20.27554],[85.79525,20.27567],[85.79546,20.2761],[85.79577,20.27662],[85.79609,20.27709],[85.79669,20.27782],[85.79695,20.27811],[85.7973,20.27844],[85.79748,20.27862],[85.79798,20.27905],[85.79836,20.27938],[85.79873,20.27967],[85.79899,20.27984],[85.79953,20.28017],[85.80103,20.28106],[85.80346,20.28255],[85.80647,20.28437],[85.80763,20.28505],[85.80754,20.2852],[85.80751,20.28528],[85.8071,20.28594],[85.80681,20.28642],[85.80633,20.28726],[85.80583,20.28821],[85.8056,20.2887],[85.80542,20.28918],[85.80509,20.29009],[85.80494,20.29061],[85.80479,20.29117],[85.80451,20.29254],[85.80437,20.29313],[85.80433,20.29339],[85.8043,20.29463],[85.8043,20.29568],[85.80426,20.29674],[85.8042,20.29733],[85.80417,20.29789],[85.80423,20.2981],[85.80431,20.29826],[85.80442,20.2984],[85.80454,20.29851],[85.80475,20.29863],[85.80497,20.29875],[85.80511,20.29882],[85.80525,20.29885],[85.80542,20.29885],[85.80585,20.29881],[85.80682,20.29873],[85.80796,20.29856],[85.80993,20.29848],[85.81106,20.29839],[85.81221,20.29824],[85.81277,20.29818],[85.81474,20.29783],[85.81703,20.29731],[85.8179,20.29712],[85.81835,20.2981],[85.81867,20.29885],[85.81887,20.29924],[85.81907,20.29957],[85.81918,20.29973]]}},{"type":"Feature","properties":{"route_id":"5713","route_short_name":"5713","route_long_name":"VSS Nagar To Master Canteen","agency_id":"BHUBANESWARIUDX","mode":"bus","operator":"Capital Region Urban Transport / Ama Bus","source_feed_id":"bhubaneswar_crut_bus_iudx_sample_constructed_gtfs"},"geometry":{"type":"LineString","coordinates":[[85.84804,20.30602],[85.84864,20.30417],[85.84872,20.30344],[85.84872,20.30329],[85.84882,20.30306],[85.8492,20.30221],[85.84945,20.30167],[85.8498,20.30084],[85.85019,20.3],[85.85088,20.29804],[85.8508,20.29812],[85.85088,20.29804],[85.85094,20.29783],[85.851,20.29755],[85.85142,20.29616],[85.85161,20.29553],[85.852,20.2955],[85.85236,20.29547],[85.85271,20.29546],[85.85277,20.29552],[85.85298,20.29554],[85.85522,20.29537],[85.85567,20.29534],[85.85689,20.2953],[85.85723,20.29533],[85.85726,20.29539],[85.85728,20.29542],[85.85742,20.29552],[85.85757,20.29556],[85.8577,20.29558],[85.85779,20.29555],[85.85789,20.29549],[85.85796,20.2954],[85.85798,20.29522],[85.85789,20.29511],[85.8578,20.29505],[85.85759,20.29499],[85.85744,20.29499],[85.85735,20.29502],[85.85733,20.29503],[85.85713,20.295],[85.85652,20.29498],[85.85531,20.29504],[85.85352,20.29515],[85.85291,20.29525],[85.85277,20.29531],[85.85235,20.29535],[85.85194,20.29539],[85.85143,20.29543],[85.84934,20.29559],[85.84428,20.29602],[85.84207,20.29621],[85.83993,20.29639],[85.83568,20.29671],[85.83335,20.29692],[85.83287,20.29696],[85.8321,20.29702],[85.83154,20.29706],[85.83088,20.29706],[85.8303,20.29704],[85.82988,20.29701],[85.82905,20.2969],[85.82842,20.29679],[85.82781,20.29662],[85.82704,20.29636],[85.82607,20.29595],[85.8255,20.29565],[85.82476,20.2952],[85.8221,20.29354],[85.82136,20.29308],[85.81903,20.29166],[85.81806,20.2911],[85.81805,20.29106],[85.81802,20.291],[85.81796,20.29093],[85.81786,20.29085],[85.81667,20.29012],[85.81569,20.28952],[85.81545,20.28984],[85.81786,20.29125],[85.81808,20.29134],[85.81822,20.29139],[85.81831,20.2914],[85.81933,20.29204],[85.8202,20.29256],[85.82222,20.29379],[85.82484,20.29542],[85.82561,20.29586],[85.82602,20.29607],[85.8267,20.29636],[85.82733,20.29659],[85.82814,20.29683],[85.82849,20.29692],[85.82882,20.29706],[85.82902,20.29716],[85.8298,20.29725],[85.83112,20.2973],[85.83137,20.29728],[85.83314,20.29716],[85.83349,20.29715],[85.83544,20.29696],[85.84077,20.29653],[85.8429,20.29637],[85.84641,20.29607],[85.84699,20.29605],[85.8471,20.29603],[85.84751,20.29589],[85.85018,20.29566],[85.85161,20.29553],[85.85236,20.29547],[85.85271,20.29546],[85.85277,20.29552],[85.85298,20.29554],[85.85567,20.29534],[85.85689,20.2953],[85.85723,20.29533],[85.85726,20.29539],[85.85732,20.29546],[85.85742,20.29552],[85.85757,20.29556],[85.8577,20.29558],[85.85779,20.29555],[85.85789,20.29549],[85.85793,20.29545],[85.85798,20.29535],[85.85798,20.29522],[85.85793,20.29515],[85.8578,20.29505],[85.85759,20.29499],[85.85744,20.29499],[85.85735,20.29502],[85.85733,20.29503],[85.85713,20.295],[85.85652,20.29498],[85.85531,20.29504],[85.85352,20.29515],[85.85291,20.29525],[85.85277,20.29531],[85.85235,20.29535],[85.85194,20.29539],[85.85021,20.29551],[85.84934,20.29559],[85.84908,20.29555],[85.84887,20.29553],[85.84863,20.29553],[85.8455,20.29579],[85.84451,20.29588],[85.8434,20.29599],[85.84245,20.29605],[85.84238,20.29602],[85.84225,20.29592],[85.84211,20.29566],[85.84212,20.29539],[85.8425,20.29257],[85.84286,20.29],[85.84318,20.28751],[85.84345,20.28551],[85.84331,20.28549],[85.84319,20.28656],[85.84304,20.28749],[85.84298,20.28796],[85.84276,20.28939],[85.84275,20.28949],[85.84293,20.28951],[85.84312,20.28797],[85.84345,20.28551],[85.84382,20.28288],[85.84366,20.28288],[85.84358,20.28345],[85.84337,20.28494],[85.84331,20.28549],[85.84345,20.28551],[85.84382,20.28288],[85.84398,20.2817],[85.844,20.28115],[85.84399,20.28066],[85.84385,20.27879],[85.84365,20.2775],[85.84349,20.27648],[85.84317,20.2749],[85.8431,20.27492],[85.84317,20.2749],[85.84286,20.2737],[85.84221,20.27138],[85.84201,20.27085],[85.84145,20.26958],[85.84119,20.26898],[85.84116,20.26866],[85.8412,20.26861],[85.84124,20.26848],[85.84122,20.26839],[85.84119,20.26832],[85.84112,20.26826],[85.84101,20.26821],[85.84095,20.2682],[85.8408,20.268],[85.84073,20.2679],[85.84134,20.26758],[85.84209,20.26719]]}},{"type":"Feature","properties":{"route_id":"5699","route_short_name":"5699","route_long_name":"sai mandir To Cuttack Via Rasulgarh","agency_id":"BHUBANESWARIUDX","mode":"bus","operator":"Capital Region Urban Transport / Ama Bus","source_feed_id":"bhubaneswar_crut_bus_iudx_sample_constructed_gtfs"},"geometry":{"type":"LineString","coordinates":[[85.8597,20.24265],[85.85937,20.2427],[85.85923,20.24269],[85.85903,20.24263],[85.85881,20.24254],[85.85837,20.2424],[85.85774,20.24227],[85.85758,20.24226],[85.85741,20.2423],[85.85689,20.24248],[85.85657,20.24259],[85.85636,20.2427],[85.85616,20.24286],[85.85584,20.24323],[85.85565,20.24356],[85.85553,20.24372],[85.85547,20.24377],[85.85493,20.2438],[85.85404,20.24383],[85.85379,20.24384],[85.85231,20.24389],[85.85156,20.24396],[85.85021,20.24414],[85.84828,20.24436],[85.84662,20.24458],[85.84573,20.24469],[85.84524,20.24476],[85.84457,20.24482],[85.84436,20.24484],[85.84394,20.24484],[85.84374,20.24483],[85.8437,20.24483],[85.84365,20.24487],[85.84302,20.24481],[85.84225,20.24473],[85.84115,20.24462],[85.84105,20.24462],[85.84105,20.24465],[85.8411,20.24606],[85.84111,20.24639],[85.84114,20.24773],[85.84113,20.24911],[85.84109,20.25105],[85.84108,20.25218],[85.84107,20.25319],[85.84104,20.25402],[85.841,20.25422],[85.84081,20.25464],[85.84058,20.25499],[85.84026,20.25557],[85.84022,20.25565],[85.84019,20.25574],[85.84013,20.25631],[85.84015,20.25647],[85.84022,20.25662],[85.84037,20.25689],[85.8408,20.25755],[85.8412,20.25801],[85.84138,20.2582],[85.84201,20.25886],[85.84252,20.25936],[85.84295,20.25983],[85.84326,20.26022],[85.84354,20.26069],[85.84404,20.26146],[85.84429,20.26189],[85.84462,20.26241],[85.84484,20.26284],[85.84493,20.263],[85.84506,20.26315],[85.84549,20.26361],[85.84593,20.26406],[85.84645,20.26468],[85.8466,20.26488],[85.84672,20.26507],[85.84702,20.26565],[85.8476,20.26692],[85.84801,20.26766],[85.84871,20.26898]]}},{"type":"Feature","properties":{"route_id":"5717","route_short_name":"5717","route_long_name":"122 To 1 Via 5","agency_id":"BHUBANESWARIUDX","mode":"bus","operator":"Capital Region Urban Transport / Ama Bus","source_feed_id":"bhubaneswar_crut_bus_iudx_sample_constructed_gtfs"},"geometry":{"type":"LineString","coordinates":[[85.84196,20.26692],[85.84171,20.26709],[85.8416,20.26715],[85.84163,20.26723],[85.84171,20.26739],[85.84201,20.26786],[85.84116,20.26829],[85.84114,20.26828],[85.8411,20.26824],[85.84098,20.26821],[85.84086,20.26822],[85.84075,20.26828],[85.84067,20.26838],[85.84065,20.26849],[85.84067,20.26858],[85.8407,20.26864],[85.84079,20.2687],[85.84091,20.26874],[85.84094,20.26875],[85.84134,20.2696],[85.84208,20.2714],[85.84241,20.27254],[85.84304,20.27495],[85.84335,20.27661],[85.84344,20.27722],[85.84351,20.27796],[85.84355,20.27819],[85.84367,20.27893],[85.84383,20.28063],[85.84379,20.28177],[85.84368,20.28278],[85.84343,20.2845],[85.84319,20.28656],[85.84293,20.28841],[85.84275,20.28949],[85.84265,20.29028],[85.84214,20.2941],[85.84196,20.29566],[85.84199,20.29619],[85.84204,20.29644],[85.84219,20.29644],[85.8429,20.29637],[85.84641,20.29607],[85.84699,20.29605],[85.8471,20.29603],[85.84751,20.29589],[85.85018,20.29566],[85.85236,20.29547],[85.85271,20.29546],[85.85277,20.29552],[85.85298,20.29554],[85.85567,20.29534],[85.85689,20.2953],[85.85723,20.29533],[85.85726,20.29539],[85.85732,20.29546],[85.85742,20.29552],[85.85757,20.29556],[85.8577,20.29558],[85.85779,20.29555],[85.85789,20.29549],[85.85793,20.29545],[85.85798,20.29535],[85.85798,20.29522],[85.85793,20.29515],[85.8578,20.29505],[85.85759,20.29499],[85.85744,20.29499],[85.85735,20.29502],[85.85733,20.29503],[85.85713,20.295],[85.85652,20.29498],[85.85601,20.29499],[85.85352,20.29515],[85.85291,20.29525],[85.85277,20.29531],[85.85235,20.29535],[85.85194,20.29539],[85.85143,20.29543],[85.84934,20.29559],[85.8459,20.29587],[85.84223,20.2962],[85.84087,20.29631],[85.8368,20.29663],[85.83427,20.29684],[85.83287,20.29696],[85.8321,20.29702],[85.83154,20.29706],[85.83088,20.29706],[85.8303,20.29704],[85.82988,20.29701],[85.82905,20.2969],[85.82842,20.29679],[85.82781,20.29662],[85.82703,20.29636],[85.82606,20.29596],[85.82549,20.29566],[85.82509,20.29542],[85.82467,20.29515],[85.82429,20.29493],[85.82229,20.2937],[85.82187,20.29343],[85.82077,20.29271],[85.81806,20.2911],[85.81553,20.28961],[85.81295,20.28799],[85.80834,20.28522],[85.80682,20.28431],[85.80169,20.28118],[85.801,20.28075],[85.79944,20.27982],[85.79911,20.2796],[85.79822,20.27894],[85.79751,20.27832],[85.79702,20.27782],[85.79633,20.27697],[85.79575,20.27607],[85.79543,20.27551],[85.795,20.27469],[85.79495,20.27424],[85.7948,20.27386],[85.79394,20.27146],[85.79384,20.2715],[85.79371,20.27156],[85.7936,20.27161],[85.79424,20.2735],[85.79465,20.27458],[85.7949,20.27507],[85.79504,20.27535],[85.79509,20.27537],[85.79517,20.27539],[85.79523,20.2755],[85.79618,20.27695],[85.7966,20.27751],[85.79685,20.27782],[85.79723,20.2782],[85.79794,20.27885],[85.79852,20.27932],[85.79902,20.27969],[85.79916,20.27977],[85.79969,20.28012],[85.80209,20.28159],[85.80438,20.28296],[85.80712,20.28463],[85.80784,20.28506],[85.80939,20.28598],[85.81221,20.28766],[85.81534,20.28962],[85.81562,20.2898],[85.81831,20.2914],[85.81948,20.29213],[85.8218,20.29353],[85.82411,20.29496],[85.82486,20.2954],[85.82538,20.29572],[85.82583,20.29598],[85.82637,20.29623],[85.82701,20.29647],[85.82766,20.2967],[85.82849,20.29692],[85.82902,20.29716],[85.8298,20.29725],[85.83075,20.2973],[85.83135,20.29729],[85.83206,20.29724],[85.83331,20.29716],[85.83333,20.2968],[85.83173,20.29692],[85.83092,20.29695],[85.82995,20.29693],[85.82946,20.29687],[85.82904,20.29681],[85.82876,20.29686],[85.82814,20.29672],[85.82741,20.29649],[85.82643,20.29612],[85.82582,20.29584],[85.82474,20.29521],[85.82338,20.29436],[85.82208,20.29356],[85.82134,20.29309],[85.82077,20.29271],[85.81903,20.29166],[85.81577,20.28975],[85.8154,20.28952],[85.8121,20.28747],[85.80824,20.28516],[85.80682,20.28431],[85.80169,20.28118],[85.801,20.28075],[85.79944,20.27982],[85.79911,20.2796],[85.79822,20.27894],[85.79751,20.27832],[85.79702,20.27782],[85.79633,20.27697],[85.79575,20.27607],[85.79543,20.27551],[85.795,20.27469],[85.79495,20.27424],[85.7948,20.27386],[85.79394,20.27146],[85.79365,20.27057],[85.7935,20.27013],[85.79504,20.2692],[85.7959,20.26868],[85.79811,20.26731],[85.79976,20.2663],[85.80013,20.26668],[85.80042,20.26695],[85.80087,20.2673],[85.80131,20.26762],[85.80235,20.26828],[85.80291,20.26863],[85.80412,20.26932],[85.80622,20.27045],[85.80666,20.27071],[85.8067,20.2707],[85.8068,20.27071],[85.80661,20.2709],[85.8061,20.27146],[85.80568,20.27202],[85.80554,20.2722],[85.80528,20.2726],[85.80462,20.27394],[85.804,20.27525],[85.80383,20.27555],[85.80365,20.27574],[85.80326,20.27594],[85.80217,20.27674],[85.80138,20.27738],[85.80005,20.27888],[85.79977,20.27917],[85.79934,20.27955],[85.79929,20.27959],[85.79897,20.27939],[85.79838,20.27895],[85.79803,20.27865],[85.79765,20.27831],[85.79714,20.2778],[85.79676,20.27735],[85.79634,20.27682],[85.79608,20.27644],[85.79544,20.27553],[85.79525,20.27518],[85.79492,20.27453],[85.79475,20.27409],[85.7941,20.27233],[85.7938,20.27145],[85.79243,20.26759],[85.7918,20.26578],[85.79109,20.26376],[85.79088,20.26304],[85.79033,20.26158],[85.79018,20.26126],[85.78973,20.26043],[85.78914,20.25938],[85.78909,20.25929],[85.78899,20.25934],[85.78985,20.26087],[85.79014,20.26144],[85.79029,20.26178],[85.79052,20.26236],[85.79116,20.26429],[85.79143,20.26503],[85.7915,20.26524],[85.79209,20.26688],[85.79303,20.26963],[85.79359,20.27119]]}}]}