{"type":"FeatureCollection","features":[{"type":"Feature","properties":{"stop_id":"528","stop_name":"Rotary Bhawan","stop_code":"","mode":"bus","operator":"Capital Region Urban Transport / Ama Bus","source_feed_id":"bhubaneswar_crut_bus_iudx_sample_constructed_gtfs"},"geometry":{"type":"Point","coordinates":[85.83503,20.28395]}},{"type":"Feature","properties":{"stop_id":"522","stop_name":"SAIL Office","stop_code":"","mode":"bus","operator":"Capital Region Urban Transport / Ama Bus","source_feed_id":"bhubaneswar_crut_bus_iudx_sample_constructed_gtfs"},"geometry":{"type":"Point","coordinates":[85.82666,20.28001]}},{"type":"Feature","properties":{"stop_id":"517","stop_name":"Chili Pokhari","stop_code":"","mode":"bus","operator":"Capital Region Urban Transport / Ama Bus","source_feed_id":"bhubaneswar_crut_bus_iudx_sample_constructed_gtfs"},"geometry":{"type":"Point","coordinates":[85.8459,20.24471]}},{"type":"Feature","properties":{"stop_id":"476","stop_name":"Raghunath Nagar","stop_code":"","mode":"bus","operator":"Capital Region Urban Transport / Ama Bus","source_feed_id":"bhubaneswar_crut_bus_iudx_sample_constructed_gtfs"},"geometry":{"type":"Point","coordinates":[85.78962,20.23772]}},{"type":"Feature","properties":{"stop_id":"152","stop_name":"Maharshi College Square","stop_code":"","mode":"bus","operator":"Capital Region Urban Transport / Ama Bus","source_feed_id":"bhubaneswar_crut_bus_iudx_sample_constructed_gtfs"},"geometry":{"type":"Point","coordinates":[85.84329,20.28643]}},{"type":"Feature","properties":{"stop_id":"149","stop_name":"VSS Nagar Road","stop_code":"","mode":"bus","operator":"Capital Region Urban Transport / Ama Bus","source_feed_id":"bhubaneswar_crut_bus_iudx_sample_constructed_gtfs"},"geometry":{"type":"Point","coordinates":[85.85142,20.29597]}},{"type":"Feature","properties":{"stop_id":"148","stop_name":"PNT Colony","stop_code":"","mode":"bus","operator":"Capital Region Urban Transport / Ama Bus","source_feed_id":"bhubaneswar_crut_bus_iudx_sample_constructed_gtfs"},"geometry":{"type":"Point","coordinates":[85.84857,20.30329]}},{"type":"Feature","properties":{"stop_id":"147","stop_name":"VSS Nagar (GL Colony)","stop_code":"","mode":"bus","operator":"Capital Region Urban Transport / Ama Bus","source_feed_id":"bhubaneswar_crut_bus_iudx_sample_constructed_gtfs"},"geometry":{"type":"Point","coordinates":[85.84537,20.30236]}},{"type":"Feature","properties":{"stop_id":"478","stop_name":"Mancheswar High School","stop_code":"","mode":"bus","operator":"Capital Region Urban Transport / Ama Bus","source_feed_id":"bhubaneswar_crut_bus_iudx_sample_constructed_gtfs"},"geometry":{"type":"Point","coordinates":[85.85717,20.31019]}},{"type":"Feature","properties":{"stop_id":"518","stop_name":"Rasulgarh Market","stop_code":"","mode":"bus","operator":"Capital Region Urban Transport / Ama Bus","source_feed_id":"bhubaneswar_crut_bus_iudx_sample_constructed_gtfs"},"geometry":{"type":"Point","coordinates":[85.85732,20.29168]}},{"type":"Feature","properties":{"stop_id":"509","stop_name":"OUAT College","stop_code":"","mode":"bus","operator":"Capital Region Urban Transport / Ama Bus","source_feed_id":"bhubaneswar_crut_bus_iudx_sample_constructed_gtfs"},"geometry":{"type":"Point","coordinates":[85.81173,20.26633]}},{"type":"Feature","properties":{"stop_id":"508","stop_name":"UNIT 6","stop_code":"","mode":"bus","operator":"Capital Region Urban Transport / Ama Bus","source_feed_id":"bhubaneswar_crut_bus_iudx_sample_constructed_gtfs"},"geometry":{"type":"Point","coordinates":[85.82007,20.26241]}},{"type":"Feature","properties":{"stop_id":"465","stop_name":"Rental Colony","stop_code":"","mode":"bus","operator":"Capital Region Urban Transport / Ama Bus","source_feed_id":"bhubaneswar_crut_bus_iudx_sample_constructed_gtfs"},"geometry":{"type":"Point","coordinates":[85.79524,20.28673]}},{"type":"Feature","properties":{"stop_id":"146","stop_name":"VSS Nagar Market","stop_code":"","mode":"bus","operator":"Capital Region Urban Transport / Ama Bus","source_feed_id":"bhubaneswar_crut_bus_iudx_sample_constructed_gtfs"},"geometry":{"type":"Point","coordinates":[85.84652,20.31062]}},{"type":"Feature","properties":{"stop_id":"106","stop_name":"Badagada Brit Colony","stop_code":"","mode":"bus","operator":"Capital Region Urban Transport / Ama Bus","source_feed_id":"bhubaneswar_crut_bus_iudx_sample_constructed_gtfs"},"geometry":{"type":"Point","coordinates":[85.8534,20.24783]}},{"type":"Feature","properties":{"stop_id":"63","stop_name":"Forest Park","stop_code":"","mode":"bus","operator":"Capital Region Urban Transport / Ama Bus","source_feed_id":"bhubaneswar_crut_bus_iudx_sample_constructed_gtfs"},"geometry":{"type":"Point","coordinates":[85.82966,20.25454]}},{"type":"Feature","properties":{"stop_id":"161","stop_name":"DAV School (Pokhariput)","stop_code":"","mode":"bus","operator":"Capital Region Urban Transport / Ama Bus","source_feed_id":"bhubaneswar_crut_bus_iudx_sample_constructed_gtfs"},"geometry":{"type":"Point","coordinates":[85.81292,20.23515]}},{"type":"Feature","properties":{"stop_id":"314","stop_name":"Sundarapada Square","stop_code":"","mode":"bus","operator":"Capital Region Urban Transport / Ama Bus","source_feed_id":"bhubaneswar_crut_bus_iudx_sample_constructed_gtfs"},"geometry":{"type":"Point","coordinates":[85.8154,20.2311]}},{"type":"Feature","properties":{"stop_id":"559","stop_name":"Aiginia1","stop_code":"","mode":"bus","operator":"Capital Region Urban Transport / Ama Bus","source_feed_id":"bhubaneswar_crut_bus_iudx_sample_constructed_gtfs"},"geometry":{"type":"Point","coordinates":[85.78339,20.24934]}},{"type":"Feature","properties":{"stop_id":"225","stop_name":"Durga Mandap","stop_code":"","mode":"bus","operator":"Capital Region Urban Transport / Ama Bus","source_feed_id":"bhubaneswar_crut_bus_iudx_sample_constructed_gtfs"},"geometry":{"type":"Point","coordinates":[85.85345,20.31206]}},{"type":"Feature","properties":{"stop_id":"438","stop_name":"Nayapalli","stop_code":"","mode":"bus","operator":"Capital Region Urban Transport / Ama Bus","source_feed_id":"bhubaneswar_crut_bus_iudx_sample_constructed_gtfs"},"geometry":{"type":"Point","coordinates":[85.811,20.28694]}},{"type":"Feature","properties":{"stop_id":"456","stop_name":"B.K. Arts College","stop_code":"","mode":"bus","operator":"Capital Region Urban Transport / Ama Bus","source_feed_id":"bhubaneswar_crut_bus_iudx_sample_constructed_gtfs"},"geometry":{"type":"Point","coordinates":[85.78789,20.26889]}},{"type":"Feature","properties":{"stop_id":"121","stop_name":"Ekamra Talkies","stop_code":"","mode":"bus","operator":"Capital Region Urban Transport / Ama Bus","source_feed_id":"bhubaneswar_crut_bus_iudx_sample_constructed_gtfs"},"geometry":{"type":"Point","coordinates":[85.85645,20.28284]}},{"type":"Feature","properties":{"stop_id":"160","stop_name":"Lingaraj Station","stop_code":"","mode":"bus","operator":"Capital Region Urban Transport / Ama Bus","source_feed_id":"bhubaneswar_crut_bus_iudx_sample_constructed_gtfs"},"geometry":{"type":"Point","coordinates":[85.81652,20.23494]}},{"type":"Feature","properties":{"stop_id":"463","stop_name":"Shree Hospital","stop_code":"","mode":"bus","operator":"Capital Region Urban Transport / Ama Bus","source_feed_id":"bhubaneswar_crut_bus_iudx_sample_constructed_gtfs"},"geometry":{"type":"Point","coordinates":[85.84124,20.24789]}},{"type":"Feature","properties":{"stop_id":"560","stop_name":"Kolathia1","stop_code":"","mode":"bus","operator":"Capital Region Urban Transport / Ama Bus","source_feed_id":"bhubaneswar_crut_bus_iudx_sample_constructed_gtfs"},"geometry":{"type":"Point","coordinates":[85.78575,20.25374]}},{"type":"Feature","properties":{"stop_id":"484","stop_name":"CPWD Office","stop_code":"","mode":"bus","operator":"Capital Region Urban Transport / Ama Bus","source_feed_id":"bhubaneswar_crut_bus_iudx_sample_constructed_gtfs"},"geometry":{"type":"Point","coordinates":[85.81064,20.2818]}},{"type":"Feature","properties":{"stop_id":"468","stop_name":"Old Airport Square","stop_code":"","mode":"bus","operator":"Capital Region Urban Transport / Ama Bus","source_feed_id":"bhubaneswar_crut_bus_iudx_sample_constructed_gtfs"},"geometry":{"type":"Point","coordinates":[85.82703,20.25542]}},{"type":"Feature","properties":{"stop_id":"447","stop_name":"Vivekanand Hospital","stop_code":"","mode":"bus","operator":"Capital Region Urban Transport / Ama Bus","source_feed_id":"bhubaneswar_crut_bus_iudx_sample_constructed_gtfs"},"geometry":{"type":"Point","coordinates":[85.80024,20.27883]}},{"type":"Feature","properties":{"stop_id":"439","stop_name":"Nabard","stop_code":"","mode":"bus","operator":"Capital Region Urban Transport / Ama Bus","source_feed_id":"bhubaneswar_crut_bus_iudx_sample_constructed_gtfs"},"geometry":{"type":"Point","coordinates":[85.81772,20.29086]}},{"type":"Feature","properties":{"stop_id":"437","stop_name":"Gopabandhu Nagar","stop_code":"","mode":"bus","operator":"Capital Region Urban Transport / Ama Bus","source_feed_id":"bhubaneswar_crut_bus_iudx_sample_constructed_gtfs"},"geometry":{"type":"Point","coordinates":[85.80238,20.28166]}},{"type":"Feature","properties":{"stop_id":"449","stop_name":"City Womens College","stop_code":"","mode":"bus","operator":"Capital Region Urban Transport / Ama Bus","source_feed_id":"bhubaneswar_crut_bus_iudx_sample_constructed_gtfs"},"geometry":{"type":"Point","coordinates":[85.8074,20.2703]}},{"type":"Feature","properties":{"stop_id":"167","stop_name":"Jagamara","stop_code":"","mode":"bus","operator":"Capital Region Urban Transport / Ama Bus","source_feed_id":"bhubaneswar_crut_bus_iudx_sample_constructed_gtfs"},"geometry":{"type":"Point","coordinates":[85.79789,20.25639]}},{"type":"Feature","properties":{"stop_id":"451","stop_name":"Siripur Market","stop_code":"","mode":"bus","operator":"Capital Region Urban Transport / Ama Bus","source_feed_id":"bhubaneswar_crut_bus_iudx_sample_constructed_gtfs"},"geometry":{"type":"Point","coordinates":[85.8118,20.26854]}},{"type":"Feature","properties":{"stop_id":"144","stop_name":"DL Colony","stop_code":"","mode":"bus","operator":"Capital Region Urban Transport / Ama Bus","source_feed_id":"bhubaneswar_crut_bus_iudx_sample_constructed_gtfs"},"geometry":{"type":"Point","coordinates":[85.84414,20.31227]}},{"type":"Feature","properties":{"stop_id":"194","stop_name":"Hi-Tech Hospital","stop_code":"","mode":"bus","operator":"Capital Region Urban Transport / Ama Bus","source_feed_id":"bhubaneswar_crut_bus_iudx_sample_constructed_gtfs"},"geometry":{"type":"Point","coordinates":[85.8758,20.3016]}},{"type":"Feature","properties":{"stop_id":"571","stop_name":"Exhibition Ground","stop_code":"","mode":"bus","operator":"Capital Region Urban Transport / Ama Bus","source_feed_id":"bhubaneswar_crut_bus_iudx_sample_constructed_gtfs"},"geometry":{"type":"Point","coordinates":[85.83975,20.27833]}},{"type":"Feature","properties":{"stop_id":"471","stop_name":"Kalabhoomi","stop_code":"","mode":"bus","operator":"Capital Region Urban Transport / Ama Bus","source_feed_id":"bhubaneswar_crut_bus_iudx_sample_constructed_gtfs"},"geometry":{"type":"Point","coordinates":[85.8074,20.25245]}},{"type":"Feature","properties":{"stop_id":"470","stop_name":"Ekamra College","stop_code":"","mode":"bus","operator":"Capital Region Urban Transport / Ama Bus","source_feed_id":"bhubaneswar_crut_bus_iudx_sample_constructed_gtfs"},"geometry":{"type":"Point","coordinates":[85.81928,20.23629]}},{"type":"Feature","properties":{"stop_id":"469","stop_name":"Poonama Flyover","stop_code":"","mode":"bus","operator":"Capital Region Urban Transport / Ama Bus","source_feed_id":"bhubaneswar_crut_bus_iudx_sample_constructed_gtfs"},"geometry":{"type":"Point","coordinates":[85.8254,20.24197]}},{"type":"Feature","properties":{"stop_id":"453","stop_name":"Bhubaneswar Club","stop_code":"","mode":"bus","operator":"Capital Region Urban Transport / Ama Bus","source_feed_id":"bhubaneswar_crut_bus_iudx_sample_constructed_gtfs"},"geometry":{"type":"Point","coordinates":[85.82784,20.26762]}},{"type":"Feature","properties":{"stop_id":"132","stop_name":"Baramunda ISBT","stop_code":"","mode":"bus","operator":"Capital Region Urban Transport / Ama Bus","source_feed_id":"bhubaneswar_crut_bus_iudx_sample_constructed_gtfs"},"geometry":{"type":"Point","coordinates":[85.79383,20.27167]}},{"type":"Feature","properties":{"stop_id":"454","stop_name":"Unit 1 Haat","stop_code":"","mode":"bus","operator":"Capital Region Urban Transport / Ama Bus","source_feed_id":"bhubaneswar_crut_bus_iudx_sample_constructed_gtfs"},"geometry":{"type":"Point","coordinates":[85.83339,20.26409]}},{"type":"Feature","properties":{"stop_id":"452","stop_name":"Surya Nagar","stop_code":"","mode":"bus","operator":"Capital Region Urban Transport / Ama Bus","source_feed_id":"bhubaneswar_crut_bus_iudx_sample_constructed_gtfs"},"geometry":{"type":"Point","coordinates":[85.81971,20.26925]}},{"type":"Feature","properties":{"stop_id":"458","stop_name":"IG Park","stop_code":"","mode":"bus","operator":"Capital Region Urban Transport / Ama Bus","source_feed_id":"bhubaneswar_crut_bus_iudx_sample_constructed_gtfs"},"geometry":{"type":"Point","coordinates":[85.83515,20.271]}},{"type":"Feature","properties":{"stop_id":"120","stop_name":"Ekamra Mall (towards Bomikhal)","stop_code":"","mode":"bus","operator":"Capital Region Urban Transport / Ama Bus","source_feed_id":"bhubaneswar_crut_bus_iudx_sample_constructed_gtfs"},"geometry":{"type":"Point","coordinates":[85.85697,20.28409]}},{"type":"Feature","properties":{"stop_id":"472","stop_name":"Jagannath Temple","stop_code":"","mode":"bus","operator":"Capital Region Urban Transport / Ama Bus","source_feed_id":"bhubaneswar_crut_bus_iudx_sample_constructed_gtfs"},"geometry":{"type":"Point","coordinates":[85.79385,20.25774]}},{"type":"Feature","properties":{"stop_id":"457","stop_name":"Aurobindo Institute","stop_code":"","mode":"bus","operator":"Capital Region Urban Transport / Ama Bus","source_feed_id":"bhubaneswar_crut_bus_iudx_sample_constructed_gtfs"},"geometry":{"type":"Point","coordinates":[85.79038,20.26723]}},{"type":"Feature","properties":{"stop_id":"450","stop_name":"OUAT Square","stop_code":"","mode":"bus","operator":"Capital Region Urban Transport / Ama Bus","source_feed_id":"bhubaneswar_crut_bus_iudx_sample_constructed_gtfs"},"geometry":{"type":"Point","coordinates":[85.81004,20.2678]}},{"type":"Feature","properties":{"stop_id":"474","stop_name":"KIDS Hospital Road","stop_code":"","mode":"bus","operator":"Capital Region Urban Transport / Ama Bus","source_feed_id":"bhubaneswar_crut_bus_iudx_sample_constructed_gtfs"},"geometry":{"type":"Point","coordinates":[85.78306,20.24723]}},{"type":"Feature","properties":{"stop_id":"440","stop_name":"IMMT","stop_code":"","mode":"bus","operator":"Capital Region Urban Transport / Ama Bus","source_feed_id":"bhubaneswar_crut_bus_iudx_sample_constructed_gtfs"},"geometry":{"type":"Point","coordinates":[85.8292,20.2968]}},{"type":"Feature","properties":{"stop_id":"134","stop_name":"Khandagiri Bypass","stop_code":"","mode":"bus","operator":"Capital Region Urban Transport / Ama Bus","source_feed_id":"bhubaneswar_crut_bus_iudx_sample_constructed_gtfs"},"geometry":{"type":"Point","coordinates":[85.79168,20.26538]}},{"type":"Feature","properties":{"stop_id":"475","stop_name":"KIDS Hospital","stop_code":"","mode":"bus","operator":"Capital Region Urban Transport / Ama Bus","source_feed_id":"bhubaneswar_crut_bus_iudx_sample_constructed_gtfs"},"geometry":{"type":"Point","coordinates":[85.78572,20.24568]}},{"type":"Feature","properties":{"stop_id":"78","stop_name":"Sainik School Square","stop_code":"","mode":"bus","operator":"Capital Region Urban Transport / Ama Bus","source_feed_id":"bhubaneswar_crut_bus_iudx_sample_constructed_gtfs"},"geometry":{"type":"Point","coordinates":[85.83403,20.311]}}]}