{"type": "FeatureCollection", "crs": {"type": "name", "properties": {"name": "urn:ogc:def:crs:OGC:1.3:CRS84"}}, "features": [{"type": "Feature", "properties": {"osm_id": 10150972974, "osm_type": "node", "amenity": "library", "name": "KIIT Central Library"}, "geometry": {"type": "Point", "coordinates": [85.816175, 20.3543045]}}, {"type": "Feature", "properties": {"osm_id": 746538691, "osm_type": "way", "amenity": "library", "name": "State Library"}, "geometry": {"type": "Polygon", "coordinates": [[[85.8333372, 20.2759141], [85.8331148, 20.2751085], [85.83414, 20.2748433], [85.8343621, 20.2756491], [85.8333372, 20.2759141]]]}}, {"type": "Feature", "properties": {"osm_id": 1335040296, "osm_type": "way", "amenity": "library", "level": "1", "name": "Anand Children's Library", "operator": "Apeejay Anand"}, "geometry": {"type": "Polygon", "coordinates": [[[85.7668082, 20.2713605], [85.7668833, 20.2712222], [85.7669843, 20.2712656], [85.7671431, 20.2713337], [85.7670975, 20.2714412], [85.7668082, 20.2713605]]]}}, {"type": "Feature", "properties": {"osm_id": 1384184361, "osm_type": "way", "amenity": "library", "building": "school", "name": "KIIT Central Library", "operator": "KIIT University", "operator:type": "private"}, "geometry": {"type": "Polygon", "coordinates": [[[85.8159468, 20.3544735], [85.8164308, 20.3544648], [85.8164229, 20.3540785], [85.8159389, 20.3540871], [85.8159468, 20.3544735]]]}}]}