{"type": "FeatureCollection", "crs": {"type": "name", "properties": {"name": "urn:ogc:def:crs:OGC:1.3:CRS84"}}, "features": [{"type": "Feature", "properties": {"osm_id": 2895067339, "osm_type": "node", "addr:city": "Bhubaneswar", "amenity": "college", "name": "Xavier Institute of Management", "wikidata": "Q8043258", "wikipedia": "en:Xavier Institute of Management, Bhubaneswar"}, "geometry": {"type": "Point", "coordinates": [85.819474, 20.3086099]}}, {"type": "Feature", "properties": {"osm_id": 2895076333, "osm_type": "node", "addr:city": "Bhubaneswar", "amenity": "school", "name": "Nayapalli High School"}, "geometry": {"type": "Point", "coordinates": [85.8120885, 20.2957151]}}, {"type": "Feature", "properties": {"osm_id": 2895081596, "osm_type": "node", "addr:city": "Bhubaneswar", "amenity": "college", "name": "Regional College of Management", "wikidata": "Q7309022", "wikipedia": "en:Regional College of Management"}, "geometry": {"type": "Point", "coordinates": [85.81822, 20.3121945]}}, {"type": "Feature", "properties": {"osm_id": 2935019177, "osm_type": "node", "addr:city": "City womens college", "addr:street": "Bhubaneswar, odisha", "amenity": "college", "name": "City Womens College,"}, "geometry": {"type": "Point", "coordinates": [85.8070106, 20.2702357]}}, {"type": "Feature", "properties": {"osm_id": 2935163512, "osm_type": "node", "amenity": "school"}, "geometry": {"type": "Point", "coordinates": [85.7662355, 20.2418813]}}, {"type": "Feature", "properties": {"osm_id": 2935225093, "osm_type": "node", "amenity": "school", "name": "Narogada Nodal U P School"}, "geometry": {"type": "Point", "coordinates": [85.7640347, 20.2521179]}}, {"type": "Feature", "properties": {"osm_id": 2935225099, "osm_type": "node", "amenity": "school", "name": "Narogada School"}, "geometry": {"type": "Point", "coordinates": [85.7639002, 20.2524464]}}, {"type": "Feature", "properties": {"osm_id": 2959979043, "osm_type": "node", "amenity": "college", "name": "Rajdhani College"}, "geometry": {"type": "Point", "coordinates": [85.7980541, 20.2764026]}}, {"type": "Feature", "properties": {"osm_id": 3098360355, "osm_type": "node", "amenity": "college", "name": "Nursing college"}, "geometry": {"type": "Point", "coordinates": [85.8421363, 20.2778044]}}, {"type": "Feature", "properties": {"osm_id": 3777142896, "osm_type": "node", "amenity": "school", "name": "Stewart School"}, "geometry": {"type": "Point", "coordinates": [85.8091734, 20.2822874]}}, {"type": "Feature", "properties": {"osm_id": 3777150002, "osm_type": "node", "amenity": "school", "name": "Venkateswar School"}, "geometry": {"type": "Point", "coordinates": [85.8547526, 20.2969378]}}, {"type": "Feature", "properties": {"osm_id": 4578805794, "osm_type": "node", "amenity": "school", "name": "Kalinga Institute of Social Sciences", "name:en": "Kalinga Institute of Social Sciences", "name:hi": "KISS"}, "geometry": {"type": "Point", "coordinates": [85.8106077, 20.3630702]}}, {"type": "Feature", "properties": {"osm_id": 4594222882, "osm_type": "node", "amenity": "school", "name": "Nadan Kanan High School"}, "geometry": {"type": "Point", "coordinates": [85.8246827, 20.3931016]}}, {"type": "Feature", "properties": {"osm_id": 4772513921, "osm_type": "node", "amenity": "school", "name": "Edu surge new, rashmi Tower, plot no,- 211, set-aside, zone B, in front of Volvo, Mancheswar industrial Estate, BHUBANESWAR", "name:en": "Edu surge new, rashmi Tower, plot no,- 211, set-aside, zone B, in front of Volvo, Mancheswar industrial Estate, BHUBANESWAR"}, "geometry": {"type": "Point", "coordinates": [85.8514286, 20.3069293]}}, {"type": "Feature", "properties": {"osm_id": 7679345686, "osm_type": "node", "amenity": "school", "name": "Pumas"}, "geometry": {"type": "Point", "coordinates": [85.8234248, 20.2650946]}}, {"type": "Feature", "properties": {"osm_id": 7709970644, "osm_type": "node", "addr:district": "Khordha", "addr:full": "BJB Nagar, Bhubaneswar", "addr:postcode": "751014", "addr:state": "Odhisa", "amenity": "college", "name": "Buxi Jagabandhu Bidyadhar Junior College", "source": "Local Knowledge"}, "geometry": {"type": "Point", "coordinates": [85.8456567, 20.2548382]}}, {"type": "Feature", "properties": {"osm_id": 10134455806, "osm_type": "node", "amenity": "school", "isced:level": "1", "name": "Saraswati Sishu Vidya Mandir", "operator:type": "public", "wheelchair": "yes"}, "geometry": {"type": "Point", "coordinates": [85.8342868, 20.3515214]}}, {"type": "Feature", "properties": {"osm_id": 10134513637, "osm_type": "node", "addr:city": "Bhubaneswar", "addr:housenumber": "IDCO Plot No.-24", "addr:postcode": "751024", "addr:street": "Chandaka Industrial Estate, Patia", "amenity": "college", "email": "director.bhubaneswar@nift.ac.in", "fax": "+91-674-2305710", "name": "National Institute Of Fashion Technology", "note": "Telephone-+91-674-2305700, 701", "operator": "Ministry of Textiles, Govt of India", "operator:type": "public", "payment:cash": "yes", "payment:debit_cards": "yes", "website": "https://nift.ac.in/bhubaneswar/", "wheelchair": "yes"}, "geometry": {"type": "Point", "coordinates": [85.8182992, 20.3508722]}}, {"type": "Feature", "properties": {"osm_id": 10134612799, "osm_type": "node", "amenity": "college", "name": "FD Block NIFT Bhubaneswar", "operator": "NIFT Bhubaneswar", "operator:type": "government", "website": "https://nift.ac.in/bhubaneswar/contactus"}, "geometry": {"type": "Point", "coordinates": [85.8183142, 20.3516715]}}, {"type": "Feature", "properties": {"osm_id": 10134662430, "osm_type": "node", "amenity": "college", "name": "Basketball court", "operator": "NIFT Bhubaneswar", "operator:type": "government", "website": "https://nift.ac.in/bhubaneswar/contactus"}, "geometry": {"type": "Point", "coordinates": [85.8182607, 20.3505804]}}, {"type": "Feature", "properties": {"osm_id": 10137226728, "osm_type": "node", "amenity": "school", "isced:level": "1;0", "min_age": "3", "name": "Sai Angan", "operator": "Sai International School", "operator:type": "private", "wheelchair": "designated"}, "geometry": {"type": "Point", "coordinates": [85.8162854, 20.3446854]}}, {"type": "Feature", "properties": {"osm_id": 10138305117, "osm_type": "node", "addr:postcode": "751014", "addr:street": "Kalpana Road", "amenity": "school", "name": "Buxi Jagabandu English Medium School", "website": "https://www.bjemschool.org/"}, "geometry": {"type": "Point", "coordinates": [85.845118, 20.2566815]}}, {"type": "Feature", "properties": {"osm_id": 10733641436, "osm_type": "node", "amenity": "school", "name": "Govt. Girl High school"}, "geometry": {"type": "Point", "coordinates": [85.8182889, 20.2640813]}}, {"type": "Feature", "properties": {"osm_id": 10733641437, "osm_type": "node", "amenity": "school", "name": "Ruchika High school"}, "geometry": {"type": "Point", "coordinates": [85.8200878, 20.263538]}}, {"type": "Feature", "properties": {"osm_id": 10733641438, "osm_type": "node", "amenity": "school", "name": "Govt. Boys High school"}, "geometry": {"type": "Point", "coordinates": [85.8206994, 20.2632747]}}, {"type": "Feature", "properties": {"osm_id": 13238405324, "osm_type": "node", "addr:city": "Bhubaneswar", "addr:district": "Khordha", "addr:housenumber": "Chandaka Road", "addr:street": "Andharua", "amenity": "college", "internet_access": "yes", "internet_access:fee": "customers", "name": "Institute of Mathematics and Applications", "website": "iomaorissa.ac.in"}, "geometry": {"type": "Point", "coordinates": [85.7779122, 20.3168204]}}, {"type": "Feature", "properties": {"osm_id": 13392706101, "osm_type": "node", "addr:housenumber": "A/4, Plot No GA", "addr:postcode": "751022", "addr:street": "Sachivalaya Marg", "amenity": "school", "name": "Aakash Institute, Bhouma Nagar (Bhubaneswar)", "opening_hours": "Mo-Su 10:00-19:30", "phone": "088008 52494", "website": "https://centers.aakash.ac.in/aakash-institute-bhouma-nagar-bhubaneswar-coaching-center-bhoinagar-bhubaneswar-99204/Home"}, "geometry": {"type": "Point", "coordinates": [85.80892, 20.2721342]}}, {"type": "Feature", "properties": {"osm_id": 13624928468, "osm_type": "node", "addr:district": "Cuttack", "amenity": "school", "education": "school", "name": "ST Xavier' High School"}, "geometry": {"type": "Point", "coordinates": [85.9282748, 20.3197214]}}, {"type": "Feature", "properties": {"osm_id": 13688200001, "osm_type": "node", "addr:postcode": "752100", "addr:street": "Satyabhamapur", "amenity": "school", "email": "bjems2sbpur@rediffmail.com", "internet_access": "wlan", "name": "Buxi Jagabandhu English Medium School-II", "opening_hours": "Mo-Fr 10:30-13:30", "phone": "+91 7328828632;+91 9861127152;+91 9238103190", "website": "https://www.bjemschool-ii.org/"}, "geometry": {"type": "Point", "coordinates": [85.896503, 20.2465796]}}, {"type": "Feature", "properties": {"osm_id": 13690701101, "osm_type": "node", "addr:housenumber": "M1 and M2", "addr:postcode": "751010", "addr:street": "Parthasarthi Lane", "amenity": "school", "contact:facebook": "srichaitanyaacademyofficial", "contact:instagram": "srichaitanya_academy", "email": "support@srichaitanyaacademy.net", "internet_access": "wlan", "name": "Sri Chaitanya Academy", "opening_hours": "Mo-Sa 09:00-20:00", "phone": "+91 70759 30111;+91 90783 84048", "website": "http://srichaitanyaacademy.net"}, "geometry": {"type": "Point", "coordinates": [85.8343711, 20.2849764]}}, {"type": "Feature", "properties": {"osm_id": 26754511, "osm_type": "way", "amenity": "college", "name": "Institute of Physics"}, "geometry": {"type": "Polygon", "coordinates": [[[85.8285827, 20.3062129], [85.8309651, 20.3063965], [85.8312406, 20.3065402], [85.8334397, 20.3067761], [85.8336096, 20.3089368], [85.833727, 20.3100611], [85.8337154, 20.3101249], [85.8336859, 20.3101833], [85.8336333, 20.3102426], [85.8331261, 20.3103556], [85.8329963, 20.3104281], [85.8326749, 20.3105163], [85.8317587, 20.3107874], [85.8309096, 20.31103], [85.830502, 20.3111406], [85.8301028, 20.3112326], [85.8296082, 20.3112354], [85.8296897, 20.3089819], [85.8278029, 20.3090005], [85.8285827, 20.3062129]]]}}, {"type": "Feature", "properties": {"osm_id": 26754558, "osm_type": "way", "amenity": "school", "name": "Capital High School"}, "geometry": {"type": "Polygon", "coordinates": [[[85.8414202, 20.2810725], [85.83945, 20.2813], [85.8393274, 20.280008], [85.83932, 20.27993], [85.83966, 20.27988], [85.83957, 20.27905], [85.83951, 20.27849], [85.8410946, 20.278325], [85.8412083, 20.2791319], [85.8413141, 20.2800401], [85.8414202, 20.2810725]]]}}, {"type": "Feature", "properties": {"osm_id": 26754666, "osm_type": "way", "amenity": "school", "name": "St. Josephs High School (Convent)"}, "geometry": {"type": "Polygon", "coordinates": [[[85.84236, 20.28096], [85.8436721, 20.2808313], [85.8435557, 20.2790035], [85.8434523, 20.2782396], [85.8432751, 20.2781035], [85.8420827, 20.2781895], [85.84236, 20.28096]]]}}, {"type": "Feature", "properties": {"osm_id": 26754727, "osm_type": "way", "amenity": "college", "name": "Rama Devi Womens College", "wikidata": "Q7288633"}, "geometry": {"type": "Polygon", "coordinates": [[[85.842208, 20.2929895], [85.8394366, 20.2926139], [85.8398335, 20.2899419], [85.8409151, 20.2900759], [85.8410276, 20.2893694], [85.8420547, 20.2894655], [85.8423893, 20.2895136], [85.8426527, 20.2896037], [85.8424355, 20.2914314], [85.842208, 20.2929895]]]}}, {"type": "Feature", "properties": {"osm_id": 26754747, "osm_type": "way", "addr:postcode": "751022", "addr:street": "Janpath RD, Bhoi Nagar", "alt_name": "Central School", "amenity": "school", "contact:facebook": "kv.bbsr.3", "contact:instagram": "kvno1bbsr", "contact:twitter": "1Bhubaneswar", "email": "kv1bbsrweb@gmail.com", "internet_access": "wlan", "name": "Kendriya Vidyalaya No. 1", "opening_hours": "Mo-Sa 06:50-18:00", "operator:wikidata": "Q6389082", "phone": "06742392331;06742396776", "website": "https://no1bhubaneswar.kvs.ac.in/"}, "geometry": {"type": "Polygon", "coordinates": [[[85.84234, 20.28104], [85.84228, 20.28237], [85.8436559, 20.2822762], [85.84378, 20.28091], [85.84234, 20.28104]]]}}, {"type": "Feature", "properties": {"osm_id": 26754768, "osm_type": "way", "amenity": "school", "name": "Govt. Boys High School"}, "geometry": {"type": "Polygon", "coordinates": [[[85.8358677, 20.2921864], [85.8361317, 20.2905599], [85.8372661, 20.2906814], [85.8370142, 20.292345], [85.8358677, 20.2921864]]]}}, {"type": "Feature", "properties": {"osm_id": 26754882, "osm_type": "way", "amenity": "school", "name": "OSEB"}, "geometry": {"type": "Polygon", "coordinates": [[[85.8366734, 20.2924143], [85.83644, 20.29379], [85.83721, 20.29392], [85.8374102, 20.2924895], [85.8366734, 20.2924143]]]}}, {"type": "Feature", "properties": {"osm_id": 26754944, "osm_type": "way", "amenity": "school", "name": "Bhartiya Vidyalaya"}, "geometry": {"type": "Polygon", "coordinates": [[[85.8414202, 20.2810725], [85.8421308, 20.2809972], [85.842218, 20.2809548], [85.8421217, 20.2799627], [85.8413141, 20.2800401], [85.8414202, 20.2810725]]]}}, {"type": "Feature", "properties": {"osm_id": 26764994, "osm_type": "way", "alt_name": "Buxi Jagabandhu Bidyadhar College", "amenity": "college", "name": "BJB College", "wikidata": "Q5003242"}, "geometry": {"type": "Polygon", "coordinates": [[[85.8411072, 20.2544501], [85.8411983, 20.2540047], [85.8412119, 20.2535636], [85.8412533, 20.252218], [85.8431763, 20.2522377], [85.8430996, 20.253413], [85.8442927, 20.2533727], [85.8442533, 20.2544554], [85.8411072, 20.2544501]]]}}, {"type": "Feature", "properties": {"osm_id": 230783562, "osm_type": "way", "addr:postcode": "751003", "amenity": "college", "name": "SFTRI"}, "geometry": {"type": "Polygon", "coordinates": [[[85.7827819, 20.2733417], [85.7828062, 20.2729599], [85.7828201, 20.2729165], [85.7828258, 20.2728121], [85.7828169, 20.2727761], [85.782832, 20.272541], [85.7808436, 20.2724884], [85.7806827, 20.27352], [85.7814042, 20.2736156], [85.7827031, 20.2737446], [85.7826166, 20.2733338], [85.7827819, 20.2733417]]]}}, {"type": "Feature", "properties": {"osm_id": 236816400, "osm_type": "way", "amenity": "school"}, "geometry": {"type": "Polygon", "coordinates": [[[85.8358275, 20.2511328], [85.8358784, 20.252191], [85.8362942, 20.2522055], [85.8363006, 20.2518963], [85.8362942, 20.251095], [85.8358275, 20.2511328]]]}}, {"type": "Feature", "properties": {"osm_id": 289993444, "osm_type": "way", "amenity": "college", "name": "city women's college"}, "geometry": {"type": "Polygon", "coordinates": [[[85.8068877, 20.2697871], [85.8075976, 20.2697345], [85.8071773, 20.2702821], [85.8068756, 20.2705388], [85.8065562, 20.2702952], [85.8068877, 20.2697871]]]}}, {"type": "Feature", "properties": {"osm_id": 329884911, "osm_type": "way", "amenity": "college", "name": "CAC Institute"}, "geometry": {"type": "Polygon", "coordinates": [[[85.8075065, 20.2840198], [85.807676, 20.2837671], [85.8082583, 20.2841107], [85.8080889, 20.2843633], [85.8075065, 20.2840198]]]}}, {"type": "Feature", "properties": {"osm_id": 395340472, "osm_type": "way", "addr:city": "Bhubaneswar", "addr:postcode": "751003", "addr:street": "Gothapatna", "amenity": "college", "name": "International Institute of Information Technology, Bhubaneswar", "wikidata": "Q6051157"}, "geometry": {"type": "Polygon", "coordinates": [[[85.7431484, 20.2963572], [85.7456482, 20.295876], [85.7449896, 20.2944256], [85.7443565, 20.2925041], [85.742115, 20.2933062], [85.7431484, 20.2963572]]]}}, {"type": "Feature", "properties": {"osm_id": 465570424, "osm_type": "way", "amenity": "school", "name": "Unit-4 Girls High School"}, "geometry": {"type": "Polygon", "coordinates": [[[85.8279861, 20.2836569], [85.8280145, 20.2830239], [85.8285512, 20.2829857], [85.8285186, 20.2832107], [85.8297789, 20.2835844], [85.8297282, 20.2837889], [85.829657, 20.2840763], [85.8279861, 20.2836569]]]}}, {"type": "Feature", "properties": {"osm_id": 465594563, "osm_type": "way", "amenity": "school", "name": "Unit - I Schooling Complex"}, "geometry": {"type": "Polygon", "coordinates": [[[85.8310206, 20.2620584], [85.8307833, 20.2622289], [85.8306878, 20.2622751], [85.830617, 20.262304], [85.8305215, 20.2623069], [85.830429, 20.262304], [85.8303428, 20.2622722], [85.8302503, 20.2621884], [85.8286593, 20.2602123], [85.8289397, 20.2600418], [85.8290876, 20.2599637], [85.829371, 20.2598452], [85.8296298, 20.2597614], [85.8298917, 20.2597007], [85.8301567, 20.2596776], [85.8304617, 20.2596718], [85.8308099, 20.2596949], [85.831158, 20.2597527], [85.8315278, 20.2598712], [85.8319042, 20.2600172], [85.8321908, 20.2601666], [85.8324351, 20.2603492], [85.8326134, 20.2604863], [85.8328726, 20.2607711], [85.8310206, 20.2620584]]]}}, {"type": "Feature", "properties": {"osm_id": 465599389, "osm_type": "way", "amenity": "school"}, "geometry": {"type": "Polygon", "coordinates": [[[85.8188998, 20.2624494], [85.8199687, 20.2631932], [85.8201739, 20.262984], [85.8211069, 20.2625445], [85.8200346, 20.2612976], [85.8188998, 20.2624494]]]}}, {"type": "Feature", "properties": {"osm_id": 466593893, "osm_type": "way", "amenity": "college", "name": "Institute of Minerals and Materials Technology (IMMT)"}, "geometry": {"type": "Polygon", "coordinates": [[[85.8229534, 20.3019746], [85.8234494, 20.3003808], [85.8240511, 20.3005791], [85.8258805, 20.2962627], [85.8264741, 20.2965449], [85.8271571, 20.2968042], [85.8280108, 20.2970864], [85.8287589, 20.2972541], [85.8294419, 20.2973228], [85.8311738, 20.2974067], [85.8308892, 20.2983752], [85.8315234, 20.2985201], [85.8313751, 20.2992429], [85.8312222, 20.29959], [85.8310996, 20.2999448], [85.8315226, 20.299934], [85.8328406, 20.2999004], [85.8333391, 20.3051731], [85.8298144, 20.3049535], [85.8297281, 20.3060862], [85.8252875, 20.3042536], [85.8258016, 20.3029301], [85.8229534, 20.3019746]]]}}, {"type": "Feature", "properties": {"osm_id": 490263014, "osm_type": "way", "amenity": "college", "name": "Rajdhani College"}, "geometry": {"type": "Polygon", "coordinates": [[[85.7973425, 20.2775005], [85.7965299, 20.2765105], [85.7968708, 20.276309], [85.7965672, 20.2757833], [85.7969362, 20.2756256], [85.7970809, 20.275446], [85.7975246, 20.2757964], [85.7979823, 20.2753233], [85.7988182, 20.2760374], [85.7990237, 20.2762345], [85.798496, 20.2766025], [85.7977814, 20.2771851], [85.7973425, 20.2775005]]]}}, {"type": "Feature", "properties": {"osm_id": 490266389, "osm_type": "way", "amenity": "college", "name": "Central Horticultural Experimental Station (IIHR)"}, "geometry": {"type": "Polygon", "coordinates": [[[85.777351, 20.2439287], [85.7782692, 20.2441022], [85.7794585, 20.2443681], [85.7799637, 20.2445473], [85.780734, 20.2449636], [85.7815194, 20.2455058], [85.7835765, 20.244125], [85.783024, 20.243324], [85.7823802, 20.2424256], [85.7822327, 20.242106], [85.7834075, 20.2410264], [85.7840647, 20.2404048], [85.7858009, 20.2402519], [85.7856063, 20.2388572], [85.7854576, 20.2379175], [85.7832244, 20.2379274], [85.7805841, 20.2393155], [85.7803364, 20.2394483], [85.7792311, 20.2411132], [85.777351, 20.2439287]]]}}, {"type": "Feature", "properties": {"osm_id": 658512800, "osm_type": "way", "amenity": "college"}, "geometry": {"type": "Polygon", "coordinates": [[[85.8501184, 20.3339584], [85.8522159, 20.3346828], [85.8518082, 20.3355228], [85.8517277, 20.3361415], [85.8509606, 20.3359403], [85.8509177, 20.336061], [85.8510035, 20.3360761], [85.8508587, 20.3364735], [85.8506548, 20.3364181], [85.8505851, 20.3365389], [85.8501881, 20.336398], [85.8502257, 20.3362069], [85.8500165, 20.3361214], [85.8500326, 20.3360208], [85.8497214, 20.3359], [85.8498716, 20.3355731], [85.849641, 20.3354172], [85.8497643, 20.3351656], [85.8493888, 20.3349242], [85.8501184, 20.3339584]]]}}, {"type": "Feature", "properties": {"osm_id": 677897141, "osm_type": "way", "addr:city": "Bhubaneswar", "addr:housenumber": "Sector 2", "addr:postcode": "751021", "addr:street": "Niladrivihar Main road", "amenity": "school", "name": "Saraswati Sishu Mandir"}, "geometry": {"type": "Polygon", "coordinates": [[[85.809301, 20.3290054], [85.8092422, 20.3284227], [85.809757, 20.328377], [85.8098158, 20.3289602], [85.8097031, 20.3289702], [85.809301, 20.3290054]]]}}, {"type": "Feature", "properties": {"osm_id": 1107637283, "osm_type": "way", "addr:housenumber": "IDCO Plot No.-24 Opp. KIIT School Of Management, Chandaka Industrial Estate, Bhubaneswar-751024, Odisha.", "amenity": "college", "internet_access": "yes", "internet_access:fee": "no", "name": "NIFT Bhubaneswar Campus", "operator": "Ministry of Textiles, Govt of India", "operator:type": "government", "website": "https://nift.ac.in/bhubaneswar/contactus"}, "geometry": {"type": "Polygon", "coordinates": [[[85.8163601, 20.3519675], [85.8168617, 20.3515098], [85.8169422, 20.3513942], [85.817079, 20.3512835], [85.8172185, 20.3509868], [85.8172238, 20.3509289], [85.8176637, 20.3504914], [85.8177415, 20.3504134], [85.8180151, 20.3499029], [85.8181304, 20.3498727], [85.818168, 20.3498124], [85.8181519, 20.3495835], [85.8186829, 20.3493974], [85.8186561, 20.3500488], [85.8192811, 20.3500488], [85.8192543, 20.3512659], [85.819214, 20.3519952], [85.8163762, 20.3520229], [85.8163601, 20.3519675]]]}}, {"type": "Feature", "properties": {"osm_id": 1165357651, "osm_type": "way", "addr:city": "Bhubaneswar, Khurda, Odisha", "addr:housenumber": "Unit-VIII", "addr:postcode": "751012", "addr:street": "P.O. Nayapalli", "amenity": "school", "description": "DAV Public School, Unit-8, Bhubaneswar is a co-educational school in Bhubaneswar, Odisha, India. It is part of the Dayanand Anglo-Vedic Schools System and the DAV College Trust and Management Society, New Delhi.", "name": "DAV PUBLIC SCHOOL UNIT-VIII", "website": "https://davunit8.org/"}, "geometry": {"type": "Polygon", "coordinates": [[[85.8165102, 20.27491], [85.8165023, 20.2747048], [85.8186397, 20.2748769], [85.8189313, 20.2760572], [85.8186777, 20.2761562], [85.8165102, 20.27491]]]}}, {"type": "Feature", "properties": {"osm_id": 1218958546, "osm_type": "way", "addr:city": "Bhubaneswar", "addr:district": "Khordha", "addr:postcode": "751021", "addr:street": "Sailashree Vihar", "amenity": "school", "building": "school", "grades": "6-12", "name": "D.A.V. Public School, Chandrasekharpur", "website": "https://davcsp.org/"}, "geometry": {"type": "Polygon", "coordinates": [[[85.8107275, 20.3332697], [85.810836, 20.3332638], [85.8114544, 20.3332307], [85.8121731, 20.3331628], [85.8120377, 20.3319133], [85.8105744, 20.3320739], [85.8107275, 20.3332697]]]}}, {"type": "Feature", "properties": {"osm_id": 1220580730, "osm_type": "way", "amenity": "school", "name": "Govt High School CSPur ground"}, "geometry": {"type": "Polygon", "coordinates": [[[85.8108472, 20.3179279], [85.8107833, 20.317361], [85.8113752, 20.3172896], [85.8114048, 20.3178936], [85.8108472, 20.3179279]]]}}, {"type": "Feature", "properties": {"osm_id": 1302313539, "osm_type": "way", "amenity": "school", "name": "Apeejay School Bhubaneswar", "name:or": "ଆପିଜୟ ସ୍କୁଲ୍ ଭୁବନେଶ୍ୱର"}, "geometry": {"type": "Polygon", "coordinates": [[[85.7662035, 20.2718039], [85.7676901, 20.2721302], [85.7679252, 20.2718071], [85.7683293, 20.2712515], [85.7668425, 20.2703963], [85.7662035, 20.2718039]]]}}, {"type": "Feature", "properties": {"osm_id": 1325254350, "osm_type": "way", "amenity": "school", "barrier": "wall", "name": "Capital Girls high school"}, "geometry": {"type": "Polygon", "coordinates": [[[85.8359131, 20.2675305], [85.8355638, 20.2669568], [85.8356487, 20.2669112], [85.8354647, 20.266609], [85.8358515, 20.2664017], [85.8357879, 20.2662973], [85.8360891, 20.266136], [85.8358147, 20.2656852], [85.8362346, 20.2654603], [85.8372704, 20.2671624], [85.837305, 20.2672192], [85.8362241, 20.2677981], [85.8360249, 20.2674706], [85.8359131, 20.2675305]]]}}, {"type": "Feature", "properties": {"osm_id": 1334239896, "osm_type": "way", "amenity": "school", "name": "St. Xavier's High School"}, "geometry": {"type": "Polygon", "coordinates": [[[85.789315, 20.2606164], [85.7893106, 20.2605984], [85.7892779, 20.2604653], [85.7891009, 20.2601349], [85.7885046, 20.2604205], [85.7886939, 20.2607757], [85.7893014, 20.2606199], [85.789315, 20.2606164]]]}}, {"type": "Feature", "properties": {"osm_id": 1334239908, "osm_type": "way", "amenity": "school", "name": "Sainik School Bhubaneswar"}, "geometry": {"type": "Polygon", "coordinates": [[[85.8376775, 20.3120006], [85.8419381, 20.3124277], [85.8422928, 20.3122594], [85.8424981, 20.3122063], [85.8433404, 20.3128701], [85.8440635, 20.3144794], [85.8422703, 20.3151902], [85.8373298, 20.3159184], [85.8364517, 20.3156515], [85.836289, 20.3144773], [85.8347767, 20.3149348], [85.8347577, 20.3147338], [85.8364567, 20.3130445], [85.8376775, 20.3120006]]]}}]}