{"type": "FeatureCollection", "name": "acs", "crs": {"type": "name", "properties": {"name": "urn:ogc:def:crs:OGC:1.3:CRS84"}}, "features": [{"type": "Feature", "properties": {"ST_NAME": "UTTAR PRADESH", "DIST_NAME": "KANPUR NAGAR", "AC_NO": 209, "AC_NAME": "Bilhaur (SC)", "PC_NO": 32, "PC_NAME": "MISRIKH (SC)", "representative": "Mohit Sonkar", "party": "BJP", "ac_name": "Bilhaur (SC)", "office": "MLA"}, "geometry": {"type": "Polygon", "coordinates": [[[80.01598558276851, 26.955078685832746], [80.04454173231517, 26.925053641212628], [80.0773557103978, 26.89446117024687], [80.11397181254915, 26.87857298615444], [80.12596663185462, 26.865875415018422], [80.14231057347422, 26.859512269975312], [80.14332176938422, 26.836206330158063], [80.1238523536033, 26.825477498188036], [80.12490759381046, 26.804594057669703], [80.11761582680901, 26.774852464070023], [80.13555170154984, 26.738416633720703], [80.14787843634082, 26.72725529619504], [80.16109228038448, 26.722801866912675], [80.16448570754943, 26.714306360949877], [80.1903201623457, 26.709852885802093], [80.19747522969817, 26.699714959677692], [80.24239673372233, 26.68574271915122], [80.27444821531293, 26.69773308051731], [80.29879930944065, 26.677698624292134], [80.30325316949825, 26.667381497458166], [80.29930934285193, 26.648492680392962], [80.28405324006502, 26.643648081094113], [80.27982742649459, 26.637311939094786], [80.26096960816096, 26.63541632200571], [80.25395985506333, 26.629156533347384], [80.25202082769908, 26.6071085993824], [80.26006886698468, 26.598570115718303], [80.23990202515841, 26.58098024074559], [80.25057098925981, 26.569402245517267], [80.24610153136064, 26.56037206022245], [80.23739301107867, 26.562000860151613], [80.23653309642532, 26.573640556066835], [80.21919453070308, 26.57406044953018], [80.21585635248874, 26.53158327314958], [80.19364813055682, 26.52759239667182], [80.18871904264978, 26.531262365365933], [80.17766077642375, 26.52947400232341], [80.16338315760669, 26.522515347805097], [80.15225888563913, 26.5204208969069], [80.1562912982049, 26.533992180994403], [80.1632123295854, 26.536775061120238], [80.16121858746789, 26.542853577930316], [80.14102960163484, 26.53562109333882], [80.1345927985189, 26.54651833685182], [80.1378650609239, 26.55450767648813], [80.11698557202658, 26.570055068786473], [80.09989529203415, 26.574030631608423], [80.09517782809434, 26.589682845287143], [80.08717209201848, 26.584550318142703], [80.07235970843385, 26.583913455141897], [80.06509312334902, 26.590488816805475], [80.06224308005415, 26.601443013484356], [80.02562639694071, 26.606907986714248], [80.0129578208468, 26.645046677961886], [79.98031176057935, 26.66738407851244], [79.99676510112857, 26.67172180012102], [80.00221413567385, 26.6829133512702], [79.9996391913956, 26.703188525430164], [79.97789931660026, 26.709166988166032], [79.9799581228691, 26.71817266783438], [79.97551256894997, 26.726521989897947], [79.96777718526891, 26.727346026098303], [79.96467719339779, 26.732190708134738], [79.96093859024381, 26.74805179025799], [79.93882551028912, 26.763929601569885], [79.94811428844372, 26.780601902755677], [79.94069133283881, 26.796390572367045], [79.9270764460212, 26.80012812871024], [79.92236739973578, 26.808299475840215], [79.89311425222104, 26.824392605534342], [79.89074422926285, 26.84229409020014], [79.89477474066183, 26.849604645837758], [79.90688504910577, 26.846199309850306], [79.9278315446901, 26.85533798575949], [79.9425430980856, 26.845043440902145], [79.95498657746862, 26.85728237218376], [79.96232845829178, 26.85847652437218], [79.93850849387195, 26.87655321316032], [79.94947497708858, 26.89073099643838], [79.94140626868443, 26.899191546652617], [79.95147965406284, 26.92060149796083], [79.94087384485209, 26.922972588414268], [79.94478043327041, 26.945246055261293], [79.95835446928339, 26.95369450509736], [79.96397358361406, 26.945415544192088], [79.9727086096147, 26.945454968671925], [79.97975271141854, 26.937299493676733], [79.97667727283795, 26.93375501368297], [79.9833621458464, 26.93021656184493], [79.99272774229155, 26.938752870948292], [79.97861894690692, 26.949258914767142], [79.9929410839639, 26.96332850510646], [80.00670730509813, 26.95261473498209], [80.01598558276851, 26.955078685832746]]]}}, {"type": "Feature", "properties": {"ST_NAME": "UTTAR PRADESH", "DIST_NAME": "KANPUR NAGAR", "AC_NO": 210, "AC_NAME": "Bithoor", "PC_NO": 44, "PC_NAME": "AKBARPUR", "representative": "Abhijeet Singh", "party": "BJP", "ac_name": "Bithoor", "office": "MLA"}, "geometry": {"type": "Polygon", "coordinates": [[[80.27975069993494, 26.63693407454798], [80.27486855484, 26.61975335333466], [80.27771422383245, 26.593309651918958], [80.28376315204787, 26.582653456391938], [80.30244614937038, 26.574226562405954], [80.2951455420332, 26.549682837992634], [80.33433851570999, 26.52442830831984], [80.32048555496442, 26.512023442228156], [80.29343210330899, 26.506162109893523], [80.28219152741713, 26.514495494171797], [80.27228408674125, 26.510976738385807], [80.25204774081067, 26.516371187680193], [80.24600304210679, 26.524817364030184], [80.23869118335148, 26.521663561224443], [80.2393911607735, 26.51294377063857], [80.22933169420236, 26.511161055338505], [80.2165859625722, 26.49752686277452], [80.22140657605269, 26.48467844205652], [80.20408187068182, 26.46323294234645], [80.218525181492, 26.449344757854362], [80.23085444157925, 26.44763376258811], [80.24287440413048, 26.435495449255654], [80.24352358424608, 26.423932389967888], [80.2596921139999, 26.418219905324406], [80.26521139908687, 26.423578986081395], [80.26601176063429, 26.408460257434967], [80.27808834270292, 26.425121636354504], [80.28913271170535, 26.42461745033512], [80.28320970836143, 26.411554187875538], [80.2983964752172, 26.396157908660598], [80.30281754959032, 26.371323782366687], [80.31487252994339, 26.36797744550273], [80.32470673252976, 26.373578880061302], [80.3230364873441, 26.383586533092057], [80.35400888050549, 26.38822489086607], [80.3562837884661, 26.379145406535315], [80.35097413714675, 26.36693689392257], [80.35441660344355, 26.356381825360984], [80.3632065321558, 26.35979228838346], [80.36797817485296, 26.357227695301958], [80.3728486944118, 26.3701347796964], [80.37760283090597, 26.36885512536378], [80.38500792507574, 26.362948645263828], [80.38697294734368, 26.347010573978878], [80.39747675095134, 26.338201202823313], [80.40447574366073, 26.342667184842753], [80.4202503316875, 26.312108133583536], [80.40738709733671, 26.307615237553193], [80.40628981202525, 26.298681696103415], [80.39583091336601, 26.292223146481092], [80.40395928369406, 26.277561329192054], [80.39324859374767, 26.273309850769067], [80.39750387360493, 26.27103324758633], [80.39246913784052, 26.26697551550768], [80.39782439108285, 26.26321314237265], [80.39718902275524, 26.24847495195752], [80.41446899314957, 26.236141100831162], [80.4060542912726, 26.230428013641983], [80.4146892757895, 26.227475732718915], [80.41428895966783, 26.214496588346947], [80.42281778910973, 26.201913677174502], [80.43829893464817, 26.20394368445352], [80.44679927626566, 26.193334610703744], [80.45943595070861, 26.198326200593726], [80.46342706280876, 26.193448649235847], [80.4665734354158, 26.198141231632576], [80.46946198857995, 26.182657593173417], [80.44719152366991, 26.18167169699126], [80.44221808030022, 26.167673760135983], [80.43066923299875, 26.165182283735476], [80.43289660729266, 26.157741703217084], [80.42885488314641, 26.15350842077703], [80.40405439689295, 26.162458338881265], [80.38723578320491, 26.142741132897015], [80.36940362907427, 26.140488125226852], [80.36611018583648, 26.14059165158352], [80.36621947774677, 26.14914375188272], [80.3567931347954, 26.15114451500739], [80.36013719907254, 26.173621637828376], [80.3502318727028, 26.18017519902628], [80.35378173603834, 26.194701461503314], [80.34337900273886, 26.195941344217715], [80.342017037956, 26.199611138443345], [80.34987187138984, 26.212924972709402], [80.338111430698, 26.220000709964836], [80.33201936020538, 26.21734850403027], [80.33000626647606, 26.207463296394053], [80.31727636381322, 26.208665021773413], [80.31273168751744, 26.219730702909658], [80.30563626859896, 26.215210704910135], [80.29375480164282, 26.227775895840978], [80.28339421866832, 26.21639580632143], [80.2769996261319, 26.222332314784524], [80.26799471628317, 26.216382055687347], [80.25746444922498, 26.218824483063486], [80.26057450361048, 26.227248684479264], [80.25667665840115, 26.243917358699207], [80.26336352340792, 26.243614735032054], [80.2648402111069, 26.252756394891776], [80.27485595713677, 26.256850456883114], [80.26614382247948, 26.254410561997872], [80.25806413964841, 26.263438888394035], [80.2476214251887, 26.260530219194322], [80.24114440618945, 26.249106071887752], [80.23910556307135, 26.257656380737444], [80.22973663553734, 26.250596131606244], [80.22750710826648, 26.25959486491115], [80.22134699686649, 26.25326502626001], [80.22088775086905, 26.26639334747506], [80.20821914150025, 26.268083634052516], [80.21851716043864, 26.27365398983983], [80.20490917052189, 26.27985212547526], [80.1871013394553, 26.276093424272176], [80.17502354599992, 26.279793189304314], [80.17917313932895, 26.274683468966998], [80.17605335787624, 26.271583888985333], [80.1660149687159, 26.278822977298603], [80.16056535860446, 26.29192212360715], [80.15517530699486, 26.304971060765865], [80.1641938739482, 26.304049386070346], [80.16194449863974, 26.3117404367718], [80.17944276147432, 26.321730121348082], [80.16987387957596, 26.32091924132999], [80.16427394328792, 26.32604829529265], [80.17725285833279, 26.32620946099786], [80.17249302103613, 26.333967788182918], [80.1806114277752, 26.331618104292147], [80.1851912594691, 26.33471828681951], [80.17454237992695, 26.345588369907375], [80.18284201894409, 26.33998684901394], [80.18914078871649, 26.34498789257725], [80.1795113491695, 26.350677716103746], [80.16874334452979, 26.348355841948603], [80.16821291359514, 26.352836005377412], [80.15774540482664, 26.352496795490765], [80.15121581415855, 26.347367603032524], [80.14767557896488, 26.34965740736351], [80.15502552670677, 26.355065469695717], [80.14514580133772, 26.360954856381568], [80.15016585926708, 26.365565084261277], [80.13953382222815, 26.364886995438553], [80.13755118853658, 26.36779294868569], [80.14510658370193, 26.372985381470244], [80.14261717214481, 26.376853445630047], [80.15277500566202, 26.38001373614503], [80.1339975093776, 26.391432888616976], [80.14669544743703, 26.395033123879614], [80.14414651335096, 26.400413466408395], [80.14989521099523, 26.40445272011698], [80.13989713034834, 26.405681544767504], [80.13529749288506, 26.40148317760662], [80.13833702423432, 26.42143002547533], [80.13270715940791, 26.42126171915305], [80.12899750722926, 26.427949984404336], [80.1268682381787, 26.457397595922373], [80.13399720450747, 26.464907292037935], [80.12815772749718, 26.47846542983575], [80.15164498233014, 26.472775772683804], [80.1427457122449, 26.480425836783013], [80.14723474478768, 26.48147694910199], [80.13949633578733, 26.48587557639678], [80.14284582387575, 26.488506636572083], [80.137476310983, 26.49650396848341], [80.14589553824857, 26.490154584866275], [80.15841381064888, 26.49917519867654], [80.17252119679586, 26.502584810041014], [80.17183226934384, 26.506855601404936], [80.1761807576359, 26.503634566182313], [80.17291183980961, 26.51484414244328], [80.16338315760669, 26.522515347805097], [80.17766077642375, 26.52947400232341], [80.18871904264978, 26.531262365365933], [80.19364813055682, 26.52759239667182], [80.21585635248874, 26.53158327314958], [80.21919453070308, 26.57406044953018], [80.23653309642532, 26.573640556066835], [80.23739301107867, 26.562000860151613], [80.24610153136064, 26.56037206022245], [80.25057098925981, 26.569402245517267], [80.23990202515841, 26.58098024074559], [80.26006886698468, 26.598570115718303], [80.25202082769908, 26.6071085993824], [80.25395985506333, 26.629156533347384], [80.26096960816096, 26.63541632200571], [80.27982742649459, 26.637311939094786], [80.27975069993494, 26.63693407454798]]]}}, {"type": "Feature", "properties": {"ST_NAME": "UTTAR PRADESH", "DIST_NAME": "KANPUR NAGAR", "AC_NO": 211, "AC_NAME": "Kalyanpur", "PC_NO": 44, "PC_NAME": "AKBARPUR", "representative": "Neelima Katiyar", "party": "BJP", "ac_name": "Kalyanpur", "office": "MLA"}, "geometry": {"type": "Polygon", "coordinates": [[[80.33433851570999, 26.52442830831984], [80.34696534797251, 26.52678775974738], [80.37438934998858, 26.507966819912838], [80.37932788977037, 26.495262200789966], [80.36269524508953, 26.48523231651825], [80.33970746382846, 26.484578469820576], [80.34026878557603, 26.485223609282173], [80.33584091052967, 26.48668715698676], [80.32532918749206, 26.478872563717914], [80.32772907243879, 26.473964063990422], [80.31859885645213, 26.465825685107347], [80.30311070159763, 26.47772032353413], [80.29630542825299, 26.470426698533345], [80.28748116792161, 26.46978311310022], [80.27579955010918, 26.477784958708924], [80.25696497025723, 26.481505644669824], [80.2331136105048, 26.466345722577103], [80.23959187326642, 26.460387738303552], [80.23085444157925, 26.44763376258811], [80.218525181492, 26.449344757854362], [80.20408187068182, 26.46323294234645], [80.22140657605269, 26.48467844205652], [80.2165859625722, 26.49752686277452], [80.22933169420236, 26.511161055338505], [80.2393911607735, 26.51294377063857], [80.23869118335148, 26.521663561224443], [80.24600304210679, 26.524817364030184], [80.25204774081067, 26.516371187680193], [80.27228408674125, 26.510976738385807], [80.28219152741713, 26.514495494171797], [80.29343210330899, 26.506162109893523], [80.32048555496442, 26.512023442228156], [80.33433851570999, 26.52442830831984]]]}}, {"type": "Feature", "properties": {"ST_NAME": "UTTAR PRADESH", "DIST_NAME": "KANPUR NAGAR", "AC_NO": 214, "AC_NAME": "Arya Nagar", "PC_NO": 43, "PC_NAME": "KANPUR", "representative": "Amitabh Bajpai", "party": "SP", "ac_name": "Arya Nagar", "office": "MLA"}, "geometry": {"type": "Polygon", "coordinates": [[[80.33970746382846, 26.484578469820576], [80.36269524508953, 26.48523231651825], [80.37932788977037, 26.495262200789966], [80.3799947739397, 26.48906356782942], [80.36967389873149, 26.473234253358157], [80.36221578952711, 26.463499480716507], [80.36514796340782, 26.46016633241038], [80.34469660036785, 26.44959754559028], [80.33546961193309, 26.452001240964535], [80.34149751130116, 26.474788930264992], [80.34831431035718, 26.47435062678005], [80.33566872992799, 26.478488578385225], [80.33970746382846, 26.484578469820576]]]}}, {"type": "Feature", "properties": {"ST_NAME": "UTTAR PRADESH", "DIST_NAME": "KANPUR NAGAR", "AC_NO": 213, "AC_NAME": "Sishamau", "PC_NO": 43, "PC_NAME": "KANPUR", "representative": "Naseem Solanki", "party": "SP", "ac_name": "Sishamau", "office": "MLA"}, "geometry": {"type": "Polygon", "coordinates": [[[80.34026878557603, 26.485223609282173], [80.33970746382846, 26.484578469820576], [80.33566872992799, 26.478488578385225], [80.34831431035718, 26.47435062678005], [80.34149751130116, 26.474788930264992], [80.33546961193309, 26.452001240964535], [80.32991061638188, 26.455841568233836], [80.31859885645213, 26.465825685107347], [80.32772907243879, 26.473964063990422], [80.32532918749206, 26.478872563717914], [80.33584091052967, 26.48668715698676], [80.34026878557603, 26.485223609282173]]]}}, {"type": "Feature", "properties": {"ST_NAME": "UTTAR PRADESH", "DIST_NAME": "KANPUR NAGAR", "AC_NO": 212, "AC_NAME": "Govindnagar", "PC_NO": 43, "PC_NAME": "KANPUR", "representative": "Surendra Maithani", "party": "BJP", "ac_name": "Govindnagar", "office": "MLA"}, "geometry": {"type": "Polygon", "coordinates": [[[80.31859885645213, 26.465825685107347], [80.32991061638188, 26.455841568233836], [80.31378237175909, 26.450433021167044], [80.31381358093205, 26.44203168951094], [80.29730580531873, 26.44072385402268], [80.30140906197869, 26.426983966836644], [80.28569691927748, 26.410604242092177], [80.28320970836143, 26.411554187875538], [80.28913271170535, 26.42461745033512], [80.27808834270292, 26.425121636354504], [80.26601176063429, 26.408460257434967], [80.26521139908687, 26.423578986081395], [80.2596921139999, 26.418219905324406], [80.24352358424608, 26.423932389967888], [80.24287440413048, 26.435495449255654], [80.23085444157925, 26.44763376258811], [80.23959187326642, 26.460387738303552], [80.2331136105048, 26.466345722577103], [80.25696497025723, 26.481505644669824], [80.27579955010918, 26.477784958708924], [80.28748116792161, 26.46978311310022], [80.29630542825299, 26.470426698533345], [80.30311070159763, 26.47772032353413], [80.31859885645213, 26.465825685107347]]]}}, {"type": "Feature", "properties": {"ST_NAME": "UTTAR PRADESH", "DIST_NAME": "KANPUR NAGAR", "AC_NO": 216, "AC_NAME": "Kanpur Cantt.", "PC_NO": 43, "PC_NAME": "KANPUR", "representative": "Mohammad Hassan Rumi", "party": "SP", "ac_name": "Kanpur Cantt.", "office": "MLA"}, "geometry": {"type": "Polygon", "coordinates": [[[80.36967389873149, 26.473234253358157], [80.41062748327181, 26.433105752728352], [80.40450419011631, 26.435965818967418], [80.39836054979958, 26.42938904087157], [80.40159330588642, 26.424660211299738], [80.39593060141618, 26.406152201363057], [80.37399938776161, 26.42169694335928], [80.386030967755, 26.411177900739574], [80.38109839497503, 26.399004580397104], [80.37240015754128, 26.393770503605936], [80.38086600386305, 26.386599197195267], [80.3734152717974, 26.381798825655324], [80.36670117262105, 26.38060208611745], [80.36292849595338, 26.394023400159824], [80.3521956521077, 26.40695047918132], [80.33207182755285, 26.41357311370831], [80.33257665119157, 26.42577888878475], [80.35010420944178, 26.44359373726121], [80.34469660036785, 26.44959754559028], [80.36514796340782, 26.46016633241038], [80.36221578952711, 26.463499480716507], [80.36967389873149, 26.473234253358157]]]}}, {"type": "Feature", "properties": {"ST_NAME": "UTTAR PRADESH", "DIST_NAME": "KANPUR NAGAR", "AC_NO": 215, "AC_NAME": "Kidwai Nagar", "PC_NO": 43, "PC_NAME": "KANPUR", "representative": "Mahesh Kumar Trivedi", "party": "BJP", "ac_name": "Kidwai Nagar", "office": "MLA"}, "geometry": {"type": "Polygon", "coordinates": [[[80.33546961193309, 26.452001240964535], [80.34469660036785, 26.44959754559028], [80.35010420944178, 26.44359373726121], [80.33257665119157, 26.42577888878475], [80.33207182755285, 26.41357311370831], [80.33098205427842, 26.40721750318528], [80.32024223349237, 26.402591071320956], [80.31613723844288, 26.4052257000061], [80.31415002990002, 26.395760648435214], [80.28569691927748, 26.410604242092177], [80.30140906197869, 26.426983966836644], [80.29730580531873, 26.44072385402268], [80.31381358093205, 26.44203168951094], [80.31378237175909, 26.450433021167044], [80.32991061638188, 26.455841568233836], [80.33546961193309, 26.452001240964535]]]}}, {"type": "Feature", "properties": {"ST_NAME": "UTTAR PRADESH", "DIST_NAME": "KANPUR NAGAR", "AC_NO": 217, "AC_NAME": "Maharajpur", "PC_NO": 44, "PC_NAME": "AKBARPUR", "representative": "Satish Mahana", "party": "BJP", "ac_name": "Maharajpur", "office": "MLA"}, "geometry": {"type": "Polygon", "coordinates": [[[80.42817863793385, 26.41822487857536], [80.46568638551832, 26.40492555307185], [80.50379444046109, 26.36319758659937], [80.51637692715354, 26.35895092044865], [80.53274988360033, 26.327662525305357], [80.5388419468984, 26.324477324469], [80.53716174891565, 26.31848515786379], [80.5457844154185, 26.316746753060272], [80.55124359161852, 26.291796812073244], [80.56883625359029, 26.269222993246615], [80.57576223573864, 26.242162119486295], [80.59149314279438, 26.231045680613704], [80.54408393502564, 26.223014734742264], [80.53641563717196, 26.19722284036186], [80.52897112301895, 26.20027589571606], [80.52777329530142, 26.193753991553535], [80.51713425344309, 26.192360775329576], [80.51711394585197, 26.187544863504684], [80.49445947132762, 26.195860050900706], [80.48719782172213, 26.192034294447183], [80.47730160728338, 26.17410316003287], [80.46946198857995, 26.182657593173417], [80.4665734354158, 26.198141231632576], [80.46342706280876, 26.193448649235847], [80.45943595070861, 26.198326200593726], [80.44679927626566, 26.193334610703744], [80.43829893464817, 26.20394368445352], [80.42281778910973, 26.201913677174502], [80.41428895966783, 26.214496588346947], [80.4146892757895, 26.227475732718915], [80.4060542912726, 26.230428013641983], [80.41446899314957, 26.236141100831162], [80.39718902275524, 26.24847495195752], [80.39782439108285, 26.26321314237265], [80.39246913784052, 26.26697551550768], [80.39750387360493, 26.27103324758633], [80.39324859374767, 26.273309850769067], [80.40395928369406, 26.277561329192054], [80.39583091336601, 26.292223146481092], [80.40628981202525, 26.298681696103415], [80.40738709733671, 26.307615237553193], [80.4202503316875, 26.312108133583536], [80.40447574366073, 26.342667184842753], [80.39747675095134, 26.338201202823313], [80.38697294734368, 26.347010573978878], [80.38500792507574, 26.362948645263828], [80.37760283090597, 26.36885512536378], [80.3728486944118, 26.3701347796964], [80.36797817485296, 26.357227695301958], [80.3632065321558, 26.35979228838346], [80.35441660344355, 26.356381825360984], [80.35097413714675, 26.36693689392257], [80.3562837884661, 26.379145406535315], [80.35400888050549, 26.38822489086607], [80.3230364873441, 26.383586533092057], [80.32470673252976, 26.373578880061302], [80.31487252994339, 26.36797744550273], [80.30281754959032, 26.371323782366687], [80.2983964752172, 26.396157908660598], [80.28320970836143, 26.411554187875538], [80.28569691927748, 26.410604242092177], [80.31415002990002, 26.395760648435214], [80.31613723844288, 26.4052257000061], [80.32024223349237, 26.402591071320956], [80.33098205427842, 26.40721750318528], [80.33207182755285, 26.41357311370831], [80.3521956521077, 26.40695047918132], [80.36292849595338, 26.394023400159824], [80.36670117262105, 26.38060208611745], [80.3734152717974, 26.381798825655324], [80.38086600386305, 26.386599197195267], [80.37240015754128, 26.393770503605936], [80.38109839497503, 26.399004580397104], [80.386030967755, 26.411177900739574], [80.37399938776161, 26.42169694335928], [80.39593060141618, 26.406152201363057], [80.40159330588642, 26.424660211299738], [80.39836054979958, 26.42938904087157], [80.40450419011631, 26.435965818967418], [80.41062748327181, 26.433105752728352], [80.42817863793385, 26.41822487857536]]]}}, {"type": "Feature", "properties": {"ST_NAME": "UTTAR PRADESH", "DIST_NAME": "KANPUR NAGAR", "AC_NO": 218, "AC_NAME": "Ghatampur (SC)", "PC_NO": 44, "PC_NAME": "AKBARPUR", "representative": "Saroj Kureel", "party": "Apna Dal (Soneylal)", "ac_name": "Ghatampur (SC)", "office": "MLA"}, "geometry": {"type": "Polygon", "coordinates": [[[80.2476214251887, 26.260530219194322], [80.25806413964841, 26.263438888394035], [80.26614382247948, 26.254410561997872], [80.27485595713677, 26.256850456883114], [80.2648402111069, 26.252756394891776], [80.26336352340792, 26.243614735032054], [80.25667665840115, 26.243917358699207], [80.26057450361048, 26.227248684479264], [80.25746444922498, 26.218824483063486], [80.26799471628317, 26.216382055687347], [80.2769996261319, 26.222332314784524], [80.28339421866832, 26.21639580632143], [80.29375480164282, 26.227775895840978], [80.30563626859896, 26.215210704910135], [80.31273168751744, 26.219730702909658], [80.31727636381322, 26.208665021773413], [80.33000626647606, 26.207463296394053], [80.33201936020538, 26.21734850403027], [80.338111430698, 26.220000709964836], [80.34987187138984, 26.212924972709402], [80.342017037956, 26.199611138443345], [80.34337900273886, 26.195941344217715], [80.35378173603834, 26.194701461503314], [80.3502318727028, 26.18017519902628], [80.36013719907254, 26.173621637828376], [80.3567931347954, 26.15114451500739], [80.36621947774677, 26.14914375188272], [80.36611018583648, 26.14059165158352], [80.36940362907427, 26.140488125226852], [80.36007866220058, 26.13754538880869], [80.35536916895205, 26.125483384750453], [80.342592935016, 26.12834951511809], [80.32103775308991, 26.110816529459328], [80.31238747020564, 26.072136260180287], [80.30246658016858, 26.061167776871457], [80.28998234171178, 26.06638120432916], [80.28152881160543, 26.054691388296987], [80.26764157859606, 26.05641679699761], [80.2612042026119, 26.046726226933856], [80.2544222289028, 26.045341666684635], [80.25530789654226, 26.03032277267789], [80.25007952594945, 26.025348805003375], [80.25499257444778, 26.020543751592925], [80.2482792756681, 26.01566114964237], [80.24551470124254, 25.989244940501635], [80.22669086649034, 25.974653255943053], [80.21875140325471, 25.974997397711775], [80.21320633370539, 25.966377070345573], [80.2293769390945, 25.95597609252269], [80.22801303807131, 25.946561765413207], [80.23753604555213, 25.923848834955834], [80.21302058413272, 25.920300640762036], [80.20585793549537, 25.924696944208677], [80.19278448731427, 25.94637311103031], [80.15404712457519, 25.96034134237908], [80.11921292113948, 25.985827491545535], [80.08449601088228, 25.99767376803004], [80.08385758485969, 26.006779276942154], [80.10139038975473, 26.021057147569365], [80.11166938803188, 26.043677360621757], [80.11050445751476, 26.05062796800638], [80.09765445309057, 26.06033446596291], [80.07088865228951, 26.068092606988273], [80.05056134982647, 26.068147933280557], [80.04361478939109, 26.073063583517637], [80.02035485259444, 26.06651370054692], [79.99132477112136, 26.06541549432967], [79.95661601052052, 26.0752665340234], [79.95545608742856, 26.093327633963213], [79.96615862591989, 26.132347202161725], [79.96408115871856, 26.152378140239023], [79.97874858597851, 26.151331500248602], [79.9985226938673, 26.16299413696987], [80.01519894847274, 26.163766065551556], [80.02425579866622, 26.170553065571596], [80.01639568621198, 26.182136803870435], [80.00573500936326, 26.18811860399046], [80.01145753403802, 26.226840424645957], [80.0031594175731, 26.2347607862813], [80.01409770344634, 26.254597830525483], [80.03321514975943, 26.25604258149997], [80.04589952244504, 26.268257017047745], [80.06342132863148, 26.261583046520457], [80.09278513322738, 26.27430308991569], [80.10074086340018, 26.272530401157155], [80.1181133317649, 26.25339096911796], [80.12426612268348, 26.252788889195926], [80.14363577666984, 26.272374711423822], [80.13400569051026, 26.28841513724882], [80.13515749362347, 26.302665987745172], [80.14260163096054, 26.302720192582854], [80.16056535860446, 26.29192212360715], [80.1660149687159, 26.278822977298603], [80.17605335787624, 26.271583888985333], [80.17917313932895, 26.274683468966998], [80.17502354599992, 26.279793189304314], [80.1871013394553, 26.276093424272176], [80.20490917052189, 26.27985212547526], [80.21851716043864, 26.27365398983983], [80.20821914150025, 26.268083634052516], [80.22088775086905, 26.26639334747506], [80.22134699686649, 26.25326502626001], [80.22750710826648, 26.25959486491115], [80.22973663553734, 26.250596131606244], [80.23910556307135, 26.257656380737444], [80.24114440618945, 26.249106071887752], [80.2476214251887, 26.260530219194322]]]}}]}