{"type": "FeatureCollection", "crs": {"type": "name", "properties": {"name": "urn:ogc:def:crs:OGC:1.3:CRS84"}}, "features": [{"type": "Feature", "properties": {"osm_id": 4318644191, "osm_type": "node", "bus": "yes", "highway": "bus_stop", "public_transport": "platform"}, "geometry": {"type": "Point", "coordinates": [80.3750409, 26.4064694]}}, {"type": "Feature", "properties": {"osm_id": 5444247521, "osm_type": "node", "highway": "bus_stop", "name:en": "Chakeri mod"}, "geometry": {"type": "Point", "coordinates": [80.4141214, 26.3834431]}}, {"type": "Feature", "properties": {"osm_id": 5444247522, "osm_type": "node", "bus": "yes", "highway": "bus_stop", "name": "Ramadevi Chouraha", "name:en": "Rama devi chauraha", "public_transport": "platform"}, "geometry": {"type": "Point", "coordinates": [80.3867506, 26.4115015]}}, {"type": "Feature", "properties": {"osm_id": 5444247621, "osm_type": "node", "highway": "bus_stop", "name": "lal bangla bus stand", "name:en": "Harjinder nagar chauraha"}, "geometry": {"type": "Point", "coordinates": [80.392299, 26.4161907]}}, {"type": "Feature", "properties": {"osm_id": 7666557117, "osm_type": "node", "bus": "yes", "highway": "bus_stop", "public_transport": "platform"}, "geometry": {"type": "Point", "coordinates": [80.2831942, 26.4773865]}}, {"type": "Feature", "properties": {"osm_id": 10892625300, "osm_type": "node", "bus": "yes", "highway": "bus_stop", "public_transport": "platform"}, "geometry": {"type": "Point", "coordinates": [80.2487418, 26.5084304]}}]}