{"type": "FeatureCollection", "crs": {"type": "name", "properties": {"name": "urn:ogc:def:crs:OGC:1.3:CRS84"}}, "features": [{"type": "Feature", "properties": {"DISTRICT": "Mumbai", "ST_NM": "Maharashtra", "ST_CEN_CD": 27, "DT_CEN_CD": 23, "censuscode": 519, "district": "Mumbai"}, "geometry": {"type": "Polygon", "coordinates": [[[72.8968157898422, 18.97877205771432], [72.90370617671921, 18.975416934975097], [72.90812361379321, 18.971318090655814], [72.91219406193574, 18.963776513398027], [72.91449868079613, 18.950755355683327], [72.90975973251766, 18.938681443625182], [72.90644288140423, 18.933281512869215], [72.9008864112724, 18.92927896540243], [72.88118751050253, 18.91920608836889], [72.86953201736506, 18.910835105168662], [72.85993480816502, 18.89779735896748], [72.85508864022565, 18.889218581128343], [72.85135032428153, 18.882145269408163], [72.84557575168513, 18.865976411782032], [72.84242056227274, 18.856004320986465], [72.84001940092813, 18.84534277433929], [72.81116865242524, 18.89356037191801], [72.80958980306758, 18.894057960318857], [72.80754521596207, 18.895808194278562], [72.80568483411068, 18.90460497143037], [72.8061972650665, 18.908685256075024], [72.8068881383402, 18.91016178541635], [72.81159484331525, 18.92075770402321], [72.81335138921227, 18.923166042973147], [72.8141945759505, 18.92329200709985], [72.82120299983042, 18.93286218465332], [72.82104602415392, 18.934304466268888], [72.82199138370535, 18.93432733598215], [72.822761620704, 18.937482746431666], [72.82273698334168, 18.938844118838787], [72.8222769383689, 18.943148463293948], [72.81690404291012, 18.949583438152136], [72.81280713134454, 18.9515374758253], [72.8097293878876, 18.951015720954622], [72.80830010886903, 18.95015351907985], [72.80301111596977, 18.94691838306252], [72.79618527744937, 18.941011774161765], [72.79447698749843, 18.938605518138623], [72.79409994157963, 18.93802881618566], [72.78764922710496, 18.939476874391975], [72.78749682277635, 18.940827403895096], [72.78764245171988, 18.94489472931751], [72.78832504708272, 18.946793793853452], [72.79008827194059, 18.949839253386724], [72.79346739323955, 18.954408851219046], [72.79398239294797, 18.955206009648464], [72.79395351585721, 18.956325935947174], [72.7995645752087, 18.964715052628296], [72.80215780686868, 18.97030324185178], [72.8078852109804, 18.98014317967127], [72.81270741493209, 19.00398404882623], [72.8132898709637, 19.01437853179394], [72.81465947898045, 19.016680970593498], [72.81648318461082, 19.017456573871574], [72.8201997873342, 19.01871008967469], [72.81768212020457, 19.032536954824415], [72.82402318280336, 19.03122665213401], [72.82728309274215, 19.03248771037603], [72.83425072989357, 19.041907057770416], [72.84090091617114, 19.04553114584349], [72.84364501683736, 19.04673011397986], [72.84730036960966, 19.04715956030372], [72.85371954610319, 19.051907144853725], [72.85940053066467, 19.05473442100946], [72.86354911790161, 19.053351083710382], [72.86847814824097, 19.05169728119415], [72.8771059960305, 19.04565969551858], [72.87629293624303, 19.040275340374375], [72.87456183047192, 19.030030244689], [72.8712481431852, 19.022466605748235], [72.8756038507172, 19.017896517634693], [72.87973197837584, 19.015509983294777], [72.88465495104302, 19.012667489149035], [72.88282049018025, 18.9999982033423], [72.87900020318017, 18.99147315582439], [72.88036227924191, 18.984392330947067], [72.88242585439563, 18.981198806027795], [72.8968157898422, 18.97877205771432]]]}}, {"type": "Feature", "properties": {"DISTRICT": "Mumbai Suburban", "ST_NM": "Maharashtra", "ST_CEN_CD": 27, "DT_CEN_CD": 22, "censuscode": 518, "district": "Mumbai Suburban"}, "geometry": {"type": "Polygon", "coordinates": [[[72.95858745046328, 18.987335326771678], [72.94677237860478, 18.985738687395628], [72.91373271426716, 18.982260040589242], [72.90092476507125, 18.979633291762006], [72.8968157898422, 18.97877205771432], [72.88242585439563, 18.981198806027795], [72.88036227924191, 18.984392330947067], [72.87900020318017, 18.99147315582439], [72.88282049018025, 18.9999982033423], [72.88465495104302, 19.012667489149035], [72.87973197837584, 19.015509983294777], [72.8756038507172, 19.017896517634693], [72.8712481431852, 19.022466605748235], [72.87456183047192, 19.030030244689], [72.87629293624303, 19.040275340374375], [72.8771059960305, 19.04565969551858], [72.86847814824097, 19.05169728119415], [72.86354911790161, 19.053351083710382], [72.85940053066467, 19.05473442100946], [72.85371954610319, 19.051907144853725], [72.84730036960966, 19.04715956030372], [72.84364501683736, 19.04673011397986], [72.84090091617114, 19.04553114584349], [72.83425072989357, 19.041907057770416], [72.82728309274215, 19.03248771037603], [72.82402318280336, 19.03122665213401], [72.81768212020457, 19.032536954824415], [72.81606984713498, 19.03884963304525], [72.81786305213896, 19.048397865446812], [72.8173869319721, 19.04884816617313], [72.81807567412122, 19.04952505401655], [72.81702385121037, 19.054263276102564], [72.81674762003186, 19.061256862243322], [72.8169156171512, 19.064431877927046], [72.81712527560168, 19.06574969789027], [72.81776898104725, 19.067943486907716], [72.81904503488569, 19.070064515455567], [72.82018168676382, 19.072261539314464], [72.82118552733152, 19.074006230004827], [72.82177883712495, 19.075202511089174], [72.82182102573216, 19.07585953712638], [72.82184528381528, 19.078335864206526], [72.8225067207259, 19.080831564220933], [72.82307842325741, 19.09054622810729], [72.82244252228948, 19.104206091573882], [72.82183970200148, 19.108051756779627], [72.82172879141619, 19.108947316585446], [72.82204222097846, 19.10973014522055], [72.82633440167767, 19.111661812948096], [72.82711539973772, 19.11197772404634], [72.82578543923202, 19.124471266366076], [72.82026679164925, 19.126145958039675], [72.81975052861543, 19.122248249790243], [72.81773815835788, 19.122527650438794], [72.81263845086764, 19.126711397499818], [72.80770849136437, 19.133084500780406], [72.80658515849979, 19.135491486599353], [72.80670636112146, 19.137375160485597], [72.79976678427204, 19.137486184414392], [72.79520076513172, 19.12464378835415], [72.79314310421705, 19.12374152665597], [72.78602612002203, 19.124330512675016], [72.78363486336978, 19.125174714166395], [72.7840013610179, 19.130396104659734], [72.78752743991178, 19.136807995033582], [72.78769042860304, 19.14540278671905], [72.7869199158376, 19.148300369121486], [72.78063280243954, 19.152712798839154], [72.78023845294791, 19.154058867514806], [72.77996726708892, 19.156305017117145], [72.78037049032277, 19.157618713819936], [72.78102875344891, 19.160300987174157], [72.78924643032211, 19.165983076804377], [72.79167640522105, 19.16851700519952], [72.7944683452085, 19.176502244200492], [72.79463731048355, 19.18275093754702], [72.79393102557276, 19.18921455938542], [72.79420985526639, 19.190639448424683], [72.78889162391658, 19.19208395517147], [72.78612550317129, 19.192142392376194], [72.78466248025697, 19.19369855067044], [72.78415777731561, 19.19457732155452], [72.78274160200185, 19.20584501487173], [72.78183688194987, 19.208127165368566], [72.77898986368804, 19.216130209414718], [72.78018758332075, 19.222765040550527], [72.78201872900392, 19.236811847384143], [72.7822899739972, 19.244116611466257], [72.78223334870403, 19.257853482640176], [72.78161967909723, 19.26128326310093], [72.78152327259038, 19.263248622228772], [72.79059768156439, 19.260076557668466], [72.79585951362014, 19.25968411757414], [72.80033450272988, 19.260956659618238], [72.80559069823289, 19.256395911162514], [72.81820281733967, 19.24547256722724], [72.8247877452733, 19.24467661148488], [72.82908702224606, 19.245429447812977], [72.83525578967117, 19.249281529731213], [72.83700873627848, 19.252839627218], [72.83808384141597, 19.26385647514432], [72.84220344452302, 19.265988706180448], [72.85635609875446, 19.269181589502804], [72.85647765460278, 19.26921735140491], [72.86700161703104, 19.264979500810412], [72.87378730785882, 19.25970158947858], [72.88848932486077, 19.251155470322324], [72.89272655893086, 19.249669175599244], [72.9076138805591, 19.246755004776208], [72.90676449594125, 19.241871118149163], [72.91142409348568, 19.23418916245773], [72.92183212448678, 19.221446811382492], [72.92746623761656, 19.213243391192023], [72.93726371175474, 19.205038433631465], [72.93733508768126, 19.189713381874064], [72.94834207874112, 19.18660385969415], [72.95589482522792, 19.183340754138605], [72.96351816322024, 19.181441376388268], [72.97113830998823, 19.176744303669846], [72.9729408788873, 19.173559234352815], [72.97453407642337, 19.170766437941257], [72.97973684072407, 19.161553147246163], [72.98286903958724, 19.156020119331966], [72.98335063588472, 19.151310766460888], [72.98250801503995, 19.144874754477563], [72.97960742500352, 19.133740172990322], [72.97313899373576, 19.120014197025164], [72.97029944380121, 19.111746200213222], [72.96776197888451, 19.093550814528168], [72.96939460958255, 19.08143235729567], [72.96872462266373, 19.07472236746951], [72.97030308641453, 19.066804690312185], [72.97198745359866, 19.059629803982347], [72.9780395403505, 19.04723209256556], [72.97918375470402, 19.041035913021283], [72.97852544324097, 19.032716087375775], [72.9750188608815, 19.024619621188943], [72.96154663250418, 18.99978773110226], [72.95858745046328, 18.987335326771678]]]}}]}