{"type":"FeatureCollection","features":[{"type":"Feature","properties":{"route_id":"mumbai_blue_1","route_short_name":"1","route_long_name":"Mumbai Metro Blue Line 1","agency_id":"MUMMETRO","mode":"metro","operator":"Mumbai Metro operators","source_feed_id":"mumbai_metro_unofficial_constructed"},"geometry":{"type":"LineString","coordinates":[[72.8213871,19.1302777],[72.8304619,19.1282551],[72.8395648,19.1264785],[72.8471294,19.1215452],[72.8550575,19.1166916],[72.863608,19.1133811],[72.8725008,19.1107372],[72.8812377,19.1075648],[72.8888791,19.1029699],[72.8951305,19.0962781],[72.9032561,19.0918406],[72.9081226,19.086286]]}},{"type":"Feature","properties":{"route_id":"mumbai_yellow_2a","route_short_name":"2A","route_long_name":"Mumbai Metro Yellow Line 2A","agency_id":"MUMMETRO","mode":"metro","operator":"Mumbai Metro operators","source_feed_id":"mumbai_metro_unofficial_constructed"},"geometry":{"type":"LineString","coordinates":[[72.8673322,19.2517331],[72.8663486,19.2572087],[72.850504,19.2566337],[72.8458001,19.2495856],[72.8434456,19.2403773],[72.8408607,19.2313925],[72.8409432,19.2228332],[72.8373054,19.2140036],[72.8348068,19.2062315],[72.8337752,19.1968293],[72.8358611,19.1852851],[72.8364801,19.1730984],[72.8348708,19.1624723],[72.8356664,19.1530241],[72.833952,19.1460351],[72.8317139,19.1406979],[72.8314307,19.1291337]]}},{"type":"Feature","properties":{"route_id":"mumbai_yellow_2b_phase_1","route_short_name":"2B","route_long_name":"Mumbai Metro Yellow Line 2B Phase 1","agency_id":"MUMMETRO","mode":"metro","operator":"Mumbai Metro operators","source_feed_id":"mumbai_metro_unofficial_constructed"},"geometry":{"type":"LineString","coordinates":[[72.9386612,19.0495916],[72.9317136,19.0482086],[72.9186,19.0486],[72.9069806,19.0479383],[72.9018378,19.0517191]]}},{"type":"Feature","properties":{"route_id":"mumbai_red_7","route_short_name":"7","route_long_name":"Mumbai Metro Red Line 7","agency_id":"MUMMETRO","mode":"metro","operator":"Mumbai Metro operators","source_feed_id":"mumbai_metro_unofficial_constructed"},"geometry":{"type":"LineString","coordinates":[[72.8551556,19.1145125],[72.8554558,19.1284364],[72.855185,19.1429455],[72.8565966,19.1524492],[72.8587918,19.1693242],[72.8582976,19.1797579],[72.8584547,19.1872999],[72.8604905,19.1981585],[72.8631041,19.2035171],[72.8668012,19.2167968],[72.8643251,19.2240357],[72.8631372,19.2346141],[72.8641377,19.2431487],[72.8666664,19.2506981]]}},{"type":"Feature","properties":{"route_id":"mumbai_red_9_phase_1","route_short_name":"9","route_long_name":"Mumbai Metro Red Line 9 Phase 1","agency_id":"MUMMETRO","mode":"metro","operator":"Mumbai Metro operators","source_feed_id":"mumbai_metro_unofficial_constructed"},"geometry":{"type":"LineString","coordinates":[[72.8674521,19.2510803],[72.8726403,19.2600987],[72.8806976,19.2710068],[72.8802398,19.2776661]]}},{"type":"Feature","properties":{"route_id":"mumbai_aqua_3","route_short_name":"3","route_long_name":"Mumbai Metro Aqua Line 3","agency_id":"MUMMETRO","mode":"metro","operator":"Mumbai Metro operators","source_feed_id":"mumbai_metro_unofficial_constructed"},"geometry":{"type":"LineString","coordinates":[[72.8207152,18.9135692],[72.8254934,18.9247813],[72.8271741,18.9354797],[72.8325037,18.9341849],[72.831861,18.9408329],[72.827193,18.946329],[72.8222065,18.9521015],[72.8158261,18.9633549],[72.8211795,18.9699923],[72.8242196,18.9825203],[72.8213521,18.9908949],[72.8177201,18.9978202],[72.8192741,19.0086057],[72.8309199,19.0158935],[72.8430265,19.0173761],[72.8419646,19.0384641],[72.849741,19.0462612],[72.8546797,19.0606629],[72.8493601,19.0699627],[72.8471185,19.0792887],[72.8535765,19.093899],[72.8652361,19.102196],[72.8744692,19.1023335],[72.878578,19.1085041],[72.8735966,19.1173537],[72.8737266,19.1259985],[72.884309,19.130699]]}}]}