{"type":"FeatureCollection","features":[{"type":"Feature","properties":{"stop_id":"MUMMETRO_aarey","stop_name":"Aarey","stop_code":"","mode":"metro","operator":"Mumbai Metro operators","source_feed_id":"mumbai_metro_unofficial_constructed"},"geometry":{"type":"Point","coordinates":[72.8587918,19.1693242]}},{"type":"Feature","properties":{"stop_id":"MUMMETRO_aarey_jvlr","stop_name":"Aarey JVLR","stop_code":"","mode":"metro","operator":"Mumbai Metro operators","source_feed_id":"mumbai_metro_unofficial_constructed"},"geometry":{"type":"Point","coordinates":[72.884309,19.130699]}},{"type":"Feature","properties":{"stop_id":"MUMMETRO_acharya_atre_chowk","stop_name":"Acharya Atre Chowk","stop_code":"","mode":"metro","operator":"Mumbai Metro operators","source_feed_id":"mumbai_metro_unofficial_constructed"},"geometry":{"type":"Point","coordinates":[72.8177201,18.9978202]}},{"type":"Feature","properties":{"stop_id":"MUMMETRO_airport_road","stop_name":"Airport Road","stop_code":"","mode":"metro","operator":"Mumbai Metro operators","source_feed_id":"mumbai_metro_unofficial_constructed"},"geometry":{"type":"Point","coordinates":[72.8725008,19.1107372]}},{"type":"Feature","properties":{"stop_id":"MUMMETRO_akurli","stop_name":"Akurli","stop_code":"","mode":"metro","operator":"Mumbai Metro operators","source_feed_id":"mumbai_metro_unofficial_constructed"},"geometry":{"type":"Point","coordinates":[72.8604905,19.1981585]}},{"type":"Feature","properties":{"stop_id":"MUMMETRO_anand_nagar","stop_name":"Anand Nagar","stop_code":"","mode":"metro","operator":"Mumbai Metro operators","source_feed_id":"mumbai_metro_unofficial_constructed"},"geometry":{"type":"Point","coordinates":[72.8663486,19.2572087]}},{"type":"Feature","properties":{"stop_id":"MUMMETRO_andheri_west","stop_name":"Andheri (West)","stop_code":"","mode":"metro","operator":"Mumbai Metro operators","source_feed_id":"mumbai_metro_unofficial_constructed"},"geometry":{"type":"Point","coordinates":[72.8314307,19.1291337]}},{"type":"Feature","properties":{"stop_id":"MUMMETRO_andheri_l1","stop_name":"Andheri L1","stop_code":"","mode":"metro","operator":"Mumbai Metro operators","source_feed_id":"mumbai_metro_unofficial_constructed"},"geometry":{"type":"Point","coordinates":[72.8471294,19.1215452]}},{"type":"Feature","properties":{"stop_id":"MUMMETRO_asalpha","stop_name":"Asalpha","stop_code":"","mode":"metro","operator":"Mumbai Metro operators","source_feed_id":"mumbai_metro_unofficial_constructed"},"geometry":{"type":"Point","coordinates":[72.8951305,19.0962781]}},{"type":"Feature","properties":{"stop_id":"MUMMETRO_azad_nagar","stop_name":"Azad Nagar","stop_code":"","mode":"metro","operator":"Mumbai Metro operators","source_feed_id":"mumbai_metro_unofficial_constructed"},"geometry":{"type":"Point","coordinates":[72.8395648,19.1264785]}},{"type":"Feature","properties":{"stop_id":"MUMMETRO_bsnl","stop_name":"BSNL","stop_code":"","mode":"metro","operator":"Mumbai Metro operators","source_feed_id":"mumbai_metro_unofficial_constructed"},"geometry":{"type":"Point","coordinates":[72.9186,19.0486]}},{"type":"Feature","properties":{"stop_id":"MUMMETRO_bandra_colony","stop_name":"Bandra Colony","stop_code":"","mode":"metro","operator":"Mumbai Metro operators","source_feed_id":"mumbai_metro_unofficial_constructed"},"geometry":{"type":"Point","coordinates":[72.8493601,19.0699627]}},{"type":"Feature","properties":{"stop_id":"MUMMETRO_bandra_kurla_complex_bkc","stop_name":"Bandra Kurla Complex (BKC)","stop_code":"","mode":"metro","operator":"Mumbai Metro operators","source_feed_id":"mumbai_metro_unofficial_constructed"},"geometry":{"type":"Point","coordinates":[72.8546797,19.0606629]}},{"type":"Feature","properties":{"stop_id":"MUMMETRO_bangur_nagar","stop_name":"Bangur Nagar","stop_code":"","mode":"metro","operator":"Mumbai Metro operators","source_feed_id":"mumbai_metro_unofficial_constructed"},"geometry":{"type":"Point","coordinates":[72.8348708,19.1624723]}},{"type":"Feature","properties":{"stop_id":"MUMMETRO_borivali_west","stop_name":"Borivali (West)","stop_code":"","mode":"metro","operator":"Mumbai Metro operators","source_feed_id":"mumbai_metro_unofficial_constructed"},"geometry":{"type":"Point","coordinates":[72.8408607,19.2313925]}},{"type":"Feature","properties":{"stop_id":"MUMMETRO_csmi_airport_domestic_t1","stop_name":"CSMI Airport Domestic T1","stop_code":"","mode":"metro","operator":"Mumbai Metro operators","source_feed_id":"mumbai_metro_unofficial_constructed"},"geometry":{"type":"Point","coordinates":[72.8535765,19.093899]}},{"type":"Feature","properties":{"stop_id":"MUMMETRO_csmi_airport_international_t2","stop_name":"CSMI Airport International T2","stop_code":"","mode":"metro","operator":"Mumbai Metro operators","source_feed_id":"mumbai_metro_unofficial_constructed"},"geometry":{"type":"Point","coordinates":[72.8744692,19.1023335]}},{"type":"Feature","properties":{"stop_id":"MUMMETRO_chakala","stop_name":"Chakala","stop_code":"","mode":"metro","operator":"Mumbai Metro operators","source_feed_id":"mumbai_metro_unofficial_constructed"},"geometry":{"type":"Point","coordinates":[72.863608,19.1133811]}},{"type":"Feature","properties":{"stop_id":"MUMMETRO_chhatrapati_shivaji_maharaj_terminus","stop_name":"Chhatrapati Shivaji Maharaj Terminus","stop_code":"","mode":"metro","operator":"Mumbai Metro operators","source_feed_id":"mumbai_metro_unofficial_constructed"},"geometry":{"type":"Point","coordinates":[72.831861,18.9408329]}},{"type":"Feature","properties":{"stop_id":"MUMMETRO_churchgate","stop_name":"Churchgate","stop_code":"","mode":"metro","operator":"Mumbai Metro operators","source_feed_id":"mumbai_metro_unofficial_constructed"},"geometry":{"type":"Point","coordinates":[72.8271741,18.9354797]}},{"type":"Feature","properties":{"stop_id":"MUMMETRO_cuffe_parade","stop_name":"Cuffe Parade","stop_code":"","mode":"metro","operator":"Mumbai Metro operators","source_feed_id":"mumbai_metro_unofficial_constructed"},"geometry":{"type":"Point","coordinates":[72.8207152,18.9135692]}},{"type":"Feature","properties":{"stop_id":"MUMMETRO_d_n_nagar","stop_name":"D. N. Nagar","stop_code":"","mode":"metro","operator":"Mumbai Metro operators","source_feed_id":"mumbai_metro_unofficial_constructed"},"geometry":{"type":"Point","coordinates":[72.8304619,19.1282551]}},{"type":"Feature","properties":{"stop_id":"MUMMETRO_dadar","stop_name":"Dadar","stop_code":"","mode":"metro","operator":"Mumbai Metro operators","source_feed_id":"mumbai_metro_unofficial_constructed"},"geometry":{"type":"Point","coordinates":[72.8430265,19.0173761]}},{"type":"Feature","properties":{"stop_id":"MUMMETRO_dahanukarwadi","stop_name":"Dahanukarwadi","stop_code":"","mode":"metro","operator":"Mumbai Metro operators","source_feed_id":"mumbai_metro_unofficial_constructed"},"geometry":{"type":"Point","coordinates":[72.8348068,19.2062315]}},{"type":"Feature","properties":{"stop_id":"MUMMETRO_dahisar_east_line_2","stop_name":"Dahisar (East) [Line 2]","stop_code":"","mode":"metro","operator":"Mumbai Metro operators","source_feed_id":"mumbai_metro_unofficial_constructed"},"geometry":{"type":"Point","coordinates":[72.8673322,19.2517331]}},{"type":"Feature","properties":{"stop_id":"MUMMETRO_dahisar_east_line_7","stop_name":"Dahisar (East) [Line 7]","stop_code":"","mode":"metro","operator":"Mumbai Metro operators","source_feed_id":"mumbai_metro_unofficial_constructed"},"geometry":{"type":"Point","coordinates":[72.8666664,19.2506981]}},{"type":"Feature","properties":{"stop_id":"MUMMETRO_dahisar_east_line_9","stop_name":"Dahisar (East) [Line 9]","stop_code":"","mode":"metro","operator":"Mumbai Metro operators","source_feed_id":"mumbai_metro_unofficial_constructed"},"geometry":{"type":"Point","coordinates":[72.8674521,19.2510803]}},{"type":"Feature","properties":{"stop_id":"MUMMETRO_devipada","stop_name":"Devipada","stop_code":"","mode":"metro","operator":"Mumbai Metro operators","source_feed_id":"mumbai_metro_unofficial_constructed"},"geometry":{"type":"Point","coordinates":[72.8643251,19.2240357]}},{"type":"Feature","properties":{"stop_id":"MUMMETRO_dharavi","stop_name":"Dharavi","stop_code":"","mode":"metro","operator":"Mumbai Metro operators","source_feed_id":"mumbai_metro_unofficial_constructed"},"geometry":{"type":"Point","coordinates":[72.849741,19.0462612]}},{"type":"Feature","properties":{"stop_id":"MUMMETRO_diamond_garden","stop_name":"Diamond Garden","stop_code":"","mode":"metro","operator":"Mumbai Metro operators","source_feed_id":"mumbai_metro_unofficial_constructed"},"geometry":{"type":"Point","coordinates":[72.9018378,19.0517191]}},{"type":"Feature","properties":{"stop_id":"MUMMETRO_dindoshi","stop_name":"Dindoshi","stop_code":"","mode":"metro","operator":"Mumbai Metro operators","source_feed_id":"mumbai_metro_unofficial_constructed"},"geometry":{"type":"Point","coordinates":[72.8582976,19.1797579]}},{"type":"Feature","properties":{"stop_id":"MUMMETRO_eksar","stop_name":"Eksar","stop_code":"","mode":"metro","operator":"Mumbai Metro operators","source_feed_id":"mumbai_metro_unofficial_constructed"},"geometry":{"type":"Point","coordinates":[72.8434456,19.2403773]}},{"type":"Feature","properties":{"stop_id":"MUMMETRO_ghatkopar_metro","stop_name":"Ghatkopar Metro","stop_code":"","mode":"metro","operator":"Mumbai Metro operators","source_feed_id":"mumbai_metro_unofficial_constructed"},"geometry":{"type":"Point","coordinates":[72.9081226,19.086286]}},{"type":"Feature","properties":{"stop_id":"MUMMETRO_girgaon","stop_name":"Girgaon","stop_code":"","mode":"metro","operator":"Mumbai Metro operators","source_feed_id":"mumbai_metro_unofficial_constructed"},"geometry":{"type":"Point","coordinates":[72.8222065,18.9521015]}},{"type":"Feature","properties":{"stop_id":"MUMMETRO_goregaon_east","stop_name":"Goregaon (East)","stop_code":"","mode":"metro","operator":"Mumbai Metro operators","source_feed_id":"mumbai_metro_unofficial_constructed"},"geometry":{"type":"Point","coordinates":[72.8565966,19.1524492]}},{"type":"Feature","properties":{"stop_id":"MUMMETRO_goregaon_west","stop_name":"Goregaon (West)","stop_code":"","mode":"metro","operator":"Mumbai Metro operators","source_feed_id":"mumbai_metro_unofficial_constructed"},"geometry":{"type":"Point","coordinates":[72.8356664,19.1530241]}},{"type":"Feature","properties":{"stop_id":"MUMMETRO_grant_road","stop_name":"Grant Road","stop_code":"","mode":"metro","operator":"Mumbai Metro operators","source_feed_id":"mumbai_metro_unofficial_constructed"},"geometry":{"type":"Point","coordinates":[72.8158261,18.9633549]}},{"type":"Feature","properties":{"stop_id":"MUMMETRO_gundavali","stop_name":"Gundavali","stop_code":"","mode":"metro","operator":"Mumbai Metro operators","source_feed_id":"mumbai_metro_unofficial_constructed"},"geometry":{"type":"Point","coordinates":[72.8551556,19.1145125]}},{"type":"Feature","properties":{"stop_id":"MUMMETRO_hutatma_chowk","stop_name":"Hutatma Chowk","stop_code":"","mode":"metro","operator":"Mumbai Metro operators","source_feed_id":"mumbai_metro_unofficial_constructed"},"geometry":{"type":"Point","coordinates":[72.8325037,18.9341849]}},{"type":"Feature","properties":{"stop_id":"MUMMETRO_jagannath_shankar_sheth_metro","stop_name":"Jagannath Shankar Sheth Metro","stop_code":"","mode":"metro","operator":"Mumbai Metro operators","source_feed_id":"mumbai_metro_unofficial_constructed"},"geometry":{"type":"Point","coordinates":[72.8211795,18.9699923]}},{"type":"Feature","properties":{"stop_id":"MUMMETRO_jagruti_nagar","stop_name":"Jagruti Nagar","stop_code":"","mode":"metro","operator":"Mumbai Metro operators","source_feed_id":"mumbai_metro_unofficial_constructed"},"geometry":{"type":"Point","coordinates":[72.9032561,19.0918406]}},{"type":"Feature","properties":{"stop_id":"MUMMETRO_jogeshwari_east","stop_name":"Jogeshwari (East)","stop_code":"","mode":"metro","operator":"Mumbai Metro operators","source_feed_id":"mumbai_metro_unofficial_constructed"},"geometry":{"type":"Point","coordinates":[72.855185,19.1429455]}},{"type":"Feature","properties":{"stop_id":"MUMMETRO_kalbadevi","stop_name":"Kalbadevi","stop_code":"","mode":"metro","operator":"Mumbai Metro operators","source_feed_id":"mumbai_metro_unofficial_constructed"},"geometry":{"type":"Point","coordinates":[72.827193,18.946329]}},{"type":"Feature","properties":{"stop_id":"MUMMETRO_kandarpada","stop_name":"Kandarpada","stop_code":"","mode":"metro","operator":"Mumbai Metro operators","source_feed_id":"mumbai_metro_unofficial_constructed"},"geometry":{"type":"Point","coordinates":[72.850504,19.2566337]}},{"type":"Feature","properties":{"stop_id":"MUMMETRO_kandivali_west","stop_name":"Kandivali (West)","stop_code":"","mode":"metro","operator":"Mumbai Metro operators","source_feed_id":"mumbai_metro_unofficial_constructed"},"geometry":{"type":"Point","coordinates":[72.8373054,19.2140036]}},{"type":"Feature","properties":{"stop_id":"MUMMETRO_kashigaon","stop_name":"Kashigaon","stop_code":"","mode":"metro","operator":"Mumbai Metro operators","source_feed_id":"mumbai_metro_unofficial_constructed"},"geometry":{"type":"Point","coordinates":[72.8802398,19.2776661]}},{"type":"Feature","properties":{"stop_id":"MUMMETRO_kurar","stop_name":"Kurar","stop_code":"","mode":"metro","operator":"Mumbai Metro operators","source_feed_id":"mumbai_metro_unofficial_constructed"},"geometry":{"type":"Point","coordinates":[72.8584547,19.1872999]}},{"type":"Feature","properties":{"stop_id":"MUMMETRO_lower_malad","stop_name":"Lower Malad","stop_code":"","mode":"metro","operator":"Mumbai Metro operators","source_feed_id":"mumbai_metro_unofficial_constructed"},"geometry":{"type":"Point","coordinates":[72.8364801,19.1730984]}},{"type":"Feature","properties":{"stop_id":"MUMMETRO_lower_oshiwara","stop_name":"Lower Oshiwara","stop_code":"","mode":"metro","operator":"Mumbai Metro operators","source_feed_id":"mumbai_metro_unofficial_constructed"},"geometry":{"type":"Point","coordinates":[72.8317139,19.1406979]}},{"type":"Feature","properties":{"stop_id":"MUMMETRO_midc_andheri","stop_name":"MIDC - Andheri","stop_code":"","mode":"metro","operator":"Mumbai Metro operators","source_feed_id":"mumbai_metro_unofficial_constructed"},"geometry":{"type":"Point","coordinates":[72.8735966,19.1173537]}},{"type":"Feature","properties":{"stop_id":"MUMMETRO_magathane","stop_name":"Magathane","stop_code":"","mode":"metro","operator":"Mumbai Metro operators","source_feed_id":"mumbai_metro_unofficial_constructed"},"geometry":{"type":"Point","coordinates":[72.8668012,19.2167968]}},{"type":"Feature","properties":{"stop_id":"MUMMETRO_mahalaxmi","stop_name":"Mahalaxmi","stop_code":"","mode":"metro","operator":"Mumbai Metro operators","source_feed_id":"mumbai_metro_unofficial_constructed"},"geometry":{"type":"Point","coordinates":[72.8242196,18.9825203]}},{"type":"Feature","properties":{"stop_id":"MUMMETRO_malad_west","stop_name":"Malad (West)","stop_code":"","mode":"metro","operator":"Mumbai Metro operators","source_feed_id":"mumbai_metro_unofficial_constructed"},"geometry":{"type":"Point","coordinates":[72.8358611,19.1852851]}},{"type":"Feature","properties":{"stop_id":"MUMMETRO_mandale","stop_name":"Mandale","stop_code":"","mode":"metro","operator":"Mumbai Metro operators","source_feed_id":"mumbai_metro_unofficial_constructed"},"geometry":{"type":"Point","coordinates":[72.9386612,19.0495916]}},{"type":"Feature","properties":{"stop_id":"MUMMETRO_mandapeshwar_i_c_colony","stop_name":"Mandapeshwar - I.C. Colony","stop_code":"","mode":"metro","operator":"Mumbai Metro operators","source_feed_id":"mumbai_metro_unofficial_constructed"},"geometry":{"type":"Point","coordinates":[72.8458001,19.2495856]}},{"type":"Feature","properties":{"stop_id":"MUMMETRO_mankhurd","stop_name":"Mankhurd","stop_code":"","mode":"metro","operator":"Mumbai Metro operators","source_feed_id":"mumbai_metro_unofficial_constructed"},"geometry":{"type":"Point","coordinates":[72.9317136,19.0482086]}},{"type":"Feature","properties":{"stop_id":"MUMMETRO_marol_naka_line_3","stop_name":"Marol Naka (Line 3)","stop_code":"","mode":"metro","operator":"Mumbai Metro operators","source_feed_id":"mumbai_metro_unofficial_constructed"},"geometry":{"type":"Point","coordinates":[72.878578,19.1085041]}},{"type":"Feature","properties":{"stop_id":"MUMMETRO_marol_naka_line_1","stop_name":"Marol Naka Line 1","stop_code":"","mode":"metro","operator":"Mumbai Metro operators","source_feed_id":"mumbai_metro_unofficial_constructed"},"geometry":{"type":"Point","coordinates":[72.8812377,19.1075648]}},{"type":"Feature","properties":{"stop_id":"MUMMETRO_miragaon","stop_name":"Miragaon","stop_code":"","mode":"metro","operator":"Mumbai Metro operators","source_feed_id":"mumbai_metro_unofficial_constructed"},"geometry":{"type":"Point","coordinates":[72.8806976,19.2710068]}},{"type":"Feature","properties":{"stop_id":"MUMMETRO_mogra","stop_name":"Mogra","stop_code":"","mode":"metro","operator":"Mumbai Metro operators","source_feed_id":"mumbai_metro_unofficial_constructed"},"geometry":{"type":"Point","coordinates":[72.8554558,19.1284364]}},{"type":"Feature","properties":{"stop_id":"MUMMETRO_oshiwara","stop_name":"Oshiwara","stop_code":"","mode":"metro","operator":"Mumbai Metro operators","source_feed_id":"mumbai_metro_unofficial_constructed"},"geometry":{"type":"Point","coordinates":[72.833952,19.1460351]}},{"type":"Feature","properties":{"stop_id":"MUMMETRO_ovaripada","stop_name":"Ovaripada","stop_code":"","mode":"metro","operator":"Mumbai Metro operators","source_feed_id":"mumbai_metro_unofficial_constructed"},"geometry":{"type":"Point","coordinates":[72.8641377,19.2431487]}},{"type":"Feature","properties":{"stop_id":"MUMMETRO_pandurang_wadi","stop_name":"Pandurang Wadi","stop_code":"","mode":"metro","operator":"Mumbai Metro operators","source_feed_id":"mumbai_metro_unofficial_constructed"},"geometry":{"type":"Point","coordinates":[72.8726403,19.2600987]}},{"type":"Feature","properties":{"stop_id":"MUMMETRO_poisar","stop_name":"Poisar","stop_code":"","mode":"metro","operator":"Mumbai Metro operators","source_feed_id":"mumbai_metro_unofficial_constructed"},"geometry":{"type":"Point","coordinates":[72.8631041,19.2035171]}},{"type":"Feature","properties":{"stop_id":"MUMMETRO_rashtriya_udyan","stop_name":"Rashtriya Udyan","stop_code":"","mode":"metro","operator":"Mumbai Metro operators","source_feed_id":"mumbai_metro_unofficial_constructed"},"geometry":{"type":"Point","coordinates":[72.8631372,19.2346141]}},{"type":"Feature","properties":{"stop_id":"MUMMETRO_seepz","stop_name":"SEEPZ","stop_code":"","mode":"metro","operator":"Mumbai Metro operators","source_feed_id":"mumbai_metro_unofficial_constructed"},"geometry":{"type":"Point","coordinates":[72.8737266,19.1259985]}},{"type":"Feature","properties":{"stop_id":"MUMMETRO_sahar_road","stop_name":"Sahar Road","stop_code":"","mode":"metro","operator":"Mumbai Metro operators","source_feed_id":"mumbai_metro_unofficial_constructed"},"geometry":{"type":"Point","coordinates":[72.8652361,19.102196]}},{"type":"Feature","properties":{"stop_id":"MUMMETRO_saki_naka","stop_name":"Saki Naka","stop_code":"","mode":"metro","operator":"Mumbai Metro operators","source_feed_id":"mumbai_metro_unofficial_constructed"},"geometry":{"type":"Point","coordinates":[72.8888791,19.1029699]}},{"type":"Feature","properties":{"stop_id":"MUMMETRO_santacruz","stop_name":"Santacruz","stop_code":"","mode":"metro","operator":"Mumbai Metro operators","source_feed_id":"mumbai_metro_unofficial_constructed"},"geometry":{"type":"Point","coordinates":[72.8471185,19.0792887]}},{"type":"Feature","properties":{"stop_id":"MUMMETRO_science_centre","stop_name":"Science Centre","stop_code":"","mode":"metro","operator":"Mumbai Metro operators","source_feed_id":"mumbai_metro_unofficial_constructed"},"geometry":{"type":"Point","coordinates":[72.8213521,18.9908949]}},{"type":"Feature","properties":{"stop_id":"MUMMETRO_shimpoli","stop_name":"Shimpoli","stop_code":"","mode":"metro","operator":"Mumbai Metro operators","source_feed_id":"mumbai_metro_unofficial_constructed"},"geometry":{"type":"Point","coordinates":[72.8409432,19.2228332]}},{"type":"Feature","properties":{"stop_id":"MUMMETRO_shitala_devi_mandir","stop_name":"Shitala Devi Mandir","stop_code":"","mode":"metro","operator":"Mumbai Metro operators","source_feed_id":"mumbai_metro_unofficial_constructed"},"geometry":{"type":"Point","coordinates":[72.8419646,19.0384641]}},{"type":"Feature","properties":{"stop_id":"MUMMETRO_shivaji_chowk","stop_name":"Shivaji Chowk","stop_code":"","mode":"metro","operator":"Mumbai Metro operators","source_feed_id":"mumbai_metro_unofficial_constructed"},"geometry":{"type":"Point","coordinates":[72.9069806,19.0479383]}},{"type":"Feature","properties":{"stop_id":"MUMMETRO_siddhivinayak_temple","stop_name":"Siddhivinayak Temple","stop_code":"","mode":"metro","operator":"Mumbai Metro operators","source_feed_id":"mumbai_metro_unofficial_constructed"},"geometry":{"type":"Point","coordinates":[72.8309199,19.0158935]}},{"type":"Feature","properties":{"stop_id":"MUMMETRO_valnai_meeth_chowky","stop_name":"Valnai-Meeth Chowky","stop_code":"","mode":"metro","operator":"Mumbai Metro operators","source_feed_id":"mumbai_metro_unofficial_constructed"},"geometry":{"type":"Point","coordinates":[72.8337752,19.1968293]}},{"type":"Feature","properties":{"stop_id":"MUMMETRO_versova","stop_name":"Versova","stop_code":"","mode":"metro","operator":"Mumbai Metro operators","source_feed_id":"mumbai_metro_unofficial_constructed"},"geometry":{"type":"Point","coordinates":[72.8213871,19.1302777]}},{"type":"Feature","properties":{"stop_id":"MUMMETRO_vidhan_bhavan","stop_name":"Vidhan Bhavan","stop_code":"","mode":"metro","operator":"Mumbai Metro operators","source_feed_id":"mumbai_metro_unofficial_constructed"},"geometry":{"type":"Point","coordinates":[72.8254934,18.9247813]}},{"type":"Feature","properties":{"stop_id":"MUMMETRO_western_express_highway","stop_name":"Western Express Highway","stop_code":"","mode":"metro","operator":"Mumbai Metro operators","source_feed_id":"mumbai_metro_unofficial_constructed"},"geometry":{"type":"Point","coordinates":[72.8550575,19.1166916]}},{"type":"Feature","properties":{"stop_id":"MUMMETRO_worli","stop_name":"Worli","stop_code":"","mode":"metro","operator":"Mumbai Metro operators","source_feed_id":"mumbai_metro_unofficial_constructed"},"geometry":{"type":"Point","coordinates":[72.8192741,19.0086057]}}]}