{"type":"FeatureCollection","features":[{"type":"Feature","properties":{"stop_id":"ABH","stop_name":"AMBARNATH","operator":"Indian Railways","mode":"suburban_rail","source":"MobilityData Indian Railways GTFS (unofficial data)"},"geometry":{"type":"Point","coordinates":[73.184416,19.210042]}},{"type":"Feature","properties":{"stop_id":"ABY","stop_name":"AMBIVLI","operator":"Indian Railways","mode":"suburban_rail","source":"MobilityData Indian Railways GTFS (unofficial data)"},"geometry":{"type":"Point","coordinates":[73.1715,19.2673]}},{"type":"Feature","properties":{"stop_id":"ADH","stop_name":"ANDHERI","operator":"Indian Railways","mode":"suburban_rail","source":"MobilityData Indian Railways GTFS (unofficial data)"},"geometry":{"type":"Point","coordinates":[72.846563,19.117139]}},{"type":"Feature","properties":{"stop_id":"APTA","stop_name":"APTA","operator":"Indian Railways","mode":"suburban_rail","source":"MobilityData Indian Railways GTFS (unofficial data)"},"geometry":{"type":"Point","coordinates":[73.1528,18.8636]}},{"type":"Feature","properties":{"stop_id":"ASO","stop_name":"ASANGAON","operator":"Indian Railways","mode":"suburban_rail","source":"MobilityData Indian Railways GTFS (unofficial data)"},"geometry":{"type":"Point","coordinates":[73.3078,19.4392]}},{"type":"Feature","properties":{"stop_id":"BUD","stop_name":"BADLAPUR","operator":"Indian Railways","mode":"suburban_rail","source":"MobilityData Indian Railways GTFS (unofficial data)"},"geometry":{"type":"Point","coordinates":[73.2393,19.1667]}},{"type":"Feature","properties":{"stop_id":"BA","stop_name":"BANDRA","operator":"Indian Railways","mode":"suburban_rail","source":"MobilityData Indian Railways GTFS (unofficial data)"},"geometry":{"type":"Point","coordinates":[72.8406,19.0546]}},{"type":"Feature","properties":{"stop_id":"BDTS","stop_name":"BANDRA TERMINUS","operator":"Indian Railways","mode":"suburban_rail","source":"MobilityData Indian Railways GTFS (unofficial data)"},"geometry":{"type":"Point","coordinates":[72.840965,19.062341]}},{"type":"Feature","properties":{"stop_id":"CHG","stop_name":"BBY CHINCHPKILI","operator":"Indian Railways","mode":"suburban_rail","source":"MobilityData Indian Railways GTFS (unofficial data)"},"geometry":{"type":"Point","coordinates":[72.832789,18.986919]}},{"type":"Feature","properties":{"stop_id":"BEPR","stop_name":"BELAPUR CBD","operator":"Indian Railways","mode":"suburban_rail","source":"MobilityData Indian Railways GTFS (unofficial data)"},"geometry":{"type":"Point","coordinates":[73.038676,19.018711]}},{"type":"Feature","properties":{"stop_id":"BND","stop_name":"BHANDUP","operator":"Indian Railways","mode":"suburban_rail","source":"MobilityData Indian Railways GTFS (unofficial data)"},"geometry":{"type":"Point","coordinates":[72.937535,19.14231]}},{"type":"Feature","properties":{"stop_id":"BYR","stop_name":"BHAYANDAR","operator":"Indian Railways","mode":"suburban_rail","source":"MobilityData Indian Railways GTFS (unofficial data)"},"geometry":{"type":"Point","coordinates":[72.852659,19.311386]}},{"type":"Feature","properties":{"stop_id":"BIRD","stop_name":"BHIVANDI ROAD","operator":"Indian Railways","mode":"suburban_rail","source":"MobilityData Indian Railways GTFS (unofficial data)"},"geometry":{"type":"Point","coordinates":[73.045864,19.268754]}},{"type":"Feature","properties":{"stop_id":"BVS","stop_name":"BHIVPURI ROAD","operator":"Indian Railways","mode":"suburban_rail","source":"MobilityData Indian Railways GTFS (unofficial data)"},"geometry":{"type":"Point","coordinates":[73.3312,18.9706]}},{"type":"Feature","properties":{"stop_id":"CYR","stop_name":"BMBY CHARNI RD","operator":"Indian Railways","mode":"suburban_rail","source":"MobilityData Indian Railways GTFS (unofficial data)"},"geometry":{"type":"Point","coordinates":[72.8185,18.9515]}},{"type":"Feature","properties":{"stop_id":"CCG","stop_name":"BMBY CHURCH GTE","operator":"Indian Railways","mode":"suburban_rail","source":"MobilityData Indian Railways GTFS (unofficial data)"},"geometry":{"type":"Point","coordinates":[72.827253,18.934887]}},{"type":"Feature","properties":{"stop_id":"CRD","stop_name":"BMBY CURREY RD","operator":"Indian Railways","mode":"suburban_rail","source":"MobilityData Indian Railways GTFS (unofficial data)"},"geometry":{"type":"Point","coordinates":[72.83294,18.99398]}},{"type":"Feature","properties":{"stop_id":"MEL","stop_name":"BMBY MARINE LNS","operator":"Indian Railways","mode":"suburban_rail","source":"MobilityData Indian Railways GTFS (unofficial data)"},"geometry":{"type":"Point","coordinates":[72.8237,18.9456]}},{"type":"Feature","properties":{"stop_id":"GTR","stop_name":"BOMBAY GRNT RD","operator":"Indian Railways","mode":"suburban_rail","source":"MobilityData Indian Railways GTFS (unofficial data)"},"geometry":{"type":"Point","coordinates":[72.8161,18.9636]}},{"type":"Feature","properties":{"stop_id":"BVI","stop_name":"BORIVALI","operator":"Indian Railways","mode":"suburban_rail","source":"MobilityData Indian Railways GTFS (unofficial data)"},"geometry":{"type":"Point","coordinates":[72.856822,19.229149]}},{"type":"Feature","properties":{"stop_id":"SNRD","stop_name":"BY SANDHURST RD","operator":"Indian Railways","mode":"suburban_rail","source":"MobilityData Indian Railways GTFS (unofficial data)"},"geometry":{"type":"Point","coordinates":[72.839463,18.962041]}},{"type":"Feature","properties":{"stop_id":"BY","stop_name":"BYCULLA","operator":"Indian Railways","mode":"suburban_rail","source":"MobilityData Indian Railways GTFS (unofficial data)"},"geometry":{"type":"Point","coordinates":[72.8328,18.9765]}},{"type":"Feature","properties":{"stop_id":"CSMT","stop_name":"C SHIVAJI MAH T","operator":"Indian Railways","mode":"suburban_rail","source":"MobilityData Indian Railways GTFS (unofficial data)"},"geometry":{"type":"Point","coordinates":[72.836523,18.944101]}},{"type":"Feature","properties":{"stop_id":"CMBR","stop_name":"CHEMBUR","operator":"Indian Railways","mode":"suburban_rail","source":"MobilityData Indian Railways GTFS (unofficial data)"},"geometry":{"type":"Point","coordinates":[72.901336,19.062503]}},{"type":"Feature","properties":{"stop_id":"CHF","stop_name":"CHUNNABHATTI","operator":"Indian Railways","mode":"suburban_rail","source":"MobilityData Indian Railways GTFS (unofficial data)"},"geometry":{"type":"Point","coordinates":[72.86901,19.051389]}},{"type":"Feature","properties":{"stop_id":"CTGN","stop_name":"COTTON GREEN","operator":"Indian Railways","mode":"suburban_rail","source":"MobilityData Indian Railways GTFS (unofficial data)"},"geometry":{"type":"Point","coordinates":[72.843322,18.986594]}},{"type":"Feature","properties":{"stop_id":"DDR","stop_name":"DADAR","operator":"Indian Railways","mode":"suburban_rail","source":"MobilityData Indian Railways GTFS (unofficial data)"},"geometry":{"type":"Point","coordinates":[72.843175,19.019441]}},{"type":"Feature","properties":{"stop_id":"DR","stop_name":"DADAR","operator":"Indian Railways","mode":"suburban_rail","source":"MobilityData Indian Railways GTFS (unofficial data)"},"geometry":{"type":"Point","coordinates":[72.842982,19.017189]}},{"type":"Feature","properties":{"stop_id":"DIC","stop_name":"DAHISAR","operator":"Indian Railways","mode":"suburban_rail","source":"MobilityData Indian Railways GTFS (unofficial data)"},"geometry":{"type":"Point","coordinates":[72.8593,19.2499]}},{"type":"Feature","properties":{"stop_id":"DTVL","stop_name":"DATIVALI CABIN","operator":"Indian Railways","mode":"suburban_rail","source":"MobilityData Indian Railways GTFS (unofficial data)"},"geometry":{"type":"Point","coordinates":[73.059039,19.187002]}},{"type":"Feature","properties":{"stop_id":"DIVA","stop_name":"DIVA","operator":"Indian Railways","mode":"suburban_rail","source":"MobilityData Indian Railways GTFS (unofficial data)"},"geometry":{"type":"Point","coordinates":[73.0421,19.1886]}},{"type":"Feature","properties":{"stop_id":"DKRD","stop_name":"DOCKYARD ROAD","operator":"Indian Railways","mode":"suburban_rail","source":"MobilityData Indian Railways GTFS (unofficial data)"},"geometry":{"type":"Point","coordinates":[72.844194,18.966343]}},{"type":"Feature","properties":{"stop_id":"DI","stop_name":"DOMBIVLI","operator":"Indian Railways","mode":"suburban_rail","source":"MobilityData Indian Railways GTFS (unofficial data)"},"geometry":{"type":"Point","coordinates":[73.08687,19.218188]}},{"type":"Feature","properties":{"stop_id":"GC","stop_name":"GHAT KOPAR","operator":"Indian Railways","mode":"suburban_rail","source":"MobilityData Indian Railways GTFS (unofficial data)"},"geometry":{"type":"Point","coordinates":[72.908471,19.085865]}},{"type":"Feature","properties":{"stop_id":"GV","stop_name":"GOVANDAI","operator":"Indian Railways","mode":"suburban_rail","source":"MobilityData Indian Railways GTFS (unofficial data)"},"geometry":{"type":"Point","coordinates":[72.915541,19.05504]}},{"type":"Feature","properties":{"stop_id":"GTBN","stop_name":"GURU T B NAGAR","operator":"Indian Railways","mode":"suburban_rail","source":"MobilityData Indian Railways GTFS (unofficial data)"},"geometry":{"type":"Point","coordinates":[72.864193,19.037759]}},{"type":"Feature","properties":{"stop_id":"HMRR","stop_name":"HAMARAPUR","operator":"Indian Railways","mode":"suburban_rail","source":"MobilityData Indian Railways GTFS (unofficial data)"},"geometry":{"type":"Point","coordinates":[73.0865,18.82]}},{"type":"Feature","properties":{"stop_id":"JITE","stop_name":"JITE","operator":"Indian Railways","mode":"suburban_rail","source":"MobilityData Indian Railways GTFS (unofficial data)"},"geometry":{"type":"Point","coordinates":[73.119507,18.841964]}},{"type":"Feature","properties":{"stop_id":"JCNR","stop_name":"JUCHANDRA","operator":"Indian Railways","mode":"suburban_rail","source":"MobilityData Indian Railways GTFS (unofficial data)"},"geometry":{"type":"Point","coordinates":[72.872711,19.360122]}},{"type":"Feature","properties":{"stop_id":"JNJ","stop_name":"JUI NAGAR","operator":"Indian Railways","mode":"suburban_rail","source":"MobilityData Indian Railways GTFS (unofficial data)"},"geometry":{"type":"Point","coordinates":[73.018141,19.055526]}},{"type":"Feature","properties":{"stop_id":"KLMG","stop_name":"KALAMBOLI GOODS","operator":"Indian Railways","mode":"suburban_rail","source":"MobilityData Indian Railways GTFS (unofficial data)"},"geometry":{"type":"Point","coordinates":[73.1145,19.0346]}},{"type":"Feature","properties":{"stop_id":"KLVA","stop_name":"KALVA","operator":"Indian Railways","mode":"suburban_rail","source":"MobilityData Indian Railways GTFS (unofficial data)"},"geometry":{"type":"Point","coordinates":[72.997541,19.195939]}},{"type":"Feature","properties":{"stop_id":"KYN","stop_name":"KALYAN JN","operator":"Indian Railways","mode":"suburban_rail","source":"MobilityData Indian Railways GTFS (unofficial data)"},"geometry":{"type":"Point","coordinates":[73.13015,19.235126]}},{"type":"Feature","properties":{"stop_id":"KARD","stop_name":"KAMAN ROAD","operator":"Indian Railways","mode":"suburban_rail","source":"MobilityData Indian Railways GTFS (unofficial data)"},"geometry":{"type":"Point","coordinates":[72.9186,19.336]}},{"type":"Feature","properties":{"stop_id":"KJRD","stop_name":"KANJUR MARG","operator":"Indian Railways","mode":"suburban_rail","source":"MobilityData Indian Railways GTFS (unofficial data)"},"geometry":{"type":"Point","coordinates":[72.928061,19.128201]}},{"type":"Feature","properties":{"stop_id":"KJT","stop_name":"KARJAT","operator":"Indian Railways","mode":"suburban_rail","source":"MobilityData Indian Railways GTFS (unofficial data)"},"geometry":{"type":"Point","coordinates":[73.3206,18.9111]}},{"type":"Feature","properties":{"stop_id":"KDV","stop_name":"KHADAVLI","operator":"Indian Railways","mode":"suburban_rail","source":"MobilityData Indian Railways GTFS (unofficial data)"},"geometry":{"type":"Point","coordinates":[73.219,19.3565]}},{"type":"Feature","properties":{"stop_id":"KNDS","stop_name":"KHANDESHWAR","operator":"Indian Railways","mode":"suburban_rail","source":"MobilityData Indian Railways GTFS (unofficial data)"},"geometry":{"type":"Point","coordinates":[73.095388,19.007441]}},{"type":"Feature","properties":{"stop_id":"KHBV","stop_name":"KHARBAO","operator":"Indian Railways","mode":"suburban_rail","source":"MobilityData Indian Railways GTFS (unofficial data)"},"geometry":{"type":"Point","coordinates":[72.983894,19.297697]}},{"type":"Feature","properties":{"stop_id":"KHAG","stop_name":"KHARGHAR","operator":"Indian Railways","mode":"suburban_rail","source":"MobilityData Indian Railways GTFS (unofficial data)"},"geometry":{"type":"Point","coordinates":[73.059189,19.025851]}},{"type":"Feature","properties":{"stop_id":"KOPR","stop_name":"KOPAR","operator":"Indian Railways","mode":"suburban_rail","source":"MobilityData Indian Railways GTFS (unofficial data)"},"geometry":{"type":"Point","coordinates":[73.077471,19.210975]}},{"type":"Feature","properties":{"stop_id":"KORU","stop_name":"KOPAR UPPER LEVEL","operator":"Indian Railways","mode":"suburban_rail","source":"MobilityData Indian Railways GTFS (unofficial data)"},"geometry":{"type":"Point","coordinates":[73.0782919,19.2135286]}},{"type":"Feature","properties":{"stop_id":"CLA","stop_name":"KURLA JN","operator":"Indian Railways","mode":"suburban_rail","source":"MobilityData Indian Railways GTFS (unofficial data)"},"geometry":{"type":"Point","coordinates":[72.8793,19.0652]}},{"type":"Feature","properties":{"stop_id":"LTT","stop_name":"LOKMANYATILAK","operator":"Indian Railways","mode":"suburban_rail","source":"MobilityData Indian Railways GTFS (unofficial data)"},"geometry":{"type":"Point","coordinates":[72.891669,19.07025]}},{"type":"Feature","properties":{"stop_id":"MNKD","stop_name":"MANKHURD","operator":"Indian Railways","mode":"suburban_rail","source":"MobilityData Indian Railways GTFS (unofficial data)"},"geometry":{"type":"Point","coordinates":[72.930851,19.047839]}},{"type":"Feature","properties":{"stop_id":"MANR","stop_name":"MANSAROVAR","operator":"Indian Railways","mode":"suburban_rail","source":"MobilityData Indian Railways GTFS (unofficial data)"},"geometry":{"type":"Point","coordinates":[73.080539,19.016367]}},{"type":"Feature","properties":{"stop_id":"MIRA","stop_name":"MIRA ROAD","operator":"Indian Railways","mode":"suburban_rail","source":"MobilityData Indian Railways GTFS (unofficial data)"},"geometry":{"type":"Point","coordinates":[72.856,19.2803]}},{"type":"Feature","properties":{"stop_id":"MLND","stop_name":"MULUND","operator":"Indian Railways","mode":"suburban_rail","source":"MobilityData Indian Railways GTFS (unofficial data)"},"geometry":{"type":"Point","coordinates":[72.956643,19.172065]}},{"type":"Feature","properties":{"stop_id":"MMCT","stop_name":"MUMBAI CENTRAL","operator":"Indian Railways","mode":"suburban_rail","source":"MobilityData Indian Railways GTFS (unofficial data)"},"geometry":{"type":"Point","coordinates":[72.819443,18.970727]}},{"type":"Feature","properties":{"stop_id":"BCL","stop_name":"MUMBAI CENTRAL(L)","operator":"Indian Railways","mode":"suburban_rail","source":"MobilityData Indian Railways GTFS (unofficial data)"},"geometry":{"type":"Point","coordinates":[72.8144371,18.9696253]}},{"type":"Feature","properties":{"stop_id":"MSD","stop_name":"MUMBAI MASJID","operator":"Indian Railways","mode":"suburban_rail","source":"MobilityData Indian Railways GTFS (unofficial data)"},"geometry":{"type":"Point","coordinates":[72.838111,18.951935]}},{"type":"Feature","properties":{"stop_id":"MTN","stop_name":"MUMBAI MATUNGA","operator":"Indian Railways","mode":"suburban_rail","source":"MobilityData Indian Railways GTFS (unofficial data)"},"geometry":{"type":"Point","coordinates":[72.850192,19.027697]}},{"type":"Feature","properties":{"stop_id":"PR","stop_name":"MUMBAI PAREL","operator":"Indian Railways","mode":"suburban_rail","source":"MobilityData Indian Railways GTFS (unofficial data)"},"geometry":{"type":"Point","coordinates":[72.837574,19.009115]}},{"type":"Feature","properties":{"stop_id":"MBQ","stop_name":"MUMBRA","operator":"Indian Railways","mode":"suburban_rail","source":"MobilityData Indian Railways GTFS (unofficial data)"},"geometry":{"type":"Point","coordinates":[73.02314,19.190103]}},{"type":"Feature","properties":{"stop_id":"NHU","stop_name":"NAHUR","operator":"Indian Railways","mode":"suburban_rail","source":"MobilityData Indian Railways GTFS (unofficial data)"},"geometry":{"type":"Point","coordinates":[72.946773,19.154736]}},{"type":"Feature","properties":{"stop_id":"NIG","stop_name":"NAIGAON","operator":"Indian Railways","mode":"suburban_rail","source":"MobilityData Indian Railways GTFS (unofficial data)"},"geometry":{"type":"Point","coordinates":[72.8463,19.3513]}},{"type":"Feature","properties":{"stop_id":"NSP","stop_name":"NALLA SOPARA","operator":"Indian Railways","mode":"suburban_rail","source":"MobilityData Indian Railways GTFS (unofficial data)"},"geometry":{"type":"Point","coordinates":[72.819,19.4177]}},{"type":"Feature","properties":{"stop_id":"NVRD","stop_name":"NAVADE ROAD","operator":"Indian Railways","mode":"suburban_rail","source":"MobilityData Indian Railways GTFS (unofficial data)"},"geometry":{"type":"Point","coordinates":[73.103156,19.052829]}},{"type":"Feature","properties":{"stop_id":"NRL","stop_name":"NERAL","operator":"Indian Railways","mode":"suburban_rail","source":"MobilityData Indian Railways GTFS (unofficial data)"},"geometry":{"type":"Point","coordinates":[73.3185,19.0266]}},{"type":"Feature","properties":{"stop_id":"NEU","stop_name":"NERUL","operator":"Indian Railways","mode":"suburban_rail","source":"MobilityData Indian Railways GTFS (unofficial data)"},"geometry":{"type":"Point","coordinates":[73.018141,19.033235]}},{"type":"Feature","properties":{"stop_id":"NIIJ","stop_name":"NILAJE","operator":"Indian Railways","mode":"suburban_rail","source":"MobilityData Indian Railways GTFS (unofficial data)"},"geometry":{"type":"Point","coordinates":[73.080068,19.155222]}},{"type":"Feature","properties":{"stop_id":"PDI","stop_name":"PALASDHARI","operator":"Indian Railways","mode":"suburban_rail","source":"MobilityData Indian Railways GTFS (unofficial data)"},"geometry":{"type":"Point","coordinates":[73.32078,18.88432]}},{"type":"Feature","properties":{"stop_id":"PNVL","stop_name":"PANVEL","operator":"Indian Railways","mode":"suburban_rail","source":"MobilityData Indian Railways GTFS (unofficial data)"},"geometry":{"type":"Point","coordinates":[73.121266,18.990429]}},{"type":"Feature","properties":{"stop_id":"RSYI","stop_name":"RASAYANI","operator":"Indian Railways","mode":"suburban_rail","source":"MobilityData Indian Railways GTFS (unofficial data)"},"geometry":{"type":"Point","coordinates":[73.1517,18.8938]}},{"type":"Feature","properties":{"stop_id":"RRD","stop_name":"REAY ROAD","operator":"Indian Railways","mode":"suburban_rail","source":"MobilityData Indian Railways GTFS (unofficial data)"},"geometry":{"type":"Point","coordinates":[72.844323,18.977058]}},{"type":"Feature","properties":{"stop_id":"SNCR","stop_name":"SANPADA","operator":"Indian Railways","mode":"suburban_rail","source":"MobilityData Indian Railways GTFS (unofficial data)"},"geometry":{"type":"Point","coordinates":[73.0093,19.066012]}},{"type":"Feature","properties":{"stop_id":"SWDK","stop_name":"SEAWOODS DARAVE KARAVE","operator":"Indian Railways","mode":"suburban_rail","source":"MobilityData Indian Railways GTFS (unofficial data)"},"geometry":{"type":"Point","coordinates":[73.01892,19.021918]}},{"type":"Feature","properties":{"stop_id":"SVE","stop_name":"SEWRI","operator":"Indian Railways","mode":"suburban_rail","source":"MobilityData Indian Railways GTFS (unofficial data)"},"geometry":{"type":"Point","coordinates":[72.854623,18.998971]}},{"type":"Feature","properties":{"stop_id":"SHAD","stop_name":"SHAHAD","operator":"Indian Railways","mode":"suburban_rail","source":"MobilityData Indian Railways GTFS (unofficial data)"},"geometry":{"type":"Point","coordinates":[73.1581,19.2442]}},{"type":"Feature","properties":{"stop_id":"SHLU","stop_name":"SHELU","operator":"Indian Railways","mode":"suburban_rail","source":"MobilityData Indian Railways GTFS (unofficial data)"},"geometry":{"type":"Point","coordinates":[73.317776,19.063375]}},{"type":"Feature","properties":{"stop_id":"SION","stop_name":"SION","operator":"Indian Railways","mode":"suburban_rail","source":"MobilityData Indian Railways GTFS (unofficial data)"},"geometry":{"type":"Point","coordinates":[72.8583906,19.0465101]}},{"type":"Feature","properties":{"stop_id":"SMNE","stop_name":"SOMATNE","operator":"Indian Railways","mode":"suburban_rail","source":"MobilityData Indian Railways GTFS (unofficial data)"},"geometry":{"type":"Point","coordinates":[73.145084,18.951793]}},{"type":"Feature","properties":{"stop_id":"TPND","stop_name":"TALOJA PANCHAND","operator":"Indian Railways","mode":"suburban_rail","source":"MobilityData Indian Railways GTFS (unofficial data)"},"geometry":{"type":"Point","coordinates":[73.0874,19.0789]}},{"type":"Feature","properties":{"stop_id":"THK","stop_name":"THAKURLI","operator":"Indian Railways","mode":"suburban_rail","source":"MobilityData Indian Railways GTFS (unofficial data)"},"geometry":{"type":"Point","coordinates":[73.097878,19.225968]}},{"type":"Feature","properties":{"stop_id":"TNA","stop_name":"THANE","operator":"Indian Railways","mode":"suburban_rail","source":"MobilityData Indian Railways GTFS (unofficial data)"},"geometry":{"type":"Point","coordinates":[72.975547,19.185887]}},{"type":"Feature","properties":{"stop_id":"TKNG","stop_name":"TILAKNAGAR","operator":"Indian Railways","mode":"suburban_rail","source":"MobilityData Indian Railways GTFS (unofficial data)"},"geometry":{"type":"Point","coordinates":[72.889738,19.065687]}},{"type":"Feature","properties":{"stop_id":"TLA","stop_name":"TITVALA","operator":"Indian Railways","mode":"suburban_rail","source":"MobilityData Indian Railways GTFS (unofficial data)"},"geometry":{"type":"Point","coordinates":[73.2029,19.2967]}},{"type":"Feature","properties":{"stop_id":"ULNR","stop_name":"ULHASNAGAR","operator":"Indian Railways","mode":"suburban_rail","source":"MobilityData Indian Railways GTFS (unofficial data)"},"geometry":{"type":"Point","coordinates":[73.1632,19.2179]}},{"type":"Feature","properties":{"stop_id":"VDLR","stop_name":"VADALA ROAD BBY","operator":"Indian Railways","mode":"suburban_rail","source":"MobilityData Indian Railways GTFS (unofficial data)"},"geometry":{"type":"Point","coordinates":[72.858839,19.015871]}},{"type":"Feature","properties":{"stop_id":"VTN","stop_name":"VAITARNA","operator":"Indian Railways","mode":"suburban_rail","source":"MobilityData Indian Railways GTFS (unofficial data)"},"geometry":{"type":"Point","coordinates":[72.8499,19.518]}},{"type":"Feature","properties":{"stop_id":"VGI","stop_name":"VANGANI","operator":"Indian Railways","mode":"suburban_rail","source":"MobilityData Indian Railways GTFS (unofficial data)"},"geometry":{"type":"Point","coordinates":[73.3008,19.0941]}},{"type":"Feature","properties":{"stop_id":"BSR","stop_name":"VASAI ROAD","operator":"Indian Railways","mode":"suburban_rail","source":"MobilityData Indian Railways GTFS (unofficial data)"},"geometry":{"type":"Point","coordinates":[72.832162,19.382389]}},{"type":"Feature","properties":{"stop_id":"VSH","stop_name":"VASHI","operator":"Indian Railways","mode":"suburban_rail","source":"MobilityData Indian Railways GTFS (unofficial data)"},"geometry":{"type":"Point","coordinates":[72.998657,19.063172]}},{"type":"Feature","properties":{"stop_id":"VSD","stop_name":"VASIND","operator":"Indian Railways","mode":"suburban_rail","source":"MobilityData Indian Railways GTFS (unofficial data)"},"geometry":{"type":"Point","coordinates":[73.2674,19.4062]}},{"type":"Feature","properties":{"stop_id":"VVH","stop_name":"VIDYAVIHAR","operator":"Indian Railways","mode":"suburban_rail","source":"MobilityData Indian Railways GTFS (unofficial data)"},"geometry":{"type":"Point","coordinates":[72.897441,19.079518]}},{"type":"Feature","properties":{"stop_id":"VK","stop_name":"VIKHROLI","operator":"Indian Railways","mode":"suburban_rail","source":"MobilityData Indian Railways GTFS (unofficial data)"},"geometry":{"type":"Point","coordinates":[72.9282,19.1118]}},{"type":"Feature","properties":{"stop_id":"VR","stop_name":"VIRAR","operator":"Indian Railways","mode":"suburban_rail","source":"MobilityData Indian Railways GTFS (unofficial data)"},"geometry":{"type":"Point","coordinates":[72.812147,19.454817]}},{"type":"Feature","properties":{"stop_id":"VLDI","stop_name":"VITHALWADI","operator":"Indian Railways","mode":"suburban_rail","source":"MobilityData Indian Railways GTFS (unofficial data)"},"geometry":{"type":"Point","coordinates":[73.1485,19.2287]}}]}