{"type": "FeatureCollection", "features": [{"type": "Feature", "geometry": {"type": "Point", "coordinates": [72.8465229, 19.3510925]}, "properties": {"name": "Naigaon", "ref": "NIG", "operator": "WR", "network": "Mumbai Suburban Railway", "source": "OpenStreetMap / BBBike (mumbai; first pass)"}}, {"type": "Feature", "geometry": {"type": "Point", "coordinates": [72.8526988, 19.3101847]}, "properties": {"name": "Bhayandar", "ref": "BYR", "operator": "WR", "network": "Mumbai Suburban Railway", "source": "OpenStreetMap / BBBike (mumbai; first pass)"}}, {"type": "Feature", "geometry": {"type": "Point", "coordinates": [72.9844677, 19.298321]}, "properties": {"name": "Kharbhav", "ref": "KHBV", "operator": "CR", "network": "IR", "source": "OpenStreetMap / BBBike (mumbai; first pass)"}}, {"type": "Feature", "geometry": {"type": "Point", "coordinates": [73.0463121, 19.2688735]}, "properties": {"name": "Bhivandi Road", "ref": "BIRD", "operator": "CR", "network": "IR", "source": "OpenStreetMap / BBBike (mumbai; first pass)"}}, {"type": "Feature", "geometry": {"type": "Point", "coordinates": [72.8596302, 19.2493572]}, "properties": {"name": "Dahisar", "ref": "DIC", "operator": "WR", "network": "Mumbai Suburban Railway", "source": "OpenStreetMap / BBBike (mumbai; first pass)"}}, {"type": "Feature", "geometry": {"type": "Point", "coordinates": [72.8417565, 19.0815223]}, "properties": {"name": "Santa Cruz", "ref": "STC", "operator": "WR", "network": "Mumbai Suburban Railway", "source": "OpenStreetMap / BBBike (mumbai; first pass)"}}, {"type": "Feature", "geometry": {"type": "Point", "coordinates": [72.9757664, 19.186483]}, "properties": {"name": "Thane", "ref": "TNA", "operator": "CR", "network": "IR", "source": "OpenStreetMap / BBBike (mumbai; first pass)"}}, {"type": "Feature", "geometry": {"type": "Point", "coordinates": [73.1491076, 19.2284195]}, "properties": {"name": "Vithalwadi", "ref": "VLDI", "operator": "CR", "network": "IR", "source": "OpenStreetMap / BBBike (mumbai; first pass)"}}, {"type": "Feature", "geometry": {"type": "Point", "coordinates": [72.8400412, 19.0682411]}, "properties": {"name": "Khar Road", "ref": "KHAR", "operator": "WR", "network": "Mumbai Suburban Railway", "source": "OpenStreetMap / BBBike (mumbai; first pass)"}}, {"type": "Feature", "geometry": {"type": "Point", "coordinates": [73.151941, 18.9737547]}, "properties": {"name": "Chikhale", "ref": "CKHS", "operator": "CR", "network": "IR", "source": "OpenStreetMap / BBBike (mumbai; first pass)"}}, {"type": "Feature", "geometry": {"type": "Point", "coordinates": [73.1532989, 18.8637081]}, "properties": {"name": "Apta", "ref": "APTA", "operator": "CR", "network": "IR", "source": "OpenStreetMap / BBBike (mumbai; first pass)"}}, {"type": "Feature", "geometry": {"type": "Point", "coordinates": [72.9963331, 19.1952243]}, "properties": {"name": "Kalva", "ref": "KLVA", "operator": "CR", "network": "IR", "source": "OpenStreetMap / BBBike (mumbai; first pass)"}}, {"type": "Feature", "geometry": {"type": "Point", "coordinates": [72.9280394, 19.1286526]}, "properties": {"name": "Kanjur Marg", "ref": "KJRD", "operator": "CR", "network": "IR", "source": "OpenStreetMap / BBBike (mumbai; first pass)"}}, {"type": "Feature", "geometry": {"type": "Point", "coordinates": [72.8971169, 19.0795422]}, "properties": {"name": "Vidyavihar", "ref": "VVH", "operator": "CR", "network": "IR", "source": "OpenStreetMap / BBBike (mumbai; first pass)"}}, {"type": "Feature", "geometry": {"type": "Point", "coordinates": [72.8302756, 18.99568]}, "properties": {"name": "Lower Parel", "ref": "PL", "operator": "WR", "network": "Mumbai Suburban Railway", "source": "OpenStreetMap / BBBike (mumbai; first pass)"}}, {"type": "Feature", "geometry": {"type": "Point", "coordinates": [73.0414169, 19.1887564]}, "properties": {"name": "Diva Junction", "ref": "DIVA", "operator": "CR", "network": "IR", "source": "OpenStreetMap / BBBike (mumbai; first pass)"}}, {"type": "Feature", "geometry": {"type": "Point", "coordinates": [72.8158261, 18.9633549]}, "properties": {"name": "Grant Road", "ref": "GTR", "operator": "WR", "network": "Mumbai Suburban Railway", "source": "OpenStreetMap / BBBike (mumbai; first pass)"}}, {"type": "Feature", "geometry": {"type": "Point", "coordinates": [72.8544218, 18.9987796]}, "properties": {"name": "Sewri", "ref": "SVE", "operator": "CR", "network": "IR", "source": "OpenStreetMap / BBBike (mumbai; first pass)"}}, {"type": "Feature", "geometry": {"type": "Point", "coordinates": [72.8438965, 18.9871866]}, "properties": {"name": "Cotton Green", "ref": "CTGN", "operator": "CR", "network": "IR", "source": "OpenStreetMap / BBBike (mumbai; first pass)"}}, {"type": "Feature", "geometry": {"type": "Point", "coordinates": [73.0230752, 19.1899425]}, "properties": {"name": "Mumbra", "ref": "MBQ", "operator": "CR", "network": "IR", "source": "OpenStreetMap / BBBike (mumbai; first pass)"}}, {"type": "Feature", "geometry": {"type": "Point", "coordinates": [73.0591806, 19.1871047]}, "properties": {"name": "Dativali", "ref": "DTVL", "operator": "CR", "network": "IR", "source": "OpenStreetMap / BBBike (mumbai; first pass)"}}, {"type": "Feature", "geometry": {"type": "Point", "coordinates": [73.0806552, 19.0164338]}, "properties": {"name": "Mansarovar", "ref": "MANR", "operator": "CR", "network": "Mumbai Suburban Railway Network", "source": "OpenStreetMap / BBBike (mumbai; first pass)"}}, {"type": "Feature", "geometry": {"type": "Point", "coordinates": [72.9566971, 19.1721366]}, "properties": {"name": "Mulund", "ref": "MLND", "operator": "CR", "network": "IR", "source": "OpenStreetMap / BBBike (mumbai; first pass)"}}, {"type": "Feature", "geometry": {"type": "Point", "coordinates": [73.0952827, 19.0073498]}, "properties": {"name": "Khandeshwar", "ref": "KNDS", "operator": "CR", "network": "Mumbai Suburban Railway Network", "source": "OpenStreetMap / BBBike (mumbai; first pass)"}}, {"type": "Feature", "geometry": {"type": "Point", "coordinates": [72.8577375, 19.0316822]}, "properties": {"name": "King's Circle", "ref": "KCE", "operator": "CR", "network": "IR", "source": "OpenStreetMap / BBBike (mumbai; first pass)"}}, {"type": "Feature", "geometry": {"type": "Point", "coordinates": [72.8393719, 18.9609243]}, "properties": {"name": "Sandhurst Road", "ref": "SNRD", "operator": "CR", "network": "IR", "source": "OpenStreetMap / BBBike (mumbai; first pass)"}}, {"type": "Feature", "geometry": {"type": "Point", "coordinates": [73.0980174, 19.2262813]}, "properties": {"name": "Thakurli", "ref": "THK", "operator": "CR", "network": "IR", "source": "OpenStreetMap / BBBike (mumbai; first pass)"}}, {"type": "Feature", "geometry": {"type": "Point", "coordinates": [72.8445477, 18.9674767]}, "properties": {"name": "Dockyard Road", "ref": "DKRD", "operator": "CR", "network": "IR", "source": "OpenStreetMap / BBBike (mumbai; first pass)"}}, {"type": "Feature", "geometry": {"type": "Point", "coordinates": [72.8441011, 18.9775506]}, "properties": {"name": "Reay Road", "ref": "RRD", "operator": "CR", "network": "IR", "source": "OpenStreetMap / BBBike (mumbai; first pass)"}}, {"type": "Feature", "geometry": {"type": "Point", "coordinates": [72.8328556, 18.9937486]}, "properties": {"name": "Currey Road", "ref": "CRD", "operator": "WR", "network": "IR", "source": "OpenStreetMap / BBBike (mumbai; first pass)"}}, {"type": "Feature", "geometry": {"type": "Point", "coordinates": [72.9011399, 19.0626319]}, "properties": {"name": "Chembur", "ref": "CMBR", "operator": "CR", "network": "IR", "source": "OpenStreetMap / BBBike (mumbai; first pass)"}}, {"type": "Feature", "geometry": {"type": "Point", "coordinates": [72.9317136, 19.0482086]}, "properties": {"name": "Mankhurd", "ref": "MNKD", "operator": "CR", "network": "IR", "source": "OpenStreetMap / BBBike (mumbai; first pass)"}}, {"type": "Feature", "geometry": {"type": "Point", "coordinates": [72.9466525, 19.1546402]}, "properties": {"name": "Nahur", "ref": "NHU", "operator": "CR", "network": "IR", "source": "OpenStreetMap / BBBike (mumbai; first pass)"}}, {"type": "Feature", "geometry": {"type": "Point", "coordinates": [72.8402203, 19.0549792]}, "properties": {"name": "Bandra", "ref": "BA", "operator": "WR", "network": "Mumbai Suburban Railway", "source": "OpenStreetMap / BBBike (mumbai; first pass)"}}, {"type": "Feature", "geometry": {"type": "Point", "coordinates": [72.8327936, 18.9766219]}, "properties": {"name": "Byculla", "ref": "BY", "operator": "CR", "network": "IR", "source": "OpenStreetMap / BBBike (mumbai; first pass)"}}, {"type": "Feature", "geometry": {"type": "Point", "coordinates": [72.8182401, 18.9518437]}, "properties": {"name": "Charni Road", "ref": "CYR", "operator": "WR", "network": "Mumbai Suburban Railway", "source": "OpenStreetMap / BBBike (mumbai; first pass)"}}, {"type": "Feature", "geometry": {"type": "Point", "coordinates": [72.8430265, 19.0173761]}, "properties": {"name": "Dadar", "ref": "DR", "operator": "CR", "network": "IR", "source": "OpenStreetMap / BBBike (mumbai; first pass)"}}, {"type": "Feature", "geometry": {"type": "Point", "coordinates": [72.8428479, 19.0192269]}, "properties": {"name": "Dadar", "ref": "DDR", "operator": "WR", "network": "Mumbai Suburban Railway", "source": "OpenStreetMap / BBBike (mumbai; first pass)"}}, {"type": "Feature", "geometry": {"type": "Point", "coordinates": [72.8466038, 19.0406634]}, "properties": {"name": "Mahim Junction", "ref": "MM", "operator": "WR", "network": "Mumbai Suburban Railway", "source": "OpenStreetMap / BBBike (mumbai; first pass)"}}, {"type": "Feature", "geometry": {"type": "Point", "coordinates": [72.8237193, 18.945764]}, "properties": {"name": "Marine Lines", "ref": "MEL", "operator": "WR", "network": "Mumbai Suburban Railway", "source": "OpenStreetMap / BBBike (mumbai; first pass)"}}, {"type": "Feature", "geometry": {"type": "Point", "coordinates": [72.8193152, 18.9695855]}, "properties": {"name": "Mumbai Central", "ref": "MMCT", "operator": "WR", "network": "IR", "source": "OpenStreetMap / BBBike (mumbai; first pass)"}}, {"type": "Feature", "geometry": {"type": "Point", "coordinates": [73.122695, 18.9894239]}, "properties": {"name": "Panvel", "ref": "PNVL", "operator": "CR", "network": "IR", "source": "OpenStreetMap / BBBike (mumbai; first pass)"}}, {"type": "Feature", "geometry": {"type": "Point", "coordinates": [72.8440038, 19.0999098]}, "properties": {"name": "Vile Parle", "ref": "VLP", "operator": "WR", "network": "Mumbai Suburban Railway", "source": "OpenStreetMap / BBBike (mumbai; first pass)"}}, {"type": "Feature", "geometry": {"type": "Point", "coordinates": [72.8690974, 19.0517703]}, "properties": {"name": "Chuna Bhatti", "ref": "CHF", "operator": "CR", "network": "IR", "source": "OpenStreetMap / BBBike (mumbai; first pass)"}}, {"type": "Feature", "geometry": {"type": "Point", "coordinates": [72.8632834, 19.0465213]}, "properties": {"name": "Sion", "ref": "SIN", "operator": "CR", "network": "IR", "source": "OpenStreetMap / BBBike (mumbai; first pass)"}}, {"type": "Feature", "geometry": {"type": "Point", "coordinates": [72.8793805, 19.0652797]}, "properties": {"name": "Kurla", "ref": "CLA", "operator": "CR", "network": "IR", "source": "OpenStreetMap / BBBike (mumbai; first pass)"}}, {"type": "Feature", "geometry": {"type": "Point", "coordinates": [72.9150702, 19.0553688]}, "properties": {"name": "Govandi", "ref": "GV", "operator": "CR", "network": "IR", "source": "OpenStreetMap / BBBike (mumbai; first pass)"}}, {"type": "Feature", "geometry": {"type": "Point", "coordinates": [72.9376543, 19.142757]}, "properties": {"name": "Bhandup", "ref": "BND", "operator": "CR", "network": "IR", "source": "OpenStreetMap / BBBike (mumbai; first pass)"}}, {"type": "Feature", "geometry": {"type": "Point", "coordinates": [72.8573628, 19.229068]}, "properties": {"name": "Borivali", "ref": "BVI", "operator": "WR", "network": "Mumbai Suburban Railway", "source": "OpenStreetMap / BBBike (mumbai; first pass)"}}, {"type": "Feature", "geometry": {"type": "Point", "coordinates": [72.8517376, 19.2041136]}, "properties": {"name": "Kandivali", "ref": "KILE", "operator": "WR", "network": "Mumbai Suburban Railway", "source": "OpenStreetMap / BBBike (mumbai; first pass)"}}, {"type": "Feature", "geometry": {"type": "Point", "coordinates": [72.8485884, 19.1867193]}, "properties": {"name": "Malad", "ref": "MDD", "operator": "WR", "network": "Mumbai Suburban Railway", "source": "OpenStreetMap / BBBike (mumbai; first pass)"}}, {"type": "Feature", "geometry": {"type": "Point", "coordinates": [72.8495492, 19.1648688]}, "properties": {"name": "Goregaon", "ref": "GMN", "operator": "WR", "network": "Mumbai Suburban Railway", "source": "OpenStreetMap / BBBike (mumbai; first pass)"}}, {"type": "Feature", "geometry": {"type": "Point", "coordinates": [72.8358965, 19.0074717]}, "properties": {"name": "Prabhadevi", "ref": "PBHD", "operator": "WR", "network": "Mumbai Suburban Railway", "source": "OpenStreetMap / BBBike (mumbai; first pass)"}}, {"type": "Feature", "geometry": {"type": "Point", "coordinates": [72.8326716, 18.9871984]}, "properties": {"name": "Chinchpokli", "ref": "CHG", "operator": "CR", "network": "IR", "source": "OpenStreetMap / BBBike (mumbai; first pass)"}}, {"type": "Feature", "geometry": {"type": "Point", "coordinates": [72.8376614, 19.0094817]}, "properties": {"name": "Parel", "ref": "PR", "operator": "WR", "network": "IR", "source": "OpenStreetMap / BBBike (mumbai; first pass)"}}, {"type": "Feature", "geometry": {"type": "Point", "coordinates": [72.8904702, 19.0657855]}, "properties": {"name": "Tilak Nagar", "ref": "TKNG", "operator": "CR", "network": "IR", "source": "OpenStreetMap / BBBike (mumbai; first pass)"}}, {"type": "Feature", "geometry": {"type": "Point", "coordinates": [72.928021, 19.1114795]}, "properties": {"name": "Vikhroli", "ref": "VK", "operator": "CR", "network": "IR", "source": "OpenStreetMap / BBBike (mumbai; first pass)"}}, {"type": "Feature", "geometry": {"type": "Point", "coordinates": [72.8271741, 18.9354797]}, "properties": {"name": "Churchgate", "ref": "CCG", "operator": "WR", "network": "Mumbai Suburban Railway", "source": "OpenStreetMap / BBBike (mumbai; first pass)"}}, {"type": "Feature", "geometry": {"type": "Point", "coordinates": [72.8501467, 19.0274356]}, "properties": {"name": "Matunga", "ref": "MTN", "operator": "CR", "network": "IR", "source": "OpenStreetMap / BBBike (mumbai; first pass)"}}, {"type": "Feature", "geometry": {"type": "Point", "coordinates": [72.8466813, 19.0278149]}, "properties": {"name": "Matunga Road", "ref": "MRU", "operator": "WR", "network": "Mumbai Suburban Railway", "source": "OpenStreetMap / BBBike (mumbai; first pass)"}}, {"type": "Feature", "geometry": {"type": "Point", "coordinates": [72.8242196, 18.9825203]}, "properties": {"name": "Mahalaxmi", "ref": "MX", "operator": "WR", "network": "Mumbai Suburban Railway", "source": "OpenStreetMap / BBBike (mumbai; first pass)"}}, {"type": "Feature", "geometry": {"type": "Point", "coordinates": [72.9083668, 19.0856928]}, "properties": {"name": "Ghatkopar", "ref": "GC", "operator": "CR", "network": "IR", "source": "OpenStreetMap / BBBike (mumbai; first pass)"}}, {"type": "Feature", "geometry": {"type": "Point", "coordinates": [72.8643455, 19.0380048]}, "properties": {"name": "Guru Tegh Bahadur Nagar", "ref": "GTBN", "operator": "Central Railway", "network": "Mumbai Suburban Railway", "source": "OpenStreetMap / BBBike (mumbai; first pass)"}}, {"type": "Feature", "geometry": {"type": "Point", "coordinates": [73.0861355, 19.2180493]}, "properties": {"name": "Dombivli", "ref": "DI", "operator": "CR", "network": "IR", "source": "OpenStreetMap / BBBike (mumbai; first pass)"}}, {"type": "Feature", "geometry": {"type": "Point", "coordinates": [73.078865, 19.212423]}, "properties": {"name": "Kopar", "ref": "KOPR", "operator": "CR", "network": "IR", "source": "OpenStreetMap / BBBike (mumbai; first pass)"}}, {"type": "Feature", "geometry": {"type": "Point", "coordinates": [73.1308101, 19.2358216]}, "properties": {"name": "Kalyan Junction", "ref": "KYN", "operator": "CR", "network": "IR", "source": "OpenStreetMap / BBBike (mumbai; first pass)"}}, {"type": "Feature", "geometry": {"type": "Point", "coordinates": [72.8560676, 19.2816975]}, "properties": {"name": "Mira Road", "ref": "MIRA", "operator": "WR", "network": "Mumbai Suburban Railway", "source": "OpenStreetMap / BBBike (mumbai; first pass)"}}, {"type": "Feature", "geometry": {"type": "Point", "coordinates": [72.9525001, 18.8784186]}, "properties": {"name": "Uran City", "ref": "UNCT", "operator": "CR", "network": "IR", "source": "OpenStreetMap / BBBike (mumbai; first pass)"}}, {"type": "Feature", "geometry": {"type": "Point", "coordinates": [72.9190837, 19.3366555]}, "properties": {"name": "Kaman Road", "ref": "KARD", "operator": "CR", "network": "IR", "source": "OpenStreetMap / BBBike (mumbai; first pass)"}}, {"type": "Feature", "geometry": {"type": "Point", "coordinates": [72.8464205, 19.1196976]}, "properties": {"name": "Andheri", "ref": "ADH", "operator": "Western Railway", "network": "Mumbai Suburban Railway", "source": "OpenStreetMap / BBBike (mumbai; first pass)"}}, {"type": "Feature", "geometry": {"type": "Point", "coordinates": [73.1516427, 18.8940449]}, "properties": {"name": "Rasayani", "ref": "RSYI", "operator": "CR", "network": "IR", "source": "OpenStreetMap / BBBike (mumbai; first pass)"}}, {"type": "Feature", "geometry": {"type": "Point", "coordinates": [72.8501467, 19.151023]}, "properties": {"name": "Ram Mandir", "ref": "RMAR", "operator": "WR", "network": "Mumbai Suburban Railway", "source": "OpenStreetMap / BBBike (mumbai; first pass)"}}, {"type": "Feature", "geometry": {"type": "Point", "coordinates": [73.1149672, 19.0344708]}, "properties": {"name": "Kalamboli", "ref": "KLMC", "operator": "CR", "network": "IR", "source": "OpenStreetMap / BBBike (mumbai; first pass)"}}, {"type": "Feature", "geometry": {"type": "Point", "coordinates": [72.8919779, 19.0694658]}, "properties": {"name": "Lokmanya Tilak Terminus", "ref": "LTT", "operator": "CR", "network": "IR", "source": "OpenStreetMap / BBBike (mumbai; first pass)"}}, {"type": "Feature", "geometry": {"type": "Point", "coordinates": [73.0803599, 19.1544274]}, "properties": {"name": "Nilaje", "ref": "NIIJ", "operator": "CR", "network": "IR", "source": "OpenStreetMap / BBBike (mumbai; first pass)"}}, {"type": "Feature", "geometry": {"type": "Point", "coordinates": [73.0878581, 19.079148]}, "properties": {"name": "Taloje Panchanand", "ref": "TPND", "operator": "CR", "network": "IR", "source": "OpenStreetMap / BBBike (mumbai; first pass)"}}, {"type": "Feature", "geometry": {"type": "Point", "coordinates": [73.14548, 18.950646]}, "properties": {"name": "Somatne", "ref": "SMNE", "operator": "CR", "network": "IR", "source": "OpenStreetMap / BBBike (mumbai; first pass)"}}, {"type": "Feature", "geometry": {"type": "Point", "coordinates": [73.1030296, 19.053846]}, "properties": {"name": "Navade Road", "ref": "NVRD", "operator": "CR", "network": "IR", "source": "OpenStreetMap / BBBike (mumbai; first pass)"}}, {"type": "Feature", "geometry": {"type": "Point", "coordinates": [72.9647315, 18.8813327]}, "properties": {"name": "Dronagiri", "ref": "DRNGR", "operator": "CR", "network": "", "source": "OpenStreetMap / BBBike (mumbai; first pass)"}}, {"type": "Feature", "geometry": {"type": "Point", "coordinates": [72.9877967, 18.898061]}, "properties": {"name": "Nhava Sheva", "ref": "NHVSV", "operator": "CR", "network": "", "source": "OpenStreetMap / BBBike (mumbai; first pass)"}}, {"type": "Feature", "geometry": {"type": "Point", "coordinates": [73.0158486, 18.9092584]}, "properties": {"name": "Ranjanpada", "ref": "RJNPD", "operator": "CR", "network": "", "source": "OpenStreetMap / BBBike (mumbai; first pass)"}}, {"type": "Feature", "geometry": {"type": "Point", "coordinates": [73.0391304, 19.0190075]}, "properties": {"name": "CBD Belapur", "ref": "BEPR", "operator": "Central Railways", "network": "Mumbai Suburban Railway Network", "source": "OpenStreetMap / BBBike (mumbai; first pass)"}}, {"type": "Feature", "geometry": {"type": "Point", "coordinates": [72.8381771, 18.9522949]}, "properties": {"name": "Masjid", "ref": "MSD", "operator": "CR", "network": "IR", "source": "OpenStreetMap / BBBike (mumbai; first pass)"}}, {"type": "Feature", "geometry": {"type": "Point", "coordinates": [72.8357856, 18.9404925]}, "properties": {"name": "Mumbai CSMT", "ref": "CSMT", "operator": "Central Railway", "network": "CR", "source": "OpenStreetMap / BBBike (mumbai; first pass)"}}, {"type": "Feature", "geometry": {"type": "Point", "coordinates": [73.0593001, 19.0258415]}, "properties": {"name": "Kharghar", "ref": "KHAG", "operator": "Central Railway", "network": "Indian Railways", "source": "OpenStreetMap / BBBike (mumbai; first pass)"}}, {"type": "Feature", "geometry": {"type": "Point", "coordinates": [73.0191588, 19.0218192]}, "properties": {"name": "Seawoods", "ref": "SWDV", "operator": "Central Railway", "network": "Mumbai Suburban Railway", "source": "OpenStreetMap / BBBike (mumbai; first pass)"}}, {"type": "Feature", "geometry": {"type": "Point", "coordinates": [72.8494209, 19.1411537]}, "properties": {"name": "Jogeshwari (Harbour Line)", "ref": "JOS", "operator": "Western Railway", "network": "Indian Railways", "source": "OpenStreetMap / BBBike (mumbai; first pass)"}}, {"type": "Feature", "geometry": {"type": "Point", "coordinates": [72.848936, 19.1361144]}, "properties": {"name": "Jogeshwari (Western Line)", "ref": "JOS", "operator": "Western Railway", "network": "Mumbai Suburban Railway", "source": "OpenStreetMap / BBBike (mumbai; first pass)"}}]}