{"type":"FeatureCollection","features":[{"type":"Feature","properties":{"route_id":"04726","route_short_name":"04726","route_long_name":"KK-HSR SF SPL","operator":"Indian Railways","mode":"suburban_rail","source":"MobilityData Indian Railways GTFS (unofficial data)"},"geometry":{"type":"LineString","coordinates":[[73.13015,19.235126],[72.832162,19.382389]]}},{"type":"Feature","properties":{"route_id":"09076","route_short_name":"09076","route_long_name":"KGM-MMCT SUPER FAST SPL","operator":"Indian Railways","mode":"suburban_rail","source":"MobilityData Indian Railways GTFS (unofficial data)"},"geometry":{"type":"LineString","coordinates":[[72.856822,19.229149],[72.819443,18.970727]]}},{"type":"Feature","properties":{"route_id":"09190","route_short_name":"09190","route_long_name":"KIR-MMCT SPECIAL","operator":"Indian Railways","mode":"suburban_rail","source":"MobilityData Indian Railways GTFS (unofficial data)"},"geometry":{"type":"LineString","coordinates":[[72.856822,19.229149],[72.819443,18.970727]]}},{"type":"Feature","properties":{"route_id":"09323","route_short_name":"09323","route_long_name":"KK - INDB SPECIAL","operator":"Indian Railways","mode":"suburban_rail","source":"MobilityData Indian Railways GTFS (unofficial data)"},"geometry":{"type":"LineString","coordinates":[[73.13015,19.235126],[73.045864,19.268754],[72.832162,19.382389]]}},{"type":"Feature","properties":{"route_id":"09324","route_short_name":"09324","route_long_name":"INDB - KK SPECIAL","operator":"Indian Railways","mode":"suburban_rail","source":"MobilityData Indian Railways GTFS (unofficial data)"},"geometry":{"type":"LineString","coordinates":[[72.832162,19.382389],[73.045864,19.268754],[73.13015,19.235126]]}},{"type":"Feature","properties":{"route_id":"11018","route_short_name":"11018","route_long_name":"KARAIKAL LTT EXP","operator":"Indian Railways","mode":"suburban_rail","source":"MobilityData Indian Railways GTFS (unofficial data)"},"geometry":{"type":"LineString","coordinates":[[73.13015,19.235126],[72.975547,19.185887],[72.891669,19.07025]]}},{"type":"Feature","properties":{"route_id":"11019","route_short_name":"11019","route_long_name":"KONARK EXPRESS","operator":"Indian Railways","mode":"suburban_rail","source":"MobilityData Indian Railways GTFS (unofficial data)"},"geometry":{"type":"LineString","coordinates":[[72.836523,18.944101],[72.842982,19.017189],[72.975547,19.185887],[73.13015,19.235126],[73.3206,18.9111]]}},{"type":"Feature","properties":{"route_id":"11020","route_short_name":"11020","route_long_name":"KONARK EXPRESS","operator":"Indian Railways","mode":"suburban_rail","source":"MobilityData Indian Railways GTFS (unofficial data)"},"geometry":{"type":"LineString","coordinates":[[73.3206,18.9111],[73.13015,19.235126],[72.975547,19.185887],[72.842982,19.017189],[72.836523,18.944101]]}},{"type":"Feature","properties":{"route_id":"11029","route_short_name":"11029","route_long_name":"KOYNA EXPRESS","operator":"Indian Railways","mode":"suburban_rail","source":"MobilityData Indian Railways GTFS (unofficial data)"},"geometry":{"type":"LineString","coordinates":[[72.836523,18.944101],[72.842982,19.017189],[72.975547,19.185887],[73.13015,19.235126],[73.3185,19.0266]]}},{"type":"Feature","properties":{"route_id":"11030","route_short_name":"11030","route_long_name":"KOYNA EXPRESS","operator":"Indian Railways","mode":"suburban_rail","source":"MobilityData Indian Railways GTFS (unofficial data)"},"geometry":{"type":"LineString","coordinates":[[73.13015,19.235126],[72.975547,19.185887],[72.842982,19.017189],[72.836523,18.944101]]}},{"type":"Feature","properties":{"route_id":"11049","route_short_name":"11049","route_long_name":"ADI KOP  EXP","operator":"Indian Railways","mode":"suburban_rail","source":"MobilityData Indian Railways GTFS (unofficial data)"},"geometry":{"type":"LineString","coordinates":[[72.832162,19.382389],[73.045864,19.268754],[73.13015,19.235126]]}},{"type":"Feature","properties":{"route_id":"11050","route_short_name":"11050","route_long_name":"KOP-ADI EXPRESS","operator":"Indian Railways","mode":"suburban_rail","source":"MobilityData Indian Railways GTFS (unofficial data)"},"geometry":{"type":"LineString","coordinates":[[73.13015,19.235126],[73.045864,19.268754],[72.832162,19.382389]]}},{"type":"Feature","properties":{"route_id":"11071","route_short_name":"11071","route_long_name":"KAMAYANI EXPRESS","operator":"Indian Railways","mode":"suburban_rail","source":"MobilityData Indian Railways GTFS (unofficial data)"},"geometry":{"type":"LineString","coordinates":[[72.891669,19.07025],[72.975547,19.185887],[73.13015,19.235126]]}},{"type":"Feature","properties":{"route_id":"11072","route_short_name":"11072","route_long_name":"KAMAYANI EXP","operator":"Indian Railways","mode":"suburban_rail","source":"MobilityData Indian Railways GTFS (unofficial data)"},"geometry":{"type":"LineString","coordinates":[[73.13015,19.235126],[72.975547,19.185887],[72.891669,19.07025]]}},{"type":"Feature","properties":{"route_id":"12201","route_short_name":"12201","route_long_name":"KCVL GARIBRATH","operator":"Indian Railways","mode":"suburban_rail","source":"MobilityData Indian Railways GTFS (unofficial data)"},"geometry":{"type":"LineString","coordinates":[[72.891669,19.07025],[72.975547,19.185887],[73.121266,18.990429]]}},{"type":"Feature","properties":{"route_id":"12217","route_short_name":"12217","route_long_name":"SAMPARK KRANTHI","operator":"Indian Railways","mode":"suburban_rail","source":"MobilityData Indian Railways GTFS (unofficial data)"},"geometry":{"type":"LineString","coordinates":[[73.121266,18.990429],[72.832162,19.382389]]}},{"type":"Feature","properties":{"route_id":"12218","route_short_name":"12218","route_long_name":"KERLA S KRANTI","operator":"Indian Railways","mode":"suburban_rail","source":"MobilityData Indian Railways GTFS (unofficial data)"},"geometry":{"type":"LineString","coordinates":[[72.832162,19.382389],[73.121266,18.990429]]}},{"type":"Feature","properties":{"route_id":"12322","route_short_name":"12322","route_long_name":"CSMT-HWH KOLKATA MAIL","operator":"Indian Railways","mode":"suburban_rail","source":"MobilityData Indian Railways GTFS (unofficial data)"},"geometry":{"type":"LineString","coordinates":[[72.836523,18.944101],[72.842982,19.017189],[73.13015,19.235126]]}},{"type":"Feature","properties":{"route_id":"12449","route_short_name":"12449","route_long_name":"GOA SMPRK K EXP","operator":"Indian Railways","mode":"suburban_rail","source":"MobilityData Indian Railways GTFS (unofficial data)"},"geometry":{"type":"LineString","coordinates":[[73.121266,18.990429],[72.832162,19.382389]]}},{"type":"Feature","properties":{"route_id":"12450","route_short_name":"12450","route_long_name":"GOA SMPRK KRANTI EXP","operator":"Indian Railways","mode":"suburban_rail","source":"MobilityData Indian Railways GTFS (unofficial data)"},"geometry":{"type":"LineString","coordinates":[[72.832162,19.382389],[73.121266,18.990429]]}},{"type":"Feature","properties":{"route_id":"12484","route_short_name":"12484","route_long_name":"ASR KCVL SF EXP","operator":"Indian Railways","mode":"suburban_rail","source":"MobilityData Indian Railways GTFS (unofficial data)"},"geometry":{"type":"LineString","coordinates":[[72.832162,19.382389],[73.121266,18.990429]]}},{"type":"Feature","properties":{"route_id":"12545","route_short_name":"12545","route_long_name":"RXL-LTT KARMBHUMI EXPRESS","operator":"Indian Railways","mode":"suburban_rail","source":"MobilityData Indian Railways GTFS (unofficial data)"},"geometry":{"type":"LineString","coordinates":[[73.13015,19.235126],[72.891669,19.07025]]}},{"type":"Feature","properties":{"route_id":"12546","route_short_name":"12546","route_long_name":"LTT-RXL KARMBHUMI EXP","operator":"Indian Railways","mode":"suburban_rail","source":"MobilityData Indian Railways GTFS (unofficial data)"},"geometry":{"type":"LineString","coordinates":[[72.891669,19.07025],[73.13015,19.235126]]}},{"type":"Feature","properties":{"route_id":"12907","route_short_name":"12907","route_long_name":"BDTS SMPRK K EX","operator":"Indian Railways","mode":"suburban_rail","source":"MobilityData Indian Railways GTFS (unofficial data)"},"geometry":{"type":"LineString","coordinates":[[72.840965,19.062341],[72.856822,19.229149]]}},{"type":"Feature","properties":{"route_id":"12908","route_short_name":"12908","route_long_name":"MHRST SMPRK K EX","operator":"Indian Railways","mode":"suburban_rail","source":"MobilityData Indian Railways GTFS (unofficial data)"},"geometry":{"type":"LineString","coordinates":[[72.856822,19.229149],[72.840965,19.062341]]}},{"type":"Feature","properties":{"route_id":"12933","route_short_name":"12933","route_long_name":"KARNAVATI EXP","operator":"Indian Railways","mode":"suburban_rail","source":"MobilityData Indian Railways GTFS (unofficial data)"},"geometry":{"type":"LineString","coordinates":[[72.840965,19.062341],[72.856822,19.229149]]}},{"type":"Feature","properties":{"route_id":"12934","route_short_name":"12934","route_long_name":"KARNAVATI EXP","operator":"Indian Railways","mode":"suburban_rail","source":"MobilityData Indian Railways GTFS (unofficial data)"},"geometry":{"type":"LineString","coordinates":[[72.856822,19.229149],[72.840965,19.062341]]}},{"type":"Feature","properties":{"route_id":"12953","route_short_name":"12953","route_long_name":"AUG KR TEJAS EXP","operator":"Indian Railways","mode":"suburban_rail","source":"MobilityData Indian Railways GTFS (unofficial data)"},"geometry":{"type":"LineString","coordinates":[[72.819443,18.970727],[72.856822,19.229149]]}},{"type":"Feature","properties":{"route_id":"16311","route_short_name":"16311","route_long_name":"SGNR KCVL EXP","operator":"Indian Railways","mode":"suburban_rail","source":"MobilityData Indian Railways GTFS (unofficial data)"},"geometry":{"type":"LineString","coordinates":[[72.832162,19.382389],[73.121266,18.990429]]}},{"type":"Feature","properties":{"route_id":"19003","route_short_name":"19003","route_long_name":"KHANDESH EXP","operator":"Indian Railways","mode":"suburban_rail","source":"MobilityData Indian Railways GTFS (unofficial data)"},"geometry":{"type":"LineString","coordinates":[[72.843175,19.019441],[72.856822,19.229149],[72.812147,19.454817]]}},{"type":"Feature","properties":{"route_id":"19004","route_short_name":"19004","route_long_name":"KHANDESH EXP","operator":"Indian Railways","mode":"suburban_rail","source":"MobilityData Indian Railways GTFS (unofficial data)"},"geometry":{"type":"LineString","coordinates":[[72.812147,19.454817],[72.856822,19.229149],[72.843175,19.019441]]}},{"type":"Feature","properties":{"route_id":"19260","route_short_name":"19260","route_long_name":"BVC KCVL EXP","operator":"Indian Railways","mode":"suburban_rail","source":"MobilityData Indian Railways GTFS (unofficial data)"},"geometry":{"type":"LineString","coordinates":[[72.832162,19.382389],[73.121266,18.990429]]}},{"type":"Feature","properties":{"route_id":"20111","route_short_name":"20111","route_long_name":"KONKAN KANYA EXP","operator":"Indian Railways","mode":"suburban_rail","source":"MobilityData Indian Railways GTFS (unofficial data)"},"geometry":{"type":"LineString","coordinates":[[72.836523,18.944101],[72.842982,19.017189],[72.975547,19.185887],[73.121266,18.990429]]}},{"type":"Feature","properties":{"route_id":"20112","route_short_name":"20112","route_long_name":"KONKAN KANYA EXP","operator":"Indian Railways","mode":"suburban_rail","source":"MobilityData Indian Railways GTFS (unofficial data)"},"geometry":{"type":"LineString","coordinates":[[73.121266,18.990429],[72.975547,19.185887],[72.842982,19.017189],[72.836523,18.944101]]}},{"type":"Feature","properties":{"route_id":"20910","route_short_name":"20910","route_long_name":"PBR KCVL EXP","operator":"Indian Railways","mode":"suburban_rail","source":"MobilityData Indian Railways GTFS (unofficial data)"},"geometry":{"type":"LineString","coordinates":[[72.832162,19.382389],[73.121266,18.990429]]}},{"type":"Feature","properties":{"route_id":"20932","route_short_name":"20932","route_long_name":"INDB KCVL EXP","operator":"Indian Railways","mode":"suburban_rail","source":"MobilityData Indian Railways GTFS (unofficial data)"},"geometry":{"type":"LineString","coordinates":[[72.832162,19.382389],[73.121266,18.990429]]}},{"type":"Feature","properties":{"route_id":"22444","route_short_name":"22444","route_long_name":"BDTS KANPUR SUP","operator":"Indian Railways","mode":"suburban_rail","source":"MobilityData Indian Railways GTFS (unofficial data)"},"geometry":{"type":"LineString","coordinates":[[72.840965,19.062341],[72.856822,19.229149]]}},{"type":"Feature","properties":{"route_id":"22511","route_short_name":"22511","route_long_name":"KARMABHOOMI EXP","operator":"Indian Railways","mode":"suburban_rail","source":"MobilityData Indian Railways GTFS (unofficial data)"},"geometry":{"type":"LineString","coordinates":[[72.891669,19.07025],[73.13015,19.235126]]}},{"type":"Feature","properties":{"route_id":"22512","route_short_name":"22512","route_long_name":"KARMABHOOMI EXP","operator":"Indian Railways","mode":"suburban_rail","source":"MobilityData Indian Railways GTFS (unofficial data)"},"geometry":{"type":"LineString","coordinates":[[73.13015,19.235126],[72.891669,19.07025]]}},{"type":"Feature","properties":{"route_id":"22537","route_short_name":"22537","route_long_name":"KUSHINAGAR EXP","operator":"Indian Railways","mode":"suburban_rail","source":"MobilityData Indian Railways GTFS (unofficial data)"},"geometry":{"type":"LineString","coordinates":[[73.13015,19.235126],[72.975547,19.185887],[72.891669,19.07025]]}},{"type":"Feature","properties":{"route_id":"22538","route_short_name":"22538","route_long_name":"KUSHINAGAR EXP","operator":"Indian Railways","mode":"suburban_rail","source":"MobilityData Indian Railways GTFS (unofficial data)"},"geometry":{"type":"LineString","coordinates":[[72.891669,19.07025],[72.975547,19.185887],[73.13015,19.235126]]}},{"type":"Feature","properties":{"route_id":"22955","route_short_name":"22955","route_long_name":"KUTCH EXPRESS","operator":"Indian Railways","mode":"suburban_rail","source":"MobilityData Indian Railways GTFS (unofficial data)"},"geometry":{"type":"LineString","coordinates":[[72.840965,19.062341],[72.856822,19.229149]]}},{"type":"Feature","properties":{"route_id":"22956","route_short_name":"22956","route_long_name":"KUTCH EXPRESS","operator":"Indian Railways","mode":"suburban_rail","source":"MobilityData Indian Railways GTFS (unofficial data)"},"geometry":{"type":"LineString","coordinates":[[72.856822,19.229149],[72.840965,19.062341]]}},{"type":"Feature","properties":{"route_id":"61001","route_short_name":"61001","route_long_name":"BOR-BSR MEMU","operator":"Indian Railways","mode":"suburban_rail","source":"MobilityData Indian Railways GTFS (unofficial data)"},"geometry":{"type":"LineString","coordinates":[[72.8499,19.518],[72.812147,19.454817],[72.819,19.4177],[72.832162,19.382389]]}},{"type":"Feature","properties":{"route_id":"61002","route_short_name":"61002","route_long_name":"DI-BOR MEMU","operator":"Indian Railways","mode":"suburban_rail","source":"MobilityData Indian Railways GTFS (unofficial data)"},"geometry":{"type":"LineString","coordinates":[[73.08687,19.218188],[73.0782919,19.2135286],[73.045864,19.268754],[72.983894,19.297697],[72.9186,19.336],[72.872711,19.360122],[72.832162,19.382389],[72.819,19.4177],[72.812147,19.454817],[72.8499,19.518]]}},{"type":"Feature","properties":{"route_id":"61003","route_short_name":"61003","route_long_name":"BSR-DIVA MEMU","operator":"Indian Railways","mode":"suburban_rail","source":"MobilityData Indian Railways GTFS (unofficial data)"},"geometry":{"type":"LineString","coordinates":[[72.832162,19.382389],[72.872711,19.360122],[72.9186,19.336],[72.983894,19.297697],[73.045864,19.268754],[73.0782919,19.2135286],[73.0421,19.1886]]}},{"type":"Feature","properties":{"route_id":"61004","route_short_name":"61004","route_long_name":"DIVA-BSR MEMU","operator":"Indian Railways","mode":"suburban_rail","source":"MobilityData Indian Railways GTFS (unofficial data)"},"geometry":{"type":"LineString","coordinates":[[73.0421,19.1886],[73.0782919,19.2135286],[73.045864,19.268754],[72.983894,19.297697],[72.9186,19.336],[72.872711,19.360122],[72.832162,19.382389]]}},{"type":"Feature","properties":{"route_id":"61005","route_short_name":"61005","route_long_name":"BSR-DIVA MEMU","operator":"Indian Railways","mode":"suburban_rail","source":"MobilityData Indian Railways GTFS (unofficial data)"},"geometry":{"type":"LineString","coordinates":[[72.832162,19.382389],[72.872711,19.360122],[72.9186,19.336],[72.983894,19.297697],[73.045864,19.268754],[73.0782919,19.2135286],[73.0421,19.1886]]}},{"type":"Feature","properties":{"route_id":"61006","route_short_name":"61006","route_long_name":"DIVA-BSR MEMU","operator":"Indian Railways","mode":"suburban_rail","source":"MobilityData Indian Railways GTFS (unofficial data)"},"geometry":{"type":"LineString","coordinates":[[73.0421,19.1886],[73.0782919,19.2135286],[73.045864,19.268754],[72.983894,19.297697],[72.9186,19.336],[72.872711,19.360122],[72.832162,19.382389]]}},{"type":"Feature","properties":{"route_id":"61007","route_short_name":"61007","route_long_name":"BSR-DIVA MEMU","operator":"Indian Railways","mode":"suburban_rail","source":"MobilityData Indian Railways GTFS (unofficial data)"},"geometry":{"type":"LineString","coordinates":[[72.832162,19.382389],[72.872711,19.360122],[72.9186,19.336],[72.983894,19.297697],[73.045864,19.268754],[73.0782919,19.2135286],[73.0421,19.1886]]}},{"type":"Feature","properties":{"route_id":"61008","route_short_name":"61008","route_long_name":"DIVA-BSR MEMU","operator":"Indian Railways","mode":"suburban_rail","source":"MobilityData Indian Railways GTFS (unofficial data)"},"geometry":{"type":"LineString","coordinates":[[73.0421,19.1886],[73.0782919,19.2135286],[73.045864,19.268754],[72.983894,19.297697],[72.9186,19.336],[72.872711,19.360122],[72.832162,19.382389]]}},{"type":"Feature","properties":{"route_id":"61009","route_short_name":"61009","route_long_name":"BSR-DIVA MEMU","operator":"Indian Railways","mode":"suburban_rail","source":"MobilityData Indian Railways GTFS (unofficial data)"},"geometry":{"type":"LineString","coordinates":[[72.832162,19.382389],[72.872711,19.360122],[72.9186,19.336],[72.983894,19.297697],[73.045864,19.268754],[73.0782919,19.2135286],[73.0421,19.1886]]}},{"type":"Feature","properties":{"route_id":"61010","route_short_name":"61010","route_long_name":"ROHA-DIVA MEMU","operator":"Indian Railways","mode":"suburban_rail","source":"MobilityData Indian Railways GTFS (unofficial data)"},"geometry":{"type":"LineString","coordinates":[[73.0865,18.82],[73.119507,18.841964],[73.1528,18.8636],[73.1517,18.8938],[73.145084,18.951793],[73.121266,18.990429],[73.1145,19.0346],[73.103156,19.052829],[73.0874,19.0789],[73.080068,19.155222],[73.059039,19.187002],[73.0421,19.1886]]}},{"type":"Feature","properties":{"route_id":"61011","route_short_name":"61011","route_long_name":"DIVA-ROHA MEMU","operator":"Indian Railways","mode":"suburban_rail","source":"MobilityData Indian Railways GTFS (unofficial data)"},"geometry":{"type":"LineString","coordinates":[[73.0421,19.1886],[73.059039,19.187002],[73.080068,19.155222],[73.0874,19.0789],[73.103156,19.052829],[73.1145,19.0346],[73.121266,18.990429],[73.145084,18.951793],[73.1517,18.8938],[73.1528,18.8636],[73.119507,18.841964],[73.0865,18.82]]}},{"type":"Feature","properties":{"route_id":"61012","route_short_name":"61012","route_long_name":"ROHA-DIVA MEMU","operator":"Indian Railways","mode":"suburban_rail","source":"MobilityData Indian Railways GTFS (unofficial data)"},"geometry":{"type":"LineString","coordinates":[[73.0865,18.82],[73.119507,18.841964],[73.1528,18.8636],[73.1517,18.8938],[73.145084,18.951793],[73.121266,18.990429],[73.1145,19.0346],[73.103156,19.052829],[73.0874,19.0789],[73.080068,19.155222],[73.059039,19.187002],[73.0421,19.1886]]}},{"type":"Feature","properties":{"route_id":"61013","route_short_name":"61013","route_long_name":"DIVA-ROHA MEMU","operator":"Indian Railways","mode":"suburban_rail","source":"MobilityData Indian Railways GTFS (unofficial data)"},"geometry":{"type":"LineString","coordinates":[[73.0421,19.1886],[73.059039,19.187002],[73.080068,19.155222],[73.0874,19.0789],[73.103156,19.052829],[73.1145,19.0346],[73.121266,18.990429],[73.145084,18.951793],[73.1517,18.8938],[73.1528,18.8636],[73.119507,18.841964],[73.0865,18.82]]}},{"type":"Feature","properties":{"route_id":"61015","route_short_name":"61015","route_long_name":"DIVA-ROHA MEMU","operator":"Indian Railways","mode":"suburban_rail","source":"MobilityData Indian Railways GTFS (unofficial data)"},"geometry":{"type":"LineString","coordinates":[[73.0421,19.1886],[73.059039,19.187002],[73.080068,19.155222],[73.0874,19.0789],[73.103156,19.052829],[73.1145,19.0346],[73.121266,18.990429],[73.145084,18.951793],[73.1517,18.8938],[73.1528,18.8636],[73.119507,18.841964],[73.0865,18.82]]}},{"type":"Feature","properties":{"route_id":"61016","route_short_name":"61016","route_long_name":"ROHA-DIVA MEMU","operator":"Indian Railways","mode":"suburban_rail","source":"MobilityData Indian Railways GTFS (unofficial data)"},"geometry":{"type":"LineString","coordinates":[[73.0865,18.82],[73.119507,18.841964],[73.1528,18.8636],[73.1517,18.8938],[73.145084,18.951793],[73.121266,18.990429],[73.1145,19.0346],[73.103156,19.052829],[73.0874,19.0789],[73.080068,19.155222],[73.059039,19.187002],[73.0421,19.1886]]}},{"type":"Feature","properties":{"route_id":"61017","route_short_name":"61017","route_long_name":"DIVA-PNVL MEMU","operator":"Indian Railways","mode":"suburban_rail","source":"MobilityData Indian Railways GTFS (unofficial data)"},"geometry":{"type":"LineString","coordinates":[[73.0421,19.1886],[73.059039,19.187002],[73.080068,19.155222],[73.0874,19.0789],[73.103156,19.052829],[73.1145,19.0346],[73.121266,18.990429]]}},{"type":"Feature","properties":{"route_id":"61018","route_short_name":"61018","route_long_name":"PNVL-DIVA MEMU","operator":"Indian Railways","mode":"suburban_rail","source":"MobilityData Indian Railways GTFS (unofficial data)"},"geometry":{"type":"LineString","coordinates":[[73.121266,18.990429],[73.1145,19.0346],[73.103156,19.052829],[73.0874,19.0789],[73.080068,19.155222],[73.059039,19.187002],[73.0421,19.1886]]}},{"type":"Feature","properties":{"route_id":"61019","route_short_name":"61019","route_long_name":"DIVA-PEN MEMU","operator":"Indian Railways","mode":"suburban_rail","source":"MobilityData Indian Railways GTFS (unofficial data)"},"geometry":{"type":"LineString","coordinates":[[73.0421,19.1886],[73.059039,19.187002],[73.080068,19.155222],[73.0874,19.0789],[73.103156,19.052829],[73.1145,19.0346],[73.121266,18.990429],[73.145084,18.951793],[73.1517,18.8938],[73.1528,18.8636],[73.119507,18.841964],[73.0865,18.82]]}},{"type":"Feature","properties":{"route_id":"61020","route_short_name":"61020","route_long_name":"PEN-DIVA MEMU","operator":"Indian Railways","mode":"suburban_rail","source":"MobilityData Indian Railways GTFS (unofficial data)"},"geometry":{"type":"LineString","coordinates":[[73.0865,18.82],[73.119507,18.841964],[73.1528,18.8636],[73.1517,18.8938],[73.145084,18.951793],[73.121266,18.990429],[73.1145,19.0346],[73.103156,19.052829],[73.0874,19.0789],[73.080068,19.155222],[73.059039,19.187002],[73.0421,19.1886]]}},{"type":"Feature","properties":{"route_id":"61021","route_short_name":"61021","route_long_name":"BSR-DIVA MEMU","operator":"Indian Railways","mode":"suburban_rail","source":"MobilityData Indian Railways GTFS (unofficial data)"},"geometry":{"type":"LineString","coordinates":[[72.832162,19.382389],[72.872711,19.360122],[72.9186,19.336],[72.983894,19.297697],[73.045864,19.268754],[73.0782919,19.2135286],[73.0421,19.1886]]}},{"type":"Feature","properties":{"route_id":"61022","route_short_name":"61022","route_long_name":"DIVA-BSR MEMU","operator":"Indian Railways","mode":"suburban_rail","source":"MobilityData Indian Railways GTFS (unofficial data)"},"geometry":{"type":"LineString","coordinates":[[73.0421,19.1886],[73.0782919,19.2135286],[73.045864,19.268754],[72.983894,19.297697],[72.9186,19.336],[72.872711,19.360122],[72.832162,19.382389]]}},{"type":"Feature","properties":{"route_id":"61023","route_short_name":"61023","route_long_name":"DIVA-PEN MEMU","operator":"Indian Railways","mode":"suburban_rail","source":"MobilityData Indian Railways GTFS (unofficial data)"},"geometry":{"type":"LineString","coordinates":[[73.0421,19.1886],[73.059039,19.187002],[73.080068,19.155222],[73.0874,19.0789],[73.103156,19.052829],[73.1145,19.0346],[73.121266,18.990429],[73.145084,18.951793],[73.1517,18.8938],[73.1528,18.8636],[73.119507,18.841964],[73.0865,18.82]]}},{"type":"Feature","properties":{"route_id":"61024","route_short_name":"61024","route_long_name":"PEN-DIVA MEMU","operator":"Indian Railways","mode":"suburban_rail","source":"MobilityData Indian Railways GTFS (unofficial data)"},"geometry":{"type":"LineString","coordinates":[[73.0865,18.82],[73.119507,18.841964],[73.1528,18.8636],[73.1517,18.8938],[73.145084,18.951793],[73.121266,18.990429],[73.1145,19.0346],[73.103156,19.052829],[73.0874,19.0789],[73.080068,19.155222],[73.059039,19.187002],[73.0421,19.1886]]}},{"type":"Feature","properties":{"route_id":"61025","route_short_name":"61025","route_long_name":"DIVA-PEN MEMU","operator":"Indian Railways","mode":"suburban_rail","source":"MobilityData Indian Railways GTFS (unofficial data)"},"geometry":{"type":"LineString","coordinates":[[73.0421,19.1886],[73.059039,19.187002],[73.080068,19.155222],[73.0874,19.0789],[73.103156,19.052829],[73.1145,19.0346],[73.121266,18.990429],[73.145084,18.951793],[73.1517,18.8938],[73.1528,18.8636],[73.119507,18.841964],[73.0865,18.82]]}},{"type":"Feature","properties":{"route_id":"61026","route_short_name":"61026","route_long_name":"PEN-DIVA MEMU","operator":"Indian Railways","mode":"suburban_rail","source":"MobilityData Indian Railways GTFS (unofficial data)"},"geometry":{"type":"LineString","coordinates":[[73.0865,18.82],[73.119507,18.841964],[73.1528,18.8636],[73.1517,18.8938],[73.145084,18.951793],[73.121266,18.990429],[73.1145,19.0346],[73.103156,19.052829],[73.0874,19.0789],[73.080068,19.155222],[73.059039,19.187002],[73.0421,19.1886]]}},{"type":"Feature","properties":{"route_id":"69139","route_short_name":"69139","route_long_name":"BVI-BL MEMU","operator":"Indian Railways","mode":"suburban_rail","source":"MobilityData Indian Railways GTFS (unofficial data)"},"geometry":{"type":"LineString","coordinates":[[72.856822,19.229149],[72.832162,19.382389],[72.812147,19.454817],[72.8499,19.518]]}},{"type":"Feature","properties":{"route_id":"69140","route_short_name":"69140","route_long_name":"ST-VR MEMU","operator":"Indian Railways","mode":"suburban_rail","source":"MobilityData Indian Railways GTFS (unofficial data)"},"geometry":{"type":"LineString","coordinates":[[72.8499,19.518],[72.812147,19.454817]]}},{"type":"Feature","properties":{"route_id":"69141","route_short_name":"69141","route_long_name":"VR-ST MEMU","operator":"Indian Railways","mode":"suburban_rail","source":"MobilityData Indian Railways GTFS (unofficial data)"},"geometry":{"type":"LineString","coordinates":[[72.812147,19.454817],[72.8499,19.518]]}},{"type":"Feature","properties":{"route_id":"69142","route_short_name":"69142","route_long_name":"ST-VR MEMU","operator":"Indian Railways","mode":"suburban_rail","source":"MobilityData Indian Railways GTFS (unofficial data)"},"geometry":{"type":"LineString","coordinates":[[72.8499,19.518],[72.812147,19.454817]]}},{"type":"Feature","properties":{"route_id":"69161","route_short_name":"69161","route_long_name":"PNVL-DRD MEMU","operator":"Indian Railways","mode":"suburban_rail","source":"MobilityData Indian Railways GTFS (unofficial data)"},"geometry":{"type":"LineString","coordinates":[[73.121266,18.990429],[73.1145,19.0346],[73.0874,19.0789],[73.080068,19.155222],[73.059039,19.187002],[73.045864,19.268754],[72.983894,19.297697],[72.9186,19.336],[72.872711,19.360122],[72.832162,19.382389],[72.819,19.4177],[72.812147,19.454817],[72.8499,19.518]]}},{"type":"Feature","properties":{"route_id":"69164","route_short_name":"69164","route_long_name":"DRD-PNVL MEMU","operator":"Indian Railways","mode":"suburban_rail","source":"MobilityData Indian Railways GTFS (unofficial data)"},"geometry":{"type":"LineString","coordinates":[[72.8499,19.518],[72.812147,19.454817],[72.819,19.4177],[72.832162,19.382389],[72.872711,19.360122],[72.9186,19.336],[72.983894,19.297697],[73.045864,19.268754],[73.0782919,19.2135286],[73.059039,19.187002],[73.080068,19.155222],[73.0874,19.0789],[73.103156,19.052829],[73.1145,19.0346],[73.121266,18.990429]]}},{"type":"Feature","properties":{"route_id":"69165","route_short_name":"69165","route_long_name":"PNVL-BSR MEMU","operator":"Indian Railways","mode":"suburban_rail","source":"MobilityData Indian Railways GTFS (unofficial data)"},"geometry":{"type":"LineString","coordinates":[[73.121266,18.990429],[73.1145,19.0346],[73.103156,19.052829],[73.0874,19.0789],[73.080068,19.155222],[73.059039,19.187002],[73.045864,19.268754],[72.983894,19.297697],[72.9186,19.336],[72.872711,19.360122],[72.832162,19.382389]]}},{"type":"Feature","properties":{"route_id":"69166","route_short_name":"69166","route_long_name":"BSR-PNVL MEMU","operator":"Indian Railways","mode":"suburban_rail","source":"MobilityData Indian Railways GTFS (unofficial data)"},"geometry":{"type":"LineString","coordinates":[[72.832162,19.382389],[72.872711,19.360122],[72.9186,19.336],[72.983894,19.297697],[73.045864,19.268754],[73.0782919,19.2135286],[73.059039,19.187002],[73.080068,19.155222],[73.0874,19.0789],[73.103156,19.052829],[73.1145,19.0346],[73.121266,18.990429]]}},{"type":"Feature","properties":{"route_id":"69167","route_short_name":"69167","route_long_name":"PNVL-BSR MEMU","operator":"Indian Railways","mode":"suburban_rail","source":"MobilityData Indian Railways GTFS (unofficial data)"},"geometry":{"type":"LineString","coordinates":[[73.121266,18.990429],[73.1145,19.0346],[73.103156,19.052829],[73.0874,19.0789],[73.080068,19.155222],[73.059039,19.187002],[73.045864,19.268754],[72.983894,19.297697],[72.9186,19.336],[72.872711,19.360122],[72.832162,19.382389]]}},{"type":"Feature","properties":{"route_id":"69168","route_short_name":"69168","route_long_name":"BSR-PNVL MEMU","operator":"Indian Railways","mode":"suburban_rail","source":"MobilityData Indian Railways GTFS (unofficial data)"},"geometry":{"type":"LineString","coordinates":[[72.832162,19.382389],[72.872711,19.360122],[72.9186,19.336],[72.983894,19.297697],[73.045864,19.268754],[73.0782919,19.2135286],[73.059039,19.187002],[73.080068,19.155222],[73.0874,19.0789],[73.103156,19.052829],[73.1145,19.0346],[73.121266,18.990429]]}},{"type":"Feature","properties":{"route_id":"69173","route_short_name":"69173","route_long_name":"VR-DRD MEMU","operator":"Indian Railways","mode":"suburban_rail","source":"MobilityData Indian Railways GTFS (unofficial data)"},"geometry":{"type":"LineString","coordinates":[[72.812147,19.454817],[72.8499,19.518]]}},{"type":"Feature","properties":{"route_id":"69174","route_short_name":"69174","route_long_name":"DRD-BVI MEMU","operator":"Indian Railways","mode":"suburban_rail","source":"MobilityData Indian Railways GTFS (unofficial data)"},"geometry":{"type":"LineString","coordinates":[[72.8499,19.518],[72.812147,19.454817],[72.832162,19.382389],[72.856822,19.229149]]}},{"type":"Feature","properties":{"route_id":"93001","route_short_name":"93001","route_long_name":"VR - DRD LOCAL","operator":"Indian Railways","mode":"suburban_rail","source":"MobilityData Indian Railways GTFS (unofficial data)"},"geometry":{"type":"LineString","coordinates":[[72.812147,19.454817],[72.8499,19.518]]}},{"type":"Feature","properties":{"route_id":"93002","route_short_name":"93002","route_long_name":"DRD - CCG LOCAL","operator":"Indian Railways","mode":"suburban_rail","source":"MobilityData Indian Railways GTFS (unofficial data)"},"geometry":{"type":"LineString","coordinates":[[72.8499,19.518],[72.812147,19.454817],[72.832162,19.382389],[72.852659,19.311386],[72.856822,19.229149],[72.846563,19.117139],[72.8406,19.0546],[72.843175,19.019441],[72.8144371,18.9696253],[72.8161,18.9636],[72.8185,18.9515],[72.8237,18.9456],[72.827253,18.934887]]}},{"type":"Feature","properties":{"route_id":"93003","route_short_name":"93003","route_long_name":"VR - DRD LOCAL","operator":"Indian Railways","mode":"suburban_rail","source":"MobilityData Indian Railways GTFS (unofficial data)"},"geometry":{"type":"LineString","coordinates":[[72.812147,19.454817],[72.8499,19.518]]}},{"type":"Feature","properties":{"route_id":"93004","route_short_name":"93004","route_long_name":"DRD - CCG LOCAL","operator":"Indian Railways","mode":"suburban_rail","source":"MobilityData Indian Railways GTFS (unofficial data)"},"geometry":{"type":"LineString","coordinates":[[72.8499,19.518],[72.812147,19.454817],[72.832162,19.382389],[72.852659,19.311386],[72.856822,19.229149],[72.846563,19.117139],[72.8406,19.0546],[72.843175,19.019441],[72.8144371,18.9696253],[72.8161,18.9636],[72.8185,18.9515],[72.8237,18.9456],[72.827253,18.934887]]}},{"type":"Feature","properties":{"route_id":"93005","route_short_name":"93005","route_long_name":"CCG - DRD LOCAL","operator":"Indian Railways","mode":"suburban_rail","source":"MobilityData Indian Railways GTFS (unofficial data)"},"geometry":{"type":"LineString","coordinates":[[72.827253,18.934887],[72.8237,18.9456],[72.8185,18.9515],[72.8161,18.9636],[72.8144371,18.9696253],[72.843175,19.019441],[72.8406,19.0546],[72.846563,19.117139],[72.856822,19.229149],[72.852659,19.311386],[72.832162,19.382389],[72.812147,19.454817],[72.8499,19.518]]}},{"type":"Feature","properties":{"route_id":"93006","route_short_name":"93006","route_long_name":"DRD - VR LOCAL","operator":"Indian Railways","mode":"suburban_rail","source":"MobilityData Indian Railways GTFS (unofficial data)"},"geometry":{"type":"LineString","coordinates":[[72.8499,19.518],[72.812147,19.454817]]}},{"type":"Feature","properties":{"route_id":"93007","route_short_name":"93007","route_long_name":"CCG - DRD LOCAL","operator":"Indian Railways","mode":"suburban_rail","source":"MobilityData Indian Railways GTFS (unofficial data)"},"geometry":{"type":"LineString","coordinates":[[72.827253,18.934887],[72.8237,18.9456],[72.8185,18.9515],[72.8161,18.9636],[72.8144371,18.9696253],[72.843175,19.019441],[72.8406,19.0546],[72.846563,19.117139],[72.856822,19.229149],[72.852659,19.311386],[72.832162,19.382389],[72.812147,19.454817],[72.8499,19.518]]}},{"type":"Feature","properties":{"route_id":"93008","route_short_name":"93008","route_long_name":"DRD - CCG LOCAL","operator":"Indian Railways","mode":"suburban_rail","source":"MobilityData Indian Railways GTFS (unofficial data)"},"geometry":{"type":"LineString","coordinates":[[72.8499,19.518],[72.812147,19.454817],[72.832162,19.382389],[72.852659,19.311386],[72.856822,19.229149],[72.846563,19.117139],[72.8406,19.0546],[72.843175,19.019441],[72.8144371,18.9696253],[72.8161,18.9636],[72.8185,18.9515],[72.8237,18.9456],[72.827253,18.934887]]}},{"type":"Feature","properties":{"route_id":"93009","route_short_name":"93009","route_long_name":"CCG - DRD LOCAL","operator":"Indian Railways","mode":"suburban_rail","source":"MobilityData Indian Railways GTFS (unofficial data)"},"geometry":{"type":"LineString","coordinates":[[72.827253,18.934887],[72.8237,18.9456],[72.8185,18.9515],[72.8161,18.9636],[72.8144371,18.9696253],[72.843175,19.019441],[72.8406,19.0546],[72.846563,19.117139],[72.856822,19.229149],[72.852659,19.311386],[72.832162,19.382389],[72.812147,19.454817],[72.8499,19.518]]}},{"type":"Feature","properties":{"route_id":"93010","route_short_name":"93010","route_long_name":"DRD - BVI LOCAL","operator":"Indian Railways","mode":"suburban_rail","source":"MobilityData Indian Railways GTFS (unofficial data)"},"geometry":{"type":"LineString","coordinates":[[72.8499,19.518],[72.812147,19.454817],[72.832162,19.382389],[72.852659,19.311386],[72.856822,19.229149]]}},{"type":"Feature","properties":{"route_id":"93011","route_short_name":"93011","route_long_name":"CCG - DRD LOCAL","operator":"Indian Railways","mode":"suburban_rail","source":"MobilityData Indian Railways GTFS (unofficial data)"},"geometry":{"type":"LineString","coordinates":[[72.827253,18.934887],[72.8237,18.9456],[72.8185,18.9515],[72.8161,18.9636],[72.8144371,18.9696253],[72.843175,19.019441],[72.8406,19.0546],[72.846563,19.117139],[72.856822,19.229149],[72.852659,19.311386],[72.832162,19.382389],[72.812147,19.454817],[72.8499,19.518]]}},{"type":"Feature","properties":{"route_id":"93012","route_short_name":"93012","route_long_name":"DRD - VR LOCAL","operator":"Indian Railways","mode":"suburban_rail","source":"MobilityData Indian Railways GTFS (unofficial data)"},"geometry":{"type":"LineString","coordinates":[[72.8499,19.518],[72.812147,19.454817]]}},{"type":"Feature","properties":{"route_id":"93013","route_short_name":"93013","route_long_name":"VR - DRD LOCAL","operator":"Indian Railways","mode":"suburban_rail","source":"MobilityData Indian Railways GTFS (unofficial data)"},"geometry":{"type":"LineString","coordinates":[[72.812147,19.454817],[72.8499,19.518]]}},{"type":"Feature","properties":{"route_id":"93014","route_short_name":"93014","route_long_name":"DRD - VR LOCAL","operator":"Indian Railways","mode":"suburban_rail","source":"MobilityData Indian Railways GTFS (unofficial data)"},"geometry":{"type":"LineString","coordinates":[[72.8499,19.518],[72.812147,19.454817]]}},{"type":"Feature","properties":{"route_id":"93015","route_short_name":"93015","route_long_name":"CCG - DRD LOCAL","operator":"Indian Railways","mode":"suburban_rail","source":"MobilityData Indian Railways GTFS (unofficial data)"},"geometry":{"type":"LineString","coordinates":[[72.827253,18.934887],[72.8237,18.9456],[72.8185,18.9515],[72.8161,18.9636],[72.8144371,18.9696253],[72.843175,19.019441],[72.8406,19.0546],[72.846563,19.117139],[72.856822,19.229149],[72.852659,19.311386],[72.832162,19.382389],[72.812147,19.454817],[72.8499,19.518]]}},{"type":"Feature","properties":{"route_id":"93016","route_short_name":"93016","route_long_name":"DRD - VR LOCAL","operator":"Indian Railways","mode":"suburban_rail","source":"MobilityData Indian Railways GTFS (unofficial data)"},"geometry":{"type":"LineString","coordinates":[[72.8499,19.518],[72.812147,19.454817]]}},{"type":"Feature","properties":{"route_id":"93017","route_short_name":"93017","route_long_name":"BVI - DRD LOCAL","operator":"Indian Railways","mode":"suburban_rail","source":"MobilityData Indian Railways GTFS (unofficial data)"},"geometry":{"type":"LineString","coordinates":[[72.856822,19.229149],[72.852659,19.311386],[72.832162,19.382389],[72.812147,19.454817],[72.8499,19.518]]}},{"type":"Feature","properties":{"route_id":"93018","route_short_name":"93018","route_long_name":"DRD - VR LOCAL","operator":"Indian Railways","mode":"suburban_rail","source":"MobilityData Indian Railways GTFS (unofficial data)"},"geometry":{"type":"LineString","coordinates":[[72.8499,19.518],[72.812147,19.454817]]}},{"type":"Feature","properties":{"route_id":"93019","route_short_name":"93019","route_long_name":"CCG - DRD LOCAL","operator":"Indian Railways","mode":"suburban_rail","source":"MobilityData Indian Railways GTFS (unofficial data)"},"geometry":{"type":"LineString","coordinates":[[72.827253,18.934887],[72.8237,18.9456],[72.8185,18.9515],[72.8161,18.9636],[72.8144371,18.9696253],[72.843175,19.019441],[72.8406,19.0546],[72.846563,19.117139],[72.856822,19.229149],[72.852659,19.311386],[72.832162,19.382389],[72.812147,19.454817],[72.8499,19.518]]}},{"type":"Feature","properties":{"route_id":"93020","route_short_name":"93020","route_long_name":"DRD - VR LOCAL","operator":"Indian Railways","mode":"suburban_rail","source":"MobilityData Indian Railways GTFS (unofficial data)"},"geometry":{"type":"LineString","coordinates":[[72.8499,19.518],[72.812147,19.454817]]}},{"type":"Feature","properties":{"route_id":"93021","route_short_name":"93021","route_long_name":"VR - DRD LOCAL","operator":"Indian Railways","mode":"suburban_rail","source":"MobilityData Indian Railways GTFS (unofficial data)"},"geometry":{"type":"LineString","coordinates":[[72.812147,19.454817],[72.8499,19.518]]}},{"type":"Feature","properties":{"route_id":"93022","route_short_name":"93022","route_long_name":"DRD - CCG LOCAL","operator":"Indian Railways","mode":"suburban_rail","source":"MobilityData Indian Railways GTFS (unofficial data)"},"geometry":{"type":"LineString","coordinates":[[72.8499,19.518],[72.812147,19.454817],[72.832162,19.382389],[72.852659,19.311386],[72.856822,19.229149],[72.846563,19.117139],[72.8406,19.0546],[72.843175,19.019441],[72.8144371,18.9696253],[72.8161,18.9636],[72.8185,18.9515],[72.8237,18.9456],[72.827253,18.934887]]}},{"type":"Feature","properties":{"route_id":"93023","route_short_name":"93023","route_long_name":"VR - DRD LOCAL","operator":"Indian Railways","mode":"suburban_rail","source":"MobilityData Indian Railways GTFS (unofficial data)"},"geometry":{"type":"LineString","coordinates":[[72.812147,19.454817],[72.8499,19.518]]}},{"type":"Feature","properties":{"route_id":"93024","route_short_name":"93024","route_long_name":"DRD - VR LOCAL","operator":"Indian Railways","mode":"suburban_rail","source":"MobilityData Indian Railways GTFS (unofficial data)"},"geometry":{"type":"LineString","coordinates":[[72.8499,19.518],[72.812147,19.454817]]}},{"type":"Feature","properties":{"route_id":"93025","route_short_name":"93025","route_long_name":"VR - DRD LOCAL","operator":"Indian Railways","mode":"suburban_rail","source":"MobilityData Indian Railways GTFS (unofficial data)"},"geometry":{"type":"LineString","coordinates":[[72.812147,19.454817],[72.8499,19.518]]}},{"type":"Feature","properties":{"route_id":"93026","route_short_name":"93026","route_long_name":"DRD - CCG LOCAL","operator":"Indian Railways","mode":"suburban_rail","source":"MobilityData Indian Railways GTFS (unofficial data)"},"geometry":{"type":"LineString","coordinates":[[72.8499,19.518],[72.812147,19.454817],[72.832162,19.382389],[72.852659,19.311386],[72.856822,19.229149],[72.846563,19.117139],[72.8406,19.0546],[72.843175,19.019441],[72.8144371,18.9696253],[72.8161,18.9636],[72.8185,18.9515],[72.8237,18.9456],[72.827253,18.934887]]}},{"type":"Feature","properties":{"route_id":"93027","route_short_name":"93027","route_long_name":"VR - DRD LOCAL","operator":"Indian Railways","mode":"suburban_rail","source":"MobilityData Indian Railways GTFS (unofficial data)"},"geometry":{"type":"LineString","coordinates":[[72.812147,19.454817],[72.8499,19.518]]}},{"type":"Feature","properties":{"route_id":"93028","route_short_name":"93028","route_long_name":"DRD - DDR LOCAL","operator":"Indian Railways","mode":"suburban_rail","source":"MobilityData Indian Railways GTFS (unofficial data)"},"geometry":{"type":"LineString","coordinates":[[72.8499,19.518],[72.812147,19.454817],[72.832162,19.382389],[72.852659,19.311386],[72.856822,19.229149],[72.846563,19.117139],[72.8406,19.0546],[72.843175,19.019441]]}},{"type":"Feature","properties":{"route_id":"93029","route_short_name":"93029","route_long_name":"VR - DRD LOCAL","operator":"Indian Railways","mode":"suburban_rail","source":"MobilityData Indian Railways GTFS (unofficial data)"},"geometry":{"type":"LineString","coordinates":[[72.812147,19.454817],[72.8499,19.518]]}},{"type":"Feature","properties":{"route_id":"93030","route_short_name":"93030","route_long_name":"DRD - VR LOCAL","operator":"Indian Railways","mode":"suburban_rail","source":"MobilityData Indian Railways GTFS (unofficial data)"},"geometry":{"type":"LineString","coordinates":[[72.8499,19.518],[72.812147,19.454817]]}},{"type":"Feature","properties":{"route_id":"93031","route_short_name":"93031","route_long_name":"CCG - DRD LOCAL","operator":"Indian Railways","mode":"suburban_rail","source":"MobilityData Indian Railways GTFS (unofficial data)"},"geometry":{"type":"LineString","coordinates":[[72.827253,18.934887],[72.8237,18.9456],[72.8185,18.9515],[72.8161,18.9636],[72.8144371,18.9696253],[72.843175,19.019441],[72.8406,19.0546],[72.846563,19.117139],[72.856822,19.229149],[72.852659,19.311386],[72.832162,19.382389],[72.812147,19.454817],[72.8499,19.518]]}},{"type":"Feature","properties":{"route_id":"93032","route_short_name":"93032","route_long_name":"DRD - VR LOCAL","operator":"Indian Railways","mode":"suburban_rail","source":"MobilityData Indian Railways GTFS (unofficial data)"},"geometry":{"type":"LineString","coordinates":[[72.8499,19.518],[72.812147,19.454817]]}},{"type":"Feature","properties":{"route_id":"93033","route_short_name":"93033","route_long_name":"VR - DRD LOCAL","operator":"Indian Railways","mode":"suburban_rail","source":"MobilityData Indian Railways GTFS (unofficial data)"},"geometry":{"type":"LineString","coordinates":[[72.812147,19.454817],[72.8499,19.518]]}},{"type":"Feature","properties":{"route_id":"93034","route_short_name":"93034","route_long_name":"DRD - CCG LOCAL","operator":"Indian Railways","mode":"suburban_rail","source":"MobilityData Indian Railways GTFS (unofficial data)"},"geometry":{"type":"LineString","coordinates":[[72.8499,19.518],[72.812147,19.454817],[72.832162,19.382389],[72.852659,19.311386],[72.856822,19.229149],[72.846563,19.117139],[72.8406,19.0546],[72.843175,19.019441],[72.8144371,18.9696253],[72.827253,18.934887]]}},{"type":"Feature","properties":{"route_id":"93035","route_short_name":"93035","route_long_name":"DDR - DRD LOCAL","operator":"Indian Railways","mode":"suburban_rail","source":"MobilityData Indian Railways GTFS (unofficial data)"},"geometry":{"type":"LineString","coordinates":[[72.843175,19.019441],[72.8406,19.0546],[72.846563,19.117139],[72.856822,19.229149],[72.8593,19.2499],[72.856,19.2803],[72.852659,19.311386],[72.8463,19.3513],[72.832162,19.382389],[72.819,19.4177],[72.812147,19.454817],[72.8499,19.518]]}},{"type":"Feature","properties":{"route_id":"93036","route_short_name":"93036","route_long_name":"DRD - CCG LOCAL","operator":"Indian Railways","mode":"suburban_rail","source":"MobilityData Indian Railways GTFS (unofficial data)"},"geometry":{"type":"LineString","coordinates":[[72.8499,19.518],[72.812147,19.454817],[72.832162,19.382389],[72.852659,19.311386],[72.856822,19.229149],[72.846563,19.117139],[72.8406,19.0546],[72.843175,19.019441],[72.8144371,18.9696253],[72.8161,18.9636],[72.8185,18.9515],[72.8237,18.9456],[72.827253,18.934887]]}},{"type":"Feature","properties":{"route_id":"93037","route_short_name":"93037","route_long_name":"VR - DRD LOCAL","operator":"Indian Railways","mode":"suburban_rail","source":"MobilityData Indian Railways GTFS (unofficial data)"},"geometry":{"type":"LineString","coordinates":[[72.812147,19.454817],[72.8499,19.518]]}},{"type":"Feature","properties":{"route_id":"93038","route_short_name":"93038","route_long_name":"DRD - CCG LOCAL","operator":"Indian Railways","mode":"suburban_rail","source":"MobilityData Indian Railways GTFS (unofficial data)"},"geometry":{"type":"LineString","coordinates":[[72.8499,19.518],[72.812147,19.454817],[72.832162,19.382389],[72.852659,19.311386],[72.856822,19.229149],[72.846563,19.117139],[72.8406,19.0546],[72.843175,19.019441],[72.8144371,18.9696253],[72.8161,18.9636],[72.8185,18.9515],[72.8237,18.9456],[72.827253,18.934887]]}},{"type":"Feature","properties":{"route_id":"93039","route_short_name":"93039","route_long_name":"VR - DRD LOCAL","operator":"Indian Railways","mode":"suburban_rail","source":"MobilityData Indian Railways GTFS (unofficial data)"},"geometry":{"type":"LineString","coordinates":[[72.812147,19.454817],[72.8499,19.518]]}},{"type":"Feature","properties":{"route_id":"93040","route_short_name":"93040","route_long_name":"DRD - VR LOCAL","operator":"Indian Railways","mode":"suburban_rail","source":"MobilityData Indian Railways GTFS (unofficial data)"},"geometry":{"type":"LineString","coordinates":[[72.8499,19.518],[72.812147,19.454817]]}},{"type":"Feature","properties":{"route_id":"93041","route_short_name":"93041","route_long_name":"CCG - DRD LOCAL","operator":"Indian Railways","mode":"suburban_rail","source":"MobilityData Indian Railways GTFS (unofficial data)"},"geometry":{"type":"LineString","coordinates":[[72.827253,18.934887],[72.8237,18.9456],[72.8185,18.9515],[72.8161,18.9636],[72.8144371,18.9696253],[72.843175,19.019441],[72.8406,19.0546],[72.846563,19.117139],[72.856822,19.229149],[72.852659,19.311386],[72.832162,19.382389],[72.812147,19.454817],[72.8499,19.518]]}},{"type":"Feature","properties":{"route_id":"93042","route_short_name":"93042","route_long_name":"DRD - VR LOCAL","operator":"Indian Railways","mode":"suburban_rail","source":"MobilityData Indian Railways GTFS (unofficial data)"},"geometry":{"type":"LineString","coordinates":[[72.8499,19.518],[72.812147,19.454817]]}},{"type":"Feature","properties":{"route_id":"95001","route_short_name":"95001","route_long_name":"KP-","operator":"Indian Railways","mode":"suburban_rail","source":"MobilityData Indian Railways GTFS (unofficial data)"},"geometry":{"type":"LineString","coordinates":[[73.13015,19.235126],[73.1485,19.2287],[73.1632,19.2179],[73.184416,19.210042],[73.2393,19.1667],[73.3008,19.0941],[73.317776,19.063375],[73.3185,19.0266],[73.3312,18.9706],[73.3206,18.9111],[73.32078,18.88432]]}},{"type":"Feature","properties":{"route_id":"95002","route_short_name":"95002","route_long_name":"KP","operator":"Indian Railways","mode":"suburban_rail","source":"MobilityData Indian Railways GTFS (unofficial data)"},"geometry":{"type":"LineString","coordinates":[[73.32078,18.88432],[73.3206,18.9111],[73.3312,18.9706],[73.3185,19.0266],[73.317776,19.063375],[73.3008,19.0941],[73.2393,19.1667],[73.184416,19.210042],[73.1632,19.2179],[73.1485,19.2287],[73.13015,19.235126]]}},{"type":"Feature","properties":{"route_id":"95003","route_short_name":"95003","route_long_name":"KP","operator":"Indian Railways","mode":"suburban_rail","source":"MobilityData Indian Railways GTFS (unofficial data)"},"geometry":{"type":"LineString","coordinates":[[73.13015,19.235126],[73.1485,19.2287],[73.1632,19.2179],[73.184416,19.210042],[73.2393,19.1667],[73.3008,19.0941],[73.317776,19.063375],[73.3185,19.0266],[73.3312,18.9706],[73.3206,18.9111],[73.32078,18.88432]]}},{"type":"Feature","properties":{"route_id":"95004","route_short_name":"95004","route_long_name":"KP","operator":"Indian Railways","mode":"suburban_rail","source":"MobilityData Indian Railways GTFS (unofficial data)"},"geometry":{"type":"LineString","coordinates":[[73.32078,18.88432],[73.3206,18.9111],[73.3312,18.9706],[73.3185,19.0266],[73.317776,19.063375],[73.3008,19.0941],[73.2393,19.1667],[73.184416,19.210042],[73.1632,19.2179],[73.1485,19.2287],[73.13015,19.235126]]}},{"type":"Feature","properties":{"route_id":"95005","route_short_name":"95005","route_long_name":"KP","operator":"Indian Railways","mode":"suburban_rail","source":"MobilityData Indian Railways GTFS (unofficial data)"},"geometry":{"type":"LineString","coordinates":[[73.13015,19.235126],[73.1485,19.2287],[73.1632,19.2179],[73.184416,19.210042],[73.2393,19.1667],[73.3008,19.0941],[73.317776,19.063375],[73.3185,19.0266],[73.3312,18.9706],[73.3206,18.9111],[73.32078,18.88432]]}},{"type":"Feature","properties":{"route_id":"95006","route_short_name":"95006","route_long_name":"KP","operator":"Indian Railways","mode":"suburban_rail","source":"MobilityData Indian Railways GTFS (unofficial data)"},"geometry":{"type":"LineString","coordinates":[[73.32078,18.88432],[73.3206,18.9111],[73.3312,18.9706],[73.3185,19.0266],[73.317776,19.063375],[73.3008,19.0941],[73.2393,19.1667],[73.184416,19.210042],[73.1632,19.2179],[73.1485,19.2287],[73.13015,19.235126]]}},{"type":"Feature","properties":{"route_id":"95007","route_short_name":"95007","route_long_name":"KP","operator":"Indian Railways","mode":"suburban_rail","source":"MobilityData Indian Railways GTFS (unofficial data)"},"geometry":{"type":"LineString","coordinates":[[73.13015,19.235126],[73.1485,19.2287],[73.1632,19.2179],[73.184416,19.210042],[73.2393,19.1667],[73.3008,19.0941],[73.317776,19.063375],[73.3185,19.0266],[73.3312,18.9706],[73.3206,18.9111],[73.32078,18.88432]]}},{"type":"Feature","properties":{"route_id":"95008","route_short_name":"95008","route_long_name":"KP","operator":"Indian Railways","mode":"suburban_rail","source":"MobilityData Indian Railways GTFS (unofficial data)"},"geometry":{"type":"LineString","coordinates":[[73.32078,18.88432],[73.3206,18.9111],[73.3312,18.9706],[73.3185,19.0266],[73.3008,19.0941],[73.2393,19.1667],[73.184416,19.210042],[73.1632,19.2179],[73.1485,19.2287],[73.13015,19.235126]]}},{"type":"Feature","properties":{"route_id":"95009","route_short_name":"95009","route_long_name":"KP","operator":"Indian Railways","mode":"suburban_rail","source":"MobilityData Indian Railways GTFS (unofficial data)"},"geometry":{"type":"LineString","coordinates":[[73.13015,19.235126],[73.1485,19.2287],[73.1632,19.2179],[73.184416,19.210042],[73.2393,19.1667],[73.3008,19.0941],[73.317776,19.063375],[73.3185,19.0266],[73.3312,18.9706],[73.3206,18.9111],[73.32078,18.88432]]}},{"type":"Feature","properties":{"route_id":"95010","route_short_name":"95010","route_long_name":"KP","operator":"Indian Railways","mode":"suburban_rail","source":"MobilityData Indian Railways GTFS (unofficial data)"},"geometry":{"type":"LineString","coordinates":[[73.32078,18.88432],[73.3206,18.9111],[73.3312,18.9706],[73.3185,19.0266],[73.317776,19.063375],[73.3008,19.0941],[73.2393,19.1667],[73.184416,19.210042],[73.1632,19.2179],[73.1485,19.2287],[73.13015,19.235126]]}},{"type":"Feature","properties":{"route_id":"95011","route_short_name":"95011","route_long_name":"KP","operator":"Indian Railways","mode":"suburban_rail","source":"MobilityData Indian Railways GTFS (unofficial data)"},"geometry":{"type":"LineString","coordinates":[[73.13015,19.235126],[73.1485,19.2287],[73.1632,19.2179],[73.184416,19.210042],[73.2393,19.1667],[73.3008,19.0941],[73.317776,19.063375],[73.3185,19.0266],[73.3312,18.9706],[73.3206,18.9111],[73.32078,18.88432]]}},{"type":"Feature","properties":{"route_id":"95012","route_short_name":"95012","route_long_name":"KP","operator":"Indian Railways","mode":"suburban_rail","source":"MobilityData Indian Railways GTFS (unofficial data)"},"geometry":{"type":"LineString","coordinates":[[73.32078,18.88432],[73.3206,18.9111],[73.3312,18.9706],[73.3185,19.0266],[73.317776,19.063375],[73.3008,19.0941],[73.2393,19.1667],[73.184416,19.210042],[73.1632,19.2179],[73.1485,19.2287],[73.13015,19.235126]]}},{"type":"Feature","properties":{"route_id":"95013","route_short_name":"95013","route_long_name":"KP-","operator":"Indian Railways","mode":"suburban_rail","source":"MobilityData Indian Railways GTFS (unofficial data)"},"geometry":{"type":"LineString","coordinates":[[73.13015,19.235126],[73.1485,19.2287],[73.1632,19.2179],[73.184416,19.210042],[73.2393,19.1667],[73.3008,19.0941],[73.317776,19.063375],[73.3185,19.0266],[73.3312,18.9706],[73.3206,18.9111],[73.32078,18.88432]]}},{"type":"Feature","properties":{"route_id":"95015","route_short_name":"95015","route_long_name":"KP","operator":"Indian Railways","mode":"suburban_rail","source":"MobilityData Indian Railways GTFS (unofficial data)"},"geometry":{"type":"LineString","coordinates":[[73.13015,19.235126],[73.1485,19.2287],[73.1632,19.2179],[73.184416,19.210042],[73.2393,19.1667],[73.3008,19.0941],[73.317776,19.063375],[73.3185,19.0266],[73.3312,18.9706],[73.3206,18.9111],[73.32078,18.88432]]}},{"type":"Feature","properties":{"route_id":"95302","route_short_name":"95302","route_long_name":"A","operator":"Indian Railways","mode":"suburban_rail","source":"MobilityData Indian Railways GTFS (unofficial data)"},"geometry":{"type":"LineString","coordinates":[[73.184416,19.210042],[73.1632,19.2179],[73.1485,19.2287],[73.13015,19.235126]]}},{"type":"Feature","properties":{"route_id":"95303","route_short_name":"95303","route_long_name":"A","operator":"Indian Railways","mode":"suburban_rail","source":"MobilityData Indian Railways GTFS (unofficial data)"},"geometry":{"type":"LineString","coordinates":[[73.13015,19.235126],[73.1485,19.2287],[73.1632,19.2179],[73.184416,19.210042]]}},{"type":"Feature","properties":{"route_id":"95304","route_short_name":"95304","route_long_name":"A","operator":"Indian Railways","mode":"suburban_rail","source":"MobilityData Indian Railways GTFS (unofficial data)"},"geometry":{"type":"LineString","coordinates":[[73.184416,19.210042],[73.1632,19.2179],[73.1485,19.2287],[73.13015,19.235126]]}},{"type":"Feature","properties":{"route_id":"95305","route_short_name":"95305","route_long_name":"A","operator":"Indian Railways","mode":"suburban_rail","source":"MobilityData Indian Railways GTFS (unofficial data)"},"geometry":{"type":"LineString","coordinates":[[73.13015,19.235126],[73.1485,19.2287],[73.1632,19.2179],[73.184416,19.210042]]}},{"type":"Feature","properties":{"route_id":"95306","route_short_name":"95306","route_long_name":"A","operator":"Indian Railways","mode":"suburban_rail","source":"MobilityData Indian Railways GTFS (unofficial data)"},"geometry":{"type":"LineString","coordinates":[[73.184416,19.210042],[73.1632,19.2179],[73.1485,19.2287],[73.13015,19.235126]]}},{"type":"Feature","properties":{"route_id":"95307","route_short_name":"95307","route_long_name":"A","operator":"Indian Railways","mode":"suburban_rail","source":"MobilityData Indian Railways GTFS (unofficial data)"},"geometry":{"type":"LineString","coordinates":[[73.13015,19.235126],[73.1485,19.2287],[73.1632,19.2179],[73.184416,19.210042]]}},{"type":"Feature","properties":{"route_id":"95308","route_short_name":"95308","route_long_name":"A","operator":"Indian Railways","mode":"suburban_rail","source":"MobilityData Indian Railways GTFS (unofficial data)"},"geometry":{"type":"LineString","coordinates":[[73.184416,19.210042],[73.1632,19.2179],[73.1485,19.2287],[73.13015,19.235126]]}},{"type":"Feature","properties":{"route_id":"95309","route_short_name":"95309","route_long_name":"A","operator":"Indian Railways","mode":"suburban_rail","source":"MobilityData Indian Railways GTFS (unofficial data)"},"geometry":{"type":"LineString","coordinates":[[73.13015,19.235126],[73.1485,19.2287],[73.1632,19.2179],[73.184416,19.210042]]}},{"type":"Feature","properties":{"route_id":"95310","route_short_name":"95310","route_long_name":"A","operator":"Indian Railways","mode":"suburban_rail","source":"MobilityData Indian Railways GTFS (unofficial data)"},"geometry":{"type":"LineString","coordinates":[[73.184416,19.210042],[73.1632,19.2179],[73.1485,19.2287],[73.13015,19.235126]]}},{"type":"Feature","properties":{"route_id":"95311","route_short_name":"95311","route_long_name":"A","operator":"Indian Railways","mode":"suburban_rail","source":"MobilityData Indian Railways GTFS (unofficial data)"},"geometry":{"type":"LineString","coordinates":[[73.13015,19.235126],[73.1485,19.2287],[73.1632,19.2179],[73.184416,19.210042]]}},{"type":"Feature","properties":{"route_id":"95312","route_short_name":"95312","route_long_name":"A","operator":"Indian Railways","mode":"suburban_rail","source":"MobilityData Indian Railways GTFS (unofficial data)"},"geometry":{"type":"LineString","coordinates":[[73.184416,19.210042],[73.1632,19.2179],[73.1485,19.2287],[73.13015,19.235126]]}},{"type":"Feature","properties":{"route_id":"95313","route_short_name":"95313","route_long_name":"A","operator":"Indian Railways","mode":"suburban_rail","source":"MobilityData Indian Railways GTFS (unofficial data)"},"geometry":{"type":"LineString","coordinates":[[73.13015,19.235126],[73.1485,19.2287],[73.1632,19.2179],[73.184416,19.210042]]}},{"type":"Feature","properties":{"route_id":"95314","route_short_name":"95314","route_long_name":"A","operator":"Indian Railways","mode":"suburban_rail","source":"MobilityData Indian Railways GTFS (unofficial data)"},"geometry":{"type":"LineString","coordinates":[[73.184416,19.210042],[73.1632,19.2179],[73.1485,19.2287],[73.13015,19.235126]]}},{"type":"Feature","properties":{"route_id":"95315","route_short_name":"95315","route_long_name":"A","operator":"Indian Railways","mode":"suburban_rail","source":"MobilityData Indian Railways GTFS (unofficial data)"},"geometry":{"type":"LineString","coordinates":[[73.13015,19.235126],[73.1485,19.2287],[73.1632,19.2179],[73.184416,19.210042]]}},{"type":"Feature","properties":{"route_id":"95316","route_short_name":"95316","route_long_name":"A","operator":"Indian Railways","mode":"suburban_rail","source":"MobilityData Indian Railways GTFS (unofficial data)"},"geometry":{"type":"LineString","coordinates":[[73.184416,19.210042],[73.1632,19.2179],[73.1485,19.2287],[73.13015,19.235126]]}},{"type":"Feature","properties":{"route_id":"95319","route_short_name":"95319","route_long_name":"A","operator":"Indian Railways","mode":"suburban_rail","source":"MobilityData Indian Railways GTFS (unofficial data)"},"geometry":{"type":"LineString","coordinates":[[73.13015,19.235126],[73.1485,19.2287],[73.1632,19.2179],[73.184416,19.210042]]}},{"type":"Feature","properties":{"route_id":"95320","route_short_name":"95320","route_long_name":"A","operator":"Indian Railways","mode":"suburban_rail","source":"MobilityData Indian Railways GTFS (unofficial data)"},"geometry":{"type":"LineString","coordinates":[[73.184416,19.210042],[73.1632,19.2179],[73.1485,19.2287],[73.13015,19.235126]]}},{"type":"Feature","properties":{"route_id":"95321","route_short_name":"95321","route_long_name":"A","operator":"Indian Railways","mode":"suburban_rail","source":"MobilityData Indian Railways GTFS (unofficial data)"},"geometry":{"type":"LineString","coordinates":[[73.13015,19.235126],[73.1485,19.2287],[73.1632,19.2179],[73.184416,19.210042]]}},{"type":"Feature","properties":{"route_id":"95322","route_short_name":"95322","route_long_name":"A","operator":"Indian Railways","mode":"suburban_rail","source":"MobilityData Indian Railways GTFS (unofficial data)"},"geometry":{"type":"LineString","coordinates":[[73.184416,19.210042],[73.1632,19.2179],[73.1485,19.2287],[73.13015,19.235126]]}},{"type":"Feature","properties":{"route_id":"95323","route_short_name":"95323","route_long_name":"A","operator":"Indian Railways","mode":"suburban_rail","source":"MobilityData Indian Railways GTFS (unofficial data)"},"geometry":{"type":"LineString","coordinates":[[73.13015,19.235126],[73.1485,19.2287],[73.1632,19.2179],[73.184416,19.210042]]}},{"type":"Feature","properties":{"route_id":"95324","route_short_name":"95324","route_long_name":"A   AC","operator":"Indian Railways","mode":"suburban_rail","source":"MobilityData Indian Railways GTFS (unofficial data)"},"geometry":{"type":"LineString","coordinates":[[73.184416,19.210042],[73.1632,19.2179],[73.1485,19.2287],[73.13015,19.235126],[73.08687,19.218188],[72.975547,19.185887],[72.937535,19.14231],[72.908471,19.085865],[72.8793,19.0652],[72.842982,19.017189],[72.8328,18.9765],[72.836523,18.944101]]}},{"type":"Feature","properties":{"route_id":"95325","route_short_name":"95325","route_long_name":"A","operator":"Indian Railways","mode":"suburban_rail","source":"MobilityData Indian Railways GTFS (unofficial data)"},"geometry":{"type":"LineString","coordinates":[[73.13015,19.235126],[73.1485,19.2287],[73.1632,19.2179],[73.184416,19.210042]]}},{"type":"Feature","properties":{"route_id":"95326","route_short_name":"95326","route_long_name":"A","operator":"Indian Railways","mode":"suburban_rail","source":"MobilityData Indian Railways GTFS (unofficial data)"},"geometry":{"type":"LineString","coordinates":[[73.184416,19.210042],[73.1632,19.2179],[73.1485,19.2287],[73.13015,19.235126]]}},{"type":"Feature","properties":{"route_id":"95327","route_short_name":"95327","route_long_name":"A","operator":"Indian Railways","mode":"suburban_rail","source":"MobilityData Indian Railways GTFS (unofficial data)"},"geometry":{"type":"LineString","coordinates":[[73.13015,19.235126],[73.1485,19.2287],[73.1632,19.2179],[73.184416,19.210042]]}},{"type":"Feature","properties":{"route_id":"95330","route_short_name":"95330","route_long_name":"A","operator":"Indian Railways","mode":"suburban_rail","source":"MobilityData Indian Railways GTFS (unofficial data)"},"geometry":{"type":"LineString","coordinates":[[73.184416,19.210042],[73.1632,19.2179],[73.1485,19.2287],[73.13015,19.235126]]}},{"type":"Feature","properties":{"route_id":"95331","route_short_name":"95331","route_long_name":"A","operator":"Indian Railways","mode":"suburban_rail","source":"MobilityData Indian Railways GTFS (unofficial data)"},"geometry":{"type":"LineString","coordinates":[[73.13015,19.235126],[73.1485,19.2287],[73.1632,19.2179],[73.184416,19.210042]]}},{"type":"Feature","properties":{"route_id":"95332","route_short_name":"95332","route_long_name":"A","operator":"Indian Railways","mode":"suburban_rail","source":"MobilityData Indian Railways GTFS (unofficial data)"},"geometry":{"type":"LineString","coordinates":[[73.184416,19.210042],[73.1632,19.2179],[73.1485,19.2287],[73.13015,19.235126]]}},{"type":"Feature","properties":{"route_id":"95333","route_short_name":"95333","route_long_name":"A","operator":"Indian Railways","mode":"suburban_rail","source":"MobilityData Indian Railways GTFS (unofficial data)"},"geometry":{"type":"LineString","coordinates":[[73.13015,19.235126],[73.1485,19.2287],[73.1632,19.2179],[73.184416,19.210042]]}},{"type":"Feature","properties":{"route_id":"95335","route_short_name":"95335","route_long_name":"A","operator":"Indian Railways","mode":"suburban_rail","source":"MobilityData Indian Railways GTFS (unofficial data)"},"geometry":{"type":"LineString","coordinates":[[73.13015,19.235126],[73.1485,19.2287],[73.1632,19.2179],[73.184416,19.210042]]}},{"type":"Feature","properties":{"route_id":"95340","route_short_name":"95340","route_long_name":"A","operator":"Indian Railways","mode":"suburban_rail","source":"MobilityData Indian Railways GTFS (unofficial data)"},"geometry":{"type":"LineString","coordinates":[[73.184416,19.210042],[73.1632,19.2179],[73.1485,19.2287],[73.13015,19.235126]]}},{"type":"Feature","properties":{"route_id":"95342","route_short_name":"95342","route_long_name":"A","operator":"Indian Railways","mode":"suburban_rail","source":"MobilityData Indian Railways GTFS (unofficial data)"},"geometry":{"type":"LineString","coordinates":[[73.184416,19.210042],[73.1632,19.2179],[73.1485,19.2287],[73.13015,19.235126]]}},{"type":"Feature","properties":{"route_id":"95344","route_short_name":"95344","route_long_name":"A","operator":"Indian Railways","mode":"suburban_rail","source":"MobilityData Indian Railways GTFS (unofficial data)"},"geometry":{"type":"LineString","coordinates":[[73.184416,19.210042],[73.1632,19.2179],[73.1485,19.2287],[73.13015,19.235126]]}},{"type":"Feature","properties":{"route_id":"96019","route_short_name":"96019","route_long_name":"KP","operator":"Indian Railways","mode":"suburban_rail","source":"MobilityData Indian Railways GTFS (unofficial data)"},"geometry":{"type":"LineString","coordinates":[[73.13015,19.235126],[73.1485,19.2287],[73.1632,19.2179],[73.184416,19.210042],[73.2393,19.1667],[73.3008,19.0941],[73.317776,19.063375],[73.3185,19.0266],[73.3312,18.9706],[73.3206,18.9111],[73.32078,18.88432]]}},{"type":"Feature","properties":{"route_id":"96020","route_short_name":"96020","route_long_name":"KP","operator":"Indian Railways","mode":"suburban_rail","source":"MobilityData Indian Railways GTFS (unofficial data)"},"geometry":{"type":"LineString","coordinates":[[73.32078,18.88432],[73.3206,18.9111],[73.3312,18.9706],[73.3185,19.0266],[73.317776,19.063375],[73.3008,19.0941],[73.2393,19.1667],[73.184416,19.210042],[73.1632,19.2179],[73.1485,19.2287],[73.13015,19.235126]]}},{"type":"Feature","properties":{"route_id":"96301","route_short_name":"96301","route_long_name":"A","operator":"Indian Railways","mode":"suburban_rail","source":"MobilityData Indian Railways GTFS (unofficial data)"},"geometry":{"type":"LineString","coordinates":[[73.13015,19.235126],[73.1485,19.2287],[73.1632,19.2179],[73.184416,19.210042]]}},{"type":"Feature","properties":{"route_id":"96302","route_short_name":"96302","route_long_name":"A","operator":"Indian Railways","mode":"suburban_rail","source":"MobilityData Indian Railways GTFS (unofficial data)"},"geometry":{"type":"LineString","coordinates":[[73.184416,19.210042],[73.1632,19.2179],[73.1485,19.2287],[73.13015,19.235126]]}},{"type":"Feature","properties":{"route_id":"96303","route_short_name":"96303","route_long_name":"A","operator":"Indian Railways","mode":"suburban_rail","source":"MobilityData Indian Railways GTFS (unofficial data)"},"geometry":{"type":"LineString","coordinates":[[73.13015,19.235126],[73.1485,19.2287],[73.1632,19.2179],[73.184416,19.210042]]}},{"type":"Feature","properties":{"route_id":"96304","route_short_name":"96304","route_long_name":"A","operator":"Indian Railways","mode":"suburban_rail","source":"MobilityData Indian Railways GTFS (unofficial data)"},"geometry":{"type":"LineString","coordinates":[[73.184416,19.210042],[73.1632,19.2179],[73.1485,19.2287],[73.13015,19.235126]]}},{"type":"Feature","properties":{"route_id":"96305","route_short_name":"96305","route_long_name":"A","operator":"Indian Railways","mode":"suburban_rail","source":"MobilityData Indian Railways GTFS (unofficial data)"},"geometry":{"type":"LineString","coordinates":[[73.13015,19.235126],[73.1485,19.2287],[73.1632,19.2179],[73.184416,19.210042]]}},{"type":"Feature","properties":{"route_id":"96306","route_short_name":"96306","route_long_name":"A","operator":"Indian Railways","mode":"suburban_rail","source":"MobilityData Indian Railways GTFS (unofficial data)"},"geometry":{"type":"LineString","coordinates":[[73.184416,19.210042],[73.1632,19.2179],[73.1485,19.2287],[73.13015,19.235126]]}},{"type":"Feature","properties":{"route_id":"96308","route_short_name":"96308","route_long_name":"A","operator":"Indian Railways","mode":"suburban_rail","source":"MobilityData Indian Railways GTFS (unofficial data)"},"geometry":{"type":"LineString","coordinates":[[73.184416,19.210042],[73.1632,19.2179],[73.1485,19.2287],[73.13015,19.235126]]}},{"type":"Feature","properties":{"route_id":"96309","route_short_name":"96309","route_long_name":"A","operator":"Indian Railways","mode":"suburban_rail","source":"MobilityData Indian Railways GTFS (unofficial data)"},"geometry":{"type":"LineString","coordinates":[[73.13015,19.235126],[73.1485,19.2287],[73.1632,19.2179],[73.184416,19.210042]]}},{"type":"Feature","properties":{"route_id":"96310","route_short_name":"96310","route_long_name":"A","operator":"Indian Railways","mode":"suburban_rail","source":"MobilityData Indian Railways GTFS (unofficial data)"},"geometry":{"type":"LineString","coordinates":[[73.184416,19.210042],[73.1632,19.2179],[73.1485,19.2287],[73.13015,19.235126]]}},{"type":"Feature","properties":{"route_id":"96311","route_short_name":"96311","route_long_name":"A","operator":"Indian Railways","mode":"suburban_rail","source":"MobilityData Indian Railways GTFS (unofficial data)"},"geometry":{"type":"LineString","coordinates":[[73.13015,19.235126],[73.1485,19.2287],[73.1632,19.2179],[73.184416,19.210042]]}},{"type":"Feature","properties":{"route_id":"96312","route_short_name":"96312","route_long_name":"A","operator":"Indian Railways","mode":"suburban_rail","source":"MobilityData Indian Railways GTFS (unofficial data)"},"geometry":{"type":"LineString","coordinates":[[73.184416,19.210042],[73.1632,19.2179],[73.1485,19.2287],[73.13015,19.235126]]}},{"type":"Feature","properties":{"route_id":"96313","route_short_name":"96313","route_long_name":"A","operator":"Indian Railways","mode":"suburban_rail","source":"MobilityData Indian Railways GTFS (unofficial data)"},"geometry":{"type":"LineString","coordinates":[[73.13015,19.235126],[73.1485,19.2287],[73.1632,19.2179],[73.184416,19.210042]]}},{"type":"Feature","properties":{"route_id":"96314","route_short_name":"96314","route_long_name":"A","operator":"Indian Railways","mode":"suburban_rail","source":"MobilityData Indian Railways GTFS (unofficial data)"},"geometry":{"type":"LineString","coordinates":[[73.184416,19.210042],[73.1632,19.2179],[73.1485,19.2287],[73.13015,19.235126]]}},{"type":"Feature","properties":{"route_id":"96315","route_short_name":"96315","route_long_name":"A","operator":"Indian Railways","mode":"suburban_rail","source":"MobilityData Indian Railways GTFS (unofficial data)"},"geometry":{"type":"LineString","coordinates":[[73.13015,19.235126],[73.1485,19.2287],[73.1632,19.2179],[73.184416,19.210042]]}},{"type":"Feature","properties":{"route_id":"96316","route_short_name":"96316","route_long_name":"A","operator":"Indian Railways","mode":"suburban_rail","source":"MobilityData Indian Railways GTFS (unofficial data)"},"geometry":{"type":"LineString","coordinates":[[73.184416,19.210042],[73.1632,19.2179],[73.1485,19.2287],[73.13015,19.235126]]}},{"type":"Feature","properties":{"route_id":"96317","route_short_name":"96317","route_long_name":"A   AC","operator":"Indian Railways","mode":"suburban_rail","source":"MobilityData Indian Railways GTFS (unofficial data)"},"geometry":{"type":"LineString","coordinates":[[72.836523,18.944101],[72.838111,18.951935],[72.839463,18.962041],[72.8328,18.9765],[72.832789,18.986919],[72.83294,18.99398],[72.837574,19.009115],[72.842982,19.017189],[72.850192,19.027697],[72.8583906,19.0465101],[72.8793,19.0652],[72.897441,19.079518],[72.908471,19.085865],[72.9282,19.1118],[72.928061,19.128201],[72.937535,19.14231],[72.946773,19.154736],[72.956643,19.172065],[72.975547,19.185887],[72.997541,19.195939],[73.02314,19.190103],[73.0421,19.1886],[73.077471,19.210975],[73.08687,19.218188],[73.097878,19.225968],[73.13015,19.235126],[73.1485,19.2287],[73.1632,19.2179],[73.184416,19.210042]]}},{"type":"Feature","properties":{"route_id":"96318","route_short_name":"96318","route_long_name":"A","operator":"Indian Railways","mode":"suburban_rail","source":"MobilityData Indian Railways GTFS (unofficial data)"},"geometry":{"type":"LineString","coordinates":[[73.184416,19.210042],[73.1632,19.2179],[73.1485,19.2287],[73.13015,19.235126]]}},{"type":"Feature","properties":{"route_id":"96319","route_short_name":"96319","route_long_name":"A","operator":"Indian Railways","mode":"suburban_rail","source":"MobilityData Indian Railways GTFS (unofficial data)"},"geometry":{"type":"LineString","coordinates":[[73.13015,19.235126],[73.1485,19.2287],[73.1632,19.2179],[73.184416,19.210042]]}},{"type":"Feature","properties":{"route_id":"96320","route_short_name":"96320","route_long_name":"A","operator":"Indian Railways","mode":"suburban_rail","source":"MobilityData Indian Railways GTFS (unofficial data)"},"geometry":{"type":"LineString","coordinates":[[73.184416,19.210042],[73.1632,19.2179],[73.1485,19.2287],[73.13015,19.235126]]}},{"type":"Feature","properties":{"route_id":"96321","route_short_name":"96321","route_long_name":"A","operator":"Indian Railways","mode":"suburban_rail","source":"MobilityData Indian Railways GTFS (unofficial data)"},"geometry":{"type":"LineString","coordinates":[[73.13015,19.235126],[73.1485,19.2287],[73.1632,19.2179],[73.184416,19.210042]]}},{"type":"Feature","properties":{"route_id":"96322","route_short_name":"96322","route_long_name":"A","operator":"Indian Railways","mode":"suburban_rail","source":"MobilityData Indian Railways GTFS (unofficial data)"},"geometry":{"type":"LineString","coordinates":[[73.184416,19.210042],[73.1632,19.2179],[73.1485,19.2287],[73.13015,19.235126]]}},{"type":"Feature","properties":{"route_id":"96325","route_short_name":"96325","route_long_name":"A","operator":"Indian Railways","mode":"suburban_rail","source":"MobilityData Indian Railways GTFS (unofficial data)"},"geometry":{"type":"LineString","coordinates":[[73.13015,19.235126],[73.1485,19.2287],[73.1632,19.2179],[73.184416,19.210042]]}},{"type":"Feature","properties":{"route_id":"96326","route_short_name":"96326","route_long_name":"A","operator":"Indian Railways","mode":"suburban_rail","source":"MobilityData Indian Railways GTFS (unofficial data)"},"geometry":{"type":"LineString","coordinates":[[73.184416,19.210042],[73.1632,19.2179],[73.1485,19.2287],[73.13015,19.235126]]}},{"type":"Feature","properties":{"route_id":"96327","route_short_name":"96327","route_long_name":"A","operator":"Indian Railways","mode":"suburban_rail","source":"MobilityData Indian Railways GTFS (unofficial data)"},"geometry":{"type":"LineString","coordinates":[[73.13015,19.235126],[73.1485,19.2287],[73.1632,19.2179],[73.184416,19.210042]]}},{"type":"Feature","properties":{"route_id":"96328","route_short_name":"96328","route_long_name":"A","operator":"Indian Railways","mode":"suburban_rail","source":"MobilityData Indian Railways GTFS (unofficial data)"},"geometry":{"type":"LineString","coordinates":[[73.184416,19.210042],[73.1632,19.2179],[73.1485,19.2287],[73.13015,19.235126]]}},{"type":"Feature","properties":{"route_id":"96330","route_short_name":"96330","route_long_name":"A","operator":"Indian Railways","mode":"suburban_rail","source":"MobilityData Indian Railways GTFS (unofficial data)"},"geometry":{"type":"LineString","coordinates":[[73.184416,19.210042],[73.1632,19.2179],[73.1485,19.2287],[73.13015,19.235126]]}},{"type":"Feature","properties":{"route_id":"96331","route_short_name":"96331","route_long_name":"A","operator":"Indian Railways","mode":"suburban_rail","source":"MobilityData Indian Railways GTFS (unofficial data)"},"geometry":{"type":"LineString","coordinates":[[73.13015,19.235126],[73.1485,19.2287],[73.1632,19.2179],[73.184416,19.210042]]}},{"type":"Feature","properties":{"route_id":"96332","route_short_name":"96332","route_long_name":"A","operator":"Indian Railways","mode":"suburban_rail","source":"MobilityData Indian Railways GTFS (unofficial data)"},"geometry":{"type":"LineString","coordinates":[[73.184416,19.210042],[73.1632,19.2179],[73.1485,19.2287],[73.13015,19.235126]]}},{"type":"Feature","properties":{"route_id":"96333","route_short_name":"96333","route_long_name":"A","operator":"Indian Railways","mode":"suburban_rail","source":"MobilityData Indian Railways GTFS (unofficial data)"},"geometry":{"type":"LineString","coordinates":[[73.13015,19.235126],[73.1485,19.2287],[73.1632,19.2179],[73.184416,19.210042]]}},{"type":"Feature","properties":{"route_id":"96335","route_short_name":"96335","route_long_name":"A","operator":"Indian Railways","mode":"suburban_rail","source":"MobilityData Indian Railways GTFS (unofficial data)"},"geometry":{"type":"LineString","coordinates":[[73.13015,19.235126],[73.1485,19.2287],[73.1632,19.2179],[73.184416,19.210042]]}},{"type":"Feature","properties":{"route_id":"96341","route_short_name":"96341","route_long_name":"A","operator":"Indian Railways","mode":"suburban_rail","source":"MobilityData Indian Railways GTFS (unofficial data)"},"geometry":{"type":"LineString","coordinates":[[73.13015,19.235126],[73.1485,19.2287],[73.1632,19.2179],[73.184416,19.210042]]}},{"type":"Feature","properties":{"route_id":"96501","route_short_name":"96501","route_long_name":"KAN","operator":"Indian Railways","mode":"suburban_rail","source":"MobilityData Indian Railways GTFS (unofficial data)"},"geometry":{"type":"LineString","coordinates":[[73.13015,19.235126],[73.1581,19.2442],[73.1715,19.2673],[73.2029,19.2967],[73.219,19.3565],[73.2674,19.4062],[73.3078,19.4392]]}},{"type":"Feature","properties":{"route_id":"96509","route_short_name":"96509","route_long_name":"KAN","operator":"Indian Railways","mode":"suburban_rail","source":"MobilityData Indian Railways GTFS (unofficial data)"},"geometry":{"type":"LineString","coordinates":[[73.13015,19.235126],[73.1581,19.2442],[73.1715,19.2673],[73.2029,19.2967],[73.219,19.3565],[73.2674,19.4062],[73.3078,19.4392]]}},{"type":"Feature","properties":{"route_id":"97071","route_short_name":"97071","route_long_name":"K","operator":"Indian Railways","mode":"suburban_rail","source":"MobilityData Indian Railways GTFS (unofficial data)"},"geometry":{"type":"LineString","coordinates":[[72.836523,18.944101],[72.838111,18.951935],[72.839463,18.962041],[72.8328,18.9765],[72.832789,18.986919],[72.83294,18.99398],[72.837574,19.009115],[72.842982,19.017189],[72.850192,19.027697],[72.8583906,19.0465101],[72.8793,19.0652],[72.897441,19.079518],[72.908471,19.085865],[72.9282,19.1118],[72.928061,19.128201],[72.937535,19.14231],[72.946773,19.154736],[72.956643,19.172065],[72.975547,19.185887],[72.997541,19.195939],[73.02314,19.190103],[73.0421,19.1886],[73.077471,19.210975],[73.08687,19.218188],[73.097878,19.225968],[73.13015,19.235126]]}},{"type":"Feature","properties":{"route_id":"97080","route_short_name":"97080","route_long_name":"K","operator":"Indian Railways","mode":"suburban_rail","source":"MobilityData Indian Railways GTFS (unofficial data)"},"geometry":{"type":"LineString","coordinates":[[73.13015,19.235126],[73.097878,19.225968],[73.08687,19.218188],[73.077471,19.210975],[73.0421,19.1886],[73.02314,19.190103],[72.997541,19.195939],[72.975547,19.185887],[72.956643,19.172065],[72.946773,19.154736],[72.937535,19.14231],[72.928061,19.128201],[72.9282,19.1118],[72.908471,19.085865],[72.897441,19.079518],[72.8793,19.0652],[72.8583906,19.0465101],[72.850192,19.027697],[72.842982,19.017189],[72.837574,19.009115],[72.83294,18.99398],[72.832789,18.986919],[72.8328,18.9765],[72.839463,18.962041],[72.838111,18.951935],[72.836523,18.944101]]}},{"type":"Feature","properties":{"route_id":"98109","route_short_name":"98109","route_long_name":"PL","operator":"Indian Railways","mode":"suburban_rail","source":"MobilityData Indian Railways GTFS (unofficial data)"},"geometry":{"type":"LineString","coordinates":[[72.836523,18.944101],[72.838111,18.951935],[72.839463,18.962041],[72.844194,18.966343],[72.844323,18.977058],[72.843322,18.986594],[72.854623,18.998971],[72.858839,19.015871],[72.864193,19.037759],[72.86901,19.051389],[72.8793,19.0652],[72.889738,19.065687],[72.901336,19.062503],[72.915541,19.05504],[72.930851,19.047839],[72.998657,19.063172],[73.0093,19.066012],[73.018141,19.055526],[73.018141,19.033235],[73.01892,19.021918],[73.038676,19.018711],[73.059189,19.025851],[73.080539,19.016367],[73.095388,19.007441],[73.121266,18.990429]]}},{"type":"Feature","properties":{"route_id":"98120","route_short_name":"98120","route_long_name":"PL","operator":"Indian Railways","mode":"suburban_rail","source":"MobilityData Indian Railways GTFS (unofficial data)"},"geometry":{"type":"LineString","coordinates":[[73.121266,18.990429],[73.095388,19.007441],[73.080539,19.016367],[73.059189,19.025851],[73.038676,19.018711],[73.01892,19.021918],[73.018141,19.033235],[73.018141,19.055526],[73.0093,19.066012],[72.998657,19.063172],[72.930851,19.047839],[72.915541,19.05504],[72.901336,19.062503],[72.889738,19.065687],[72.8793,19.0652],[72.86901,19.051389],[72.864193,19.037759],[72.858839,19.015871],[72.854623,18.998971],[72.843322,18.986594],[72.844323,18.977058],[72.844194,18.966343],[72.839463,18.962041],[72.838111,18.951935],[72.836523,18.944101]]}}]}