{"type": "FeatureCollection", "features": [{"type": "Feature", "properties": {"ac_no": 37, "ac_name": "Mansa", "district": "Gandhinagar", "reservation": "GEN", "office": "MLA", "representative": "JAYANTIBHAI SOMABHAI PATEL (J.S. PATEL)", "party": "BJP", "pc_code": 4, "pc_name": "MAHESANA", "ac_service_gap": "", "ac_amc_wards": 0}, "geometry": {"type": "Polygon", "coordinates": [[[72.65961862939628, 23.562835365959415], [72.66626607262123, 23.546787688900793], [72.67653288328597, 23.55484206480952], [72.68844189108046, 23.553880522268344], [72.68918987161533, 23.532864607115982], [72.68518369497161, 23.530880478751158], [72.70044469636571, 23.519812383834505], [72.71312644662828, 23.526075862411176], [72.73232909830932, 23.523630853980762], [72.74455070235308, 23.502001477086537], [72.75329666410983, 23.50550343263734], [72.76976694608777, 23.499932983320548], [72.77219073951107, 23.507268308085997], [72.78604063896438, 23.502481138593737], [72.79854602497915, 23.50383360563643], [72.79893570571829, 23.495551966550067], [72.8194682037946, 23.469087302836783], [72.80734459437758, 23.4407654860384], [72.7937038484539, 23.42712702439269], [72.80276196219484, 23.406758799179272], [72.79423594583227, 23.40446305662482], [72.77206611415988, 23.4153932701833], [72.76133229275115, 23.407902710741553], [72.73301533948637, 23.40256147433263], [72.72342289535038, 23.38835701716266], [72.73398941138231, 23.37073272963181], [72.72047509574912, 23.361579468517732], [72.7219185696863, 23.33761174638505], [72.71344128398812, 23.32532915841398], [72.70685554774536, 23.328060466017746], [72.70869632057878, 23.333271377172366], [72.69837242634645, 23.338480483387627], [72.70018477880456, 23.344591844338197], [72.69579687502579, 23.34137083789392], [72.68049687183321, 23.346041778105644], [72.64698459176554, 23.343238002232056], [72.63787573557681, 23.33663603142776], [72.62493000821337, 23.34483769200591], [72.61817954225211, 23.335138055876655], [72.60543876768503, 23.340039951882318], [72.60258539509994, 23.335048855720174], [72.59578716344691, 23.33516684677261], [72.59563441359734, 23.344058547264183], [72.60376460775052, 23.352079376661948], [72.59902078827884, 23.354096190886537], [72.56115240356064, 23.352395944317436], [72.55537015311012, 23.361139598413786], [72.55010729351682, 23.361429266447544], [72.53399172214034, 23.354060724323006], [72.52297925748678, 23.3611099837388], [72.50196147444257, 23.379874505504063], [72.50675908506378, 23.389518039226175], [72.5253097984085, 23.4029358090404], [72.52461886726695, 23.42329609413946], [72.54329014732252, 23.42819807827874], [72.5359330967351, 23.440369110745905], [72.53708093563671, 23.454242436639163], [72.56410834472439, 23.4502603177595], [72.58214607038491, 23.453140723965305], [72.5884876469874, 23.459595696084534], [72.58976876991284, 23.494543647571334], [72.59570301658101, 23.520835781745973], [72.60999329065788, 23.51399630988186], [72.612511490413, 23.5050240858929], [72.63185418901969, 23.507339321252744], [72.63229948833077, 23.53065751523218], [72.62749235658703, 23.532272574419835], [72.63640786573046, 23.541684200865234], [72.63137811310946, 23.552664378957957], [72.65219397766998, 23.56755792096135], [72.65961862939628, 23.562835365959415]]]}}, {"type": "Feature", "properties": {"ac_no": 39, "ac_name": "Viramgam", "district": "Ahmedabad", "reservation": "GEN", "office": "MLA", "representative": "PATEL HARDIK BHARATBHAI", "party": "BJP", "pc_code": 9, "pc_name": "SURENDRANAGAR", "ac_service_gap": "", "ac_amc_wards": 0}, "geometry": {"type": "Polygon", "coordinates": [[[71.99840363781766, 23.498879896090386], [72.0345091336896, 23.50807278223317], [72.03209928425463, 23.48807707419769], [72.0258764217595, 23.477988690825498], [72.03323723690903, 23.47043188282521], [72.03414385425555, 23.457089548144154], [72.04303274256705, 23.457965841250598], [72.05199683668474, 23.44316261006645], [72.08740533548792, 23.459103873944684], [72.09856437794372, 23.459778343895493], [72.10907447410773, 23.44947346312989], [72.12772262090226, 23.45353705698966], [72.13983107404488, 23.448738424738565], [72.1527436119282, 23.451063937550714], [72.17175100730321, 23.443918412005132], [72.17168409414569, 23.427174219914377], [72.19092220069905, 23.416284629632003], [72.19160474925985, 23.422060767390576], [72.21164448720339, 23.42365151070868], [72.21116930791726, 23.43850750961394], [72.22529501954955, 23.437664886225548], [72.22924015830671, 23.429377379062828], [72.23959549013983, 23.43028781133347], [72.23839946286495, 23.44003927719092], [72.24281158808435, 23.438669544064282], [72.24329017759965, 23.444845304567195], [72.24743187578048, 23.445253425904923], [72.24856719881723, 23.455765594106936], [72.263271294135, 23.464975832668586], [72.27397879688402, 23.446400418544556], [72.28764873929794, 23.445732902151747], [72.2792036933958, 23.431471554768507], [72.29787616775099, 23.416515531466644], [72.29057587607588, 23.40794420995735], [72.28834467067009, 23.39316761939017], [72.27491968829304, 23.38731779747843], [72.27494039878042, 23.37973188921535], [72.26012598452661, 23.374818808341388], [72.26634328471488, 23.351651380307032], [72.24882066374272, 23.338118166320385], [72.24547864272523, 23.32824694404127], [72.2310037540201, 23.325579180734678], [72.23033497587846, 23.329163815457775], [72.22140187869383, 23.312679561612526], [72.20874674566585, 23.31358320939762], [72.20037506285894, 23.293662939193325], [72.20047292618466, 23.279348148698148], [72.18289215864627, 23.282096859082856], [72.1749031400679, 23.272620867259263], [72.17490657727677, 23.25949289677982], [72.18545971859118, 23.246706408773775], [72.1806306379936, 23.241011209100066], [72.18521344554415, 23.214060710033777], [72.16791931082759, 23.197374527812258], [72.17339362351697, 23.17826106999246], [72.18322229617206, 23.17036674732759], [72.18804159304511, 23.144103357284166], [72.16194806515114, 23.140146834908535], [72.16133345587434, 23.11609855330562], [72.15460612317412, 23.112859310408908], [72.15971399720326, 23.105704070386594], [72.18908945791219, 23.106820289125096], [72.19473502939815, 23.066324321909974], [72.18738836957766, 23.0450359058824], [72.19079895760586, 23.010910445560683], [72.17537270308782, 23.002199447646433], [72.16788831929057, 22.990433521989473], [72.13891209461752, 22.98559913359321], [72.15197168154793, 22.95639484444655], [72.14534862613823, 22.93343636489635], [72.15295970372739, 22.93115417152785], [72.15229578642146, 22.91799496489574], [72.14617604828607, 22.917992470176387], [72.15228040891378, 22.9000873900211], [72.14979420254048, 22.87951586676388], [72.11549420449398, 22.873372206662054], [72.11823194135104, 22.86579706148524], [72.10996819247816, 22.849523395588278], [72.0911045564302, 22.85135949014841], [72.08674505773826, 22.83608231624595], [72.08872807544037, 22.820591851033157], [72.05293177278315, 22.797450393620807], [72.03542938925494, 22.80964656933378], [72.04153920876752, 22.82654275134695], [72.03455248191159, 22.838374487592603], [72.0342460568101, 22.859677095821382], [72.02777017635259, 22.828151320127347], [72.013322147699, 22.818004868429966], [71.99561776115081, 22.84358903830355], [71.98864862863138, 22.867078777963286], [71.9899546735694, 22.881890494250968], [72.00260547186508, 22.897085259677056], [71.9995638361022, 22.908416577163337], [72.0052698159493, 22.923864109640988], [71.99410434334084, 22.937575081824605], [71.99585187626315, 22.952374423440915], [72.02063709652487, 22.991662825978665], [72.00925542150054, 22.99592244236686], [72.01033791836028, 23.011656362151427], [72.0217701496727, 23.018375517316315], [72.01549761582237, 23.05774921155694], [71.97330971986776, 23.05855786215568], [71.96065453108179, 23.046289359366483], [71.96220238033567, 23.02840906003013], [71.9540404095373, 23.028220387660838], [71.94601555657272, 23.034940790185374], [71.95128674208951, 23.048162615712215], [71.94536591960156, 23.0623981048887], [71.93155882338107, 23.05985692295866], [71.91813283196467, 23.06624586235671], [71.89909324535705, 23.104006096404248], [71.90347862743675, 23.112165114728327], [71.89988564970304, 23.137112849678317], [71.90778864632904, 23.161321520871525], [71.90588169058759, 23.175695702594624], [71.92735486063839, 23.180133390143908], [71.93094825565754, 23.19078920525766], [71.94957655801181, 23.204075223492794], [71.9550080234016, 23.200233597602505], [71.96721310060417, 23.209220401400444], [71.98827556916223, 23.20937088046179], [71.99577324763732, 23.247823489062796], [71.96989037783874, 23.25019090398706], [71.96131543835685, 23.24021395201231], [71.94298502743715, 23.236665709255135], [71.93356389875498, 23.261312190205444], [71.92787277660739, 23.265392284826135], [71.91987129252618, 23.263851689503895], [71.90240244381778, 23.255619832389414], [71.89679521222934, 23.218666512349728], [71.87012662364481, 23.21843729314662], [71.87556490679509, 23.24935931168295], [71.87981442469601, 23.25351014967373], [71.8727267417458, 23.279105169867762], [71.88407837221916, 23.30233056550327], [71.87623606454281, 23.309640316247624], [71.87985936921456, 23.32143734495753], [71.89448299589361, 23.32925867234991], [71.88307810756868, 23.357422900046856], [71.87210859183807, 23.36915713449423], [71.87052953161265, 23.381794701963997], [71.88773904552062, 23.390734489205386], [71.90329283649527, 23.380754725050565], [71.92860449650038, 23.38987570410052], [71.9562192276353, 23.387685272157626], [71.96846987618392, 23.408405045956158], [71.9704840113281, 23.431224356319035], [71.96368641909305, 23.462162204722006], [71.98017129257113, 23.478573446207633], [71.99306332501249, 23.4848045114191], [71.99840363781766, 23.498879896090386]]]}}, {"type": "Feature", "properties": {"ac_no": 35, "ac_name": "Gandhinagar South", "district": "Gandhinagar", "reservation": "GEN", "office": "MLA", "representative": "ALPESH KHODAJI THAKOR", "party": "BJP", "pc_code": 7, "pc_name": "AHMEDABAD EAST", "ac_service_access": 0.328, "ac_service_gap": 0.672, "ac_amc_wards": 5}, "geometry": {"type": "Polygon", "coordinates": [[[72.72342289535038, 23.38835701716266], [72.74020796072887, 23.39301149078773], [72.75290088416853, 23.38735024681648], [72.74645283862765, 23.374106355523963], [72.76420988048164, 23.367501386379956], [72.76106052752141, 23.35855302770011], [72.7653804128758, 23.35490455999752], [72.8075353064093, 23.35575371965848], [72.80498520230532, 23.334066644060442], [72.79752685478059, 23.331595333158134], [72.80102378312114, 23.319007527875158], [72.80988971084156, 23.31873301161926], [72.8131616737723, 23.31546998255368], [72.80249109268982, 23.31179461522936], [72.80568747119992, 23.284184216128722], [72.790434130231, 23.28071089589116], [72.79377133897617, 23.272748374038258], [72.7809094626017, 23.265434452238253], [72.77922942469826, 23.250381214921163], [72.79045937599943, 23.241694778391377], [72.78764619141867, 23.21014070822713], [72.79540992352918, 23.212975112311653], [72.80481120147584, 23.207040194749254], [72.79743984447327, 23.202384438690956], [72.79684710850734, 23.19118761931321], [72.78728465945954, 23.17999698727118], [72.79274383026359, 23.162098038693557], [72.78769228167351, 23.160537237403616], [72.7848624083735, 23.151036570881104], [72.79413992971405, 23.143005023363173], [72.78427748931472, 23.128284730356086], [72.7753984620694, 23.12721814969791], [72.75739581986124, 23.110887669130705], [72.7391055960465, 23.11478100513932], [72.74383235807693, 23.09939985162191], [72.71715825035301, 23.095851966794896], [72.7112098213762, 23.110991743174452], [72.7007407666731, 23.1124420321741], [72.68682867280506, 23.10231634942005], [72.67432376882692, 23.107940416317206], [72.66806534893675, 23.095552877463376], [72.65554702257708, 23.09509085975543], [72.64815706849396, 23.101850702048296], [72.64116837032407, 23.09336207499979], [72.61142294201522, 23.091791161732772], [72.60744297341455, 23.08707184698818], [72.59954372516285, 23.088992251191485], [72.59822337380973, 23.09617112090058], [72.57721634305983, 23.103550130234396], [72.57229735274069, 23.111218739253445], [72.5661612703264, 23.11075741852011], [72.56430829549151, 23.106729491772683], [72.5610021088603, 23.109018335627752], [72.56773766496133, 23.132417985701522], [72.5599788197668, 23.13797676361679], [72.54079146465443, 23.132366296267605], [72.5488102714769, 23.1647548977204], [72.53711828897792, 23.16600990343437], [72.52810094060595, 23.169202538066713], [72.53666368258297, 23.19527175099057], [72.53064374671158, 23.205192067260157], [72.54433901403434, 23.223652419423672], [72.5287434369601, 23.233457419224578], [72.52355405557529, 23.246936342038623], [72.5283019687609, 23.24996825972744], [72.52892994915788, 23.25908403619934], [72.53479773412818, 23.258987555131625], [72.55312061592372, 23.256217318574443], [72.56025948648619, 23.247262921846414], [72.56856728235425, 23.24802709647338], [72.57935887261391, 23.23496761926026], [72.59658717515805, 23.234597959228495], [72.61074711139014, 23.204014203592692], [72.62075066980765, 23.200575200585092], [72.62126903273975, 23.183317535176172], [72.67011104938547, 23.184179535357316], [72.68896613647809, 23.214502715128276], [72.6882019249789, 23.259662923505175], [72.67845113810961, 23.259995923573058], [72.69395590614022, 23.27321581285952], [72.6939134734281, 23.301936258651494], [72.70685554774536, 23.328060466017746], [72.71344128398812, 23.32532915841398], [72.7219185696863, 23.33761174638505], [72.72047509574912, 23.361579468517732], [72.73398941138231, 23.37073272963181], [72.72342289535038, 23.38835701716266]]]}}, {"type": "Feature", "properties": {"ac_no": 38, "ac_name": "Kalol", "district": "Gandhinagar", "reservation": "GEN", "office": "MLA", "representative": "FATESINH VAKHATSINH CHAUHAN", "party": "BJP", "pc_code": 6, "pc_name": "GANDHINAGAR", "ac_service_access": 0.275, "ac_service_gap": 0.725, "ac_amc_wards": 1}, "geometry": {"type": "Polygon", "coordinates": [[[72.59578716344691, 23.33516684677261], [72.583144823275, 23.336026178665236], [72.57525653775906, 23.314851857827023], [72.5671077815989, 23.314608056116924], [72.55998995157506, 23.307997495887776], [72.54910814942161, 23.30817390869896], [72.54351995468221, 23.296590739670933], [72.5472506473995, 23.274493001251074], [72.54129740794906, 23.259352337240614], [72.53479773412818, 23.258987555131625], [72.52892994915788, 23.25908403619934], [72.5283019687609, 23.24996825972744], [72.52355405557529, 23.246936342038623], [72.5287434369601, 23.233457419224578], [72.54433901403434, 23.223652419423672], [72.53064374671158, 23.205192067260157], [72.53666368258297, 23.19527175099057], [72.52810094060595, 23.169202538066713], [72.53711828897792, 23.16600990343437], [72.53172311123268, 23.14930217705387], [72.52541530777029, 23.149975313310108], [72.51852572927902, 23.150413506178438], [72.51185338472595, 23.15973396295209], [72.50424545296534, 23.154896205695366], [72.50501672953851, 23.144056472028637], [72.48366024022795, 23.145252752012937], [72.48623386250279, 23.12563592835545], [72.49862624420587, 23.112018143022908], [72.49814956125329, 23.100117619432638], [72.48183275577713, 23.097648052315833], [72.47290118923854, 23.08593994856983], [72.45990126243339, 23.084007977286376], [72.46036884244819, 23.07940662661457], [72.46609581337117, 23.08143175687013], [72.47348158560675, 23.07264499557016], [72.47177380181955, 23.063749627643233], [72.44923139811061, 23.060710509082753], [72.44936172516356, 23.051330399378458], [72.44475725024694, 23.047127840477515], [72.42804061698092, 23.046735776534888], [72.4296398894694, 23.063829730257908], [72.4079578230951, 23.068519690231597], [72.40354021560853, 23.065942749458372], [72.40288458645455, 23.05696968730126], [72.38725187997034, 23.05159549793393], [72.38092089738154, 23.061335734856357], [72.38435798393385, 23.079659012353602], [72.37536108614529, 23.081129346342323], [72.36903403089588, 23.093303811521707], [72.35821943777688, 23.087975846408256], [72.3486616840895, 23.090336662107347], [72.33426855185223, 23.10814459479724], [72.3393539491255, 23.126147242401373], [72.3533540848232, 23.12506320140568], [72.36621445573257, 23.10848079555234], [72.36768181026741, 23.095853168289125], [72.38904544469159, 23.122620793814633], [72.40046915672627, 23.12562205721224], [72.39802660074707, 23.133915076319795], [72.4148483737535, 23.130943039090027], [72.42561662121017, 23.14405326864346], [72.42523793198501, 23.15482543534563], [72.39519475433451, 23.147848079425387], [72.38553667677627, 23.153788485550194], [72.38179749895545, 23.165751212548457], [72.38460507446467, 23.174551407021852], [72.39506141005609, 23.179796734331887], [72.39939031561062, 23.188138865416363], [72.4132740115864, 23.188077574820284], [72.41252510025322, 23.204938712951275], [72.41703971940757, 23.208644925223155], [72.43679089728215, 23.195307500840556], [72.44656082801987, 23.197746367800676], [72.4380425224445, 23.204414757135396], [72.42936216623104, 23.23914835071588], [72.42388754597351, 23.24418474842747], [72.42502062700038, 23.248344672268843], [72.44474448077324, 23.24529944191579], [72.44387614037163, 23.255565648236143], [72.43105022338915, 23.262796408827228], [72.42101541083258, 23.257077536299334], [72.41028479820494, 23.280135583390518], [72.42418612898672, 23.304439607002337], [72.43516021147462, 23.3097440476497], [72.44965677923705, 23.296853686148722], [72.47321254892006, 23.301381898555803], [72.47366431975263, 23.30550103454516], [72.45727755961173, 23.311953064082672], [72.47904175027662, 23.31238319183086], [72.48177142381223, 23.321926121093668], [72.47064367776358, 23.34403814614359], [72.48652444244914, 23.33928563742228], [72.51906114875305, 23.3490529457369], [72.52297925748678, 23.3611099837388], [72.53399172214034, 23.354060724323006], [72.55010729351682, 23.361429266447544], [72.55537015311012, 23.361139598413786], [72.56115240356064, 23.352395944317436], [72.59902078827884, 23.354096190886537], [72.60376460775052, 23.352079376661948], [72.59563441359734, 23.344058547264183], [72.59578716344691, 23.33516684677261]]]}}, {"type": "Feature", "properties": {"ac_no": 36, "ac_name": "Gandhinagar North", "district": "Gandhinagar", "reservation": "GEN", "office": "MLA", "representative": "RITABEN KETANKUMAR PATEL", "party": "BJP", "pc_code": 6, "pc_name": "GANDHINAGAR", "ac_service_gap": "", "ac_amc_wards": 0}, "geometry": {"type": "Polygon", "coordinates": [[[72.59578716344691, 23.33516684677261], [72.60258539509994, 23.335048855720174], [72.60543876768503, 23.340039951882318], [72.61817954225211, 23.335138055876655], [72.62493000821337, 23.34483769200591], [72.63787573557681, 23.33663603142776], [72.64698459176554, 23.343238002232056], [72.68049687183321, 23.346041778105644], [72.69579687502579, 23.34137083789392], [72.70018477880456, 23.344591844338197], [72.69837242634645, 23.338480483387627], [72.70869632057878, 23.333271377172366], [72.70685554774536, 23.328060466017746], [72.6939134734281, 23.301936258651494], [72.69395590614022, 23.27321581285952], [72.67845113810961, 23.259995923573058], [72.6882019249789, 23.259662923505175], [72.68896613647809, 23.214502715128276], [72.67011104938547, 23.184179535357316], [72.62126903273975, 23.183317535176172], [72.62075066980765, 23.200575200585092], [72.61074711139014, 23.204014203592692], [72.59658717515805, 23.234597959228495], [72.57935887261391, 23.23496761926026], [72.56856728235425, 23.24802709647338], [72.56025948648619, 23.247262921846414], [72.55312061592372, 23.256217318574443], [72.53479773412818, 23.258987555131625], [72.54129740794906, 23.259352337240614], [72.5472506473995, 23.274493001251074], [72.54351995468221, 23.296590739670933], [72.54910814942161, 23.30817390869896], [72.55998995157506, 23.307997495887776], [72.5671077815989, 23.314608056116924], [72.57525653775906, 23.314851857827023], [72.583144823275, 23.336026178665236], [72.59578716344691, 23.33516684677261]]]}}, {"type": "Feature", "properties": {"ac_no": 34, "ac_name": "Dehgam", "district": "Gandhinagar", "reservation": "GEN", "office": "MLA", "representative": "CHAUHAN BALRAJSINH KALYANSINH", "party": "BJP", "pc_code": 7, "pc_name": "AHMEDABAD EAST", "ac_service_gap": "", "ac_amc_wards": 0}, "geometry": {"type": "Polygon", "coordinates": [[[72.80988971084156, 23.31873301161926], [72.83398097104504, 23.3317286207793], [72.85490381086225, 23.31564058664378], [72.8650468226528, 23.3135894336055], [72.88325604453087, 23.31303109311051], [72.88447257544908, 23.32257131541394], [72.89457853247336, 23.324986675894422], [72.91573809543684, 23.322637587354848], [72.9141110320985, 23.296717771607916], [72.88435334153354, 23.29331305165607], [72.88369861350026, 23.28858399365646], [72.89897636386814, 23.28110323142903], [72.92039004196693, 23.29099070355818], [72.91888473154518, 23.26360654600535], [72.92679164381934, 23.258656944562404], [72.92987039010649, 23.242692719193712], [72.93617099449585, 23.23889961352637], [72.94453291785993, 23.241595662310033], [72.94820436683813, 23.25245063858614], [72.955630698498, 23.24054842337108], [72.95977109625915, 23.24147717663044], [72.96326751288547, 23.251617753956225], [72.95897611715412, 23.25375277956715], [72.96002294240492, 23.259431956020023], [72.96930728780114, 23.255595478748376], [72.96998534244966, 23.265026563824904], [72.97838339337898, 23.263708995873515], [72.96594633515531, 23.27575799033906], [72.95843165499696, 23.275687950238762], [72.96047475280767, 23.281011059013224], [72.98734101327722, 23.282423671815025], [72.99527661032738, 23.290244767182287], [73.01472643257887, 23.277793149834054], [73.00058151772294, 23.271172492916264], [72.98954638655653, 23.2499274889625], [72.9862883370372, 23.228291076671894], [72.9814187096058, 23.222387992411996], [72.98472593495399, 23.208219820188617], [72.98170622646126, 23.2024078354533], [72.98619710261426, 23.20069471868635], [72.97754199486724, 23.17840382477675], [72.98441441609248, 23.174915121635593], [72.9711109159361, 23.163648988809825], [72.98068771366712, 23.159430574861176], [73.0167220003201, 23.160388530006685], [73.01164111044892, 23.15853601382605], [73.01476060951455, 23.1433484708553], [73.02850605451084, 23.13945415728358], [73.02614125751307, 23.129331355058014], [73.0151625785902, 23.126203517478416], [72.99748386768641, 23.13326619837642], [72.98317939421372, 23.131129412792234], [72.97513548461495, 23.120218993311937], [72.97737749447583, 23.109392774656897], [72.96535921095887, 23.110501559599356], [72.96668088881205, 23.09284362213549], [72.95564711202468, 23.087124424053002], [72.96001866792722, 23.072861224965607], [72.94165814141013, 23.073295424844048], [72.92548931667869, 23.080570942894724], [72.92371890410419, 23.069256683749018], [72.9062617420858, 23.064790167532237], [72.91337166886746, 23.051914468577934], [72.90393646579531, 23.037200380892898], [72.90466190212516, 23.030508020129048], [72.898029906555, 23.029437397917604], [72.8921189298448, 23.02115947662861], [72.89277459497163, 23.01447451278858], [72.88040528357703, 23.015988733693177], [72.87544470321052, 23.008574494317486], [72.84495366138242, 23.01122724614055], [72.8485790147098, 22.99892881841032], [72.84045950720053, 22.996679452095066], [72.82388705774156, 23.004210186051296], [72.82323841092398, 23.017571501823397], [72.81782705077785, 23.015710557196485], [72.81492148783644, 23.02178424734518], [72.80680682767303, 23.024059502444118], [72.81458654613226, 23.035948920306453], [72.8039800957049, 23.035535898562898], [72.79378180438681, 23.042957994415985], [72.79726265464785, 23.049132109159586], [72.79266711269713, 23.05466718004635], [72.76552570105031, 23.05824817881046], [72.7775524130135, 23.075924970561005], [72.77512724542612, 23.083125392522902], [72.76335509106468, 23.094674345045064], [72.74388569327016, 23.08886718787045], [72.74383235807693, 23.09939985162191], [72.7391055960465, 23.11478100513932], [72.75739581986124, 23.110887669130705], [72.7753984620694, 23.12721814969791], [72.78427748931472, 23.128284730356086], [72.79413992971405, 23.143005023363173], [72.7848624083735, 23.151036570881104], [72.78769228167351, 23.160537237403616], [72.79274383026359, 23.162098038693557], [72.78728465945954, 23.17999698727118], [72.79684710850734, 23.19118761931321], [72.79743984447327, 23.202384438690956], [72.80481120147584, 23.207040194749254], [72.79540992352918, 23.212975112311653], [72.78764619141867, 23.21014070822713], [72.79045937599943, 23.241694778391377], [72.77922942469826, 23.250381214921163], [72.7809094626017, 23.265434452238253], [72.79377133897617, 23.272748374038258], [72.790434130231, 23.28071089589116], [72.80568747119992, 23.284184216128722], [72.80249109268982, 23.31179461522936], [72.8131616737723, 23.31546998255368], [72.80988971084156, 23.31873301161926]]]}}, {"type": "Feature", "properties": {"ac_no": 41, "ac_name": "Ghatlodia", "district": "Ahmedabad", "reservation": "GEN", "office": "MLA", "representative": "PATEL BHUPENDRABHAI RAJNIKANT", "party": "BJP", "pc_code": 6, "pc_name": "GANDHINAGAR", "ac_service_access": 0.166, "ac_service_gap": 0.834, "ac_amc_wards": 6}, "geometry": {"type": "Polygon", "coordinates": [[[72.52541530777029, 23.149975313310108], [72.53172311123268, 23.14930217705387], [72.53711828897792, 23.16600990343437], [72.5488102714769, 23.1647548977204], [72.54079146465443, 23.132366296267605], [72.5599788197668, 23.13797676361679], [72.56773766496133, 23.132417985701522], [72.5610021088603, 23.109018335627752], [72.54972272542352, 23.10395946026091], [72.549666541178, 23.0932621971927], [72.53357845847916, 23.0835378252105], [72.52855914069187, 23.085790793310537], [72.52102941217771, 23.068991110351533], [72.52918268203518, 23.061269578927977], [72.52756205154748, 23.041396006020932], [72.51945558690585, 23.03437732265536], [72.50807126247884, 23.035849283517678], [72.50561002128552, 23.031099584278422], [72.48941182289735, 23.02886384269226], [72.48934399423001, 23.024494339042576], [72.46557437835492, 23.00902055355573], [72.43694055796044, 23.019661773572068], [72.4360857631475, 23.02896628896309], [72.43977620580733, 23.038381476723828], [72.44575201374448, 23.04055466056917], [72.44475725024694, 23.047127840477515], [72.44936172516356, 23.051330399378458], [72.44923139811061, 23.060710509082753], [72.47177380181955, 23.063749627643233], [72.47348158560675, 23.07264499557016], [72.46609581337117, 23.08143175687013], [72.46036884244819, 23.07940662661457], [72.45990126243339, 23.084007977286376], [72.47290118923854, 23.08593994856983], [72.48183275577713, 23.097648052315833], [72.49814956125329, 23.100117619432638], [72.49862624420587, 23.112018143022908], [72.48623386250279, 23.12563592835545], [72.48366024022795, 23.145252752012937], [72.50501672953851, 23.144056472028637], [72.50424545296534, 23.154896205695366], [72.51185338472595, 23.15973396295209], [72.51852572927902, 23.150413506178438], [72.52541530777029, 23.149975313310108]]]}}, {"type": "Feature", "properties": {"ac_no": 40, "ac_name": "Sanand", "district": "Ahmedabad", "reservation": "GEN", "office": "MLA", "representative": "KANUBHAI KARAMSHIBHAI PATEL", "party": "BJP", "pc_code": 6, "pc_name": "GANDHINAGAR", "ac_service_access": 0.116, "ac_service_gap": 0.884, "ac_amc_wards": 1}, "geometry": {"type": "Polygon", "coordinates": [[[72.29575348623445, 23.039504201158024], [72.32308050086448, 23.055112071065253], [72.32277851391734, 23.06798669443043], [72.30511656727583, 23.084501561198124], [72.30593449528078, 23.09673243005767], [72.31945738505033, 23.10701537635856], [72.33426855185223, 23.10814459479724], [72.3486616840895, 23.090336662107347], [72.35821943777688, 23.087975846408256], [72.36903403089588, 23.093303811521707], [72.37536108614529, 23.081129346342323], [72.38435798393385, 23.079659012353602], [72.38092089738154, 23.061335734856357], [72.38725187997034, 23.05159549793393], [72.40288458645455, 23.05696968730126], [72.40354021560853, 23.065942749458372], [72.4079578230951, 23.068519690231597], [72.4296398894694, 23.063829730257908], [72.42804061698092, 23.046735776534888], [72.44475725024694, 23.047127840477515], [72.44575201374448, 23.04055466056917], [72.43977620580733, 23.038381476723828], [72.4360857631475, 23.02896628896309], [72.43694055796044, 23.019661773572068], [72.46557437835492, 23.00902055355573], [72.46405819153239, 22.99357073859875], [72.46736017653097, 22.994082524788723], [72.46909188947916, 22.976923906213358], [72.47517983118433, 22.9708178899337], [72.47944326609394, 22.960460501351122], [72.48350892479709, 22.960048521022486], [72.4827778632079, 22.947564617113414], [72.45985957435994, 22.93913805587664], [72.45960625152736, 22.920246845715383], [72.4680620308381, 22.91345719089668], [72.46154314210236, 22.899188442092964], [72.45799596414247, 22.895043289616183], [72.43753182443419, 22.900351928298903], [72.42758895136905, 22.89795334646982], [72.43542132873137, 22.888932044678143], [72.43909592533674, 22.858791452463606], [72.42086356660036, 22.860186594136053], [72.41566206055569, 22.867137498296984], [72.40420307441241, 22.838867340355534], [72.37463483323103, 22.832825356704916], [72.37447492927464, 22.825095130635816], [72.38257415167584, 22.820539726327354], [72.3940407128087, 22.802859111558803], [72.3659234809839, 22.800651484578395], [72.34785175645345, 22.804917834190746], [72.33115964859894, 22.79121319863026], [72.33549308313934, 22.77355952934886], [72.32684167700182, 22.76297824554962], [72.30965387092948, 22.766756232714044], [72.30717885661898, 22.778259166927057], [72.29788572214841, 22.77902397467676], [72.29333145458304, 22.76611154201413], [72.2775446699506, 22.763429752880825], [72.27991771283223, 22.74049712883948], [72.2641607659067, 22.739317734525855], [72.26035625054061, 22.733434267177756], [72.2478166938854, 22.72875647862861], [72.24323722911487, 22.71987850718739], [72.20926461756812, 22.71803892685506], [72.20723625784706, 22.69542021836844], [72.21869670448939, 22.67447114352848], [72.21445683451537, 22.665757157167093], [72.20572451097746, 22.659729199343133], [72.1883404512509, 22.659928978339735], [72.1606572178564, 22.647176074616198], [72.14572059922631, 22.623447435450828], [72.16493513185094, 22.59358135859287], [72.16350819194957, 22.573677815778638], [72.12940565804473, 22.592059066272952], [72.09669778377577, 22.6051228530373], [72.06712799216314, 22.59111848423072], [72.06454092952032, 22.604392102613474], [72.061571568673, 22.653183081833788], [72.02337940643451, 22.67974371849789], [72.05740874271936, 22.69360091415092], [72.0677770895411, 22.67480524796389], [72.09407104034631, 22.675121061088134], [72.10820806365126, 22.72044051871501], [72.06984478111184, 22.733332870415666], [72.05376027052012, 22.750619061420593], [72.06221368281524, 22.756875365205985], [72.05428720758863, 22.75960011945], [72.05534682209822, 22.770448349012156], [72.04700207218792, 22.7685486292159], [72.05687254443245, 22.796296531060136], [72.05293177278315, 22.797450393620807], [72.08872807544037, 22.820591851033157], [72.08674505773826, 22.83608231624595], [72.0911045564302, 22.85135949014841], [72.10996819247816, 22.849523395588278], [72.11823194135104, 22.86579706148524], [72.11549420449398, 22.873372206662054], [72.14979420254048, 22.87951586676388], [72.15228040891378, 22.9000873900211], [72.14617604828607, 22.917992470176387], [72.15229578642146, 22.91799496489574], [72.15295970372739, 22.93115417152785], [72.14534862613823, 22.93343636489635], [72.15197168154793, 22.95639484444655], [72.13891209461752, 22.98559913359321], [72.16788831929057, 22.990433521989473], [72.17537270308782, 23.002199447646433], [72.19079895760586, 23.010910445560683], [72.18738836957766, 23.0450359058824], [72.19473502939815, 23.066324321909974], [72.18908945791219, 23.106820289125096], [72.19488693838156, 23.118746045893374], [72.22005530670708, 23.124887489166326], [72.23840130467653, 23.12030444509412], [72.24193143059108, 23.112521605987354], [72.25983800541968, 23.103883657305005], [72.25682377649616, 23.087247240867498], [72.2828422937369, 23.0806149602123], [72.28052042227972, 23.058690934838808], [72.29575348623445, 23.039504201158024]]]}}, {"type": "Feature", "properties": {"ac_no": 44, "ac_name": "Ellis Bridge", "district": "Ahmedabad", "reservation": "GEN", "office": "MLA", "representative": "Amit Shah", "party": "BJP", "pc_code": 8, "pc_name": "AHMEDABAD WEST(SC)", "ac_service_gap": "", "ac_amc_wards": 0}, "geometry": {"type": "Polygon", "coordinates": [[[72.5661612703264, 23.11075741852011], [72.57229735274069, 23.111218739253445], [72.57721634305983, 23.103550130234396], [72.59822337380973, 23.09617112090058], [72.59954372516285, 23.088992251191485], [72.60744297341455, 23.08707184698818], [72.61142294201522, 23.091791161732772], [72.64116837032407, 23.09336207499979], [72.64815706849396, 23.101850702048296], [72.65554702257708, 23.09509085975543], [72.66806534893675, 23.095552877463376], [72.67432376882692, 23.107940416317206], [72.68682867280506, 23.10231634942005], [72.69114028799396, 23.09226336606156], [72.67293231977078, 23.08215231347856], [72.68105535891772, 23.07596699228293], [72.67443593497046, 23.06910138162351], [72.67976059507544, 23.06342275555579], [72.68506146811234, 23.02707773514942], [72.67592980511648, 23.00891292089466], [72.64969879246536, 23.01046853219708], [72.64303641869583, 23.00586419577604], [72.64396720082573, 22.99785148995437], [72.63732075045232, 22.994129132153773], [72.63941512400885, 22.989189620204854], [72.63282848574607, 22.97353869885194], [72.6112542067163, 22.970910190053303], [72.59465720036957, 22.95096078721059], [72.5826866771485, 22.95510309782975], [72.56822873886529, 22.952228746759317], [72.55248804178973, 22.93426080219433], [72.53093843296239, 22.94040752358842], [72.5302720883862, 22.952231596710874], [72.53846095790692, 22.956140383971615], [72.53897157947489, 22.975969756998722], [72.53027094624724, 22.988885232067844], [72.5372726171376, 22.99367973463211], [72.53413899421929, 22.99810113815704], [72.53868914828564, 23.005259891830576], [72.53356448391384, 23.009261993646135], [72.53657323326814, 23.01810358661129], [72.528420623513, 23.029645989370977], [72.52756205154748, 23.041396006020932], [72.52918268203518, 23.061269578927977], [72.52102941217771, 23.068991110351533], [72.52855914069187, 23.085790793310537], [72.53357845847916, 23.0835378252105], [72.549666541178, 23.0932621971927], [72.54972272542352, 23.10395946026091], [72.5610021088603, 23.109018335627752], [72.56430829549151, 23.106729491772683], [72.5661612703264, 23.11075741852011]]]}}, {"type": "Feature", "properties": {"ac_no": 57, "ac_name": "Daskroi", "district": "Ahmedabad", "reservation": "GEN", "office": "MLA", "representative": "BABUBHAI JAMNADAS PATEL (B.J.P.)", "party": "BJP", "pc_code": 17, "pc_name": "KHEDA", "ac_service_access": 0.067, "ac_service_gap": 0.933, "ac_amc_wards": 7}, "geometry": {"type": "Polygon", "coordinates": [[[72.74383235807693, 23.09939985162191], [72.74388569327016, 23.08886718787045], [72.76335509106468, 23.094674345045064], [72.77512724542612, 23.083125392522902], [72.7775524130135, 23.075924970561005], [72.76552570105031, 23.05824817881046], [72.79266711269713, 23.05466718004635], [72.79726265464785, 23.049132109159586], [72.79378180438681, 23.042957994415985], [72.8039800957049, 23.035535898562898], [72.81458654613226, 23.035948920306453], [72.80680682767303, 23.024059502444118], [72.81492148783644, 23.02178424734518], [72.81782705077785, 23.015710557196485], [72.82323841092398, 23.017571501823397], [72.82388705774156, 23.004210186051296], [72.84045950720053, 22.996679452095066], [72.83042451657826, 22.983753364126528], [72.83238274986405, 22.980090652961337], [72.83882390749739, 22.98170874646155], [72.84017661016247, 22.976768367566137], [72.84100031811028, 22.9626611154182], [72.81905656340973, 22.953553135169102], [72.80510816301137, 22.941786472967408], [72.80601766178575, 22.9332739410396], [72.79780454294536, 22.931217062917142], [72.79962155479097, 22.919679928386017], [72.78925633760997, 22.91514144841915], [72.7913370720483, 22.907844236922074], [72.76029779900426, 22.906613684673857], [72.75757672028948, 22.910169059954228], [72.74184135979095, 22.90552168827537], [72.73663086502245, 22.908463523572777], [72.73772917376243, 22.913174313643708], [72.72453183857357, 22.914015822772058], [72.72334982273617, 22.90893068810084], [72.71542364608445, 22.908107089870327], [72.70654442098828, 22.889359907034134], [72.68911409473975, 22.879357084262097], [72.67381062645927, 22.880235510560397], [72.66768523878278, 22.8952511103505], [72.64909479159144, 22.893532737945577], [72.64390064110177, 22.897088461263536], [72.63505849865084, 22.88896016647857], [72.63401415283096, 22.881490272558096], [72.6083217279654, 22.8859680177099], [72.59918196837322, 22.87202840908384], [72.60053253424911, 22.86598689398005], [72.6090314981052, 22.862621049921586], [72.6022569276152, 22.835435738768354], [72.6081077837473, 22.813346292997096], [72.59851966984695, 22.815656969693464], [72.59774948415145, 22.824786508490604], [72.58370442731751, 22.823456438164158], [72.58160705811929, 22.818899084125462], [72.57048442921308, 22.826878071665703], [72.54993436917584, 22.814786400771823], [72.54779017857396, 22.806412030790625], [72.53988076528515, 22.805886729588963], [72.53390606891003, 22.81377104639671], [72.5160846850602, 22.816813130921332], [72.50758292970852, 22.830537056040328], [72.47784565914992, 22.83853219990118], [72.47195114093245, 22.84568812970349], [72.43909592533674, 22.858791452463606], [72.43542132873137, 22.888932044678143], [72.42758895136905, 22.89795334646982], [72.43753182443419, 22.900351928298903], [72.45799596414247, 22.895043289616183], [72.46154314210236, 22.899188442092964], [72.4680620308381, 22.91345719089668], [72.45960625152736, 22.920246845715383], [72.45985957435994, 22.93913805587664], [72.4827778632079, 22.947564617113414], [72.48350892479709, 22.960048521022486], [72.47944326609394, 22.960460501351122], [72.47517983118433, 22.9708178899337], [72.51007824711348, 22.976645290847557], [72.52139387592666, 22.95728182959283], [72.5302720883862, 22.952231596710874], [72.53093843296239, 22.94040752358842], [72.55248804178973, 22.93426080219433], [72.56822873886529, 22.952228746759317], [72.59029401445724, 22.942078210341208], [72.6021579527274, 22.931242955298217], [72.60475343662188, 22.939342134531955], [72.6302466049969, 22.939532949086356], [72.64258681073278, 22.930735864468602], [72.65688980392139, 22.930716825820923], [72.65870220134559, 22.936704239509083], [72.68074488147118, 22.936106819873885], [72.68843573162377, 22.928430398444164], [72.69695404079641, 22.92767444541937], [72.71881468375074, 22.935180848217612], [72.71975425765294, 22.942062167335223], [72.7459570567728, 22.942159255445347], [72.75194702003898, 22.95457075673511], [72.74724993473677, 22.967113415152028], [72.75617163571246, 22.983608864657413], [72.75290444818177, 22.98935725743155], [72.7642392847153, 23.002199523189518], [72.75294749063426, 23.01424925150178], [72.73965491004611, 23.0149046621205], [72.72340390256812, 23.022153881296617], [72.7041273347088, 23.019333327671006], [72.6982442360827, 23.029956894894838], [72.68506146811234, 23.02707773514942], [72.67976059507544, 23.06342275555579], [72.67443593497046, 23.06910138162351], [72.68105535891772, 23.07596699228293], [72.67293231977078, 23.08215231347856], [72.69114028799396, 23.09226336606156], [72.68682867280506, 23.10231634942005], [72.7007407666731, 23.1124420321741], [72.7112098213762, 23.110991743174452], [72.71715825035301, 23.095851966794896], [72.74383235807693, 23.09939985162191]]]}}, {"type": "Feature", "properties": {"ac_no": 42, "ac_name": "Vejalpur", "district": "Ahmedabad", "reservation": "GEN", "office": "MLA", "representative": "AMIT THAKER", "party": "BJP", "pc_code": 6, "pc_name": "GANDHINAGAR", "ac_service_access": 0.149, "ac_service_gap": 0.851, "ac_amc_wards": 7}, "geometry": {"type": "Polygon", "coordinates": [[[72.52756205154748, 23.041396006020932], [72.528420623513, 23.029645989370977], [72.53657323326814, 23.01810358661129], [72.53356448391384, 23.009261993646135], [72.53868914828564, 23.005259891830576], [72.53413899421929, 22.99810113815704], [72.5372726171376, 22.99367973463211], [72.53027094624724, 22.988885232067844], [72.53897157947489, 22.975969756998722], [72.53846095790692, 22.956140383971615], [72.5302720883862, 22.952231596710874], [72.52139387592666, 22.95728182959283], [72.51007824711348, 22.976645290847557], [72.47517983118433, 22.9708178899337], [72.46909188947916, 22.976923906213358], [72.46736017653097, 22.994082524788723], [72.46405819153239, 22.99357073859875], [72.46557437835492, 23.00902055355573], [72.48934399423001, 23.024494339042576], [72.48941182289735, 23.02886384269226], [72.50561002128552, 23.031099584278422], [72.50807126247884, 23.035849283517678], [72.51945558690585, 23.03437732265536], [72.52756205154748, 23.041396006020932]]]}}, {"type": "Feature", "properties": {"ac_no": 43, "ac_name": "Vatva", "district": "Ahmedabad", "reservation": "GEN", "office": "MLA", "representative": "Babusinh Sarabhai Jadav", "party": "BJP", "pc_code": 7, "pc_name": "AHMEDABAD EAST", "ac_service_access": 0.052, "ac_service_gap": 0.948, "ac_amc_wards": 7}, "geometry": {"type": "Polygon", "coordinates": [[[72.56822873886529, 22.952228746759317], [72.5826866771485, 22.95510309782975], [72.59465720036957, 22.95096078721059], [72.6112542067163, 22.970910190053303], [72.63282848574607, 22.97353869885194], [72.63941512400885, 22.989189620204854], [72.63732075045232, 22.994129132153773], [72.64396720082573, 22.99785148995437], [72.64303641869583, 23.00586419577604], [72.64969879246536, 23.01046853219708], [72.67592980511648, 23.00891292089466], [72.68506146811234, 23.02707773514942], [72.6982442360827, 23.029956894894838], [72.7041273347088, 23.019333327671006], [72.72340390256812, 23.022153881296617], [72.73965491004611, 23.0149046621205], [72.75294749063426, 23.01424925150178], [72.7642392847153, 23.002199523189518], [72.75290444818177, 22.98935725743155], [72.75617163571246, 22.983608864657413], [72.74724993473677, 22.967113415152028], [72.75194702003898, 22.95457075673511], [72.7459570567728, 22.942159255445347], [72.71975425765294, 22.942062167335223], [72.71881468375074, 22.935180848217612], [72.69695404079641, 22.92767444541937], [72.68843573162377, 22.928430398444164], [72.68074488147118, 22.936106819873885], [72.65870220134559, 22.936704239509083], [72.65688980392139, 22.930716825820923], [72.64258681073278, 22.930735864468602], [72.6302466049969, 22.939532949086356], [72.60475343662188, 22.939342134531955], [72.6021579527274, 22.931242955298217], [72.59029401445724, 22.942078210341208], [72.56822873886529, 22.952228746759317]]]}}, {"type": "Feature", "properties": {"ac_no": 58, "ac_name": "Dholka", "district": "Ahmedabad", "reservation": "GEN", "office": "MLA", "representative": "KIRITSINH SARDARSANG DABHI", "party": "BJP", "pc_code": 17, "pc_name": "KHEDA", "ac_service_gap": "", "ac_amc_wards": 0}, "geometry": {"type": "Polygon", "coordinates": [[[72.43909592533674, 22.858791452463606], [72.47195114093245, 22.84568812970349], [72.47784565914992, 22.83853219990118], [72.50758292970852, 22.830537056040328], [72.5160846850602, 22.816813130921332], [72.53390606891003, 22.81377104639671], [72.53988076528515, 22.805886729588963], [72.52230409685666, 22.79596509851052], [72.51443927195487, 22.77884870400453], [72.52987154293743, 22.76743567321779], [72.52112127972333, 22.752391502865635], [72.5397880137059, 22.75122933686447], [72.52379313944186, 22.734911909956736], [72.53647989083436, 22.716290687964943], [72.53958190977738, 22.7089265300354], [72.52474198715305, 22.712768342085383], [72.5180590045195, 22.706649833323183], [72.52027000845419, 22.697160905651344], [72.54508500616816, 22.691409097252063], [72.52697570886193, 22.67839735425457], [72.54948910403897, 22.672491992011885], [72.54813865507492, 22.664294162545616], [72.56019832629175, 22.66468823917097], [72.56030676834274, 22.65999111609716], [72.56944871688484, 22.653507970016847], [72.53739570554745, 22.652146556518403], [72.53182352503569, 22.64240680522994], [72.53558662931954, 22.62642395220371], [72.52393023659118, 22.629552598273847], [72.52175158936444, 22.6263572737692], [72.51794465482203, 22.632592445285184], [72.51174225010482, 22.633096959557065], [72.50545139886304, 22.6134625919251], [72.50400843484147, 22.605899837607467], [72.48857487602976, 22.59867269139164], [72.46564325653111, 22.57727308138766], [72.44129116415598, 22.56535643565104], [72.4312635758534, 22.573720580340535], [72.42367894822496, 22.568541717426342], [72.42271010228944, 22.56177388285846], [72.43693338226984, 22.54491336166234], [72.44055253836899, 22.532031213669597], [72.43907842273109, 22.509504960885295], [72.42716838071624, 22.4916389976417], [72.40850138952754, 22.47616995068273], [72.40693399620699, 22.481655834049548], [72.37593289398791, 22.473209423875858], [72.37703031869432, 22.452499928429006], [72.36388043353526, 22.453349464006635], [72.3562458449698, 22.440571221884454], [72.32656587831269, 22.434198428015065], [72.31163599740341, 22.42290509609336], [72.28384756131595, 22.423226836649235], [72.26377278488616, 22.445201071172562], [72.24799787400275, 22.447784222663813], [72.23254970840236, 22.443790682394138], [72.21733950071746, 22.46193911999444], [72.19606899378908, 22.46861921850217], [72.1891739914866, 22.464549973302667], [72.18039523954872, 22.46577785186645], [72.16390725261766, 22.47949880022952], [72.14840069943278, 22.495469453052863], [72.15302842901883, 22.50045443202646], [72.14559524542432, 22.517019364951807], [72.17197124677568, 22.536318105596138], [72.1894831909965, 22.542716858396375], [72.18469076316825, 22.554228822702044], [72.17593215244693, 22.558097742117184], [72.16350819194957, 22.573677815778638], [72.16493513185094, 22.59358135859287], [72.14572059922631, 22.623447435450828], [72.1606572178564, 22.647176074616198], [72.1883404512509, 22.659928978339735], [72.20572451097746, 22.659729199343133], [72.21445683451537, 22.665757157167093], [72.21869670448939, 22.67447114352848], [72.20723625784706, 22.69542021836844], [72.20926461756812, 22.71803892685506], [72.24323722911487, 22.71987850718739], [72.2478166938854, 22.72875647862861], [72.26035625054061, 22.733434267177756], [72.2641607659067, 22.739317734525855], [72.27991771283223, 22.74049712883948], [72.2775446699506, 22.763429752880825], [72.29333145458304, 22.76611154201413], [72.29788572214841, 22.77902397467676], [72.30717885661898, 22.778259166927057], [72.30965387092948, 22.766756232714044], [72.32684167700182, 22.76297824554962], [72.33549308313934, 22.77355952934886], [72.33115964859894, 22.79121319863026], [72.34785175645345, 22.804917834190746], [72.3659234809839, 22.800651484578395], [72.3940407128087, 22.802859111558803], [72.38257415167584, 22.820539726327354], [72.37447492927464, 22.825095130635816], [72.37463483323103, 22.832825356704916], [72.40420307441241, 22.838867340355534], [72.41566206055569, 22.867137498296984], [72.42086356660036, 22.860186594136053], [72.43909592533674, 22.858791452463606]]]}}, {"type": "Feature", "properties": {"ac_no": 59, "ac_name": "Dhandhuka", "district": "Ahmedabad", "reservation": "GEN", "office": "MLA", "representative": "Kalubhai Rupabhai Dabhi", "party": "BJP", "pc_code": 9, "pc_name": "SURENDRANAGAR", "ac_service_gap": "", "ac_amc_wards": 0}, "geometry": {"type": "Polygon", "coordinates": [[[71.92117439937908, 22.509069332883485], [71.91304913441007, 22.52551417843665], [71.92585764591371, 22.52905321573337], [71.92604625892778, 22.534878574286836], [71.94135889309848, 22.548143132899327], [71.95301770410384, 22.547318165001343], [71.97110304077279, 22.537851850782317], [71.96711216879163, 22.515421249890835], [71.97877035926473, 22.51174470085732], [72.01563884355784, 22.512549897160056], [72.0330733417614, 22.506758184043008], [72.0387378853452, 22.483463842782157], [72.04552777308834, 22.474371834492615], [72.05085313376514, 22.475441984560007], [72.05174368652195, 22.44480310677801], [72.08292246420041, 22.43572652006293], [72.09011848398092, 22.435863536273246], [72.1083970345955, 22.447959542798685], [72.12063215005372, 22.461232267255355], [72.15791086009818, 22.48112317189691], [72.16390725261766, 22.47949880022952], [72.18039523954872, 22.46577785186645], [72.1891739914866, 22.464549973302667], [72.19606899378908, 22.46861921850217], [72.21733950071746, 22.46193911999444], [72.23254970840236, 22.443790682394138], [72.24799787400275, 22.447784222663813], [72.26377278488616, 22.445201071172562], [72.28384756131595, 22.423226836649235], [72.31163599740341, 22.42290509609336], [72.32656587831269, 22.434198428015065], [72.3562458449698, 22.440571221884454], [72.36705050417748, 22.44121340887176], [72.37337301695123, 22.446619725619883], [72.36813794730847, 22.407372134316574], [72.34222290426368, 22.385798706944797], [72.29275574368268, 22.388973610543758], [72.29556683014516, 22.379505967126704], [72.30847061492699, 22.377604281412516], [72.31093423572645, 22.37211457143036], [72.29611705425873, 22.366319670216683], [72.28911910116562, 22.35688913642457], [72.29650431042563, 22.33723692174658], [72.28563823381751, 22.33073924352135], [72.27573258009454, 22.313565699797266], [72.27054266541171, 22.29687044881223], [72.27233293411768, 22.280511503802927], [72.25833877081766, 22.27327499924189], [72.25402488124331, 22.253110623356633], [72.26306526485013, 22.24153585309722], [72.29345777065964, 22.240628781593045], [72.2745868950692, 22.224020954603418], [72.2715332128875, 22.209334547151684], [72.2644261900167, 22.217822856739474], [72.26025909408196, 22.21606162174652], [72.27494292227811, 22.152209670140223], [72.270598684182, 22.14720763642333], [72.25667799099654, 22.14623602237458], [72.24889509073591, 22.13521187372902], [72.257552078066, 22.119941241495155], [72.24920516078959, 22.123157800791944], [72.2455928934973, 22.117452544899095], [72.23139457240165, 22.11279946342455], [72.23726876953816, 22.070987538943825], [72.23495676993906, 22.07489792429982], [72.23133887828664, 22.071602587989105], [72.2233051166379, 22.07536372185831], [72.21541953628264, 22.094924490772655], [72.21195165964144, 22.092212800980008], [72.21583509951029, 22.08077581225399], [72.20956602085522, 22.074888104602394], [72.21081801294099, 22.06794038494087], [72.19644772798034, 22.07122427018396], [72.20910760942871, 22.065259582363865], [72.2086737252123, 22.047888677920184], [72.21254797311053, 22.045205815895713], [72.1957854195615, 22.028832311761846], [72.21295303675328, 22.03519517621646], [72.20729218398714, 22.026361812048037], [72.21241384282462, 22.015227203272843], [72.18783212025619, 22.027999106973255], [72.18906887063196, 22.075570618988934], [72.18390414236234, 22.074189692000743], [72.17386514076367, 22.04349154979525], [72.16869104875298, 22.04873934844221], [72.17304544199362, 22.05362064277847], [72.16192539324237, 22.05913138700396], [72.16273590543773, 22.051123996175534], [72.15231527113292, 22.051371487803976], [72.13983772633009, 22.045190613755892], [72.14792091741646, 22.042858203143624], [72.14798625676042, 22.036735393823392], [72.16440966247598, 22.035334207807523], [72.15833863881716, 22.031175732773875], [72.16886517189022, 22.025384566444643], [72.16760537099111, 22.017413058565865], [72.15344107484577, 22.030662323307638], [72.15361994010823, 22.01906127305938], [72.17520294885708, 21.990793903915574], [72.15177271733711, 22.014643001873083], [72.12339969134274, 22.05718627662543], [72.08044731139438, 22.05521248956478], [72.06129601819674, 22.084605269417693], [72.05753251731187, 22.095338833620303], [72.05997118282386, 22.103154268654635], [72.05613452658719, 22.102239384739846], [72.03241085347815, 22.12091898172565], [72.0194239812318, 22.10468387426141], [71.96416478467711, 22.11616097365004], [71.92142753425338, 22.130234150485705], [71.91636445635464, 22.108923219930716], [71.904731483771, 22.10390937901468], [71.89897167140555, 22.104578349611188], [71.8625609825034, 22.099421027258643], [71.86146756607536, 22.11382808729644], [71.8491528327371, 22.118976183504117], [71.8539395049043, 22.13628683157208], [71.8297490126069, 22.142231501382753], [71.8202577296106, 22.141614759813365], [71.81161015548435, 22.13323005842051], [71.78454411871616, 22.14161312484589], [71.76720268595523, 22.135327496866523], [71.76420546860754, 22.147990525042758], [71.75428448144373, 22.14902264278078], [71.74611026547643, 22.157720525881587], [71.7492941748863, 22.182949880832382], [71.73003441625536, 22.184836930080337], [71.72740262493124, 22.19304113484054], [71.71829356909302, 22.18540159460798], [71.7050769632313, 22.20347833735542], [71.68384358031705, 22.201473053338816], [71.66982505618148, 22.21161426738456], [71.666196918553, 22.21939426013705], [71.65528151413065, 22.20859256149754], [71.64025554425803, 22.204024807698772], [71.62969954939473, 22.214824678915875], [71.62989302144587, 22.227864793725303], [71.65848127768885, 22.248904809809176], [71.64067371641892, 22.27375232520967], [71.64320342659693, 22.278264264384347], [71.62506637531305, 22.2793391053155], [71.62593405291426, 22.286998069105664], [71.61671424286806, 22.30519836161517], [71.61826163526632, 22.325989279881412], [71.61424047951459, 22.339820553475818], [71.6297373209207, 22.344136270472575], [71.62601999662559, 22.38300545493786], [71.63532105772072, 22.380497802431705], [71.64643262406639, 22.39652295147306], [71.67442423948711, 22.384786497498908], [71.71152155447623, 22.399359403313838], [71.72081635628984, 22.382349019092032], [71.73512736423652, 22.38295665952228], [71.74114793412991, 22.363856160933153], [71.7544982646832, 22.359906211702366], [71.79285774758705, 22.36287948190261], [71.78914074345062, 22.389076144948206], [71.79614178661421, 22.395728582108404], [71.79994234136603, 22.392315866284264], [71.83678454926758, 22.39613724933463], [71.83177504218452, 22.362319871564864], [71.84501362118175, 22.358573840910083], [71.85153942300605, 22.368606801762553], [71.86291078820238, 22.371979486064504], [71.86065427407556, 22.395937408284794], [71.88211187326442, 22.40646399981381], [71.89210700323565, 22.42224210239118], [71.90210859753381, 22.42349627982952], [71.91739074918377, 22.40041622183122], [71.92106830635731, 22.380300167418852], [71.92781607255375, 22.387561444704943], [71.94113548351578, 22.380978828210402], [71.94405905628048, 22.404946993708847], [71.93801049498842, 22.415708253433195], [71.94122835020823, 22.422004811772695], [71.93385863356912, 22.45319422483368], [71.94228138797575, 22.463395190735525], [71.97229650857707, 22.472443769864128], [71.96865319848638, 22.473314481777948], [71.96747010346257, 22.49250596747646], [71.94134045160064, 22.4868116914065], [71.93661162562609, 22.47961621481653], [71.91684904524732, 22.48221188846793], [71.91958942431256, 22.501517239129328], [71.93162074350255, 22.502793499420534], [71.92771932708536, 22.509108143126355], [71.92117439937908, 22.509069332883485]]]}}, {"type": "Feature", "properties": {"ac_no": 50, "ac_name": "Amraiwadi", "district": "Ahmedabad", "reservation": "GEN", "office": "MLA", "representative": "DR. HASMUKH PATEL", "party": "BJP", "pc_code": 8, "pc_name": "AHMEDABAD WEST(SC)", "ac_service_access": 0.092, "ac_service_gap": 0.908, "ac_amc_wards": 6}, "geometry": {"type": "Polygon", "coordinates": [[[72.66645758057952, 22.997840190419254], [72.6521021410256, 23.003291097479146], [72.65408981727151, 23.017113040381016], [72.64304717146081, 23.021006545423795], [72.63266708439875, 23.019059792902407], [72.61544055693405, 23.019643818658825], [72.61720738026375, 23.028793555509356], [72.65188128810938, 23.029182906013634], [72.67286231514971, 23.024705375214438], [72.66712013932815, 22.99881356667995], [72.66645758057952, 22.997840190419254]]]}}, {"type": "Feature", "properties": {"ac_no": 52, "ac_name": "Jamalpur-Khadia", "district": "Ahmedabad", "reservation": "GEN", "office": "MLA", "representative": "IMRAN KHEDAWALA", "party": "INC", "pc_code": 8, "pc_name": "AHMEDABAD WEST(SC)", "ac_service_access": 0.242, "ac_service_gap": 0.758, "ac_amc_wards": 15}, "geometry": {"type": "Polygon", "coordinates": [[[72.53792118334287, 22.977983314701074], [72.54410506499687, 22.98129279398744], [72.56442353328858, 22.99628278840214], [72.57149082660743, 23.00445914899198], [72.57524532618307, 23.011078107564707], [72.5756870320155, 23.02236927218877], [72.57546617909928, 23.027041478240104], [72.57392020868578, 23.035412514082083], [72.57347850285335, 23.040084720133418], [72.57944153159113, 23.039111343872726], [72.58032494325599, 23.04164212215053], [72.58540456032891, 23.040668745889835], [72.5851837074127, 23.03385511206497], [72.60660644028547, 23.03229771004786], [72.60748985195033, 23.03580186458636], [72.61058179277732, 23.03619121509064], [72.60726899903412, 23.020617194919517], [72.59975999988283, 23.023537323701603], [72.59909744113419, 23.017697066137433], [72.59092588323428, 23.01594498886818], [72.5898216186532, 23.00231772121845], [72.59843488238555, 22.99667213890642], [72.59578464739099, 22.992194608107223], [72.59070503031806, 22.9925839586115], [72.58231261950192, 22.989469154577275], [72.577233002429, 22.98285019600455], [72.56574865078586, 22.983434221760966], [72.561773298294, 22.975841886927547], [72.53924630084016, 22.976036562179686], [72.53792118334287, 22.977983314701074]]]}}, {"type": "Feature", "properties": {"ac_no": 47, "ac_name": "Naroda", "district": "Ahmedabad", "reservation": "GEN", "office": "MLA", "representative": "KUKRANI PAYAL MANOJKUMAR", "party": "BJP", "pc_code": 8, "pc_name": "AHMEDABAD WEST(SC)", "ac_service_access": 0.091, "ac_service_gap": 0.909, "ac_amc_wards": 10}, "geometry": {"type": "Polygon", "coordinates": [[[72.6225078502529, 23.049039781731814], [72.6225078502529, 23.051570560009623], [72.62582064399611, 23.057021467069514], [72.61831164484482, 23.060914972112293], [72.61610311568269, 23.056826791817375], [72.61124435152597, 23.0554640650524], [72.60616473445305, 23.060525621608015], [72.59247185364777, 23.06188834837299], [72.5898216186532, 23.062861724633684], [72.59468038280991, 23.06558717816363], [72.59843488238555, 23.06967535845855], [72.6006434115477, 23.074347564509885], [72.60086426446391, 23.079993146821916], [72.60086426446391, 23.08330262610828], [72.60174767612877, 23.085444053881808], [72.6037353523747, 23.088364182663895], [72.61146520444218, 23.091868337202396], [72.6209618798394, 23.092063012454535], [72.63112111398524, 23.0908949609417], [72.6412803481311, 23.09342573921951], [72.64834764144994, 23.101991450313626], [72.65563578768501, 23.09517781648876], [72.66822440390922, 23.09556716699304], [72.67440828556322, 23.107831707877796], [72.68699690178742, 23.1023808008179], [72.6911931071955, 23.092257687706674], [72.67308316806593, 23.082134574595447], [72.68125472596586, 23.076099641779138], [72.67462913847943, 23.069091332702133], [72.67992960846857, 23.063445750390102], [72.6819172847145, 23.048261080723258], [72.66358649266873, 23.048261080723258], [72.65740261101473, 23.046509003454005], [72.65607749351744, 23.050986534253205], [72.65674005226609, 23.074152889257746], [72.63708414272303, 23.05974692059946], [72.6225078502529, 23.049039781731814]]]}}, {"type": "Feature", "properties": {"ac_no": 45, "ac_name": "Naranpura", "district": "Ahmedabad", "reservation": "GEN", "office": "MLA", "representative": "JITENDRAKUMAR RAMANLAL PATEL (JITU BHAGAT)", "party": "BJP", "pc_code": 8, "pc_name": "AHMEDABAD WEST(SC)", "ac_service_access": 0.184, "ac_service_gap": 0.816, "ac_amc_wards": 10}, "geometry": {"type": "Polygon", "coordinates": [[[72.57767470826143, 23.05371198778315], [72.55978562204808, 23.052349261018175], [72.56199415121021, 23.060525621608015], [72.52930791961052, 23.06130432261657], [72.5211363617106, 23.069091332702133], [72.52864536086187, 23.085833404386086], [72.53372497793481, 23.083691976612556], [72.54984724081844, 23.09323106396737], [72.5584605045508, 23.092452362958813], [72.56619035661829, 23.082718600351864], [72.58275432533435, 23.085444053881808], [72.5898216186532, 23.062861724633684], [72.58407944283164, 23.059941595851598], [72.57922067867491, 23.05604809080882], [72.57767470826143, 23.05371198778315]]]}}, {"type": "Feature", "properties": {"ac_no": 55, "ac_name": "Sabarmati", "district": "Ahmedabad", "reservation": "GEN", "office": "MLA", "representative": "PATEL HARSHADBHAI RANCHHODBHAI (HARSHAD PATEL)", "party": "BJP", "pc_code": 8, "pc_name": "AHMEDABAD WEST(SC)", "ac_service_access": 0.21, "ac_service_gap": 0.79, "ac_amc_wards": 7}, "geometry": {"type": "Polygon", "coordinates": [[[72.5898216186532, 23.062861724633684], [72.58275432533435, 23.085444053881808], [72.56619035661829, 23.082718600351864], [72.5584605045508, 23.092452362958813], [72.54984724081844, 23.09323106396737], [72.54984724081844, 23.103938202835014], [72.56111073954536, 23.108999759390628], [72.56442353328858, 23.10666365636496], [72.56619035661829, 23.11075183665988], [72.57259509118849, 23.111335862416297], [72.57745385534521, 23.103548852330736], [72.59843488238555, 23.096151192749453], [72.59975999988283, 23.088948208420312], [72.6037353523747, 23.088364182663895], [72.60174767612877, 23.085444053881808], [72.60086426446391, 23.08330262610828], [72.60086426446391, 23.079993146821916], [72.6006434115477, 23.074347564509885], [72.59843488238555, 23.06967535845855], [72.59468038280991, 23.06558717816363], [72.5898216186532, 23.062861724633684]]]}}, {"type": "Feature", "properties": {"ac_no": 56, "ac_name": "Asarwa", "district": "Ahmedabad", "reservation": "SC", "office": "MLA", "representative": "Darshna M. Vaghela", "party": "BJP", "pc_code": 8, "pc_name": "AHMEDABAD WEST(SC)", "ac_service_access": 0.286, "ac_service_gap": 0.714, "ac_amc_wards": 5}, "geometry": {"type": "Polygon", "coordinates": [[[72.61146520444218, 23.038916668620587], [72.61124435152597, 23.038916668620587], [72.60682729320169, 23.03969536962914], [72.60594388153683, 23.042615498411227], [72.5898216186532, 23.04417290042834], [72.58407944283164, 23.045340951941174], [72.58319603116678, 23.0474823797147], [72.58407944283164, 23.051181209505344], [72.58695053074241, 23.050791859001066], [72.59357611822884, 23.05020783324465], [72.59136758906669, 23.05585341555668], [72.59247185364777, 23.06188834837299], [72.60616473445305, 23.060525621608015], [72.61124435152597, 23.0554640650524], [72.61610311568269, 23.056826791817375], [72.61831164484482, 23.060914972112293], [72.62582064399611, 23.057021467069514], [72.6225078502529, 23.051570560009623], [72.6225078502529, 23.049039781731814], [72.61875335067725, 23.045535627193313], [72.61146520444218, 23.038916668620587]]]}}, {"type": "Feature", "properties": {"ac_no": 51, "ac_name": "Dariapur", "district": "Ahmedabad", "reservation": "GEN", "office": "MLA", "representative": "Kaushikbhai Sukhlal Jain (Kaushik Jain)", "party": "BJP", "pc_code": 8, "pc_name": "AHMEDABAD WEST(SC)", "ac_service_access": 0.293, "ac_service_gap": 0.707, "ac_amc_wards": 8}, "geometry": {"type": "Polygon", "coordinates": [[[72.57347850285335, 23.040084720133418], [72.57546617909928, 23.048650431227536], [72.57767470826143, 23.05371198778315], [72.57922067867491, 23.05604809080882], [72.58407944283164, 23.059941595851598], [72.5898216186532, 23.062861724633684], [72.59247185364777, 23.06188834837299], [72.59136758906669, 23.05585341555668], [72.59357611822884, 23.05020783324465], [72.58695053074241, 23.050791859001066], [72.58407944283164, 23.051181209505344], [72.58319603116678, 23.0474823797147], [72.58407944283164, 23.045340951941174], [72.5898216186532, 23.04417290042834], [72.60594388153683, 23.042615498411227], [72.60682729320169, 23.03969536962914], [72.61124435152597, 23.038916668620587], [72.61058179277732, 23.03619121509064], [72.60748985195033, 23.03580186458636], [72.60660644028547, 23.03229771004786], [72.5851837074127, 23.03385511206497], [72.58540456032891, 23.040668745889835], [72.58032494325599, 23.04164212215053], [72.57944153159113, 23.039111343872726], [72.57347850285335, 23.040084720133418]]]}}, {"type": "Feature", "properties": {"ac_no": 54, "ac_name": "Danilimda", "district": "Ahmedabad", "reservation": "SC", "office": "MLA", "representative": "Shailesh Manubhai Parmar", "party": "INC", "pc_code": 8, "pc_name": "AHMEDABAD WEST(SC)", "ac_service_access": 0.137, "ac_service_gap": 0.863, "ac_amc_wards": 13}, "geometry": {"type": "Polygon", "coordinates": [[[72.61124435152597, 23.038916668620587], [72.61146520444218, 23.038916668620587], [72.6116860573584, 23.02976693177005], [72.61720738026375, 23.028793555509356], [72.61544055693405, 23.019643818658825], [72.61212776319083, 23.020227844415242], [72.60108511738012, 22.98090344348316], [72.6085941165314, 22.978177989953213], [72.60506046987197, 22.973895134406156], [72.59953914696662, 22.97525786117113], [72.59468038280991, 22.95111812990589], [72.58275432533435, 22.95520631020081], [72.56839888578043, 22.952286181418724], [72.55271832872923, 22.934181382969797], [72.53107474294023, 22.940410991038245], [72.53041218419159, 22.952286181418724], [72.53858374209152, 22.956179686461507], [72.53924630084016, 22.976036562179686], [72.561773298294, 22.975841886927547], [72.56574865078586, 22.983434221760966], [72.577233002429, 22.98285019600455], [72.58231261950192, 22.989469154577275], [72.59070503031806, 22.9925839586115], [72.59578464739099, 22.992194608107223], [72.59843488238555, 22.99667213890642], [72.5898216186532, 23.00231772121845], [72.59092588323428, 23.01594498886818], [72.59909744113419, 23.017697066137433], [72.59975999988283, 23.023537323701603], [72.60726899903412, 23.020617194919517], [72.61058179277732, 23.03619121509064], [72.61124435152597, 23.038916668620587]]]}}, {"type": "Feature", "properties": {"ac_no": 48, "ac_name": "Thakkarbapa Nagar", "district": "Ahmedabad", "reservation": "GEN", "office": "MLA", "representative": "Kanchanben Vinubhai Radadiya", "party": "BJP", "pc_code": 8, "pc_name": "AHMEDABAD WEST(SC)", "ac_service_access": 0.14, "ac_service_gap": 0.86, "ac_amc_wards": 6}, "geometry": {"type": "Polygon", "coordinates": [[[72.65740261101473, 23.046509003454005], [72.65519408185258, 23.03989004488128], [72.64812678853373, 23.040863421141974], [72.62361211483396, 23.044756926184757], [72.61875335067725, 23.045535627193313], [72.6225078502529, 23.049039781731814], [72.63708414272303, 23.05974692059946], [72.65674005226609, 23.074152889257746], [72.65607749351744, 23.050986534253205], [72.65740261101473, 23.046509003454005]]]}}, {"type": "Feature", "properties": {"ac_no": 46, "ac_name": "Nikol", "district": "Ahmedabad", "reservation": "GEN", "office": "MLA", "representative": "JAGDISH VISHWAKARMA", "party": "BJP", "pc_code": 8, "pc_name": "AHMEDABAD WEST(SC)", "ac_service_access": 0.066, "ac_service_gap": 0.934, "ac_amc_wards": 3}, "geometry": {"type": "Polygon", "coordinates": [[[72.6819172847145, 23.048261080723258], [72.68523007845772, 23.027041478240104], [72.67286231514971, 23.024705375214438], [72.65188128810938, 23.029182906013634], [72.65519408185258, 23.03989004488128], [72.65740261101473, 23.046509003454005], [72.66358649266873, 23.048261080723258], [72.6819172847145, 23.048261080723258]]]}}, {"type": "Feature", "properties": {"ac_no": 49, "ac_name": "Bapunagar", "district": "Ahmedabad", "reservation": "GEN", "office": "MLA", "representative": "Dineshsinh Rajendrasinh Kushwaha", "party": "BJP", "pc_code": 8, "pc_name": "AHMEDABAD WEST(SC)", "ac_service_access": 0.16, "ac_service_gap": 0.84, "ac_amc_wards": 6}, "geometry": {"type": "Polygon", "coordinates": [[[72.61146520444218, 23.038916668620587], [72.61875335067725, 23.045535627193313], [72.62361211483396, 23.044756926184757], [72.64812678853373, 23.040863421141974], [72.65519408185258, 23.03989004488128], [72.65188128810938, 23.029182906013634], [72.61720738026375, 23.028793555509356], [72.6116860573584, 23.02976693177005], [72.61146520444218, 23.038916668620587]]]}}, {"type": "Feature", "properties": {"ac_no": 53, "ac_name": "Maninagar", "district": "Ahmedabad", "reservation": "GEN", "office": "MLA", "representative": "Amul Bhatt", "party": "BJP", "pc_code": 8, "pc_name": "AHMEDABAD WEST(SC)", "ac_service_access": 0.12, "ac_service_gap": 0.88, "ac_amc_wards": 13}, "geometry": {"type": "Polygon", "coordinates": [[[72.61544055693405, 23.019643818658825], [72.63266708439875, 23.019059792902407], [72.64304717146081, 23.021006545423795], [72.65408981727151, 23.017113040381016], [72.6521021410256, 23.003291097479146], [72.66645758057952, 22.997840190419254], [72.65519408185258, 22.9731164333976], [72.66049455184172, 22.970001629363374], [72.65872772851202, 22.96357734604279], [72.6459182593716, 22.965524098564178], [72.6335504960636, 22.951702155662307], [72.61256946902326, 22.946835274358833], [72.59092588323428, 22.942163068307497], [72.56839888578043, 22.952286181418724], [72.58275432533435, 22.95520631020081], [72.59468038280991, 22.95111812990589], [72.59953914696662, 22.97525786117113], [72.60506046987197, 22.973895134406156], [72.6085941165314, 22.978177989953213], [72.60108511738012, 22.98090344348316], [72.61212776319083, 23.020227844415242], [72.61544055693405, 23.019643818658825]]]}}]}