{"type":"FeatureCollection","features":[{"type":"Feature","properties":{"route_id":"gmrc_east_west","route_short_name":"EW","route_long_name":"Ahmedabad Metro East-West Line","agency_id":"GMRC","mode":"metro","operator":"Gujarat Metro Rail Corporation","source_feed_id":"ahmedabad_gmrc_unofficial_constructed"},"geometry":{"type":"LineString","coordinates":[[72.5070211,23.0501817],[72.5159937,23.0497505],[72.5245036,23.04814],[72.5348776,23.045928],[72.5435125,23.0448371],[72.5530608,23.040679],[72.5616387,23.0398916],[72.5670608,23.0375426],[72.5810327,23.0392105],[72.586749,23.0287794],[72.603093,23.0246945],[72.6069352,23.0154543],[72.6182366,23.0106557],[72.6283735,23.0078462],[72.6355917,23.005413],[72.6476943,23.0034916],[72.6585088,22.9998991],[72.6674512,22.9971313]]}},{"type":"Feature","properties":{"route_id":"gmrc_north_south","route_short_name":"NS","route_long_name":"Ahmedabad Metro North-South Line","agency_id":"GMRC","mode":"metro","operator":"Gujarat Metro Rail Corporation","source_feed_id":"ahmedabad_gmrc_unofficial_constructed"},"geometry":{"type":"LineString","coordinates":[[72.5371344,22.9978151],[72.5334739,23.0055338],[72.5367573,23.0097711],[72.5492445,23.0136478],[72.5623281,23.0185472],[72.5688973,23.0271728],[72.5670608,23.0375426],[72.564927,23.0459092],[72.5622541,23.0564338],[72.5658899,23.067695],[72.5741509,23.0677222],[72.5932705,23.0751227],[72.5921818,23.0856228],[72.5966689,23.0967876]]}},{"type":"Feature","properties":{"route_id":"gmrc_gandhinagar_mahatma_mandir","route_short_name":"GJ","route_long_name":"Ahmedabad-Gandhinagar Metro to Mahatma Mandir","agency_id":"GMRC","mode":"metro","operator":"Gujarat Metro Rail Corporation","source_feed_id":"ahmedabad_gmrc_unofficial_constructed"},"geometry":{"type":"LineString","coordinates":[[72.5966689,23.0967876],[72.602153,23.1031046],[72.608378,23.1142071],[72.6158135,23.1201105],[72.6221083,23.1251343],[72.6310326,23.1322601],[72.6386326,23.1419589],[72.6439246,23.147591],[72.6474537,23.1544774],[72.6483104,23.1663935],[72.6473227,23.1790869],[72.6433202,23.1859445],[72.6397126,23.1922574],[72.6431519,23.2049077],[72.6501927,23.2114841],[72.6587511,23.2150688],[72.6641817,23.2236772],[72.6594151,23.228926],[72.6501659,23.2338826],[72.6414782,23.2385075],[72.6338714,23.2339412]]}},{"type":"Feature","properties":{"route_id":"gmrc_gift_city_branch","route_short_name":"GIFT","route_long_name":"Ahmedabad-Gandhinagar Metro GIFT City branch","agency_id":"GMRC","mode":"metro","operator":"Gujarat Metro Rail Corporation","source_feed_id":"ahmedabad_gmrc_unofficial_constructed"},"geometry":{"type":"LineString","coordinates":[[72.6474537,23.1544774],[72.6612117,23.1548645],[72.6855844,23.153345]]}}]}