{"type":"FeatureCollection","features":[{"type":"Feature","properties":{"stop_id":"GMRC_aec","stop_name":"AEC","stop_code":"","mode":"metro","operator":"Gujarat Metro Rail Corporation","source_feed_id":"ahmedabad_gmrc_unofficial_constructed"},"geometry":{"type":"Point","coordinates":[72.5932705,23.0751227]}},{"type":"Feature","properties":{"stop_id":"GMRC_apmc","stop_name":"APMC","stop_code":"","mode":"metro","operator":"Gujarat Metro Rail Corporation","source_feed_id":"ahmedabad_gmrc_unofficial_constructed"},"geometry":{"type":"Point","coordinates":[72.5371344,22.9978151]}},{"type":"Feature","properties":{"stop_id":"GMRC_akshardham","stop_name":"Akshardham","stop_code":"","mode":"metro","operator":"Gujarat Metro Rail Corporation","source_feed_id":"ahmedabad_gmrc_unofficial_constructed"},"geometry":{"type":"Point","coordinates":[72.6641817,23.2236772]}},{"type":"Feature","properties":{"stop_id":"GMRC_amraiwadi","stop_name":"Amraiwadi","stop_code":"","mode":"metro","operator":"Gujarat Metro Rail Corporation","source_feed_id":"ahmedabad_gmrc_unofficial_constructed"},"geometry":{"type":"Point","coordinates":[72.6283735,23.0078462]}},{"type":"Feature","properties":{"stop_id":"GMRC_apparel_park","stop_name":"Apparel Park","stop_code":"","mode":"metro","operator":"Gujarat Metro Rail Corporation","source_feed_id":"ahmedabad_gmrc_unofficial_constructed"},"geometry":{"type":"Point","coordinates":[72.6182366,23.0106557]}},{"type":"Feature","properties":{"stop_id":"GMRC_commerce_six_roads","stop_name":"Commerce Six Roads","stop_code":"","mode":"metro","operator":"Gujarat Metro Rail Corporation","source_feed_id":"ahmedabad_gmrc_unofficial_constructed"},"geometry":{"type":"Point","coordinates":[72.5530608,23.040679]}},{"type":"Feature","properties":{"stop_id":"GMRC_dholakuva_circle","stop_name":"Dholakuva Circle","stop_code":"","mode":"metro","operator":"Gujarat Metro Rail Corporation","source_feed_id":"ahmedabad_gmrc_unofficial_constructed"},"geometry":{"type":"Point","coordinates":[72.6433202,23.1859445]}},{"type":"Feature","properties":{"stop_id":"GMRC_doordarshan_kendra","stop_name":"Doordarshan Kendra","stop_code":"","mode":"metro","operator":"Gujarat Metro Rail Corporation","source_feed_id":"ahmedabad_gmrc_unofficial_constructed"},"geometry":{"type":"Point","coordinates":[72.5245036,23.04814]}},{"type":"Feature","properties":{"stop_id":"GMRC_gift_city","stop_name":"GIFT City","stop_code":"","mode":"metro","operator":"Gujarat Metro Rail Corporation","source_feed_id":"ahmedabad_gmrc_unofficial_constructed"},"geometry":{"type":"Point","coordinates":[72.6855844,23.153345]}},{"type":"Feature","properties":{"stop_id":"GMRC_gnlu","stop_name":"GNLU","stop_code":"","mode":"metro","operator":"Gujarat Metro Rail Corporation","source_feed_id":"ahmedabad_gmrc_unofficial_constructed"},"geometry":{"type":"Point","coordinates":[72.6474537,23.1544774]}},{"type":"Feature","properties":{"stop_id":"GMRC_gandhigram","stop_name":"Gandhigram","stop_code":"","mode":"metro","operator":"Gujarat Metro Rail Corporation","source_feed_id":"ahmedabad_gmrc_unofficial_constructed"},"geometry":{"type":"Point","coordinates":[72.5688973,23.0271728]}},{"type":"Feature","properties":{"stop_id":"GMRC_gheekanta","stop_name":"Gheekanta","stop_code":"","mode":"metro","operator":"Gujarat Metro Rail Corporation","source_feed_id":"ahmedabad_gmrc_unofficial_constructed"},"geometry":{"type":"Point","coordinates":[72.586749,23.0287794]}},{"type":"Feature","properties":{"stop_id":"GMRC_gujarat_university_station","stop_name":"Gujarat University Station","stop_code":"","mode":"metro","operator":"Gujarat Metro Rail Corporation","source_feed_id":"ahmedabad_gmrc_unofficial_constructed"},"geometry":{"type":"Point","coordinates":[72.5435125,23.0448371]}},{"type":"Feature","properties":{"stop_id":"GMRC_gurukul_road","stop_name":"Gurukul Road","stop_code":"","mode":"metro","operator":"Gujarat Metro Rail Corporation","source_feed_id":"ahmedabad_gmrc_unofficial_constructed"},"geometry":{"type":"Point","coordinates":[72.5348776,23.045928]}},{"type":"Feature","properties":{"stop_id":"GMRC_infocity","stop_name":"Infocity","stop_code":"","mode":"metro","operator":"Gujarat Metro Rail Corporation","source_feed_id":"ahmedabad_gmrc_unofficial_constructed"},"geometry":{"type":"Point","coordinates":[72.6397126,23.1922574]}},{"type":"Feature","properties":{"stop_id":"GMRC_jivraj_park","stop_name":"Jivraj Park","stop_code":"","mode":"metro","operator":"Gujarat Metro Rail Corporation","source_feed_id":"ahmedabad_gmrc_unofficial_constructed"},"geometry":{"type":"Point","coordinates":[72.5334739,23.0055338]}},{"type":"Feature","properties":{"stop_id":"GMRC_juna_koba","stop_name":"Juna Koba","stop_code":"","mode":"metro","operator":"Gujarat Metro Rail Corporation","source_feed_id":"ahmedabad_gmrc_unofficial_constructed"},"geometry":{"type":"Point","coordinates":[72.6386326,23.1419589]}},{"type":"Feature","properties":{"stop_id":"GMRC_juna_sachivalaya","stop_name":"Juna Sachivalaya","stop_code":"","mode":"metro","operator":"Gujarat Metro Rail Corporation","source_feed_id":"ahmedabad_gmrc_unofficial_constructed"},"geometry":{"type":"Point","coordinates":[72.6594151,23.228926]}},{"type":"Feature","properties":{"stop_id":"GMRC_kalupur_railway_station","stop_name":"Kalupur Railway Station","stop_code":"","mode":"metro","operator":"Gujarat Metro Rail Corporation","source_feed_id":"ahmedabad_gmrc_unofficial_constructed"},"geometry":{"type":"Point","coordinates":[72.603093,23.0246945]}},{"type":"Feature","properties":{"stop_id":"GMRC_kankaria_east","stop_name":"Kankaria East","stop_code":"","mode":"metro","operator":"Gujarat Metro Rail Corporation","source_feed_id":"ahmedabad_gmrc_unofficial_constructed"},"geometry":{"type":"Point","coordinates":[72.6069352,23.0154543]}},{"type":"Feature","properties":{"stop_id":"GMRC_koba_circle","stop_name":"Koba Circle","stop_code":"","mode":"metro","operator":"Gujarat Metro Rail Corporation","source_feed_id":"ahmedabad_gmrc_unofficial_constructed"},"geometry":{"type":"Point","coordinates":[72.6310326,23.1322601]}},{"type":"Feature","properties":{"stop_id":"GMRC_koba_gam","stop_name":"Koba Gam","stop_code":"","mode":"metro","operator":"Gujarat Metro Rail Corporation","source_feed_id":"ahmedabad_gmrc_unofficial_constructed"},"geometry":{"type":"Point","coordinates":[72.6439246,23.147591]}},{"type":"Feature","properties":{"stop_id":"GMRC_koteshwar_road","stop_name":"Koteshwar Road","stop_code":"","mode":"metro","operator":"Gujarat Metro Rail Corporation","source_feed_id":"ahmedabad_gmrc_unofficial_constructed"},"geometry":{"type":"Point","coordinates":[72.602153,23.1031046]}},{"type":"Feature","properties":{"stop_id":"GMRC_mahatma_mandir","stop_name":"Mahatma Mandir","stop_code":"","mode":"metro","operator":"Gujarat Metro Rail Corporation","source_feed_id":"ahmedabad_gmrc_unofficial_constructed"},"geometry":{"type":"Point","coordinates":[72.6338714,23.2339412]}},{"type":"Feature","properties":{"stop_id":"GMRC_motera_stadium","stop_name":"Motera Stadium","stop_code":"","mode":"metro","operator":"Gujarat Metro Rail Corporation","source_feed_id":"ahmedabad_gmrc_unofficial_constructed"},"geometry":{"type":"Point","coordinates":[72.5966689,23.0967876]}},{"type":"Feature","properties":{"stop_id":"GMRC_narmada_canal","stop_name":"Narmada Canal","stop_code":"","mode":"metro","operator":"Gujarat Metro Rail Corporation","source_feed_id":"ahmedabad_gmrc_unofficial_constructed"},"geometry":{"type":"Point","coordinates":[72.6221083,23.1251343]}},{"type":"Feature","properties":{"stop_id":"GMRC_nirant_cross_roads","stop_name":"Nirant Cross Roads","stop_code":"","mode":"metro","operator":"Gujarat Metro Rail Corporation","source_feed_id":"ahmedabad_gmrc_unofficial_constructed"},"geometry":{"type":"Point","coordinates":[72.6585088,22.9998991]}},{"type":"Feature","properties":{"stop_id":"GMRC_old_high_court","stop_name":"Old High Court","stop_code":"","mode":"metro","operator":"Gujarat Metro Rail Corporation","source_feed_id":"ahmedabad_gmrc_unofficial_constructed"},"geometry":{"type":"Point","coordinates":[72.5670608,23.0375426]}},{"type":"Feature","properties":{"stop_id":"GMRC_pdeu","stop_name":"PDEU","stop_code":"","mode":"metro","operator":"Gujarat Metro Rail Corporation","source_feed_id":"ahmedabad_gmrc_unofficial_constructed"},"geometry":{"type":"Point","coordinates":[72.6612117,23.1548645]}},{"type":"Feature","properties":{"stop_id":"GMRC_paldi","stop_name":"Paldi","stop_code":"","mode":"metro","operator":"Gujarat Metro Rail Corporation","source_feed_id":"ahmedabad_gmrc_unofficial_constructed"},"geometry":{"type":"Point","coordinates":[72.5623281,23.0185472]}},{"type":"Feature","properties":{"stop_id":"GMRC_rabari_colony","stop_name":"Rabari Colony","stop_code":"","mode":"metro","operator":"Gujarat Metro Rail Corporation","source_feed_id":"ahmedabad_gmrc_unofficial_constructed"},"geometry":{"type":"Point","coordinates":[72.6355917,23.005413]}},{"type":"Feature","properties":{"stop_id":"GMRC_rajiv_nagar","stop_name":"Rajiv Nagar","stop_code":"","mode":"metro","operator":"Gujarat Metro Rail Corporation","source_feed_id":"ahmedabad_gmrc_unofficial_constructed"},"geometry":{"type":"Point","coordinates":[72.5367573,23.0097711]}},{"type":"Feature","properties":{"stop_id":"GMRC_randesan","stop_name":"Randesan","stop_code":"","mode":"metro","operator":"Gujarat Metro Rail Corporation","source_feed_id":"ahmedabad_gmrc_unofficial_constructed"},"geometry":{"type":"Point","coordinates":[72.6473227,23.1790869]}},{"type":"Feature","properties":{"stop_id":"GMRC_ranip","stop_name":"Ranip","stop_code":"","mode":"metro","operator":"Gujarat Metro Rail Corporation","source_feed_id":"ahmedabad_gmrc_unofficial_constructed"},"geometry":{"type":"Point","coordinates":[72.5741509,23.0677222]}},{"type":"Feature","properties":{"stop_id":"GMRC_raysan","stop_name":"Raysan","stop_code":"","mode":"metro","operator":"Gujarat Metro Rail Corporation","source_feed_id":"ahmedabad_gmrc_unofficial_constructed"},"geometry":{"type":"Point","coordinates":[72.6483104,23.1663935]}},{"type":"Feature","properties":{"stop_id":"GMRC_sabarmati","stop_name":"Sabarmati","stop_code":"","mode":"metro","operator":"Gujarat Metro Rail Corporation","source_feed_id":"ahmedabad_gmrc_unofficial_constructed"},"geometry":{"type":"Point","coordinates":[72.5921818,23.0856228]}},{"type":"Feature","properties":{"stop_id":"GMRC_sachivalaya","stop_name":"Sachivalaya","stop_code":"","mode":"metro","operator":"Gujarat Metro Rail Corporation","source_feed_id":"ahmedabad_gmrc_unofficial_constructed"},"geometry":{"type":"Point","coordinates":[72.6587511,23.2150688]}},{"type":"Feature","properties":{"stop_id":"GMRC_sector_10a","stop_name":"Sector 10A","stop_code":"","mode":"metro","operator":"Gujarat Metro Rail Corporation","source_feed_id":"ahmedabad_gmrc_unofficial_constructed"},"geometry":{"type":"Point","coordinates":[72.6501927,23.2114841]}},{"type":"Feature","properties":{"stop_id":"GMRC_sector_1","stop_name":"Sector-1","stop_code":"","mode":"metro","operator":"Gujarat Metro Rail Corporation","source_feed_id":"ahmedabad_gmrc_unofficial_constructed"},"geometry":{"type":"Point","coordinates":[72.6431519,23.2049077]}},{"type":"Feature","properties":{"stop_id":"GMRC_sector_16","stop_name":"Sector-16","stop_code":"","mode":"metro","operator":"Gujarat Metro Rail Corporation","source_feed_id":"ahmedabad_gmrc_unofficial_constructed"},"geometry":{"type":"Point","coordinates":[72.6501659,23.2338826]}},{"type":"Feature","properties":{"stop_id":"GMRC_sector_24","stop_name":"Sector-24","stop_code":"","mode":"metro","operator":"Gujarat Metro Rail Corporation","source_feed_id":"ahmedabad_gmrc_unofficial_constructed"},"geometry":{"type":"Point","coordinates":[72.6414782,23.2385075]}},{"type":"Feature","properties":{"stop_id":"GMRC_shahpur_station","stop_name":"Shahpur Station","stop_code":"","mode":"metro","operator":"Gujarat Metro Rail Corporation","source_feed_id":"ahmedabad_gmrc_unofficial_constructed"},"geometry":{"type":"Point","coordinates":[72.5810327,23.0392105]}},{"type":"Feature","properties":{"stop_id":"GMRC_shreyas","stop_name":"Shreyas","stop_code":"","mode":"metro","operator":"Gujarat Metro Rail Corporation","source_feed_id":"ahmedabad_gmrc_unofficial_constructed"},"geometry":{"type":"Point","coordinates":[72.5492445,23.0136478]}},{"type":"Feature","properties":{"stop_id":"GMRC_stadium","stop_name":"Stadium","stop_code":"","mode":"metro","operator":"Gujarat Metro Rail Corporation","source_feed_id":"ahmedabad_gmrc_unofficial_constructed"},"geometry":{"type":"Point","coordinates":[72.5616387,23.0398916]}},{"type":"Feature","properties":{"stop_id":"GMRC_tapovan_circle","stop_name":"Tapovan Circle","stop_code":"","mode":"metro","operator":"Gujarat Metro Rail Corporation","source_feed_id":"ahmedabad_gmrc_unofficial_constructed"},"geometry":{"type":"Point","coordinates":[72.6158135,23.1201105]}},{"type":"Feature","properties":{"stop_id":"GMRC_thaltej","stop_name":"Thaltej","stop_code":"","mode":"metro","operator":"Gujarat Metro Rail Corporation","source_feed_id":"ahmedabad_gmrc_unofficial_constructed"},"geometry":{"type":"Point","coordinates":[72.5159937,23.0497505]}},{"type":"Feature","properties":{"stop_id":"GMRC_thaltej_gam","stop_name":"Thaltej Gam","stop_code":"","mode":"metro","operator":"Gujarat Metro Rail Corporation","source_feed_id":"ahmedabad_gmrc_unofficial_constructed"},"geometry":{"type":"Point","coordinates":[72.5070211,23.0501817]}},{"type":"Feature","properties":{"stop_id":"GMRC_usmanpura","stop_name":"Usmanpura","stop_code":"","mode":"metro","operator":"Gujarat Metro Rail Corporation","source_feed_id":"ahmedabad_gmrc_unofficial_constructed"},"geometry":{"type":"Point","coordinates":[72.564927,23.0459092]}},{"type":"Feature","properties":{"stop_id":"GMRC_vadaj","stop_name":"Vadaj","stop_code":"","mode":"metro","operator":"Gujarat Metro Rail Corporation","source_feed_id":"ahmedabad_gmrc_unofficial_constructed"},"geometry":{"type":"Point","coordinates":[72.5658899,23.067695]}},{"type":"Feature","properties":{"stop_id":"GMRC_vastral","stop_name":"Vastral","stop_code":"","mode":"metro","operator":"Gujarat Metro Rail Corporation","source_feed_id":"ahmedabad_gmrc_unofficial_constructed"},"geometry":{"type":"Point","coordinates":[72.6476943,23.0034916]}},{"type":"Feature","properties":{"stop_id":"GMRC_vastral_gam","stop_name":"Vastral Gam","stop_code":"","mode":"metro","operator":"Gujarat Metro Rail Corporation","source_feed_id":"ahmedabad_gmrc_unofficial_constructed"},"geometry":{"type":"Point","coordinates":[72.6674512,22.9971313]}},{"type":"Feature","properties":{"stop_id":"GMRC_vijay_nagar","stop_name":"Vijay Nagar","stop_code":"","mode":"metro","operator":"Gujarat Metro Rail Corporation","source_feed_id":"ahmedabad_gmrc_unofficial_constructed"},"geometry":{"type":"Point","coordinates":[72.5622541,23.0564338]}},{"type":"Feature","properties":{"stop_id":"GMRC_vishwakarma_college","stop_name":"Vishwakarma College","stop_code":"","mode":"metro","operator":"Gujarat Metro Rail Corporation","source_feed_id":"ahmedabad_gmrc_unofficial_constructed"},"geometry":{"type":"Point","coordinates":[72.608378,23.1142071]}}]}