{"type": "FeatureCollection", "features": [{"type": "Feature", "geometry": {"type": "Point", "coordinates": [72.5716416, 23.022886]}, "properties": {"name": "Ellisbridge Police Station", "kind": ""}}, {"type": "Feature", "geometry": {"type": "Point", "coordinates": [72.620522, 23.0804289]}, "properties": {"name": "Sardarnagar Police Station", "kind": ""}}, {"type": "Feature", "geometry": {"type": "Point", "coordinates": [72.5938493, 23.0280667]}, "properties": {"name": "kalupur Police Station", "kind": ""}}, {"type": "Feature", "geometry": {"type": "Point", "coordinates": [72.5820394, 23.0245097]}, "properties": {"name": "Karanj Police Station", "kind": ""}}, {"type": "Feature", "geometry": {"type": "Point", "coordinates": [72.5290719, 23.0869563]}, "properties": {"name": "SOLA POLICE STATION", "kind": ""}}, {"type": "Feature", "geometry": {"type": "Point", "coordinates": [72.5039766, 23.2321535]}, "properties": {"name": "Kalol police station", "kind": ""}}, {"type": "Feature", "geometry": {"type": "Point", "coordinates": [72.6275, 22.9718545]}, "properties": {"name": "Vatva police", "kind": ""}}, {"type": "Feature", "geometry": {"type": "Point", "coordinates": [72.6724978, 23.0259396]}, "properties": {"name": "Odhav police station (new building)", "kind": ""}}, {"type": "Feature", "geometry": {"type": "Point", "coordinates": [72.686768, 23.08872]}, "properties": {"name": "Hanspura/Dehgam naka police station", "kind": ""}}, {"type": "Feature", "geometry": {"type": "Point", "coordinates": [72.5405988, 23.0347446]}, "properties": {"name": "Gujarat university police station", "kind": ""}}, {"type": "Feature", "geometry": {"type": "Point", "coordinates": [72.5785719, 23.0805194]}, "properties": {"name": "Maganpura Police Chowki", "kind": ""}}, {"type": "Feature", "geometry": {"type": "Point", "coordinates": [72.5779962, 23.0806075]}, "properties": {"name": "Ranip Police Station", "kind": ""}}, {"type": "Feature", "geometry": {"type": "Point", "coordinates": [72.5530175, 23.0467062]}, "properties": {"name": "Police Station, Hatkesh", "kind": ""}}, {"type": "Feature", "geometry": {"type": "Point", "coordinates": [72.5916232, 23.0852665]}, "properties": {"name": "Sabarmati Police Station", "kind": ""}}, {"type": "Feature", "geometry": {"type": "Point", "coordinates": [72.5371847, 22.9967189]}, "properties": {"name": "Vejalpur Police Station", "kind": ""}}, {"type": "Feature", "geometry": {"type": "Point", "coordinates": [72.5662069, 23.0634699]}, "properties": {"name": "Naranpura Police Station", "kind": ""}}, {"type": "Feature", "geometry": {"type": "Point", "coordinates": [72.5109956, 23.0276929]}, "properties": {"name": "Satelite Police Station", "kind": ""}}, {"type": "Feature", "geometry": {"type": "Point", "coordinates": [72.5841315, 23.0306493]}, "properties": {"name": "Karanj Police Station", "kind": ""}}, {"type": "Feature", "geometry": {"type": "Point", "coordinates": [72.5232653, 23.0491783]}, "properties": {"name": "Vastrapur Police Station", "kind": ""}}, {"type": "Feature", "geometry": {"type": "Point", "coordinates": [72.6228096, 23.0214014]}, "properties": {"name": "", "kind": ""}}, {"type": "Feature", "geometry": {"type": "Point", "coordinates": [72.5672227, 23.0350089]}, "properties": {"name": "Navarangpura Police Station", "kind": ""}}, {"type": "Feature", "geometry": {"type": "Point", "coordinates": [72.6023295, 22.9984499]}, "properties": {"name": "Maninagar Police Station", "kind": ""}}, {"type": "Feature", "geometry": {"type": "Point", "coordinates": [72.61969, 23.0016625]}, "properties": {"name": "Khokhra Police Station", "kind": ""}}, {"type": "Feature", "geometry": {"type": "Point", "coordinates": [72.581254, 22.9990162]}, "properties": {"name": "Danilimda Police Station", "kind": ""}}, {"type": "Feature", "geometry": {"type": "Point", "coordinates": [72.612271, 23.0210113]}, "properties": {"name": "Gomptipur Police Station", "kind": ""}}, {"type": "Feature", "geometry": {"type": "Point", "coordinates": [72.6313565, 23.0324357]}, "properties": {"name": "Bapunagar Police Station", "kind": ""}}, {"type": "Feature", "geometry": {"type": "Point", "coordinates": [72.6117235, 22.9577075]}, "properties": {"name": "Vatva Police Station", "kind": ""}}, {"type": "Feature", "geometry": {"type": "Point", "coordinates": [72.5888869, 23.0497846]}, "properties": {"name": "Shahibaug Police Station", "kind": ""}}, {"type": "Feature", "geometry": {"type": "Point", "coordinates": [72.5842961, 23.0307558]}, "properties": {"name": "Karanj Police Station", "kind": ""}}, {"type": "Feature", "geometry": {"type": "Point", "coordinates": [72.5226624, 23.0041013]}, "properties": {"name": "Vejalpur Police Chowky", "kind": ""}}, {"type": "Feature", "geometry": {"type": "Point", "coordinates": [72.5414129, 23.0291819]}, "properties": {"name": "Mahila Police station West", "kind": ""}}]}