{"type": "FeatureCollection", "features": [{"type": "Feature", "geometry": {"type": "LineString", "coordinates": [[72.6002426, 23.0830855], [72.6001402, 23.0808052], [72.6003596, 23.0770883], [72.6002293, 23.0753203], [72.5993714, 23.0724481], [72.5965556, 23.0682708], [72.594446, 23.0661913], [72.5912672, 23.0639703], [72.5861211, 23.0617298], [72.5836373, 23.0601954], [72.5804205, 23.0576468], [72.5791003, 23.0559738], [72.5783401, 23.0550106], [72.5765269, 23.0522444], [72.5753482, 23.0493832], [72.5730463, 23.0397276], [72.5739001, 23.0308018], [72.5750297, 23.0235913], [72.5758596, 23.0174243], [72.5753937, 23.0126617], [72.5750045, 23.0118557], [72.5732097, 23.0081389], [72.5713218, 23.0051399], [72.5636824, 22.994994], [72.5619105, 22.9939148], [72.5588538, 22.9933848], [72.5557971, 22.9928548], [72.5543046, 22.9919721], [72.5528617, 22.9908197], [72.5491854, 22.9883606], [72.5455898, 22.9858076], [72.5450161, 22.9824798], [72.5420516, 22.9807367], [72.5381309, 22.9784829], [72.534172, 22.9776729], [72.5296584, 22.9764756], [72.5249152, 22.97475], [72.5209754, 22.9732357], [72.5209067, 22.9730514], [72.5198934, 22.9703321], [72.5179828, 22.9672532], [72.5180579, 22.9663443], [72.5165666, 22.9641217], [72.5153115, 22.9635722], [72.5148913, 22.9628372], [72.5127439, 22.9580207], [72.5135134, 22.9520072], [72.5176995, 22.9476266], [72.5213337, 22.9472716], [72.5245377, 22.9477108], [72.5306392, 22.9497055], [72.5346588, 22.9496041], [72.5409359, 22.9460547], [72.5429182, 22.9421503], [72.5426979, 22.9393107], [72.5417619, 22.9360653], [72.5403853, 22.933327], [72.5360904, 22.9293715], [72.5320709, 22.9255681], [72.5266197, 22.9217646], [72.5231507, 22.9193809], [72.5203425, 22.9166423], [72.5174242, 22.9138528], [72.514561, 22.9106576], [72.5052554, 22.9050784], [72.5009054, 22.9017308], [72.4976567, 22.8988396], [72.4955093, 22.8937671], [72.4948486, 22.8888467], [72.4944081, 22.8825057], [72.4954475, 22.8795711], [72.494173, 22.8724624], [72.4944304, 22.8704467], [72.4953955, 22.8694092], [72.4969398, 22.8680753], [72.497677, 22.8668094], [72.4975141, 22.8596212], [72.496807, 22.8545198], [72.495442, 22.8517107], [72.4951918, 22.8505997], [72.4953106, 22.8486408], [72.495624, 22.8461972], [72.4944866, 22.8412914], [72.494987, 22.8389223], [72.4961916, 22.834453], [72.4970117, 22.8319826], [72.4983485, 22.8290822], [72.5031429, 22.8261137], [72.515404, 22.8222899], [72.5241384, 22.8207411], [72.5331794, 22.8158568], [72.5354426, 22.8145103], [72.5367371, 22.8099448], [72.5371467, 22.8057658], [72.5361169, 22.8008114], [72.5340225, 22.7981204], [72.5302165, 22.7962875], [72.5273997, 22.795852], [72.5241384, 22.795083], [72.5191395, 22.7966541], [72.5140021, 22.7995678], [72.5072105, 22.7991153], [72.5033374, 22.798439], [72.5010187, 22.7967064], [72.5003371, 22.7934596], [72.5011323, 22.7896366], [72.5030811, 22.7883118], [72.5127867, 22.7826814], [72.5174354, 22.7769624], [72.5231727, 22.7725104], [72.5279292, 22.769021], [72.5339657, 22.7647584], [72.5374876, 22.7601489], [72.5409527, 22.7545439], [72.540704, 22.7515093], [72.5399407, 22.7460786], [72.5365787, 22.7441191], [72.5320436, 22.7396901], [72.5266946, 22.7354748], [72.5237202, 22.7331205], [72.5235213, 22.7309858], [72.525452, 22.7286948], [72.5289497, 22.7241825], [72.5307913, 22.7222531], [72.5362429, 22.7189842], [72.5418752, 22.7148638], [72.543909, 22.7124097], [72.5447377, 22.7104602], [72.5441576, 22.7081284], [72.5434303, 22.706951], [72.5416713, 22.7071345], [72.5396408, 22.7083578], [72.5366386, 22.7103612], [72.5313117, 22.7119128], [72.5270887, 22.7125978], [72.525096, 22.71348], [72.5221835, 22.7133209], [72.5212008, 22.7123332], [72.519336, 22.7095046], [72.5183001, 22.7074786], [72.5178031, 22.704939], [72.5175956, 22.7011328], [72.5190045, 22.6987245], [72.5203113, 22.6976955], [72.5238114, 22.6955514], [72.5292884, 22.6946491], [72.5357042, 22.6951309], [72.5417542, 22.6957426], [72.5466853, 22.6961631], [72.5494172, 22.6953695], [72.5509535, 22.6946339], [72.5517408, 22.693487], [72.5517096, 22.6903752], [72.5517408, 22.6887846], [72.5522635, 22.6864271], [72.5522802, 22.6859117]]}, "properties": {}}, {"type": "Feature", "geometry": {"type": "LineString", "coordinates": [[72.8238331, 23.5099829], [72.8240615, 23.5069388], [72.8243652, 23.5028913], [72.8222145, 23.5007313], [72.8186128, 23.5000025], [72.8143174, 23.501501], [72.8055247, 23.5065213], [72.8009105, 23.5059999], [72.7985086, 23.5050048], [72.7972467, 23.5011643], [72.7980343, 23.4962658], [72.8021273, 23.4919815], [72.8138295, 23.4814218], [72.817982, 23.4686106], [72.8129267, 23.4518718], [72.8110377, 23.4468299], [72.8102636, 23.4447638], [72.806271, 23.4394369], [72.8024231, 23.4349742], [72.7980066, 23.4319761], [72.7948242, 23.4290418], [72.7939242, 23.4255199], [72.7941145, 23.4214971], [72.7962808, 23.417236], [72.7985852, 23.4151047], [72.8027528, 23.4116623], [72.8030671, 23.4083944], [72.8012261, 23.4053574], [72.7990527, 23.4038606], [72.791435, 23.404931], [72.7898437, 23.4066777], [72.7837043, 23.4104746], [72.7786236, 23.4145253], [72.7759522, 23.4159315], [72.7736782, 23.4160481], [72.7708239, 23.4149517], [72.7670185, 23.4117545], [72.7623936, 23.4076723], [72.757581, 23.4065758], [72.7540628, 23.4062102], [72.7485201, 23.4062102], [72.7434558, 23.4058965], [72.7381315, 23.4052025], [72.7345226, 23.4032932], [72.7310122, 23.4016082], [72.72688, 23.3981053], [72.7242098, 23.3945123], [72.7233453, 23.3911296], [72.7233787, 23.3878143], [72.7260005, 23.3817772], [72.729982, 23.3789118], [72.7327879, 23.3767505], [72.7344562, 23.3744614], [72.734547, 23.3725004], [72.7319204, 23.3687032], [72.7300995, 23.3668487], [72.7239839, 23.3641149], [72.7218351, 23.3629335], [72.720428, 23.3616218], [72.7199931, 23.3595514], [72.7196446, 23.3561997], [72.7197607, 23.353305], [72.7201756, 23.3511823], [72.722311, 23.3416244], [72.7151039, 23.328757], [72.7053611, 23.3115985], [72.7017576, 23.2963991], [72.7016241, 23.281198], [72.6992218, 23.273842], [72.6932159, 23.2683247], [72.6896253, 23.2666641], [72.6842738, 23.2647691], [72.6829335, 23.2630878], [72.6820359, 23.2611227], [72.6816045, 23.2602388], [72.6811962, 23.2560827], [72.6827007, 23.2497855], [72.6852473, 23.2391579], [72.6862558, 23.2345431], [72.6869698, 23.2280984], [72.6863277, 23.2226555], [72.6855901, 23.2201211], [72.6826063, 23.2153575], [72.6652251, 23.20314], [72.6602399, 23.1914174], [72.6580693, 23.1845642], [72.6587299, 23.1780576], [72.6599304, 23.1729099], [72.6631655, 23.168948], [72.6705266, 23.1623539], [72.6747734, 23.1576684], [72.6760487, 23.1548375], [72.6763863, 23.1503204], [72.6757269, 23.1467026], [72.6745846, 23.1446524], [72.6714802, 23.1426498], [72.6684504, 23.1420491], [72.6632598, 23.1430037], [72.6595444, 23.1435373], [72.6553325, 23.1431772], [72.6499571, 23.1406973], [72.6470814, 23.1376191], [72.6456133, 23.1339065], [72.6459641, 23.1306227], [72.6462284, 23.1281481], [72.6466592, 23.1261219], [72.6481302, 23.1191573]]}, "properties": {}}, {"type": "Feature", "geometry": {"type": "LineString", "coordinates": [[72.6118807, 23.0918218], [72.6115763, 23.0918774], [72.6112701, 23.091924], [72.6109625, 23.0919615], [72.6106537, 23.0919898], [72.610344, 23.0920089], [72.6100339, 23.0920189], [72.6097236, 23.0920196], [72.6094134, 23.0920111], [72.6091036, 23.0919934], [72.6087947, 23.0919665], [72.6084868, 23.0919304], [72.6081804, 23.0918853], [72.6078757, 23.091831], [72.6075731, 23.0917678], [72.6072729, 23.0916955], [72.6069754, 23.0916144], [72.6066808, 23.0915246], [72.6063896, 23.091426], [72.6061019, 23.0913188], [72.6058182, 23.0912031], [72.6055387, 23.0910791], [72.6052637, 23.0909468], [72.6049935, 23.0908064], [72.6047283, 23.0906581], [72.6044685, 23.090502], [72.6042143, 23.0903382], [72.603966, 23.090167], [72.6037238, 23.0899885], [72.603488, 23.0898029], [72.6032541, 23.0896063], [72.6030273, 23.0894026], [72.6028079, 23.0891922], [72.6025962, 23.0889752], [72.6023923, 23.0887519], [72.6021966, 23.0885226], [72.6020093, 23.0882874], [72.6018304, 23.0880467], [72.6016603, 23.0878007], [72.6014991, 23.0875497], [72.6013469, 23.0872939], [72.601204, 23.0870336], [72.6010706, 23.0867692], [72.6009466, 23.0865008], [72.6008324, 23.0862289], [72.6007279, 23.0859536], [72.6006334, 23.0856753], [72.6005489, 23.0853943], [72.6004746, 23.0851109], [72.6004104, 23.0848253], [72.6003565, 23.084538], [72.6003129, 23.0842492], [72.6002797, 23.0839592], [72.6002569, 23.0836684], [72.6002445, 23.0833771], [72.6002426, 23.0830855]]}, "properties": {}}, {"type": "Feature", "geometry": {"type": "LineString", "coordinates": [[72.6481302, 23.1191573], [72.6487308, 23.1140633], [72.6488633, 23.1069973], [72.6473962, 23.1009284], [72.6437479, 23.095841], [72.6396623, 23.0927827], [72.6360517, 23.0917508], [72.6322319, 23.0905302], [72.6292311, 23.0902731], [72.6254098, 23.0906325], [72.6198689, 23.0910871], [72.6118807, 23.0918218]]}, "properties": {}}]}