{"type": "FeatureCollection", "features": [{"type": "Feature", "geometry": {"type": "Point", "coordinates": [72.5490839, 23.047875]}, "properties": {"name": "St. Xavier's High School, Loyola Hall", "kind": ""}}, {"type": "Feature", "geometry": {"type": "Point", "coordinates": [72.568061, 23.0351192]}, "properties": {"name": "Mt. Carmel School", "kind": ""}}, {"type": "Feature", "geometry": {"type": "Point", "coordinates": [72.556364, 23.0483604]}, "properties": {"name": "Navrang School", "kind": ""}}, {"type": "Feature", "geometry": {"type": "Point", "coordinates": [72.4575053, 23.0419569]}, "properties": {"name": "DPS - Delhi Public School, Bopal", "kind": ""}}, {"type": "Feature", "geometry": {"type": "Point", "coordinates": [72.5484846, 23.0403655]}, "properties": {"name": "A. G. Teachers High School", "kind": ""}}, {"type": "Feature", "geometry": {"type": "Point", "coordinates": [72.5766297, 23.0329288]}, "properties": {"name": "Mount Carmel School, Khanpur", "kind": ""}}, {"type": "Feature", "geometry": {"type": "Point", "coordinates": [72.5699733, 23.0113752]}, "properties": {"name": "Exhibition & Spatial Design", "kind": ""}}, {"type": "Feature", "geometry": {"type": "Point", "coordinates": [72.5337334, 23.0370691]}, "properties": {"name": "Kendriya Vidyalaya SAC", "kind": ""}}, {"type": "Feature", "geometry": {"type": "Point", "coordinates": [72.5430971, 23.0258294]}, "properties": {"name": "Sahajanand College", "kind": ""}}, {"type": "Feature", "geometry": {"type": "Point", "coordinates": [72.5669236, 23.0033486]}, "properties": {"name": "Prabhudas Thakkar College", "kind": ""}}, {"type": "Feature", "geometry": {"type": "Point", "coordinates": [72.6026493, 22.9987803]}, "properties": {"name": "Jivkorbhai Lallubhai High School", "kind": ""}}, {"type": "Feature", "geometry": {"type": "Point", "coordinates": [72.5630784, 23.0152445]}, "properties": {"name": "Navchetan School", "kind": ""}}, {"type": "Feature", "geometry": {"type": "Point", "coordinates": [72.5415796, 23.064931]}, "properties": {"name": "Karmachari Shiksan Tirth", "kind": ""}}, {"type": "Feature", "geometry": {"type": "Point", "coordinates": [72.5460531, 23.0702999]}, "properties": {"name": "M B Patel Gyanjyot High School", "kind": ""}}, {"type": "Feature", "geometry": {"type": "Point", "coordinates": [72.5479789, 23.072279]}, "properties": {"name": "Gyanda Girls High School", "kind": ""}}, {"type": "Feature", "geometry": {"type": "Point", "coordinates": [72.5428774, 23.0681554]}, "properties": {"name": "Nutan Vidya Vihar", "kind": ""}}, {"type": "Feature", "geometry": {"type": "Point", "coordinates": [72.5831726, 23.0119864]}, "properties": {"name": "F D High School for Girls, Jamalpur", "kind": ""}}, {"type": "Feature", "geometry": {"type": "Point", "coordinates": [72.514922, 23.0281673]}, "properties": {"name": "SN School", "kind": ""}}, {"type": "Feature", "geometry": {"type": "Point", "coordinates": [72.611136, 23.038409]}, "properties": {"name": "GCS Medical college", "kind": ""}}, {"type": "Feature", "geometry": {"type": "Point", "coordinates": [72.4669988, 23.0357335]}, "properties": {"name": "", "kind": ""}}, {"type": "Feature", "geometry": {"type": "Point", "coordinates": [72.4959141, 23.0415757]}, "properties": {"name": "Satva Vikas School", "kind": ""}}, {"type": "Feature", "geometry": {"type": "Point", "coordinates": [72.6362813, 23.0094986]}, "properties": {"name": "VIVEKANAND VIDYALAYA", "kind": ""}}, {"type": "Feature", "geometry": {"type": "Point", "coordinates": [72.5371239, 23.0675829]}, "properties": {"name": "Amrita Vidyalayam", "kind": ""}}, {"type": "Feature", "geometry": {"type": "Point", "coordinates": [72.5271318, 23.0282166]}, "properties": {"name": "Kameshwar School", "kind": ""}}, {"type": "Feature", "geometry": {"type": "Point", "coordinates": [72.539258, 23.0718114]}, "properties": {"name": "Nalanda School", "kind": ""}}, {"type": "Feature", "geometry": {"type": "Point", "coordinates": [72.5686984, 23.0122755]}, "properties": {"name": "Divan Ballubhai School", "kind": ""}}, {"type": "Feature", "geometry": {"type": "Point", "coordinates": [72.5775928, 23.1026901]}, "properties": {"name": "The OLD LITTLE FLOWER SCHOOL", "kind": ""}}, {"type": "Feature", "geometry": {"type": "Point", "coordinates": [72.5815065, 23.1006535]}, "properties": {"name": "Kendriya Vidyala Sabarmati", "kind": ""}}, {"type": "Feature", "geometry": {"type": "Point", "coordinates": [72.5781828, 23.1043189]}, "properties": {"name": "The NEW LITTLE FLOWER SCHOOL", "kind": ""}}, {"type": "Feature", "geometry": {"type": "Point", "coordinates": [72.5918371, 23.1088888]}, "properties": {"name": "Sakar English School", "kind": ""}}, {"type": "Feature", "geometry": {"type": "Point", "coordinates": [72.590667, 23.1097883]}, "properties": {"name": "Podar International School", "kind": ""}}, {"type": "Feature", "geometry": {"type": "Point", "coordinates": [72.562771, 23.1273816]}, "properties": {"name": "H3 World School", "kind": ""}}, {"type": "Feature", "geometry": {"type": "Point", "coordinates": [72.4823886, 22.9892365]}, "properties": {"name": "Anand Niketan School Sarkhej", "kind": ""}}, {"type": "Feature", "geometry": {"type": "Point", "coordinates": [72.5694846, 23.1039088]}, "properties": {"name": "St Josheph School", "kind": ""}}, {"type": "Feature", "geometry": {"type": "Point", "coordinates": [72.576326, 23.106]}, "properties": {"name": "IP School", "kind": ""}}, {"type": "Feature", "geometry": {"type": "Point", "coordinates": [72.549049, 23.0486498]}, "properties": {"name": "St. Xavier's School, Loyola Hall, Navrangpura", "kind": ""}}, {"type": "Feature", "geometry": {"type": "Point", "coordinates": [72.5261349, 23.0650872]}, "properties": {"name": "J.G. International School", "kind": ""}}, {"type": "Feature", "geometry": {"type": "Point", "coordinates": [72.5591118, 23.015537]}, "properties": {"name": "Municipal School", "kind": ""}}, {"type": "Feature", "geometry": {"type": "Point", "coordinates": [72.4831793, 23.0498246]}, "properties": {"name": "Anand Niketan School, Shilaj", "kind": ""}}, {"type": "Feature", "geometry": {"type": "Point", "coordinates": [72.586465, 23.0511869]}, "properties": {"name": "Shahibaug Municipal Saraswati Mandir School", "kind": ""}}, {"type": "Feature", "geometry": {"type": "Point", "coordinates": [72.5888683, 23.0515752]}, "properties": {"name": "Kendriya Vidyalaya, Shahibaug", "kind": ""}}, {"type": "Feature", "geometry": {"type": "Point", "coordinates": [72.5400992, 23.0145352]}, "properties": {"name": "Shreyas Foundation School", "kind": ""}}, {"type": "Feature", "geometry": {"type": "Point", "coordinates": [72.5193339, 23.0500649]}, "properties": {"name": "Udgam School for Children", "kind": ""}}, {"type": "Feature", "geometry": {"type": "Point", "coordinates": [72.57203, 23.025228]}, "properties": {"name": "Balghar", "kind": ""}}, {"type": "Feature", "geometry": {"type": "Point", "coordinates": [72.5653353, 23.018851]}, "properties": {"name": "Amrut Jyoti School", "kind": ""}}, {"type": "Feature", "geometry": {"type": "Point", "coordinates": [72.5494705, 23.0132942]}, "properties": {"name": "Shardamandir School", "kind": ""}}, {"type": "Feature", "geometry": {"type": "Point", "coordinates": [72.5828072, 23.0113224]}, "properties": {"name": "", "kind": ""}}, {"type": "Feature", "geometry": {"type": "Point", "coordinates": [72.5419468, 23.0299192]}, "properties": {"name": "Ahmedabad Management Association", "kind": ""}}, {"type": "Feature", "geometry": {"type": "Point", "coordinates": [72.5493843, 23.0190038]}, "properties": {"name": "Sheth Chimanlal Nagindas Vidyavihar", "kind": ""}}, {"type": "Feature", "geometry": {"type": "Point", "coordinates": [72.5924488, 23.0809117]}, "properties": {"name": "Municipality School", "kind": ""}}, {"type": "Feature", "geometry": {"type": "Point", "coordinates": [72.4941941, 23.0484809]}, "properties": {"name": "Zebar School", "kind": ""}}, {"type": "Feature", "geometry": {"type": "Point", "coordinates": [72.5165143, 23.0425596]}, "properties": {"name": "Nirma Vidyavihar", "kind": ""}}, {"type": "Feature", "geometry": {"type": "Point", "coordinates": [72.5072725, 23.0218368]}, "properties": {"name": "Anand Niketan", "kind": ""}}, {"type": "Feature", "geometry": {"type": "Point", "coordinates": [72.5463206, 23.1252949]}, "properties": {"name": "Nirma Vidhya Vihar", "kind": ""}}, {"type": "Feature", "geometry": {"type": "Point", "coordinates": [72.6506231, 23.1322424]}, "properties": {"name": "Gujarat Police Academy, Karai", "kind": ""}}, {"type": "Feature", "geometry": {"type": "Point", "coordinates": [72.6000041, 23.0112802]}, "properties": {"name": "Divan Ballubhai Madhyamik Shala", "kind": ""}}, {"type": "Feature", "geometry": {"type": "Point", "coordinates": [72.6133446, 23.1249437]}, "properties": {"name": "Tapovan Sanskar Peeth", "kind": ""}}, {"type": "Feature", "geometry": {"type": "Point", "coordinates": [72.6375445, 23.1222495]}, "properties": {"name": "Anand Niketan Sughad", "kind": ""}}, {"type": "Feature", "geometry": {"type": "Point", "coordinates": [72.4940412, 23.0050032]}, "properties": {"name": "Cosmos Castle International School", "kind": ""}}, {"type": "Feature", "geometry": {"type": "Point", "coordinates": [72.6286518, 23.1705549]}, "properties": {"name": "School of Achiever", "kind": ""}}, {"type": "Feature", "geometry": {"type": "Point", "coordinates": [72.5727242, 22.97988]}, "properties": {"name": "Brighton Primary English School", "kind": ""}}, {"type": "Feature", "geometry": {"type": "Point", "coordinates": [72.5394906, 23.0718404]}, "properties": {"name": "Nalanda School", "kind": ""}}, {"type": "Feature", "geometry": {"type": "Point", "coordinates": [72.5222356, 23.0183301]}, "properties": {"name": "", "kind": ""}}, {"type": "Feature", "geometry": {"type": "Point", "coordinates": [72.5776134, 23.1027035]}, "properties": {"name": "", "kind": ""}}, {"type": "Feature", "geometry": {"type": "Point", "coordinates": [72.5905984, 23.1096999]}, "properties": {"name": "", "kind": ""}}, {"type": "Feature", "geometry": {"type": "Point", "coordinates": [72.591728, 23.1088614]}, "properties": {"name": "", "kind": ""}}, {"type": "Feature", "geometry": {"type": "Point", "coordinates": [72.5818961, 23.1009856]}, "properties": {"name": "Kendriya Vidyalaya Sabarmati", "kind": ""}}, {"type": "Feature", "geometry": {"type": "Point", "coordinates": [72.5822847, 23.1012731]}, "properties": {"name": "Assembly Area", "kind": ""}}, {"type": "Feature", "geometry": {"type": "Point", "coordinates": [72.5418007, 23.0319195]}, "properties": {"name": "Ahmedabad Textile Industry's Research Association", "kind": ""}}, {"type": "Feature", "geometry": {"type": "Point", "coordinates": [72.5650571, 23.0704798]}, "properties": {"name": "", "kind": ""}}, {"type": "Feature", "geometry": {"type": "Point", "coordinates": [72.5557241, 23.0484242]}, "properties": {"name": "", "kind": ""}}, {"type": "Feature", "geometry": {"type": "Point", "coordinates": [72.5517232, 23.0395125]}, "properties": {"name": "", "kind": ""}}, {"type": "Feature", "geometry": {"type": "Point", "coordinates": [72.5840034, 23.1778422]}, "properties": {"name": "Swarrnim International School", "kind": ""}}, {"type": "Feature", "geometry": {"type": "Point", "coordinates": [72.6159452, 23.0574893]}, "properties": {"name": "", "kind": ""}}]}