{"type": "FeatureCollection", "features": [{"type": "Feature", "geometry": {"type": "Point", "coordinates": [72.5694693, 23.0112987]}, "properties": {"name": "", "kind": ""}}, {"type": "Feature", "geometry": {"type": "Point", "coordinates": [72.5709613, 23.0112778]}, "properties": {"name": "", "kind": ""}}, {"type": "Feature", "geometry": {"type": "Point", "coordinates": [72.576047, 23.0682694]}, "properties": {"name": "", "kind": ""}}, {"type": "Feature", "geometry": {"type": "Point", "coordinates": [72.5162482, 23.046489]}, "properties": {"name": "", "kind": ""}}, {"type": "Feature", "geometry": {"type": "Point", "coordinates": [72.51561, 23.0469788]}, "properties": {"name": "", "kind": ""}}, {"type": "Feature", "geometry": {"type": "Point", "coordinates": [72.6619111, 22.9700995]}, "properties": {"name": "", "kind": ""}}, {"type": "Feature", "geometry": {"type": "Point", "coordinates": [72.6008606, 23.002931]}, "properties": {"name": "", "kind": ""}}, {"type": "Feature", "geometry": {"type": "Point", "coordinates": [72.5801102, 23.0599826]}, "properties": {"name": "", "kind": ""}}, {"type": "Feature", "geometry": {"type": "Point", "coordinates": [72.5788756, 23.0205502]}, "properties": {"name": "", "kind": ""}}, {"type": "Feature", "geometry": {"type": "Point", "coordinates": [72.5878043, 23.0605224]}, "properties": {"name": "", "kind": ""}}, {"type": "Feature", "geometry": {"type": "Point", "coordinates": [72.5812297, 23.0607035]}, "properties": {"name": "", "kind": ""}}, {"type": "Feature", "geometry": {"type": "Point", "coordinates": [72.580244, 23.0602174]}, "properties": {"name": "", "kind": ""}}, {"type": "Feature", "geometry": {"type": "Point", "coordinates": [72.5802525, 23.0602262]}, "properties": {"name": "", "kind": ""}}, {"type": "Feature", "geometry": {"type": "Point", "coordinates": [72.5812606, 23.0606706]}, "properties": {"name": "", "kind": ""}}, {"type": "Feature", "geometry": {"type": "Point", "coordinates": [72.5300778, 23.0380614]}, "properties": {"name": "", "kind": ""}}, {"type": "Feature", "geometry": {"type": "Point", "coordinates": [72.4943374, 23.0409517]}, "properties": {"name": "", "kind": ""}}, {"type": "Feature", "geometry": {"type": "Point", "coordinates": [72.623208, 23.0752515]}, "properties": {"name": "", "kind": ""}}, {"type": "Feature", "geometry": {"type": "Point", "coordinates": [72.6232262, 23.0753455]}, "properties": {"name": "", "kind": ""}}, {"type": "Feature", "geometry": {"type": "Point", "coordinates": [72.6240813, 23.0770751]}, "properties": {"name": "", "kind": ""}}, {"type": "Feature", "geometry": {"type": "Point", "coordinates": [72.4542234, 22.9806569]}, "properties": {"name": "", "kind": ""}}, {"type": "Feature", "geometry": {"type": "Point", "coordinates": [72.5524128, 23.0204867]}, "properties": {"name": "", "kind": ""}}, {"type": "Feature", "geometry": {"type": "Point", "coordinates": [72.5080209, 23.0231537]}, "properties": {"name": "", "kind": ""}}, {"type": "Feature", "geometry": {"type": "Point", "coordinates": [72.511648, 23.0449378]}, "properties": {"name": "", "kind": ""}}, {"type": "Feature", "geometry": {"type": "Point", "coordinates": [72.5063128, 23.0201787]}, "properties": {"name": "", "kind": ""}}, {"type": "Feature", "geometry": {"type": "Point", "coordinates": [72.5496629, 23.0251122]}, "properties": {"name": "", "kind": ""}}, {"type": "Feature", "geometry": {"type": "Point", "coordinates": [72.6043949, 23.0066121]}, "properties": {"name": "", "kind": ""}}, {"type": "Feature", "geometry": {"type": "Point", "coordinates": [72.603008, 23.0085847]}, "properties": {"name": "", "kind": ""}}, {"type": "Feature", "geometry": {"type": "Point", "coordinates": [72.5998633, 23.0035929]}, "properties": {"name": "", "kind": ""}}, {"type": "Feature", "geometry": {"type": "Point", "coordinates": [72.6034981, 23.0025214]}, "properties": {"name": "", "kind": ""}}, {"type": "Feature", "geometry": {"type": "Point", "coordinates": [72.5565801, 23.0213401]}, "properties": {"name": "", "kind": ""}}, {"type": "Feature", "geometry": {"type": "Point", "coordinates": [72.5391482, 23.0623659]}, "properties": {"name": "", "kind": ""}}, {"type": "Feature", "geometry": {"type": "Point", "coordinates": [72.5567499, 23.0648184]}, "properties": {"name": "", "kind": ""}}, {"type": "Feature", "geometry": {"type": "Point", "coordinates": [72.53704, 23.0513703]}, "properties": {"name": "", "kind": ""}}, {"type": "Feature", "geometry": {"type": "Point", "coordinates": [72.555238, 23.0198006]}, "properties": {"name": "", "kind": ""}}, {"type": "Feature", "geometry": {"type": "Point", "coordinates": [72.5149991, 23.0685837]}, "properties": {"name": "", "kind": ""}}, {"type": "Feature", "geometry": {"type": "Point", "coordinates": [72.6145753, 23.1264622]}, "properties": {"name": "", "kind": ""}}, {"type": "Feature", "geometry": {"type": "Point", "coordinates": [72.6130929, 23.1253798]}, "properties": {"name": "", "kind": ""}}, {"type": "Feature", "geometry": {"type": "Point", "coordinates": [72.5757989, 23.042816]}, "properties": {"name": "", "kind": ""}}, {"type": "Feature", "geometry": {"type": "Point", "coordinates": [72.5707323, 23.0069907]}, "properties": {"name": "", "kind": ""}}, {"type": "Feature", "geometry": {"type": "Point", "coordinates": [72.5263081, 23.0985579]}, "properties": {"name": "", "kind": ""}}, {"type": "Feature", "geometry": {"type": "Point", "coordinates": [72.4871986, 23.0421002]}, "properties": {"name": "", "kind": ""}}, {"type": "Feature", "geometry": {"type": "Point", "coordinates": [72.5496799, 23.1375437]}, "properties": {"name": "", "kind": ""}}, {"type": "Feature", "geometry": {"type": "Point", "coordinates": [72.5058959, 23.0328651]}, "properties": {"name": "", "kind": ""}}, {"type": "Feature", "geometry": {"type": "Point", "coordinates": [72.5399027, 23.1014771]}, "properties": {"name": "", "kind": ""}}, {"type": "Feature", "geometry": {"type": "Point", "coordinates": [72.5048503, 23.0001802]}, "properties": {"name": "", "kind": ""}}, {"type": "Feature", "geometry": {"type": "Point", "coordinates": [72.5532363, 23.1298756]}, "properties": {"name": "", "kind": ""}}, {"type": "Feature", "geometry": {"type": "Point", "coordinates": [72.5623801, 22.996624]}, "properties": {"name": "", "kind": ""}}, {"type": "Feature", "geometry": {"type": "Point", "coordinates": [72.472272, 23.0177422]}, "properties": {"name": "", "kind": ""}}, {"type": "Feature", "geometry": {"type": "Point", "coordinates": [72.463282, 23.0162909]}, "properties": {"name": "", "kind": ""}}]}