{"type": "FeatureCollection", "features": [{"type": "Feature", "geometry": {"type": "Point", "coordinates": [72.5692947, 23.0441852]}, "properties": {"name": "Gujrat Vidhyapeeth", "kind": "university"}}, {"type": "Feature", "geometry": {"type": "Point", "coordinates": [72.4946486, 23.0835562]}, "properties": {"name": "SAL University", "kind": "university"}}, {"type": "Feature", "geometry": {"type": "Point", "coordinates": [72.5498173, 23.0374895]}, "properties": {"name": "CEPT University", "kind": "university"}}, {"type": "Feature", "geometry": {"type": "Point", "coordinates": [72.5461238, 23.0331304]}, "properties": {"name": "LD college of Engineering", "kind": "university"}}, {"type": "Feature", "geometry": {"type": "Point", "coordinates": [72.552737, 23.0371759]}, "properties": {"name": "Ahmedabad University", "kind": "university"}}, {"type": "Feature", "geometry": {"type": "Point", "coordinates": [72.5439365, 23.0372742]}, "properties": {"name": "Gujarat University", "kind": "university"}}, {"type": "Feature", "geometry": {"type": "Point", "coordinates": [72.5478182, 23.0395287]}, "properties": {"name": "Gujarat University", "kind": "university"}}, {"type": "Feature", "geometry": {"type": "Point", "coordinates": [72.6602639, 23.15183]}, "properties": {"name": "Gujarat National Law University", "kind": "university"}}, {"type": "Feature", "geometry": {"type": "Point", "coordinates": [72.6650932, 23.1563699]}, "properties": {"name": "Pandit Deendayal Energy University", "kind": "university"}}, {"type": "Feature", "geometry": {"type": "Point", "coordinates": [72.5692367, 23.043903]}, "properties": {"name": "Gujrat Vidhyapeeth", "kind": "university"}}, {"type": "Feature", "geometry": {"type": "Point", "coordinates": [72.4942867, 23.0434499]}, "properties": {"name": "Physical Research Laboratory, Thaltej Campus", "kind": "university"}}, {"type": "Feature", "geometry": {"type": "Point", "coordinates": [72.5517045, 23.0329052]}, "properties": {"name": "St. Xavier's College", "kind": "college"}}, {"type": "Feature", "geometry": {"type": "Point", "coordinates": [72.5537987, 23.0337029]}, "properties": {"name": "SLIMS - Som Lalit Institute of Management Studies", "kind": "college"}}, {"type": "Feature", "geometry": {"type": "Point", "coordinates": [72.6046567, 22.9986434]}, "properties": {"name": "AMC MET Medical College", "kind": "college"}}, {"type": "Feature", "geometry": {"type": "Point", "coordinates": [72.6030289, 22.998722]}, "properties": {"name": "KK Shah Jarodwala Science College", "kind": "college"}}, {"type": "Feature", "geometry": {"type": "Point", "coordinates": [72.5307242, 23.0830479]}, "properties": {"name": "RC TECHNICAL INSTITUTE", "kind": "college"}}, {"type": "Feature", "geometry": {"type": "Point", "coordinates": [72.5148851, 23.0283544]}, "properties": {"name": "SN Collage", "kind": "college"}}, {"type": "Feature", "geometry": {"type": "Point", "coordinates": [72.6043173, 23.0497247]}, "properties": {"name": "Government Dental College ,Ahemedabad", "kind": "college"}}, {"type": "Feature", "geometry": {"type": "Point", "coordinates": [72.6027712, 23.0524472]}, "properties": {"name": "BJ Medical College ,Haripura -Asarwa", "kind": "college"}}, {"type": "Feature", "geometry": {"type": "Point", "coordinates": [72.6301367, 23.1149923]}, "properties": {"name": "SSIT (shree Swaminarayan institute of technology)", "kind": "college"}}, {"type": "Feature", "geometry": {"type": "Point", "coordinates": [72.5475056, 23.0265769]}, "properties": {"name": "Government Polytechnic", "kind": "college"}}, {"type": "Feature", "geometry": {"type": "Point", "coordinates": [72.5371832, 23.0346573]}, "properties": {"name": "Amrut Mody institute of Management", "kind": "college"}}, {"type": "Feature", "geometry": {"type": "Point", "coordinates": [72.5380428, 23.0346697]}, "properties": {"name": "LD College of Arts", "kind": "college"}}, {"type": "Feature", "geometry": {"type": "Point", "coordinates": [72.5453568, 23.0386219]}, "properties": {"name": "Department of Animation, IT, IMS and Mobile Application", "kind": "college"}}, {"type": "Feature", "geometry": {"type": "Point", "coordinates": [72.5703024, 23.0099844]}, "properties": {"name": "National Institute of Design (NID)", "kind": "college"}}, {"type": "Feature", "geometry": {"type": "Point", "coordinates": [72.5943276, 23.1059291]}, "properties": {"name": "Vishwakarma Government Engineering College, Chandkheda", "kind": "college"}}, {"type": "Feature", "geometry": {"type": "Point", "coordinates": [72.5634841, 23.0218553]}, "properties": {"name": "Gujarat College", "kind": "college"}}, {"type": "Feature", "geometry": {"type": "Point", "coordinates": [72.5529328, 23.0395021]}, "properties": {"name": "HL Institute of Computer Applications and AES Institute of Computer Studies", "kind": "college"}}, {"type": "Feature", "geometry": {"type": "Point", "coordinates": [72.5435992, 23.0326131]}, "properties": {"name": "Knowlegde Consortium of Gujarat", "kind": "college"}}, {"type": "Feature", "geometry": {"type": "Point", "coordinates": [72.5713797, 23.0185862]}, "properties": {"name": "Smt. N.H.L. Municipal Medical College", "kind": "college"}}, {"type": "Feature", "geometry": {"type": "Point", "coordinates": [72.5592322, 23.0269257]}, "properties": {"name": "Gujarat Law Society Grounds", "kind": "college"}}, {"type": "Feature", "geometry": {"type": "Point", "coordinates": [72.5558262, 23.0370426]}, "properties": {"name": "HL Institute of Business Administration", "kind": "college"}}, {"type": "Feature", "geometry": {"type": "Point", "coordinates": [72.5521013, 23.0315321]}, "properties": {"name": "St. Xavier's College", "kind": "college"}}, {"type": "Feature", "geometry": {"type": "Point", "coordinates": [72.555137, 23.0370098]}, "properties": {"name": "HL College of Commerce", "kind": "college"}}, {"type": "Feature", "geometry": {"type": "Point", "coordinates": [72.5215151, 23.0595939]}, "properties": {"name": "BV Patel Pharmaceutical Education and Research Development", "kind": "college"}}, {"type": "Feature", "geometry": {"type": "Point", "coordinates": [72.6044194, 22.9984674]}, "properties": {"name": "AMC MET Medical College", "kind": "college"}}, {"type": "Feature", "geometry": {"type": "Point", "coordinates": [72.5337617, 23.0453051]}, "properties": {"name": "Shree Swaminarayan Gurukul Vishwavidya Pratishthanam - SGVP", "kind": "college"}}, {"type": "Feature", "geometry": {"type": "Point", "coordinates": [72.5227939, 23.0304228]}, "properties": {"name": "Sardar Patel Institute of Public Administration", "kind": "college"}}, {"type": "Feature", "geometry": {"type": "Point", "coordinates": [72.530924, 23.0341161]}, "properties": {"name": "R J Tibrewal Commerce College", "kind": "college"}}, {"type": "Feature", "geometry": {"type": "Point", "coordinates": [72.5203149, 23.0473278]}, "properties": {"name": "Sardar Patel Institute of Economic & Social Research", "kind": "college"}}, {"type": "Feature", "geometry": {"type": "Point", "coordinates": [72.6246059, 23.0981364]}, "properties": {"name": "Institute For Plasma Research ,IPR,Bhat", "kind": "college"}}, {"type": "Feature", "geometry": {"type": "Point", "coordinates": [72.5445785, 23.1280972]}, "properties": {"name": "NIRMA University", "kind": "college"}}, {"type": "Feature", "geometry": {"type": "Point", "coordinates": [72.478017, 22.9660135]}, "properties": {"name": "Narayana Business School", "kind": "college"}}, {"type": "Feature", "geometry": {"type": "Point", "coordinates": [72.4529146, 23.0966487]}, "properties": {"name": "Ahmedabad Dental College & Hospital", "kind": "college"}}, {"type": "Feature", "geometry": {"type": "Point", "coordinates": [72.5374948, 23.0347011]}, "properties": {"name": "", "kind": "college"}}, {"type": "Feature", "geometry": {"type": "Point", "coordinates": [72.5555294, 23.0378197]}, "properties": {"name": "", "kind": "college"}}, {"type": "Feature", "geometry": {"type": "Point", "coordinates": [72.5589203, 23.0258651]}, "properties": {"name": "", "kind": "college"}}]}