{"type": "FeatureCollection", "features": [{"type": "Feature", "properties": {"amenity": "police", "check_date": "2025-08-21", "name": "DCP Bangalore North Traffic Police", "wheelchair": "no", "osm_id": 295766640}, "geometry": {"type": "Point", "coordinates": [77.5581675, 13.0181973]}}, {"type": "Feature", "properties": {"amenity": "police", "name": "Jayanagar 4th Block Police Station", "name:kn": "ಜಯನಗರ ನಾಲ್ಕನೇ ಹಂತ ಪೋಲೀಸ್ ಠಾಣೆ", "osm_id": 303925790}, "geometry": {"type": "Point", "coordinates": [77.5813657, 12.9285653]}}, {"type": "Feature", "properties": {"amenity": "police", "name": "Cubbon Park Police Station", "name:kn": "ಕಬ್ಬನ್ ಪಾರ್ಕ್ ಆರಕ್ಷಕ ಠಾಣೆ", "osm_id": 428843493}, "geometry": {"type": "Point", "coordinates": [77.5983458, 12.9762399]}}, {"type": "Feature", "properties": {"addr:floor": "G", "amenity": "police", "check_date": "2025-12-20", "level": "0", "name": "Maleshwaram Police station", "name:kn": "ಮಲೇಶ್ವರಂ ಆರಕ್ಷಕ ಠಾಣೆ", "wheelchair": "limited", "wheelchair:description": "slightly steep ramp from footpath to entrance. Internal ramp is proper.", "osm_id": 428857750}, "geometry": {"type": "Point", "coordinates": [77.5696708, 12.9966811]}}, {"type": "Feature", "properties": {"addr:city": "Bangalore", "addr:postcode": "560100", "addr:street": "6th Cross Road", "amenity": "police", "name": "Electronics City Police Station", "phone": "+918022943469", "wheelchair": "no", "osm_id": 459436210}, "geometry": {"type": "Point", "coordinates": [77.6631389, 12.839963]}}, {"type": "Feature", "properties": {"amenity": "police", "name": "Jalahalli Police Station", "name:kn": "ಜಾಲಹಳ್ಳಿ ಆರಕ್ಷಕ ಠಾಣೆ", "wheelchair": "no", "osm_id": 521144416}, "geometry": {"type": "Point", "coordinates": [77.5495673, 13.0486481]}}, {"type": "Feature", "properties": {"amenity": "police", "name": "Police Headquarters", "osm_id": 663317752}, "geometry": {"type": "Point", "coordinates": [77.5877623, 12.9695368]}}, {"type": "Feature", "properties": {"addr:street": "Tilak Nagar Main Road", "amenity": "police", "name": "Tilaknagar Police Station", "name:kn": "ತಿಲಕ್ ನಗರ ಪೋಲಿಸ್ ಟಾಣೆ", "osm_id": 691164726}, "geometry": {"type": "Point", "coordinates": [77.5905691, 12.928367]}}, {"type": "Feature", "properties": {"amenity": "police", "name": "Indira Nagar Police Station", "name:kn": "ಇಂದಿರಾನಗರ ಆರಕ್ಷಕ ಠಾಣೆ", "osm_id": 844462412}, "geometry": {"type": "Point", "coordinates": [77.6384106, 12.983019]}}, {"type": "Feature", "properties": {"amenity": "police", "name": "Jeevan Bhima Nagar Police Station", "name:kn": "ಜೀವನ ಭೀಮ ನಗರ", "osm_id": 940525605}, "geometry": {"type": "Point", "coordinates": [77.6556937, 12.9677712]}}, {"type": "Feature", "properties": {"amenity": "police", "name": "Mico Layout Police Station", "name:kn": "ಮಿಕೋ ಬಡಾವಣೆ ಆರಕ್ಷಕ", "wheelchair": "yes", "osm_id": 951203526}, "geometry": {"type": "Point", "coordinates": [77.6105652, 12.9086369]}}, {"type": "Feature", "properties": {"amenity": "police", "name": "Girinagar Police Station", "name:kn": "ಗಿರಿನಗರ ಆರಕ್ಷಕ ಠಾಣೆ", "osm_id": 953626886}, "geometry": {"type": "Point", "coordinates": [77.5439681, 12.935917]}}, {"type": "Feature", "properties": {"amenity": "police", "name": "Sanjayanagar Police station", "name:kn": "ಸಂಜಯನಗರ ಆರಕ್ಷಕ ಠಾಣೆ", "osm_id": 966862788}, "geometry": {"type": "Point", "coordinates": [77.5758979, 13.0335598]}}, {"type": "Feature", "properties": {"amenity": "police", "check_date": "2024-03-02", "name": "Seshadripuram Police Station", "name:kn": "ಶೇಶಾದ್ರಿಪುರಮ್ ಆರಕ್ಷಕ ಠಾಣೆ", "wheelchair": "no", "osm_id": 1026508950}, "geometry": {"type": "Point", "coordinates": [77.5744324, 12.9881279]}}, {"type": "Feature", "properties": {"amenity": "police", "check_date": "2025-03-18", "name": "Rajaji Nagar Police Station", "name:kn": "ರಾಜಾಜಿನಗರ ಆರಕ್ಷಕ ಠಾಣೆ", "name:ta": "ராஜாஜிநகர காவல் நிலையம்", "osm_id": 1118255762}, "geometry": {"type": "Point", "coordinates": [77.554298, 12.9945063]}}, {"type": "Feature", "properties": {"amenity": "police", "building": "yes", "name": "Hebbal Police Station", "name:kn": "ಹೆಬ್ಬಾಳ ಆರಕ್ಷಕ ಠಾಣೆ", "wheelchair": "no", "osm_id": 1299725537}, "geometry": {"type": "Point", "coordinates": [77.5896244, 13.0386192]}}, {"type": "Feature", "properties": {"amenity": "police", "name": "Vyali Kaval Police Station", "name:kn": "ಆರಕ್ಷಕ ಠಾಣೆ", "osm_id": 1462686365}, "geometry": {"type": "Point", "coordinates": [77.578628, 13.0015732]}}, {"type": "Feature", "properties": {"amenity": "police", "name": "Police Station", "name:kn": "ಆರಕ್ಷಕ ಠಾಣೆ", "operator": "Karnataka Police Department", "osm_id": 1472981151}, "geometry": {"type": "Point", "coordinates": [77.5615008, 12.9363435]}}, {"type": "Feature", "properties": {"addr:city": "Bangalore", "addr:housename": "Shivajinagar", "addr:street": "Commercial Street", "amenity": "police", "name": "Commercial Street Police Station", "name:kn": "ಕಮರ್ಷಿಯಲ್ ರಸ್ತೆ ಆರಕ್ಷಕ ಠಾಣೆ", "wheelchair": "no", "osm_id": 1474302941}, "geometry": {"type": "Point", "coordinates": [77.6070982, 12.9825702]}}, {"type": "Feature", "properties": {"amenity": "police", "name": "Vijaynagar Traffic Police Station", "name:kn": "ವಿಜಯನಗರ ಸಂಚಾರ ಪೊಲೀಸ್ ಠಾಣೆ", "osm_id": 1474835635}, "geometry": {"type": "Point", "coordinates": [77.5414869, 12.9733449]}}, {"type": "Feature", "properties": {"amenity": "police", "name": "Kadugodi Police Station", "name:kn": "ಕಾಡುಗೋಡಿ ಆರಕ್ಷಕ ಟಾಣೆ", "osm_id": 1497217077}, "geometry": {"type": "Point", "coordinates": [77.7574684, 12.995384]}}, {"type": "Feature", "properties": {"amenity": "police", "name": "Indiranagar Traffic Police Station", "name:kn": "ಇಂದಿರಾನಗರ ಸಂಚಾರ ಪೊಲೀಸ್ ಠಾಣೆ", "osm_id": 1500601533}, "geometry": {"type": "Point", "coordinates": [77.6559012, 12.967409]}}, {"type": "Feature", "properties": {"amenity": "police", "designation": "Vijayangar Police Station", "name": "Vijayanagar Police Station", "name:kn": "ವಿಜಯನಗರ ಆರಕ್ಷಕ ಠಾಣೆ", "osm_id": 1778917090}, "geometry": {"type": "Point", "coordinates": [77.5377251, 12.9707264]}}, {"type": "Feature", "properties": {"amenity": "police", "name": "Chamarajapet Police Station", "name:kn": "ಆರಕ್ಷಕ ಠಾಣೆ", "wheelchair": "limited", "osm_id": 1789726678}, "geometry": {"type": "Point", "coordinates": [77.5643202, 12.9604765]}}, {"type": "Feature", "properties": {"addr:street": "Shankar Matt Road", "amenity": "police", "name": "Shankarapuram Police Station", "name:kn": "ಆರಕ್ಷಕ ಠಾಣೆ", "wheelchair": "no", "osm_id": 1791567417}, "geometry": {"type": "Point", "coordinates": [77.570101, 12.9538729]}}, {"type": "Feature", "properties": {"amenity": "police", "name": "Peenya Police Station", "name:kn": "ಪೀಣ್ಯ ಆರಕ್ಷಕ ಠಾಣೆ", "osm_id": 1794656846}, "geometry": {"type": "Point", "coordinates": [77.5211853, 13.0360107]}}, {"type": "Feature", "properties": {"amenity": "police", "name": "Cottenpet Police Station", "wheelchair": "no", "osm_id": 1806966026}, "geometry": {"type": "Point", "coordinates": [77.5700945, 12.9680925]}}, {"type": "Feature", "properties": {"amenity": "police", "name": "Women's Police Station", "name:kn": "ಮಹಿಳಾ ಪೊಲೀಸ್ ಠಾಣೆ", "osm_id": 1815951927}, "geometry": {"type": "Point", "coordinates": [77.5678506, 12.9292268]}}, {"type": "Feature", "properties": {"amenity": "police", "name": "Thyagaraja Nagar Police Station", "name:kn": "ತ್ಯಾಗರಾಜನಗರ ಆರಕ್ಷಕ ಠಾಣೆ", "osm_id": 1815951935}, "geometry": {"type": "Point", "coordinates": [77.5678479, 12.929436]}}, {"type": "Feature", "properties": {"amenity": "police", "name": "BSK 3rd stage Police Station", "wheelchair": "no", "osm_id": 1816331548}, "geometry": {"type": "Point", "coordinates": [77.5533335, 12.9235553]}}, {"type": "Feature", "properties": {"amenity": "police", "name": "Magadi Road Police Station", "old_name": "Rajajinagar Traffic Police Station", "wheelchair": "no", "osm_id": 1820438239}, "geometry": {"type": "Point", "coordinates": [77.5512501, 12.9744861]}}, {"type": "Feature", "properties": {"addr:street": "Sultan Road", "alt_name": "City Market Police Station", "amenity": "police", "name": "Krishna Rajendra Market Police Station", "osm_id": 1843611471}, "geometry": {"type": "Point", "coordinates": [77.5761878, 12.9649402]}}, {"type": "Feature", "properties": {"amenity": "police", "name": "Hulimavu Police Station", "name:kn": "ಹುಳಿಮಾವು ಆರಕ್ಷಕ ಠಾಣೆ", "osm_id": 1918889488}, "geometry": {"type": "Point", "coordinates": [77.6000418, 12.87667]}}, {"type": "Feature", "properties": {"amenity": "police", "name": "Chikkapete Police Station", "name:kn": "ಚಿಕ್ಕಪೇಟೆ ಆರಕ್ಷಕ ಠಾಣೆ", "osm_id": 2016154125}, "geometry": {"type": "Point", "coordinates": [77.5736393, 12.9707012]}}, {"type": "Feature", "properties": {"amenity": "police", "name": "Nandini Layout Police Station", "name:kn": "ನಂದಿನಿ ಲೇಔಟ್ ಪೋಲಿಸ್ ಠಾಣೆ", "osm_id": 2090827123}, "geometry": {"type": "Point", "coordinates": [77.5368288, 13.0124684]}}, {"type": "Feature", "properties": {"amenity": "police", "name": "Banashankari Police Station", "name:kn": "ಬನಶಂಕರಿ ಆರಕ್ಷಕ ಠಾಣೆ", "osm_id": 2123630629}, "geometry": {"type": "Point", "coordinates": [77.5650055, 12.9229116]}}, {"type": "Feature", "properties": {"amenity": "police", "name": "Kodigehalli Police Station", "name:kn": "ಕೊಡಿಗೇಹಳ್ಳಿ ಆರಕ್ಷಕ ಠಾಣೆ", "osm_id": 2340693281}, "geometry": {"type": "Point", "coordinates": [77.5741087, 13.0621975]}}, {"type": "Feature", "properties": {"amenity": "police", "name": "Tirumalashettyhalli Police Station", "osm_id": 2473514768}, "geometry": {"type": "Point", "coordinates": [77.782224, 12.987855]}}, {"type": "Feature", "properties": {"addr:city": "Babusabpalya, Hennur", "addr:street": "Outer Ring Road", "amenity": "police", "check_date": "2024-07-05", "name": "Hennur Police Station", "name:kn": "ಹೆಣ್ಣೂರು ಆರಕ್ಷಕ ಠಾಣೆ", "osm_id": 2475357989}, "geometry": {"type": "Point", "coordinates": [77.6457711, 13.0237703]}}, {"type": "Feature", "properties": {"addr:city": "Bangalore", "addr:housenumber": "16", "addr:postcode": "560027", "addr:street": "Mission Road (Kalinga Rao Road)", "amenity": "police", "name": "Sampangi Rama Nagar Police Station", "name:bn": "সম্পাঙ্গী রাম নগর থানা", "osm_id": 2577231853}, "geometry": {"type": "Point", "coordinates": [77.5920638, 12.9632542]}}, {"type": "Feature", "properties": {"amenity": "police", "check_date": "2025-08-15", "name": "Indiranagar Traffic Police Station", "osm_id": 3369937900}, "geometry": {"type": "Point", "coordinates": [77.6404269, 12.978243]}}, {"type": "Feature", "properties": {"amenity": "police", "name": "Karnataka State Reserve Police", "osm_id": 3476877518}, "geometry": {"type": "Point", "coordinates": [77.6168652, 12.9691307]}}, {"type": "Feature", "properties": {"amenity": "police", "level": "-1", "name": "Vidhana Soudha Police Station", "name:kn": "ವಿಧಾನ ಸೌಧ ಆರಕ್ಷಕ ಠಾಣೆ", "osm_id": 3761248698}, "geometry": {"type": "Point", "coordinates": [77.5884362, 12.9773726]}}, {"type": "Feature", "properties": {"amenity": "police", "check_date": "2026-03-16", "name": "Traffic Police Cabin", "osm_id": 3783584167}, "geometry": {"type": "Point", "coordinates": [77.7011085, 12.9568555]}}, {"type": "Feature", "properties": {"addr:street": "Hosahalli Main Road", "amenity": "police", "name": "J J R Nagar Police station", "osm_id": 4101097589}, "geometry": {"type": "Point", "coordinates": [77.5551587, 12.9643591]}}, {"type": "Feature", "properties": {"amenity": "police", "name": "Avenue Road Police Chowky", "osm_id": 4209499020}, "geometry": {"type": "Point", "coordinates": [77.5787039, 12.9680176]}}, {"type": "Feature", "properties": {"addr:city": "Banglore", "addr:housenumber": "5", "addr:postcode": "560001", "addr:street": "Gottigere Tank Bund Road", "amenity": "police", "name": "Hulimavu Traffic Police Station", "phone": "080 2294 3030", "website": "bangaloretrafficpolice.gov.in", "osm_id": 4443656796}, "geometry": {"type": "Point", "coordinates": [77.5889783, 12.8565752]}}, {"type": "Feature", "properties": {"addr:city": "Bengaluru", "addr:postcode": "560085", "addr:street": "8th Cross Rd, Vidyapeeta Layout, Banashankari 3rd Stage", "amenity": "police", "name": "Chennamanakere Achukattu Police Station", "name:kn": "ಚೆನ್ನಮ್ಮಕೆರೆ ಅಚ್ಚುಕಟ್ಟು", "phone": "080 2294 3483", "website": "ksp.gov.in", "osm_id": 4444115045}, "geometry": {"type": "Point", "coordinates": [77.5606044, 12.9301326]}}, {"type": "Feature", "properties": {"addr:city": "Bengaluru", "addr:postcode": "560102", "addr:street": "IBBLUR SAMUDAYA BAVANA, HSR Layout", "amenity": "police", "check_date": "2024-09-18", "name": "Bellanduru Traffic Police Station", "polling_station": "no", "source": "survey", "osm_id": 4445356402}, "geometry": {"type": "Point", "coordinates": [77.6616311, 12.9217846]}}, {"type": "Feature", "properties": {"addr:city": "Bangalore", "addr:postcode": "560100", "addr:street": "Electronics City Phase 1, Electronics City,near wipro", "amenity": "police", "name": "Electronics City Traffic Police Station", "name:kn": "ಎಲೆಕ್ಟ್ರಾನಿಕ್ಸ್ ಸಿಟಿ ಆರಕ್ಷಕ", "phone": "080 2294 3718", "osm_id": 4447380551}, "geometry": {"type": "Point", "coordinates": [77.661459, 12.8394292]}}, {"type": "Feature", "properties": {"addr:city": "Bengalore", "addr:floor": "G", "addr:housenumber": "D-14/T", "addr:postcode": "560017", "addr:street": "HAL Employees Quarters,Old Airport Road, Near HAL Post Office,Reddypalya", "amenity": "police", "check_date": "2026-02-09", "level": "0", "name": "HAL Traffic Police Station", "phone": "080 2294 3115", "website": "NA", "wheelchair": "yes", "osm_id": 4447398385}, "geometry": {"type": "Point", "coordinates": [77.6675094, 12.9588013]}}, {"type": "Feature", "properties": {"addr:city": "Bengalore", "addr:postcode": "560009", "addr:street": "Kempe Gowda Circle, Danvanthri Rd, Majestic,", "amenity": "police", "name": "Upparpet Traffic Police Station", "name:kn": "ಸಂಚಾರ ಪೊಲೀಸ್ ಠಾಣೆ", "phone": "080 2294 2665", "website": "NA", "osm_id": 4447422294}, "geometry": {"type": "Point", "coordinates": [77.5748342, 12.9744833]}}, {"type": "Feature", "properties": {"addr:city": "Bangalore", "addr:postcode": "560040", "addr:street": "BMTC Building, Vijayanagar Service Road, 8th Main Road, Hoshalli Extension, RPC Layout, Vijayanagar,", "amenity": "police", "name": "Traffic Police Station", "name:kn": "ವಿಜಯನಗರ ಸಂಚಾರ ಪೊಲೀಸ್ ಠಾಣೆ", "phone": "080 2294 2809", "website": "NA", "osm_id": 4447436362}, "geometry": {"type": "Point", "coordinates": [77.5386676, 12.9724461]}}, {"type": "Feature", "properties": {"addr:street": "Kanakapura Road", "amenity": "police", "name": "Thalaghattapura Police Station", "name:en": "Thalaghattapura Police Station", "name:kn": "ತಲಘಟ್ಟಪುರ ಆರಕ್ಷಕ ಠಾಣೆ", "survey:date": "2023-09-09", "osm_id": 4457764089}, "geometry": {"type": "Point", "coordinates": [77.5362854, 12.8689461]}}, {"type": "Feature", "properties": {"amenity": "police", "osm_id": 4472318420}, "geometry": {"type": "Point", "coordinates": [77.6368327, 12.9081741]}}, {"type": "Feature", "properties": {"addr:street": "Magadi Road", "amenity": "police", "name": "Byadarahalli Police Station", "name:en": "Byadrahalli police station", "name:kn": "ಬ್ಯಾಡರಹಳ್ಳಿ ಆರಕ್ಷಕ ಠಾಣೆ", "osm_id": 4518518597}, "geometry": {"type": "Point", "coordinates": [77.491253, 12.9867684]}}, {"type": "Feature", "properties": {"amenity": "police", "name": "High Grounds Traffic Police Station", "osm_id": 5229482744}, "geometry": {"type": "Point", "coordinates": [77.5828907, 12.9848902]}}, {"type": "Feature", "properties": {"amenity": "police", "name": "JC Nagara Police Station", "name:kn": "ಜೆಸಿ ನಗರ ಆರಕ್ಷಕ ಠಾಣೆ", "osm_id": 5862563586}, "geometry": {"type": "Point", "coordinates": [77.5934124, 13.0057165]}}, {"type": "Feature", "properties": {"addr:street": "Kempegowda Underpass Road", "amenity": "police", "name": "Ramamurthy Nagar Police Station", "osm_id": 6991301269}, "geometry": {"type": "Point", "coordinates": [77.6659393, 13.0041876]}}, {"type": "Feature", "properties": {"amenity": "police", "name": "Police Station", "name:kn": "ಬೈಯಪ್ಪನಹಳ್ಳಿ ಆರಕ್ಷಕ ಠಾಣೆ", "osm_id": 9783706519}, "geometry": {"type": "Point", "coordinates": [77.6425776, 12.9965632]}}, {"type": "Feature", "properties": {"amenity": "police", "check_date": "2023-10-08", "name": "Kengeri Police Station", "osm_id": 11248318176}, "geometry": {"type": "Point", "coordinates": [77.4815428, 12.9104906]}}, {"type": "Feature", "properties": {"amenity": "police", "name": "NIMHANS Police Outpost", "osm_id": 11295829642}, "geometry": {"type": "Point", "coordinates": [77.5949214, 12.9406149]}}, {"type": "Feature", "properties": {"amenity": "police", "name": "Mico Layout Traffic Police Station", "osm_id": 11649535553}, "geometry": {"type": "Point", "coordinates": [77.6009835, 12.9132041]}}, {"type": "Feature", "properties": {"amenity": "police", "check_date": "2024-05-19", "name": "Chandra Layout Police Station", "osm_id": 11917792343}, "geometry": {"type": "Point", "coordinates": [77.5283822, 12.9589313]}}, {"type": "Feature", "properties": {"amenity": "police", "check_date": "2024-10-12", "name": "Mahadevapura Traffic Police", "osm_id": 12246090205}, "geometry": {"type": "Point", "coordinates": [77.6935636, 12.9964893]}}, {"type": "Feature", "properties": {"amenity": "police", "check_date": "2024-10-12", "name": "Office Of The Assistant Commissioner Whitefield Subdivision", "osm_id": 12246090206}, "geometry": {"type": "Point", "coordinates": [77.6936783, 12.9964748]}}, {"type": "Feature", "properties": {"amenity": "police", "check_date": "2024-10-19", "osm_id": 12265548492}, "geometry": {"type": "Point", "coordinates": [77.633371, 13.0747194]}}, {"type": "Feature", "properties": {"amenity": "police", "name": "Cubbon Park Traffic Police Station", "osm_id": 12670396699}, "geometry": {"type": "Point", "coordinates": [77.5981119, 12.9760045]}}, {"type": "Feature", "properties": {"amenity": "police", "check_date": "2025-06-12", "name": "Hebbal Traffic Police Station", "osm_id": 12909734196}, "geometry": {"type": "Point", "coordinates": [77.5893069, 13.0424185]}}, {"type": "Feature", "properties": {"amenity": "police", "operational_status": "needs_maintenance", "operator": "Bengaluru Police - Konankunte Beat", "osm_id": 13205997044}, "geometry": {"type": "Point", "coordinates": [77.5760581, 12.8715628]}}, {"type": "Feature", "properties": {"amenity": "police", "name": "Cybercrime Police Station", "osm_id": 13381419281}, "geometry": {"type": "Point", "coordinates": [77.5929507, 12.9903748]}}]}