{"type": "FeatureCollection", "name": "acs", "crs": {"type": "name", "properties": {"name": "urn:ogc:def:crs:OGC:1.3:CRS84"}}, "features": [{"type": "Feature", "properties": {"OBJECTID": 18, "ST_CODE": 28, "ST_NAME": "ANDHRA PRADESH", "DT_CODE": 13.0, "DIST_NAME": "VISAKHAPATNAM", "AC_NO": 147, "AC_NAME": "Araku Valley (ST)", "PC_NO": 18, "PC_NAME": "ARAKU (ST)", "PC_ID": 2818, "STATUS": null, "Shape_Leng": 4.34896380568, "Shape_Area": 0.26353113965, "office": "MLA", "representative": "Regam Matyalingam", "party": "YSRCP", "ac_name": "Araku Valley (ST)"}, "geometry": {"type": "Polygon", "coordinates": [[[82.52917351774369, 18.5028186290765], [82.52657409032207, 18.49577540411167], [82.53320420451047, 18.4876684907083], [82.52782705817225, 18.480689324452783], [82.53416098334276, 18.477768169965145], [82.51939261797497, 18.465635623984895], [82.52830908129914, 18.464245442073548], [82.52736133885475, 18.459704114853082], [82.53322254888161, 18.458699412048304], [82.53952700686591, 18.443646234985806], [82.54443110081473, 18.44942366327149], [82.54233566965547, 18.45766424470918], [82.54872632585932, 18.453092567168312], [82.55478815305088, 18.4545213983439], [82.56160184494922, 18.446967913338597], [82.55054465880903, 18.43333797996388], [82.55197258976324, 18.428601292116014], [82.5413783629212, 18.421947593206937], [82.54705147254748, 18.412638443609353], [82.53549532724759, 18.4062138883603], [82.54085426591172, 18.399466213894698], [82.55214086550859, 18.397947952336153], [82.55530057596087, 18.393661270851], [82.56239140204161, 18.399992295707932], [82.57096949184864, 18.394704398988893], [82.57579024202613, 18.39626541161948], [82.5838401204253, 18.386761364545407], [82.5885925167313, 18.391662729951065], [82.59475756001342, 18.389267358701716], [82.59947887754822, 18.37982635230435], [82.60524863281819, 18.38206574064145], [82.6059474797924, 18.366097776791037], [82.62118802340859, 18.3597434873721], [82.61448261977716, 18.350948386658786], [82.6020091057357, 18.352308802809034], [82.61116446766613, 18.333749536012306], [82.60890691931894, 18.327160966005806], [82.59484938619028, 18.328911250853594], [82.58843882888891, 18.31791114378433], [82.58386489674763, 18.319789637781582], [82.581487075768, 18.31638321990971], [82.5851407082771, 18.308498784391418], [82.59511324817794, 18.310705553418586], [82.59862575277634, 18.304218653568057], [82.58776274285634, 18.276096965602505], [82.5967606038189, 18.274405831863703], [82.59688603136533, 18.26482349610751], [82.61382130870646, 18.258458353670107], [82.63765033289661, 18.236737125418074], [82.65222567857228, 18.24987774576141], [82.64709251920448, 18.262261326698933], [82.64225574400746, 18.26379993092212], [82.64276082035565, 18.271585822327893], [82.64850422099306, 18.272902866873835], [82.65221312313719, 18.28117676369675], [82.64379215928079, 18.28803806930148], [82.64261617429707, 18.302072676912587], [82.6511532523208, 18.301897747083387], [82.65738647140859, 18.296105860397176], [82.66673288441513, 18.298062948846052], [82.67628543012853, 18.30659320461274], [82.68438012534256, 18.30362389142948], [82.6944786845437, 18.31232016384456], [82.70959165033446, 18.313290262535645], [82.71668541539964, 18.32342550058644], [82.73423291701556, 18.320279973342167], [82.74094524812477, 18.322650144688453], [82.73827352240517, 18.326997523217187], [82.7428319097649, 18.330032904195207], [82.75514148818917, 18.330226105550366], [82.75965488246692, 18.339656309291286], [82.76479183067852, 18.336198978100413], [82.7742291930229, 18.340473596978995], [82.77635779027986, 18.349272854358787], [82.79052792932055, 18.36322632873214], [82.7826160267083, 18.38193326151088], [82.79382978481675, 18.38605767652058], [82.79143027938392, 18.39618276482281], [82.79950777416451, 18.40679276127696], [82.78684912928395, 18.410751629084473], [82.78213330300957, 18.43083005945971], [82.80311107251805, 18.44928115130415], [82.82245742776814, 18.44778407687369], [82.82377568280157, 18.443543936203753], [82.84584443697122, 18.43349316877476], [82.85238569454424, 18.419240804719436], [82.85638045519391, 18.425473822359038], [82.87126488436695, 18.4184944213805], [82.89497614503313, 18.424136486409793], [82.89775237197443, 18.40353672084302], [82.8906913323392, 18.39053348093546], [82.89416466876452, 18.38160630668574], [82.91305419179758, 18.36851629299258], [82.92216513441349, 18.375462755401884], [82.9259930906087, 18.368180109324612], [82.9396971065363, 18.360859011833952], [82.95369823868282, 18.361616408270663], [82.96007638171972, 18.366449321778816], [82.97043921210002, 18.360050367530505], [82.98313495401499, 18.366482194697596], [82.98724796921846, 18.378883557929896], [82.99204862044752, 18.37859689902774], [82.99600366793499, 18.38507595229339], [83.00567752409853, 18.38291367812377], [83.0218848784844, 18.391747678112893], [83.04304349356244, 18.379413730759097], [83.05444772628158, 18.38002401519617], [83.07575913257796, 18.405690650203383], [83.08779536566362, 18.415242835288666], [83.09959733434954, 18.415917838537496], [83.07056439752898, 18.374997022594584], [83.07584081530143, 18.351380659290044], [83.07182461391488, 18.335783376201903], [83.07743190395928, 18.318934659506965], [83.0889736007511, 18.328239111046173], [83.10032078227835, 18.359930747805834], [83.11575502367543, 18.357064870147667], [83.12211432501613, 18.3494681007723], [83.12955552246945, 18.353860261941577], [83.15313937528202, 18.342296134259243], [83.16513368736986, 18.312114268558673], [83.17101391895727, 18.31042630043345], [83.21974024591566, 18.337167676547097], [83.22631801326577, 18.331895214892313], [83.21740386389723, 18.31377406721947], [83.22134884976964, 18.298859696018212], [83.25504808000494, 18.281989982851485], [83.26657022373689, 18.276003496364297], [83.2691840942706, 18.267178289046853], [83.26983017712104, 18.217677905710843], [83.25200109147727, 18.227914827407403], [83.24752207648271, 18.225780893573415], [83.24859855867658, 18.212540137317546], [83.24161446773354, 18.200084004473297], [83.22561523895217, 18.212916237394495], [83.21820220017145, 18.206092025226837], [83.21655298113524, 18.191327276033007], [83.20307545496831, 18.193967123484015], [83.1978255123376, 18.197686364234357], [83.1895040620629, 18.19771244007711], [83.17302550452348, 18.229276723841792], [83.16601926507707, 18.211062440579212], [83.1548029690818, 18.208672856467217], [83.16172691966165, 18.194487640292436], [83.16042639206438, 18.182441635173348], [83.15123713648472, 18.170329286167657], [83.13878502271069, 18.169085134371528], [83.12405512404479, 18.183025817687394], [83.12309147798936, 18.192546325952208], [83.0779264465483, 18.18988981136573], [83.07227695671622, 18.17547515925122], [83.086021380982, 18.152943192174632], [83.09751822048952, 18.151945907877405], [83.10540966622318, 18.15887507092782], [83.11689954677672, 18.156993923031166], [83.11215209584259, 18.141262615777123], [83.10369119759076, 18.14314936734945], [83.10200133729194, 18.13496971857768], [83.12659622593515, 18.118492445270192], [83.10455156820035, 18.110108599132616], [83.12571424012015, 18.109035289746885], [83.13069246788314, 18.104814753398216], [83.12360957562146, 18.096631283407078], [83.10767363123313, 18.096037997055987], [83.09892501108044, 18.09022411654979], [83.07382251269888, 18.085495730343723], [83.06054943211063, 18.089967745914805], [83.03841238522347, 18.086476973433605], [83.02762389312824, 18.092953202828085], [83.02601604110748, 18.09830748839994], [83.03706959308732, 18.11062498625415], [83.03351522414835, 18.117467943890574], [83.0199254580935, 18.11362987931551], [83.01123699449175, 18.12376438351953], [82.98909573068346, 18.117990266537618], [82.98432922671248, 18.107582063561438], [83.00264433656696, 18.096410310087776], [83.00305663795353, 18.074875112896166], [83.00949210827423, 18.064633590268045], [82.99506852948912, 18.046996262567518], [82.9916651414332, 18.031783159065583], [82.97306490961796, 18.01035529865817], [82.96865732867286, 17.992215235544734], [82.94229193392567, 17.974466240824427], [82.93216012229186, 17.991819345886142], [82.88998313691229, 17.991911654998944], [82.88258277587448, 18.01088475382835], [82.85590647110683, 18.019859256699363], [82.82286989193204, 18.010592027200346], [82.80306368454148, 18.011600604284524], [82.76848482291632, 18.036147028462665], [82.76022801950757, 18.047327487373707], [82.74373387581778, 18.036654321639674], [82.73257133409987, 18.035438448125944], [82.72297018542577, 18.05130840925574], [82.72861275047813, 18.06546059243243], [82.71723306115689, 18.082818968420725], [82.71200686782277, 18.10155676593206], [82.66922242367599, 18.09598890216614], [82.6625495970863, 18.097388288638683], [82.65971407154723, 18.10385436288857], [82.65868162555665, 18.124020463673503], [82.64950663052662, 18.147360823243446], [82.63793721662933, 18.148536585195302], [82.62657917488906, 18.13620017100112], [82.62471951809135, 18.119253475867254], [82.62034577413823, 18.114892415052964], [82.58750652690475, 18.111216817502168], [82.57834935643768, 18.10344173235012], [82.51711393645905, 18.10922518969079], [82.48067546120365, 18.107441641618493], [82.44822383166456, 18.113729032269077], [82.43772352821833, 18.10797283337962], [82.42011582328666, 18.083616801074584], [82.40180517137162, 18.078448665273754], [82.35030041952882, 18.07769296226047], [82.34696324315922, 18.098287543235585], [82.33846443218783, 18.09915173056794], [82.33574943109141, 18.105895427332143], [82.33416363764184, 18.126902634349165], [82.3420500921381, 18.136661316366713], [82.33875376837176, 18.14695801510038], [82.34132567114284, 18.15014921531406], [82.36320483473537, 18.134846154426555], [82.3722808144081, 18.14819860288327], [82.35333028406541, 18.17172892175239], [82.33733085473523, 18.17221093408739], [82.31541421639304, 18.184067447554696], [82.31080636901879, 18.204132290073176], [82.32485358602423, 18.21044881156348], [82.33702395119445, 18.22434033254035], [82.32438573621283, 18.231245001655566], [82.33649790535412, 18.24080377517413], [82.33252191805212, 18.25200904008517], [82.34002602847846, 18.26237011229091], [82.34463851815315, 18.280584339795496], [82.35890885605892, 18.281500569995387], [82.36586918151755, 18.27764501180792], [82.37646569623496, 18.28071649337153], [82.3923089519966, 18.297984947047723], [82.39502484791848, 18.315680990585292], [82.38892715846163, 18.32854537516897], [82.37505677425077, 18.328734795774267], [82.35583863534481, 18.31595812566701], [82.3427330453938, 18.320485743622214], [82.33809556535812, 18.32806735852182], [82.34895893590624, 18.330473339073365], [82.3630725309726, 18.344256496240348], [82.3698434987785, 18.358554645680385], [82.38551400916424, 18.367540727322762], [82.38604097860832, 18.38631182493083], [82.38144813012718, 18.389677987349273], [82.37959214436205, 18.403837063829485], [82.36417398823903, 18.421571703571317], [82.38196169877341, 18.432618575386982], [82.3866134924188, 18.445047783428492], [82.39599076925867, 18.449208737893002], [82.40906947847373, 18.46938689049267], [82.43740906947306, 18.493843831227878], [82.43401402352845, 18.498595971227132], [82.44493679519701, 18.5146040790151], [82.48476551221864, 18.549433610472818], [82.49341897600499, 18.54324066482485], [82.48167103049371, 18.54138397489055], [82.48616582859017, 18.528126938207663], [82.50492449486961, 18.513481685531417], [82.51353629666283, 18.518295244729813], [82.52592837799233, 18.51623142114323], [82.53235112650333, 18.510726621436504], [82.52690218998413, 18.50588922570728], [82.52917351774369, 18.5028186290765]]]}}, {"type": "Feature", "properties": {"OBJECTID": 18, "ST_CODE": 28, "ST_NAME": "ANDHRA PRADESH", "DT_CODE": 13.0, "DIST_NAME": "VISAKHAPATNAM", "AC_NO": 148, "AC_NAME": "Paderu (ST)", "PC_NO": 18, "PC_NAME": "ARAKU (ST)", "PC_ID": 2818, "STATUS": null, "Shape_Leng": 4.00421572889, "Shape_Area": 0.30525778041, "office": "MLA", "representative": "Matsyarasa Visweswara Raju", "party": "YSRCP", "ac_name": "Paderu (ST)"}, "geometry": {"type": "Polygon", "coordinates": [[[82.65971407154723, 18.10385436288857], [82.6625495970863, 18.097388288638683], [82.66922242367599, 18.09598890216614], [82.71200686782277, 18.10155676593206], [82.71723306115689, 18.082818968420725], [82.72861275047813, 18.06546059243243], [82.72297018542577, 18.05130840925574], [82.73257133409987, 18.035438448125944], [82.74373387581778, 18.036654321639674], [82.76022801950757, 18.047327487373707], [82.76848482291632, 18.036147028462665], [82.80306368454148, 18.011600604284524], [82.82286989193204, 18.010592027200346], [82.85590647110683, 18.019859256699363], [82.88258277587448, 18.01088475382835], [82.8715002225573, 17.99062785569106], [82.82431414648073, 17.980686027638114], [82.82514663091234, 17.967276651196528], [82.84350265362463, 17.97010316912599], [82.84620493650868, 17.95875553074319], [82.85779367953472, 17.952728127800924], [82.84160386642537, 17.93537364407848], [82.83213257715676, 17.917103820484954], [82.79787133719253, 17.910673563534203], [82.78886510623971, 17.923745163608487], [82.77400361517476, 17.920941891355255], [82.76594700714872, 17.94265035552951], [82.76032929935775, 17.9449934419938], [82.75505008109644, 17.92127619903738], [82.74744165291003, 17.922713642120925], [82.74028044678522, 17.938717148977275], [82.72364454116268, 17.93943439518125], [82.71818754671796, 17.93072646395518], [82.72792416386915, 17.918829594310353], [82.71403580490852, 17.912353378405726], [82.70924845375322, 17.89983935530205], [82.68516286017791, 17.90372530607806], [82.67523928746323, 17.898425264914067], [82.672579271816, 17.89474565278971], [82.67620613870241, 17.88772699820248], [82.6928269195268, 17.879446271028655], [82.71589832694627, 17.85730891387533], [82.69896660732314, 17.839428783611538], [82.68361586887733, 17.834388065556823], [82.6368562755967, 17.8224561781102], [82.63161523715354, 17.81552796024721], [82.62733335265216, 17.807773254632025], [82.63755061696747, 17.807964168111937], [82.64805620123275, 17.795250615123848], [82.64472566096055, 17.766764199008605], [82.63991257660416, 17.760239328881994], [82.63262409932281, 17.76017462445941], [82.62733257293996, 17.77471483362274], [82.62354198807236, 17.775429505966997], [82.61102250248655, 17.769927756760637], [82.60752936388911, 17.756265316491238], [82.59134685597269, 17.763001815981056], [82.58001409597381, 17.76191315336939], [82.57834462330578, 17.749140829685587], [82.5506111987479, 17.70159023050479], [82.5335828766485, 17.690478442925837], [82.51256863423515, 17.68773746311348], [82.51070456896076, 17.696729026123705], [82.5167853511631, 17.717056752167423], [82.49888954751464, 17.71762916345517], [82.4746610040022, 17.731053062149158], [82.46540446294568, 17.713174474222683], [82.44329625192057, 17.712288811979136], [82.43535488751809, 17.688634020643576], [82.42760647985523, 17.68239804243575], [82.39129259667607, 17.679740637520467], [82.36352402121668, 17.670472023065486], [82.36007548359675, 17.660039453857735], [82.3655938558718, 17.63786664363073], [82.37279059870724, 17.630953942670374], [82.38901796121002, 17.631987053259934], [82.41520402664457, 17.665267759699418], [82.42543722244989, 17.655864709189018], [82.41666896110371, 17.64616000358137], [82.41754591611118, 17.637043886266383], [82.44411942297307, 17.642272879190045], [82.45951990382054, 17.63101113865315], [82.47407760749564, 17.63275104712318], [82.47566879328025, 17.624149979637878], [82.47298547529948, 17.61515753529204], [82.46080006896807, 17.610433514395197], [82.45084849136487, 17.593372882352696], [82.38577406791893, 17.573639216077027], [82.37026806691779, 17.571089512171284], [82.35808677678335, 17.57629979739778], [82.34207748458829, 17.575220528204852], [82.3410160228712, 17.587333862867524], [82.32185902617317, 17.58519608712976], [82.30402220456114, 17.59022536311005], [82.28884367189801, 17.605303618667108], [82.27500553557707, 17.6119027125402], [82.27636491750701, 17.624514438890287], [82.24864011834683, 17.619462173540512], [82.22811952549574, 17.638792616186322], [82.21075098806773, 17.634650944085877], [82.1908302538132, 17.622599350579605], [82.18140582012256, 17.608841851070622], [82.16289288549831, 17.610563532980734], [82.1376519220986, 17.63544237086876], [82.13725756578407, 17.64800828575386], [82.11653360294349, 17.65588379999741], [82.10603475909693, 17.650980994777115], [82.08996484180409, 17.65689266936124], [82.07618955640294, 17.644924256849038], [82.06443630219366, 17.64387188457988], [82.05677483559026, 17.63564072533927], [82.05156099534372, 17.64344180449575], [82.03350183973816, 17.632607981173464], [82.02332625720106, 17.632433563058555], [82.02438971361443, 17.623654333580703], [82.01614366160078, 17.61875760777741], [82.00496067469544, 17.628001002544295], [82.00177887599438, 17.639154742597327], [82.0103196241514, 17.64673043006536], [82.0064243447078, 17.647974025181156], [82.00599380327145, 17.6594326857699], [82.0162719696757, 17.66164748124629], [82.02214802031494, 17.66961691079183], [82.01926111021214, 17.676803244873895], [82.02861158905364, 17.69585025718368], [82.0245895924358, 17.7033246459157], [82.03286877997027, 17.708975077337982], [82.03327037133062, 17.71442436099551], [82.02874604579341, 17.715434093708495], [82.02777498033112, 17.7281619135415], [82.01127935455861, 17.73805430136497], [82.0180540122829, 17.749605756700362], [82.01612804127615, 17.753490304533955], [82.01041061845535, 17.752842626286224], [81.9982755013134, 17.764514380334447], [81.98167958224695, 17.768796095763264], [81.96087238894967, 17.7579585744287], [81.97242921233834, 17.74702968737023], [81.93531147104761, 17.73870414338154], [81.92309647162494, 17.742922543840393], [81.90786528455527, 17.740569605303108], [81.898353043758, 17.745531988810285], [81.87712674840077, 17.74171608802709], [81.8614075352296, 17.752425074657538], [81.87399494031428, 17.759410488503306], [81.87999853820202, 17.772540415008223], [81.90108096361564, 17.788632646279666], [81.92679017612579, 17.80076787403823], [81.92492125541168, 17.80784114175532], [81.9347414186816, 17.813588254794183], [81.96172121316351, 17.816824175595286], [81.97742878101349, 17.845283788316237], [81.98897238436808, 17.852639418874105], [81.99493221584913, 17.844940808471563], [82.00784810100913, 17.845371421853713], [82.00955576608578, 17.827995737513334], [82.01964136875421, 17.83961054828825], [82.01704213828413, 17.8624295564789], [82.00477082781151, 17.871214269123243], [82.00085958630092, 17.88618124796625], [82.00269024445925, 17.900896556930604], [82.02027939637708, 17.921221540042097], [82.02059635164039, 17.92795926530789], [82.02772199137684, 17.931737147251567], [82.02954863676024, 17.939377359277785], [82.02234004805484, 17.95722945407607], [82.00716491662763, 17.965559094476703], [82.00981738696288, 17.980570681491827], [82.00036979123291, 17.98711921458016], [81.99699353572316, 17.999338366172708], [81.98713127608755, 18.001989913803527], [81.97927391196151, 18.01426002727851], [81.9920009215054, 18.019997716321598], [81.994356061583, 18.027267184632933], [82.01027995055932, 18.031270089543057], [82.00617333852881, 18.052169278089764], [82.00863988662155, 18.05769622270259], [82.03292822965415, 18.069465614346655], [82.04085937865744, 18.057163989526543], [82.06575399245287, 18.056369172299526], [82.07660240098005, 18.075250730037226], [82.09606003114556, 18.067459671126983], [82.1019972878446, 18.060275257996807], [82.12059589998086, 18.06426230785928], [82.12494707364857, 18.059704338684355], [82.13345899493675, 18.05992035134318], [82.13714396522187, 18.043969505188556], [82.14674293393932, 18.052339028723225], [82.15317460822166, 18.04790541690153], [82.16880034406068, 18.051993600024673], [82.18428902681717, 18.02882256301092], [82.17859071548918, 18.020420229510023], [82.18776861622871, 18.014766451710443], [82.20528286361332, 18.018407043150546], [82.208172015726, 18.010478449121194], [82.22222438314884, 18.001712129411317], [82.23642855073706, 18.002697122674135], [82.24953863370104, 17.99338792990909], [82.2641616902099, 17.995861132085622], [82.2685969693747, 18.000984433085193], [82.27335201238554, 18.02247745656939], [82.26158250742685, 18.04188855940953], [82.26891647331666, 18.0452220512567], [82.27257824379097, 18.057251293912145], [82.2834600198641, 18.064529279702526], [82.28763556133214, 18.06274872457402], [82.29135272554788, 18.068942315935203], [82.30196911078588, 18.06919255319383], [82.30432993997482, 18.06643786951213], [82.2987135110198, 18.055308014553304], [82.31030613282184, 18.053958502682804], [82.30771076314124, 18.04514407913598], [82.32010132461647, 18.044822157816384], [82.31936055214783, 18.057688086536018], [82.32837007461933, 18.05901230137664], [82.33659734968802, 18.052099839635957], [82.34384455078543, 18.058030704853195], [82.35030041952882, 18.07769296226047], [82.40180517137162, 18.078448665273754], [82.42011582328666, 18.083616801074584], [82.43772352821833, 18.10797283337962], [82.44822383166456, 18.113729032269077], [82.48067546120365, 18.107441641618493], [82.51711393645905, 18.10922518969079], [82.57834935643768, 18.10344173235012], [82.58750652690475, 18.111216817502168], [82.62034577413823, 18.114892415052964], [82.62471951809135, 18.119253475867254], [82.62657917488906, 18.13620017100112], [82.63793721662933, 18.148536585195302], [82.64950663052662, 18.147360823243446], [82.65868162555665, 18.124020463673503], [82.65971407154723, 18.10385436288857]]]}}, {"type": "Feature", "properties": {"OBJECTID": 22, "ST_CODE": 28, "ST_NAME": "ANDHRA PRADESH", "DT_CODE": 13.0, "DIST_NAME": "VISAKHAPATNAM", "AC_NO": 146, "AC_NAME": "Madugula", "PC_NO": 22, "PC_NAME": "ANAKAPALLE", "PC_ID": 2822, "STATUS": null, "Shape_Leng": 1.92806390336, "Shape_Area": 0.05535886077, "office": "MLA", "representative": "Bandaru Satyanarayana Murthy", "party": "TDP", "ac_name": "Madugula"}, "geometry": {"type": "Polygon", "coordinates": [[[83.07382251269888, 18.085495730343723], [83.06805404345937, 18.073297983515204], [83.04623391766125, 18.07203364373771], [83.0499018700753, 18.064016781249506], [83.02488159580906, 18.06040258581072], [83.01380732614723, 18.051002480580053], [83.01394904940918, 18.04246219917121], [83.0073270713873, 18.035587334487957], [83.0151829282496, 18.033914521737813], [83.00616494765427, 18.0236671679055], [83.01134615600034, 18.004300457400234], [83.0061223890371, 17.97692548012685], [83.02055257064467, 17.970625034917475], [83.03317340442914, 17.972997854767243], [83.05255326212341, 17.9636889722683], [83.06928103798958, 17.94449348278806], [83.1104775213206, 17.939742791596586], [83.10770777939058, 17.92368028651606], [83.1201376331453, 17.917520772265902], [83.11939107713658, 17.911771427109727], [83.12504709514741, 17.907895500177233], [83.1244352162123, 17.886467246766074], [83.1291272194457, 17.874187747066912], [83.12553228029054, 17.863401392660194], [83.1074693340426, 17.848640266834877], [83.02967786464177, 17.820740749186257], [82.98931622376477, 17.80691084705802], [82.9939683132871, 17.821997480699224], [82.97789336788469, 17.81976639850052], [82.9696315624467, 17.828831266150075], [82.97214013945592, 17.839087263366537], [82.98413709015466, 17.850856324060146], [82.98573315476136, 17.868935941940208], [82.96622015693475, 17.871420218368428], [82.95501572209793, 17.868231178326255], [82.94089816102138, 17.88664995123429], [82.93390322425444, 17.880243386023494], [82.9354206008801, 17.85618371270823], [82.9322782347528, 17.852151298343813], [82.92470336207055, 17.85590205583526], [82.91334366467845, 17.849405381253405], [82.89672974927856, 17.851472932529873], [82.86975921511572, 17.871361687791705], [82.86712003316308, 17.86422766547446], [82.8731448811314, 17.848908152389356], [82.87066053995204, 17.84460027927952], [82.81502694573703, 17.82163756662044], [82.78052593662272, 17.823367194040827], [82.77710109434008, 17.819175170697633], [82.74578877543172, 17.827303811721606], [82.68361586887733, 17.834388065556823], [82.69896660732314, 17.839428783611538], [82.71589832694627, 17.85730891387533], [82.6928269195268, 17.879446271028655], [82.67620613870241, 17.88772699820248], [82.672579271816, 17.89474565278971], [82.67523928746323, 17.898425264914067], [82.68516286017791, 17.90372530607806], [82.70924845375322, 17.89983935530205], [82.71403580490852, 17.912353378405726], [82.72792416386915, 17.918829594310353], [82.71818754671796, 17.93072646395518], [82.72364454116268, 17.93943439518125], [82.74028044678522, 17.938717148977275], [82.74744165291003, 17.922713642120925], [82.75505008109644, 17.92127619903738], [82.76032929935775, 17.9449934419938], [82.76594700714872, 17.94265035552951], [82.77400361517476, 17.920941891355255], [82.78886510623971, 17.923745163608487], [82.79787133719253, 17.910673563534203], [82.83213257715676, 17.917103820484954], [82.84160386642537, 17.93537364407848], [82.85779367953472, 17.952728127800924], [82.84620493650868, 17.95875553074319], [82.84350265362463, 17.97010316912599], [82.82514663091234, 17.967276651196528], [82.82431414648073, 17.980686027638114], [82.8715002225573, 17.99062785569106], [82.88258277587448, 18.01088475382835], [82.88998313691229, 17.991911654998944], [82.93216012229186, 17.991819345886142], [82.94229193392567, 17.974466240824427], [82.96865732867286, 17.992215235544734], [82.97306490961796, 18.01035529865817], [82.9916651414332, 18.031783159065583], [82.99506852948912, 18.046996262567518], [83.00949210827423, 18.064633590268045], [83.00305663795353, 18.074875112896166], [83.00264433656696, 18.096410310087776], [82.98432922671248, 18.107582063561438], [82.98909573068346, 18.117990266537618], [83.01123699449175, 18.12376438351953], [83.0199254580935, 18.11362987931551], [83.03351522414835, 18.117467943890574], [83.03706959308732, 18.11062498625415], [83.02601604110748, 18.09830748839994], [83.02762389312824, 18.092953202828085], [83.03841238522347, 18.086476973433605], [83.06054943211063, 18.089967745914805], [83.07382251269888, 18.085495730343723]]]}}, {"type": "Feature", "properties": {"OBJECTID": 21, "ST_CODE": 28, "ST_NAME": "ANDHRA PRADESH", "DT_CODE": 13.0, "DIST_NAME": "VISAKHAPATNAM", "AC_NO": 139, "AC_NAME": "Bhimili", "PC_NO": 21, "PC_NAME": "VISAKHAPATNAM", "PC_ID": 2821, "STATUS": null, "Shape_Leng": 1.45797939781, "Shape_Area": 0.05324274928, "office": "MLA", "representative": "Ganta Srinivasa Rao", "party": "TDP", "ac_name": "Bhimili"}, "geometry": {"type": "Polygon", "coordinates": [[[83.40294909262656, 18.057010563386825], [83.40365980795383, 18.044058674768053], [83.39263883211646, 18.017471839054167], [83.4209414007251, 18.013912248651422], [83.42411276369313, 17.994016317698936], [83.42025940794537, 17.9873845388654], [83.4144723479206, 17.9869647641126], [83.4137105025377, 17.971406094315853], [83.40701243377686, 17.96896701151843], [83.40632357557263, 17.96375296622648], [83.42169029407188, 17.941218109628096], [83.45055849218073, 17.9232662845115], [83.4446804414493, 17.927955530423446], [83.44594105443616, 17.93815244128217], [83.43705742176269, 17.947042057145268], [83.45053246310277, 17.945091910563292], [83.45132517321821, 17.96024503018407], [83.46674121953174, 17.96606447209774], [83.47309829235235, 17.96459763557249], [83.47542626301168, 17.953310613294207], [83.48232473669731, 17.948677261146713], [83.51044791124218, 17.95494440266208], [83.5246055299213, 17.947537669028236], [83.4715079717156, 17.912573326497863], [83.45516730362823, 17.896368651192347], [83.45677672856323, 17.889413368232397], [83.4447212760661, 17.87303517503335], [83.42025566856432, 17.85709287153884], [83.41177826505492, 17.841594699136124], [83.41733047252336, 17.834372429044436], [83.41136976600194, 17.80987465279304], [83.3911833648205, 17.79305911208843], [83.3857151756149, 17.777238415820307], [83.35438307521878, 17.755658543007428], [83.3446421817913, 17.7390876556708], [83.34748648471356, 17.72761229736966], [83.34438924386859, 17.723535284725642], [83.32478007973697, 17.713451665961657], [83.31318857489288, 17.72651392837514], [83.28908887994788, 17.731948963174148], [83.28000087633944, 17.73204091165877], [83.25329990676533, 17.730414507523562], [83.23816955977742, 17.746308103736055], [83.21609697539515, 17.730730164165777], [83.20978596135308, 17.7262749137563], [83.19852858792405, 17.72719727823187], [83.19749338820935, 17.72903678751777], [83.19124097219316, 17.764982021503158], [83.19782597458914, 17.767044928680548], [83.2072290574751, 17.761025573771235], [83.22069091835124, 17.765668295055832], [83.22509548297023, 17.773703246507694], [83.22004674566085, 17.782198226367086], [83.22324533290583, 17.79192013510618], [83.23753757380007, 17.804840857719455], [83.26397000221391, 17.817090963976852], [83.25824708813269, 17.83142235505767], [83.23700727416644, 17.829411321675195], [83.2404570672399, 17.833165382376535], [83.23925433821717, 17.851939001683604], [83.23123465455575, 17.85753167864408], [83.23625237065045, 17.873601072531528], [83.23077849862887, 17.875959564382413], [83.23891405364071, 17.904468422180003], [83.26073192483852, 17.91584714472998], [83.24658786793583, 17.928745926583304], [83.23601133615432, 17.924822245650148], [83.23361318060387, 17.93632529047983], [83.2241559909063, 17.946304164305786], [83.24256156446467, 17.95075070388191], [83.30857569401314, 17.98431398090554], [83.32085653100415, 18.00214103408149], [83.30476586005648, 18.030770337181366], [83.31748455806598, 18.026121194737414], [83.32033630287816, 18.035318912038235], [83.33403463239245, 18.04615822032565], [83.34080675133055, 18.045920314570935], [83.34450301260398, 18.051200768500735], [83.35305478554994, 18.049003951371333], [83.35189797411226, 18.056427820687418], [83.3582573923648, 18.064867780923407], [83.36564806770423, 18.064818966622056], [83.3640705219371, 18.05714178346659], [83.37556091960084, 18.051804439323462], [83.39296786077819, 18.050455049760785], [83.40294909262656, 18.057010563386825]]]}}, {"type": "Feature", "properties": {"OBJECTID": 22, "ST_CODE": 28, "ST_NAME": "ANDHRA PRADESH", "DT_CODE": 13.0, "DIST_NAME": "VISAKHAPATNAM", "AC_NO": 145, "AC_NAME": "Chodavaram", "PC_NO": 22, "PC_NAME": "ANAKAPALLE", "PC_ID": 2822, "STATUS": null, "Shape_Leng": 1.46919001021, "Shape_Area": 0.05419124207, "office": "MLA", "representative": "Kalidindi Surya Naga Sanyasi Raju", "party": "TDP", "ac_name": "Chodavaram"}, "geometry": {"type": "Polygon", "coordinates": [[[82.68361586887733, 17.834388065556823], [82.74578877543172, 17.827303811721606], [82.77710109434008, 17.819175170697633], [82.78052593662272, 17.823367194040827], [82.81502694573703, 17.82163756662044], [82.87066053995204, 17.84460027927952], [82.8731448811314, 17.848908152389356], [82.86712003316308, 17.86422766547446], [82.86975921511572, 17.871361687791705], [82.89672974927856, 17.851472932529873], [82.91334366467845, 17.849405381253405], [82.92470336207055, 17.85590205583526], [82.9322782347528, 17.852151298343813], [82.9354206008801, 17.85618371270823], [82.93390322425444, 17.880243386023494], [82.94089816102138, 17.88664995123429], [82.95501572209793, 17.868231178326255], [82.96622015693475, 17.871420218368428], [82.98573315476136, 17.868935941940208], [82.98413709015466, 17.850856324060146], [82.97214013945592, 17.839087263366537], [82.9696315624467, 17.828831266150075], [82.97789336788469, 17.81976639850052], [82.9939683132871, 17.821997480699224], [82.98931622376477, 17.80691084705802], [83.02967786464177, 17.820740749186257], [83.0321192218247, 17.80507427585718], [83.01747824902202, 17.772774745058484], [83.00887788120929, 17.773553145161543], [82.97615850730932, 17.756847695864508], [82.95759552541324, 17.756882610244304], [82.94263162315093, 17.76399464323822], [82.92651942603072, 17.75224657541918], [82.91170613323152, 17.756163968292526], [82.9084798504648, 17.7314107809828], [82.91809250416577, 17.703931641532108], [82.90221111984738, 17.691365494621948], [82.88829386297147, 17.66752489975437], [82.88011808128448, 17.66820378717506], [82.87096942559856, 17.67971407514449], [82.85639198630116, 17.685345019157353], [82.84375801701896, 17.673958628088258], [82.81092165750857, 17.672669639692174], [82.7873058814613, 17.67963590877025], [82.75912137135424, 17.695372498641973], [82.7235029689869, 17.698478658063664], [82.70753332880014, 17.689857381013383], [82.70572693255195, 17.682504661560927], [82.71140281568745, 17.675191608505997], [82.70691217875412, 17.661815681448616], [82.6889043222767, 17.65594493501078], [82.67178685038289, 17.642941837196076], [82.66440685449282, 17.664242996617077], [82.67262642596882, 17.687050827133987], [82.65108052144899, 17.68354202324582], [82.64130084026164, 17.68623454129107], [82.622619978829, 17.705180506675106], [82.61176162200132, 17.706530255966584], [82.602925113803, 17.720581349949384], [82.6071068201237, 17.730100598264073], [82.59051464493496, 17.73125936572717], [82.58541509053407, 17.744279229602796], [82.57834462330578, 17.749140829685587], [82.58001409597381, 17.76191315336939], [82.59134685597269, 17.763001815981056], [82.60752936388911, 17.756265316491238], [82.61102250248655, 17.769927756760637], [82.62354198807236, 17.775429505966997], [82.62733257293996, 17.77471483362274], [82.63262409932281, 17.76017462445941], [82.63991257660416, 17.760239328881994], [82.64472566096055, 17.766764199008605], [82.64805620123275, 17.795250615123848], [82.63755061696747, 17.807964168111937], [82.62733335265216, 17.807773254632025], [82.63161523715354, 17.81552796024721], [82.6368562755967, 17.8224561781102], [82.68361586887733, 17.834388065556823]]]}}, {"type": "Feature", "properties": {"OBJECTID": 22, "ST_CODE": 28, "ST_NAME": "ANDHRA PRADESH", "DT_CODE": 13.0, "DIST_NAME": "VISAKHAPATNAM", "AC_NO": 150, "AC_NAME": "Pendurthi", "PC_NO": 22, "PC_NAME": "ANAKAPALLE", "PC_ID": 2822, "STATUS": null, "Shape_Leng": 1.63501376139, "Shape_Area": 0.04622409833, "office": "MLA", "representative": "Panchakarla Ramesh Babu", "party": "Jana Sena Party", "ac_name": "Pendurthi"}, "geometry": {"type": "Polygon", "coordinates": [[[83.23077849862887, 17.875959564382413], [83.23625237065045, 17.873601072531528], [83.23123465455575, 17.85753167864408], [83.23925433821717, 17.851939001683604], [83.2404570672399, 17.833165382376535], [83.23700727416644, 17.829411321675195], [83.25824708813269, 17.83142235505767], [83.26397000221391, 17.817090963976852], [83.23753757380007, 17.804840857719455], [83.22324533290583, 17.79192013510618], [83.22004674566085, 17.782198226367086], [83.22509548297023, 17.773703246507694], [83.22069091835124, 17.765668295055832], [83.2072290574751, 17.761025573771235], [83.19782597458914, 17.767044928680548], [83.19124097219316, 17.764982021503158], [83.19749338820935, 17.72903678751777], [83.19483181763434, 17.72749989020781], [83.1824710803761, 17.723892953197264], [83.16313038905628, 17.727458482722852], [83.1491909009394, 17.707857130102525], [83.1283910065398, 17.715345654378496], [83.1054809276028, 17.69481180552043], [83.1092387240879, 17.684869609644807], [83.12123890964801, 17.682845790600823], [83.1382387169433, 17.67031681357014], [83.13867905289601, 17.643509129542736], [83.14911006267931, 17.64055642593837], [83.18284339340795, 17.647229757947002], [83.18819975551435, 17.656089981267655], [83.18126324410349, 17.667814614552867], [83.19807310648872, 17.681548421422576], [83.22898746549919, 17.669789174131154], [83.26752370565453, 17.675369321736866], [83.27601692644004, 17.669116134102353], [83.28195841085204, 17.660617659477452], [83.25972945325174, 17.649855562484277], [83.25925692786501, 17.64349581058326], [83.23956068327897, 17.631583833227353], [83.23257442496981, 17.62023098866922], [83.23804661705776, 17.612312568670177], [83.21744321912934, 17.598641721538286], [83.21292661337259, 17.591004988989084], [83.1751658649128, 17.574386329665458], [83.16187074643784, 17.560089160486427], [83.102259509269, 17.54174078830681], [83.08878201637702, 17.532173893010793], [83.06608843303479, 17.52500715245816], [83.0600781378958, 17.537859000492517], [83.06014566978689, 17.554066014035357], [83.07710274219784, 17.591085127576605], [83.07446635084148, 17.59339756424623], [83.05568581754648, 17.58625579966548], [83.04542173092818, 17.59105735831048], [83.05383175093459, 17.616043812671876], [83.0450743524994, 17.627921837922543], [83.05090803068111, 17.65978801870216], [83.05562904874165, 17.680090802048937], [83.07426676789709, 17.699168747439785], [83.0756729424524, 17.720011807498963], [83.08860850028213, 17.728035605558773], [83.07799218339261, 17.747690154876807], [83.06377769608389, 17.739184260845036], [83.05438307941563, 17.745983131916034], [83.04741595867961, 17.73614788881406], [83.0429407055492, 17.736605670715164], [83.0466246434126, 17.770010805554307], [83.04049694537781, 17.772091594851247], [83.03234001887682, 17.767379218376277], [83.01747824902202, 17.772774745058484], [83.0321192218247, 17.80507427585718], [83.02967786464177, 17.820740749186257], [83.1074693340426, 17.848640266834877], [83.12553228029054, 17.863401392660194], [83.1291272194457, 17.874187747066912], [83.13602988217337, 17.877089866504207], [83.14436439689945, 17.871914429107676], [83.14853370786437, 17.85808091889936], [83.14540470656203, 17.84539840331371], [83.16113920011406, 17.840732621613256], [83.16405009063925, 17.84932626699367], [83.18565178100494, 17.846023569731983], [83.18625152898494, 17.85329420896062], [83.20523577491116, 17.847770456941078], [83.21387645213662, 17.861955048986374], [83.20558346360599, 17.86311705310959], [83.21117728090684, 17.882112764492547], [83.21642549324196, 17.881991612323077], [83.21701691349983, 17.875945661762955], [83.22301305330984, 17.87364061931919], [83.23077849862887, 17.875959564382413]]]}}, {"type": "Feature", "properties": {"OBJECTID": 22, "ST_CODE": 28, "ST_NAME": "ANDHRA PRADESH", "DT_CODE": 13.0, "DIST_NAME": "VISAKHAPATNAM", "AC_NO": 149, "AC_NAME": "Anakapalle", "PC_NO": 22, "PC_NAME": "ANAKAPALLE", "PC_ID": 2822, "STATUS": null, "Shape_Leng": 0.91034170202, "Shape_Area": 0.0266697381, "office": "MLA", "representative": "Konathala Ramakrishna", "party": "Jana Sena Party", "ac_name": "Anakapalle"}, "geometry": {"type": "Polygon", "coordinates": [[[82.81092165750857, 17.672669639692174], [82.84375801701896, 17.673958628088258], [82.85639198630116, 17.685345019157353], [82.87096942559856, 17.67971407514449], [82.88011808128448, 17.66820378717506], [82.88829386297147, 17.66752489975437], [82.90221111984738, 17.691365494621948], [82.91809250416577, 17.703931641532108], [82.9084798504648, 17.7314107809828], [82.91170613323152, 17.756163968292526], [82.92651942603072, 17.75224657541918], [82.94263162315093, 17.76399464323822], [82.95759552541324, 17.756882610244304], [82.97615850730932, 17.756847695864508], [83.00887788120929, 17.773553145161543], [83.01747824902202, 17.772774745058484], [83.03234001887682, 17.767379218376277], [83.04049694537781, 17.772091594851247], [83.0466246434126, 17.770010805554307], [83.0429407055492, 17.736605670715164], [83.04741595867961, 17.73614788881406], [83.05438307941563, 17.745983131916034], [83.06377769608389, 17.739184260845036], [83.07799218339261, 17.747690154876807], [83.08860850028213, 17.728035605558773], [83.0756729424524, 17.720011807498963], [83.07426676789709, 17.699168747439785], [83.05562904874165, 17.680090802048937], [83.05090803068111, 17.65978801870216], [83.01897293395382, 17.65892269102943], [82.97903626231368, 17.666576856037125], [82.96915954697556, 17.64637494244971], [82.94459843327115, 17.641032074670534], [82.93507931985476, 17.624213183991287], [82.90975293255184, 17.60992226959712], [82.90031191446332, 17.58557429881489], [82.86795389715468, 17.587678430015558], [82.84784949795602, 17.60161746847143], [82.80372675288737, 17.5932868253268], [82.79300706972055, 17.601989790496475], [82.78954204393023, 17.612285940643687], [82.8034334210156, 17.632861344475543], [82.80290368795488, 17.660436990175015], [82.81092165750857, 17.672669639692174]]]}}, {"type": "Feature", "properties": {"OBJECTID": 21, "ST_CODE": 28, "ST_NAME": "ANDHRA PRADESH", "DT_CODE": 13.0, "DIST_NAME": "VISAKHAPATNAM", "AC_NO": 142, "AC_NAME": "Visakhapatnam North", "PC_NO": 21, "PC_NAME": "VISAKHAPATNAM", "PC_ID": 2821, "STATUS": null, "Shape_Leng": 0.21352592926, "Shape_Area": 0.00161043368, "office": "MLA", "representative": "Penmetsa Vishnu Kumar Raju", "party": "BJP", "ac_name": "Visakhapatnam North"}, "geometry": {"type": "Polygon", "coordinates": [[[83.28000087633944, 17.73204091165877], [83.28908887994788, 17.731948963174148], [83.2966512511544, 17.721570471999712], [83.29135336926265, 17.713097336672774], [83.27015657076919, 17.712213495556398], [83.2706706709148, 17.697275821122275], [83.26237862037709, 17.709414236078203], [83.2171149746764, 17.723035568336854], [83.21609697539515, 17.730730164165777], [83.23816955977742, 17.746308103736055], [83.25329990676533, 17.730414507523562], [83.28000087633944, 17.73204091165877]]]}}, {"type": "Feature", "properties": {"OBJECTID": 22, "ST_CODE": 28, "ST_NAME": "ANDHRA PRADESH", "DT_CODE": 13.0, "DIST_NAME": "VISAKHAPATNAM", "AC_NO": 153, "AC_NAME": "Narsipatnam", "PC_NO": 22, "PC_NAME": "ANAKAPALLE", "PC_ID": 2822, "STATUS": null, "Shape_Leng": 2.08588586488, "Shape_Area": 0.06554608259, "office": "MLA", "representative": "Chintakayala Ayyannapatrudu", "party": "TDP", "ac_name": "Narsipatnam"}, "geometry": {"type": "Polygon", "coordinates": [[[82.59051464493496, 17.73125936572717], [82.6071068201237, 17.730100598264073], [82.602925113803, 17.720581349949384], [82.61176162200132, 17.706530255966584], [82.622619978829, 17.705180506675106], [82.64130084026164, 17.68623454129107], [82.65108052144899, 17.68354202324582], [82.67262642596882, 17.687050827133987], [82.66440685449282, 17.664242996617077], [82.67178685038289, 17.642941837196076], [82.6889043222767, 17.65594493501078], [82.70691217875412, 17.661815681448616], [82.71140281568745, 17.675191608505997], [82.70572693255195, 17.682504661560927], [82.70753332880014, 17.689857381013383], [82.7235029689869, 17.698478658063664], [82.75912137135424, 17.695372498641973], [82.7873058814613, 17.67963590877025], [82.81092165750857, 17.672669639692174], [82.80290368795488, 17.660436990175015], [82.8034334210156, 17.632861344475543], [82.78954204393023, 17.612285940643687], [82.79300706972055, 17.601989790496475], [82.80372675288737, 17.5932868253268], [82.78523571135906, 17.56794545351994], [82.78847674570528, 17.55866912557974], [82.75711131103822, 17.557080171013126], [82.74296362177381, 17.56421328951177], [82.72839733676773, 17.561947372972952], [82.72165696299851, 17.570449712884], [82.71319289823373, 17.563715014736204], [82.70287946671408, 17.56422600952277], [82.70673227837199, 17.584591857828002], [82.70423916610468, 17.5974774781032], [82.69521297919567, 17.59115280785585], [82.69045455293531, 17.602275641807466], [82.67004443550235, 17.600335609001206], [82.65851287047263, 17.619213939072097], [82.63819204132972, 17.618922230476585], [82.6318552437246, 17.614959652965638], [82.63065539612967, 17.60627407798637], [82.63752222716909, 17.596420501305147], [82.65089741948037, 17.592849567753376], [82.65066830999456, 17.584940965653118], [82.6442990027968, 17.577911230518907], [82.62821280058034, 17.574454816636546], [82.61673031695062, 17.585010446375065], [82.61113178630296, 17.583595918017238], [82.6022904784229, 17.563479414843187], [82.61779417086433, 17.561087803659234], [82.60901468238177, 17.550868522164592], [82.61055496384057, 17.538399409405258], [82.59298150868972, 17.538709404815222], [82.57610067450656, 17.52881864296603], [82.5520654114896, 17.527714599249407], [82.55202962836472, 17.52771702292233], [82.54649900192743, 17.513434863428245], [82.53845352301175, 17.507760684508014], [82.516969196871, 17.501971430137417], [82.50544712418548, 17.50357161993435], [82.5023324571772, 17.509663825325333], [82.49440030183251, 17.500486574795616], [82.487263963761, 17.499667930031023], [82.48027240934425, 17.50129799260833], [82.47744642651145, 17.5201769108358], [82.47228874802738, 17.52184304162313], [82.47632358606472, 17.527564928678544], [82.46659862052996, 17.53622142947546], [82.46808343000635, 17.531542872006014], [82.46064525787239, 17.53046628369208], [82.46800301892426, 17.52108178439687], [82.46542851531376, 17.512461410265928], [82.44974718338585, 17.511497148174897], [82.45473629384492, 17.494174814316295], [82.45123866942913, 17.48088291631359], [82.43903531892488, 17.47842233162538], [82.43775555937162, 17.471427013545906], [82.41028932699089, 17.467010286495565], [82.38883699603059, 17.479337276694025], [82.37288463092102, 17.479691027718786], [82.36743045225364, 17.489762368038896], [82.37856303485626, 17.507346614154983], [82.37554267255638, 17.51082723059227], [82.35922117531703, 17.50836459724843], [82.34478095277882, 17.49447689209495], [82.3318869310371, 17.50479677265298], [82.33262660093692, 17.518376476193453], [82.33755128036734, 17.52404516655122], [82.32897164192781, 17.55723624385763], [82.34207748458829, 17.575220528204852], [82.35808677678335, 17.57629979739778], [82.37026806691779, 17.571089512171284], [82.38577406791893, 17.573639216077027], [82.45084849136487, 17.593372882352696], [82.46080006896807, 17.610433514395197], [82.47298547529948, 17.61515753529204], [82.47566879328025, 17.624149979637878], [82.47407760749564, 17.63275104712318], [82.45951990382054, 17.63101113865315], [82.44411942297307, 17.642272879190045], [82.41754591611118, 17.637043886266383], [82.41666896110371, 17.64616000358137], [82.42543722244989, 17.655864709189018], [82.41520402664457, 17.665267759699418], [82.38901796121002, 17.631987053259934], [82.37279059870724, 17.630953942670374], [82.3655938558718, 17.63786664363073], [82.36007548359675, 17.660039453857735], [82.36352402121668, 17.670472023065486], [82.39129259667607, 17.679740637520467], [82.42760647985523, 17.68239804243575], [82.43535488751809, 17.688634020643576], [82.44329625192057, 17.712288811979136], [82.46540446294568, 17.713174474222683], [82.4746610040022, 17.731053062149158], [82.49888954751464, 17.71762916345517], [82.5167853511631, 17.717056752167423], [82.51070456896076, 17.696729026123705], [82.51256863423515, 17.68773746311348], [82.5335828766485, 17.690478442925837], [82.5506111987479, 17.70159023050479], [82.57834462330578, 17.749140829685587], [82.58541509053407, 17.744279229602796], [82.59051464493496, 17.73125936572717]]]}}, {"type": "Feature", "properties": {"OBJECTID": 21, "ST_CODE": 28, "ST_NAME": "ANDHRA PRADESH", "DT_CODE": 13.0, "DIST_NAME": "VISAKHAPATNAM", "AC_NO": 140, "AC_NAME": "Visakhapatnam East", "PC_NO": 21, "PC_NAME": "VISAKHAPATNAM", "PC_ID": 2821, "STATUS": null, "Shape_Leng": 0.15785845462, "Shape_Area": 0.00083135593, "office": "MLA", "representative": "Velagapudi Ramakrishna Babu", "party": "TDP", "ac_name": "Visakhapatnam East"}, "geometry": {"type": "Polygon", "coordinates": [[[83.28908887994788, 17.731948963174148], [83.31318857489288, 17.72651392837514], [83.32478007973697, 17.713451665961657], [83.30051494550838, 17.69647105829273], [83.30554441394361, 17.693506543891942], [83.30818509596548, 17.697509193394637], [83.30619263987847, 17.688398340710933], [83.30607722088712, 17.69326020249639], [83.29646085028804, 17.693293750805992], [83.28542671107391, 17.696990729738445], [83.29135336926265, 17.713097336672774], [83.2966512511544, 17.721570471999712], [83.28908887994788, 17.731948963174148]]]}}, {"type": "Feature", "properties": {"OBJECTID": 21, "ST_CODE": 28, "ST_NAME": "ANDHRA PRADESH", "DT_CODE": 13.0, "DIST_NAME": "VISAKHAPATNAM", "AC_NO": 143, "AC_NAME": "Visakhapatnam West", "PC_NO": 21, "PC_NAME": "VISAKHAPATNAM", "PC_ID": 2821, "STATUS": null, "Shape_Leng": 0.26345969221, "Shape_Area": 0.00287710511, "office": "MLA", "representative": "P. G. V. R. Naidu (Ganababu)", "party": "TDP", "ac_name": "Visakhapatnam West"}, "geometry": {"type": "Polygon", "coordinates": [[[83.19852858792405, 17.72719727823187], [83.20978596135308, 17.7262749137563], [83.21609697539515, 17.730730164165777], [83.2171149746764, 17.723035568336854], [83.26237862037709, 17.709414236078203], [83.25897308294151, 17.708851401670927], [83.26408163865676, 17.694031327983453], [83.26956109636757, 17.69666820227576], [83.27310040525953, 17.6929493113617], [83.27601692644004, 17.669116134102353], [83.26752370565453, 17.675369321736866], [83.22898746549919, 17.669789174131154], [83.19807310648872, 17.681548421422576], [83.2110261210587, 17.70974747806372], [83.19852858792405, 17.72719727823187]]]}}, {"type": "Feature", "properties": {"OBJECTID": 21, "ST_CODE": 28, "ST_NAME": "ANDHRA PRADESH", "DT_CODE": 13.0, "DIST_NAME": "VISAKHAPATNAM", "AC_NO": 144, "AC_NAME": "Gajuwaka", "PC_NO": 21, "PC_NAME": "VISAKHAPATNAM", "PC_ID": 2821, "STATUS": null, "Shape_Leng": 0.32878583782, "Shape_Area": 0.00537650366, "office": "MLA", "representative": "Palla Srinivas Rao", "party": "TDP", "ac_name": "Gajuwaka"}, "geometry": {"type": "Polygon", "coordinates": [[[83.19483181763434, 17.72749989020781], [83.19749338820935, 17.72903678751777], [83.19852858792405, 17.72719727823187], [83.2110261210587, 17.70974747806372], [83.19807310648872, 17.681548421422576], [83.18126324410349, 17.667814614552867], [83.18819975551435, 17.656089981267655], [83.18284339340795, 17.647229757947002], [83.14911006267931, 17.64055642593837], [83.13867905289601, 17.643509129542736], [83.1382387169433, 17.67031681357014], [83.12123890964801, 17.682845790600823], [83.1092387240879, 17.684869609644807], [83.1054809276028, 17.69481180552043], [83.1283910065398, 17.715345654378496], [83.1491909009394, 17.707857130102525], [83.16313038905628, 17.727458482722852], [83.1824710803761, 17.723892953197264], [83.19483181763434, 17.72749989020781]]]}}, {"type": "Feature", "properties": {"OBJECTID": 21, "ST_CODE": 28, "ST_NAME": "ANDHRA PRADESH", "DT_CODE": 13.0, "DIST_NAME": "VISAKHAPATNAM", "AC_NO": 141, "AC_NAME": "Visakhapatnam South", "PC_NO": 21, "PC_NAME": "VISAKHAPATNAM", "PC_ID": 2821, "STATUS": null, "Shape_Leng": 0.18963441764, "Shape_Area": 0.00096942808, "office": "MLA", "representative": "Vamsi Krishna Srinivas Ch.", "party": "Jana Sena Party", "ac_name": "Visakhapatnam South"}, "geometry": {"type": "Polygon", "coordinates": [[[83.29135336926265, 17.713097336672774], [83.28542671107391, 17.696990729738445], [83.29646085028804, 17.693293750805992], [83.29928498321544, 17.69056874385251], [83.29612951666394, 17.692876427605086], [83.29476300940541, 17.68965248577365], [83.29471664036072, 17.67485534749636], [83.28195841085204, 17.660617659477452], [83.27601692644004, 17.669116134102353], [83.27310040525953, 17.6929493113617], [83.26956109636757, 17.69666820227576], [83.26408163865676, 17.694031327983453], [83.25897308294151, 17.708851401670927], [83.26237862037709, 17.709414236078203], [83.2706706709148, 17.697275821122275], [83.27015657076919, 17.712213495556398], [83.29135336926265, 17.713097336672774]]]}}, {"type": "Feature", "properties": {"OBJECTID": 22, "ST_CODE": 28, "ST_NAME": "ANDHRA PRADESH", "DT_CODE": 13.0, "DIST_NAME": "VISAKHAPATNAM", "AC_NO": 151, "AC_NAME": "Yelamanchili", "PC_NO": 22, "PC_NAME": "ANAKAPALLE", "PC_ID": 2822, "STATUS": null, "Shape_Leng": 1.11230944588, "Shape_Area": 0.04114201171, "office": "MLA", "representative": "Sundarapu Vijay Kumar", "party": "Jana Sena Party", "ac_name": "Yelamanchili"}, "geometry": {"type": "Polygon", "coordinates": [[[83.05090803068111, 17.65978801870216], [83.0450743524994, 17.627921837922543], [83.05383175093459, 17.616043812671876], [83.04542173092818, 17.59105735831048], [83.05568581754648, 17.58625579966548], [83.07446635084148, 17.59339756424623], [83.07710274219784, 17.591085127576605], [83.06014566978689, 17.554066014035357], [83.0600781378958, 17.537859000492517], [83.06608843303479, 17.52500715245816], [83.01453165900892, 17.50341690866344], [82.9919566926473, 17.47253311131408], [82.89878537734336, 17.432104809089708], [82.8924795173159, 17.44296013250414], [82.87179055519005, 17.44796007439794], [82.85302309623899, 17.46611423888106], [82.85088021954653, 17.495879707682434], [82.86423599909216, 17.517613405934014], [82.8498929743813, 17.515668645391713], [82.84618659843284, 17.533245188814476], [82.83822304505753, 17.533198086822324], [82.82724622773128, 17.525275895965876], [82.81724176819313, 17.506103463304214], [82.81733952899611, 17.48223721527529], [82.80406163163906, 17.46872864810865], [82.79732548468343, 17.466654736826683], [82.78971612929598, 17.470624030474653], [82.78053475087813, 17.48559411647534], [82.76469117945442, 17.479862763156063], [82.7552514384032, 17.48464453221942], [82.74243553177445, 17.505502143309343], [82.7950982443885, 17.54679895230987], [82.78847674570528, 17.55866912557974], [82.78523571135906, 17.56794545351994], [82.80372675288737, 17.5932868253268], [82.84784949795602, 17.60161746847143], [82.86795389715468, 17.587678430015558], [82.90031191446332, 17.58557429881489], [82.90975293255184, 17.60992226959712], [82.93507931985476, 17.624213183991287], [82.94459843327115, 17.641032074670534], [82.96915954697556, 17.64637494244971], [82.97903626231368, 17.666576856037125], [83.01897293395382, 17.65892269102943], [83.05090803068111, 17.65978801870216]]]}}, {"type": "Feature", "properties": {"OBJECTID": 22, "ST_CODE": 28, "ST_NAME": "ANDHRA PRADESH", "DT_CODE": 13.0, "DIST_NAME": "VISAKHAPATNAM", "AC_NO": 152, "AC_NAME": "Payakaraopet (SC)", "PC_NO": 22, "PC_NAME": "ANAKAPALLE", "PC_ID": 2822, "STATUS": null, "Shape_Leng": 1.62772629629, "Shape_Area": 0.06307494743, "office": "MLA", "representative": "Vangalapudi Anitha", "party": "TDP", "ac_name": "Payakaraopet (SC)"}, "geometry": {"type": "Polygon", "coordinates": [[[82.78847674570528, 17.55866912557974], [82.7950982443885, 17.54679895230987], [82.74243553177445, 17.505502143309343], [82.7552514384032, 17.48464453221942], [82.76469117945442, 17.479862763156063], [82.78053475087813, 17.48559411647534], [82.78971612929598, 17.470624030474653], [82.79732548468343, 17.466654736826683], [82.80406163163906, 17.46872864810865], [82.81733952899611, 17.48223721527529], [82.81724176819313, 17.506103463304214], [82.82724622773128, 17.525275895965876], [82.83822304505753, 17.533198086822324], [82.84618659843284, 17.533245188814476], [82.8498929743813, 17.515668645391713], [82.86423599909216, 17.517613405934014], [82.85088021954653, 17.495879707682434], [82.85302309623899, 17.46611423888106], [82.87179055519005, 17.44796007439794], [82.8924795173159, 17.44296013250414], [82.89878537734336, 17.432104809089708], [82.70303038194663, 17.343862016019273], [82.54243334682155, 17.248890409065154], [82.53895689514468, 17.26389689602496], [82.52550564536932, 17.271535880476563], [82.51811076210203, 17.298663225827283], [82.53450963970818, 17.30646298567831], [82.53548082028368, 17.32761092670296], [82.55753965403187, 17.326111133621964], [82.55981643707895, 17.3422541091399], [82.56505396007225, 17.342484666534176], [82.56579861311553, 17.350164730218182], [82.5556604315837, 17.35265913571061], [82.54293309828392, 17.374869358634044], [82.55597757840258, 17.390654406675594], [82.56030582025744, 17.408293063574092], [82.5829775563692, 17.42512238548977], [82.59846565726434, 17.44371211861943], [82.60484445860493, 17.459600842305065], [82.5853860181503, 17.469472512446544], [82.56782461301555, 17.49265773086961], [82.56100655490866, 17.49122793562077], [82.55821990752275, 17.521751568879836], [82.5520654114896, 17.527714599249407], [82.57610067450656, 17.52881864296603], [82.59298150868972, 17.538709404815222], [82.61055496384057, 17.538399409405258], [82.60901468238177, 17.550868522164592], [82.61779417086433, 17.561087803659234], [82.6022904784229, 17.563479414843187], [82.61113178630296, 17.583595918017238], [82.61673031695062, 17.585010446375065], [82.62821280058034, 17.574454816636546], [82.6442990027968, 17.577911230518907], [82.65066830999456, 17.584940965653118], [82.65089741948037, 17.592849567753376], [82.63752222716909, 17.596420501305147], [82.63065539612967, 17.60627407798637], [82.6318552437246, 17.614959652965638], [82.63819204132972, 17.618922230476585], [82.65851287047263, 17.619213939072097], [82.67004443550235, 17.600335609001206], [82.69045455293531, 17.602275641807466], [82.69521297919567, 17.59115280785585], [82.70423916610468, 17.5974774781032], [82.70673227837199, 17.584591857828002], [82.70287946671408, 17.56422600952277], [82.71319289823373, 17.563715014736204], [82.72165696299851, 17.570449712884], [82.72839733676773, 17.561947372972952], [82.74296362177381, 17.56421328951177], [82.75711131103822, 17.557080171013126], [82.78847674570528, 17.55866912557974]]]}}]}