{"type":"FeatureCollection","features":[{"type":"Feature","properties":{"stop_id":"10821","stop_name":"OLD GAJUWAKA","stop_code":"10821","mode":"bus","operator":"Andhra Pradesh State Road Transport Corporation","source_feed_id":"visakhapatnam_apsrtc"},"geometry":{"type":"Point","coordinates":[83.203678,17.685903]}},{"type":"Feature","properties":{"stop_id":"11701","stop_name":"PENDURTHI","stop_code":"11701","mode":"bus","operator":"Andhra Pradesh State Road Transport Corporation","source_feed_id":"visakhapatnam_apsrtc"},"geometry":{"type":"Point","coordinates":[83.204903,17.822636]}},{"type":"Feature","properties":{"stop_id":"13571","stop_name":"SEETHAMPETA-VSP","stop_code":"13571","mode":"bus","operator":"Andhra Pradesh State Road Transport Corporation","source_feed_id":"visakhapatnam_apsrtc"},"geometry":{"type":"Point","coordinates":[83.306605,17.728926]}},{"type":"Feature","properties":{"stop_id":"13721","stop_name":"SHEELANAGAR","stop_code":"13721","mode":"bus","operator":"Andhra Pradesh State Road Transport Corporation","source_feed_id":"visakhapatnam_apsrtc"},"geometry":{"type":"Point","coordinates":[83.20374,17.718336]}},{"type":"Feature","properties":{"stop_id":"1375188927965","stop_name":"TAGARUPUVALSA","stop_code":"1375188927965","mode":"bus","operator":"Andhra Pradesh State Road Transport Corporation","source_feed_id":"visakhapatnam_apsrtc"},"geometry":{"type":"Point","coordinates":[83.423637,17.928769]}},{"type":"Feature","properties":{"stop_id":"1389619576592","stop_name":"MADDILEPALEM BUS STAND","stop_code":"1389619576592","mode":"bus","operator":"Andhra Pradesh State Road Transport Corporation","source_feed_id":"visakhapatnam_apsrtc"},"geometry":{"type":"Point","coordinates":[83.319719,17.735321]}},{"type":"Feature","properties":{"stop_id":"1390896069583","stop_name":"LANKELAPALEM","stop_code":"1390896069583","mode":"bus","operator":"Andhra Pradesh State Road Transport Corporation","source_feed_id":"visakhapatnam_apsrtc"},"geometry":{"type":"Point","coordinates":[83.096879,17.688018]}},{"type":"Feature","properties":{"stop_id":"1392973521719","stop_name":"VSP MADDILAPALEM CITY BUS STATION","stop_code":"1392973521719","mode":"bus","operator":"Andhra Pradesh State Road Transport Corporation","source_feed_id":"visakhapatnam_apsrtc"},"geometry":{"type":"Point","coordinates":[83.320063,17.736152]}},{"type":"Feature","properties":{"stop_id":"14211","stop_name":"VSP STEEL CITY","stop_code":"14211","mode":"bus","operator":"Andhra Pradesh State Road Transport Corporation","source_feed_id":"visakhapatnam_apsrtc"},"geometry":{"type":"Point","coordinates":[83.149707,17.685673]}},{"type":"Feature","properties":{"stop_id":"14221","stop_name":"STEEL PLANT","stop_code":"14221","mode":"bus","operator":"Andhra Pradesh State Road Transport Corporation","source_feed_id":"visakhapatnam_apsrtc"},"geometry":{"type":"Point","coordinates":[83.167756,17.684889]}},{"type":"Feature","properties":{"stop_id":"1436352534894","stop_name":"SIRIPURAM JUNCTION","stop_code":"1436352534894","mode":"bus","operator":"Andhra Pradesh State Road Transport Corporation","source_feed_id":"visakhapatnam_apsrtc"},"geometry":{"type":"Point","coordinates":[83.31925,17.72411]}},{"type":"Feature","properties":{"stop_id":"1436353506834","stop_name":"MVP CITY COMPLEX","stop_code":"1436353506834","mode":"bus","operator":"Andhra Pradesh State Road Transport Corporation","source_feed_id":"visakhapatnam_apsrtc"},"geometry":{"type":"Point","coordinates":[83.335146,17.739241]}},{"type":"Feature","properties":{"stop_id":"1436354145475","stop_name":"ISUKATHOTA CITY BUS STOP","stop_code":"1436354145475","mode":"bus","operator":"Andhra Pradesh State Road Transport Corporation","source_feed_id":"visakhapatnam_apsrtc"},"geometry":{"type":"Point","coordinates":[83.32766,17.74232]}},{"type":"Feature","properties":{"stop_id":"1442914054845","stop_name":"AKKAYYAPALEM","stop_code":"1442914054845","mode":"bus","operator":"Andhra Pradesh State Road Transport Corporation","source_feed_id":"visakhapatnam_apsrtc"},"geometry":{"type":"Point","coordinates":[83.296295,17.739822]}},{"type":"Feature","properties":{"stop_id":"1442914198664","stop_name":"MURALI NAGAR JUNCTION VSP","stop_code":"1442914198664","mode":"bus","operator":"Andhra Pradesh State Road Transport Corporation","source_feed_id":"visakhapatnam_apsrtc"},"geometry":{"type":"Point","coordinates":[83.264201,17.746871]}},{"type":"Feature","properties":{"stop_id":"1443251666583","stop_name":"MADHURAWADA DEPOT","stop_code":"1443251666583","mode":"bus","operator":"Andhra Pradesh State Road Transport Corporation","source_feed_id":"visakhapatnam_apsrtc"},"geometry":{"type":"Point","coordinates":[83.366173,17.807008]}},{"type":"Feature","properties":{"stop_id":"1443252214562","stop_name":"AKKAYYAPALEMJUNCTION","stop_code":"1443252214562","mode":"bus","operator":"Andhra Pradesh State Road Transport Corporation","source_feed_id":"visakhapatnam_apsrtc"},"geometry":{"type":"Point","coordinates":[83.299364,17.740478]}},{"type":"Feature","properties":{"stop_id":"14521","stop_name":"TAGARAPU VALASA CITYBUS STOP","stop_code":"14521","mode":"bus","operator":"Andhra Pradesh State Road Transport Corporation","source_feed_id":"visakhapatnam_apsrtc"},"geometry":{"type":"Point","coordinates":[83.423661,17.928766]}},{"type":"Feature","properties":{"stop_id":"1457005959824","stop_name":"MARIKA VALASA","stop_code":"1457005959824","mode":"bus","operator":"Andhra Pradesh State Road Transport Corporation","source_feed_id":"visakhapatnam_apsrtc"},"geometry":{"type":"Point","coordinates":[83.359166,17.835931]}},{"type":"Feature","properties":{"stop_id":"1474956163530","stop_name":"LANKALAPALEM","stop_code":"1474956163530","mode":"bus","operator":"Andhra Pradesh State Road Transport Corporation","source_feed_id":"visakhapatnam_apsrtc"},"geometry":{"type":"Point","coordinates":[83.096873,17.688017]}},{"type":"Feature","properties":{"stop_id":"1476768376886","stop_name":"MADDILAPALEM CITY BUSSTOP","stop_code":"1476768376886","mode":"bus","operator":"Andhra Pradesh State Road Transport Corporation","source_feed_id":"visakhapatnam_apsrtc"},"geometry":{"type":"Point","coordinates":[83.31972,17.73609]}},{"type":"Feature","properties":{"stop_id":"1477290115268","stop_name":"KURMANNAPALEM-VSP","stop_code":"1477290115268","mode":"bus","operator":"Andhra Pradesh State Road Transport Corporation","source_feed_id":"visakhapatnam_apsrtc"},"geometry":{"type":"Point","coordinates":[83.168532,17.685503]}},{"type":"Feature","properties":{"stop_id":"1480057591984","stop_name":"BIRLA JUNCTION-VSP","stop_code":"1480057591984","mode":"bus","operator":"Andhra Pradesh State Road Transport Corporation","source_feed_id":"visakhapatnam_apsrtc"},"geometry":{"type":"Point","coordinates":[83.259666,17.743176]}},{"type":"Feature","properties":{"stop_id":"1534913708330","stop_name":"YENDADA","stop_code":"1534913708330","mode":"bus","operator":"Andhra Pradesh State Road Transport Corporation","source_feed_id":"visakhapatnam_apsrtc"},"geometry":{"type":"Point","coordinates":[83.357965,17.782847]}},{"type":"Feature","properties":{"stop_id":"15941","stop_name":"VISAKHAPATNAM","stop_code":"15941","mode":"bus","operator":"Andhra Pradesh State Road Transport Corporation","source_feed_id":"visakhapatnam_apsrtc"},"geometry":{"type":"Point","coordinates":[83.306356,17.723934]}},{"type":"Feature","properties":{"stop_id":"16091","stop_name":"WALTAIR","stop_code":"16091","mode":"bus","operator":"Andhra Pradesh State Road Transport Corporation","source_feed_id":"visakhapatnam_apsrtc"},"geometry":{"type":"Point","coordinates":[83.340071,17.730412]}},{"type":"Feature","properties":{"stop_id":"1646045511348","stop_name":"KOMMADI","stop_code":"1646045511348","mode":"bus","operator":"Andhra Pradesh State Road Transport Corporation","source_feed_id":"visakhapatnam_apsrtc"},"geometry":{"type":"Point","coordinates":[83.356563,17.823998]}},{"type":"Feature","properties":{"stop_id":"223368","stop_name":"ANAKAPALLI BYPASS","stop_code":"223368","mode":"bus","operator":"Andhra Pradesh State Road Transport Corporation","source_feed_id":"visakhapatnam_apsrtc"},"geometry":{"type":"Point","coordinates":[83.001827,17.689844]}},{"type":"Feature","properties":{"stop_id":"226027","stop_name":"ANANDAPURAM","stop_code":"226027","mode":"bus","operator":"Andhra Pradesh State Road Transport Corporation","source_feed_id":"visakhapatnam_apsrtc"},"geometry":{"type":"Point","coordinates":[83.37789,17.89366]}},{"type":"Feature","properties":{"stop_id":"226202","stop_name":"VENKOJIPALEM","stop_code":"226202","mode":"bus","operator":"Andhra Pradesh State Road Transport Corporation","source_feed_id":"visakhapatnam_apsrtc"},"geometry":{"type":"Point","coordinates":[83.328513,17.746235]}},{"type":"Feature","properties":{"stop_id":"22791","stop_name":"KOTTAVALASA","stop_code":"22791","mode":"bus","operator":"Andhra Pradesh State Road Transport Corporation","source_feed_id":"visakhapatnam_apsrtc"},"geometry":{"type":"Point","coordinates":[83.18591,17.90297]}},{"type":"Feature","properties":{"stop_id":"23013","stop_name":"SITAMPETA","stop_code":"23013","mode":"bus","operator":"Andhra Pradesh State Road Transport Corporation","source_feed_id":"visakhapatnam_apsrtc"},"geometry":{"type":"Point","coordinates":[83.30691,17.73216]}},{"type":"Feature","properties":{"stop_id":"23188","stop_name":"HANUMANTHUWAKA","stop_code":"23188","mode":"bus","operator":"Andhra Pradesh State Road Transport Corporation","source_feed_id":"visakhapatnam_apsrtc"},"geometry":{"type":"Point","coordinates":[83.332539,17.755437]}},{"type":"Feature","properties":{"stop_id":"232197","stop_name":"SRINAGAR","stop_code":"232197","mode":"bus","operator":"Andhra Pradesh State Road Transport Corporation","source_feed_id":"visakhapatnam_apsrtc"},"geometry":{"type":"Point","coordinates":[83.19191,17.6767]}},{"type":"Feature","properties":{"stop_id":"23392","stop_name":"KOMMADHI JN.VSP","stop_code":"23392","mode":"bus","operator":"Andhra Pradesh State Road Transport Corporation","source_feed_id":"visakhapatnam_apsrtc"},"geometry":{"type":"Point","coordinates":[83.35659,17.82539]}},{"type":"Feature","properties":{"stop_id":"235095","stop_name":"SIRIPURAM","stop_code":"235095","mode":"bus","operator":"Andhra Pradesh State Road Transport Corporation","source_feed_id":"visakhapatnam_apsrtc"},"geometry":{"type":"Point","coordinates":[83.318,17.7209]}},{"type":"Feature","properties":{"stop_id":"235137","stop_name":"ANAKAPALLI","stop_code":"235137","mode":"bus","operator":"Andhra Pradesh State Road Transport Corporation","source_feed_id":"visakhapatnam_apsrtc"},"geometry":{"type":"Point","coordinates":[83.002158,17.68617]}},{"type":"Feature","properties":{"stop_id":"23523","stop_name":"VISAKHAPATNAM INTERNATIONAL AIRPORT","stop_code":"23523","mode":"bus","operator":"Andhra Pradesh State Road Transport Corporation","source_feed_id":"visakhapatnam_apsrtc"},"geometry":{"type":"Point","coordinates":[83.223515,17.732318]}},{"type":"Feature","properties":{"stop_id":"243798","stop_name":"CARSHED","stop_code":"243798","mode":"bus","operator":"Andhra Pradesh State Road Transport Corporation","source_feed_id":"visakhapatnam_apsrtc"},"geometry":{"type":"Point","coordinates":[83.353095,17.803217]}},{"type":"Feature","properties":{"stop_id":"243843","stop_name":"GURUDWARA JN","stop_code":"243843","mode":"bus","operator":"Andhra Pradesh State Road Transport Corporation","source_feed_id":"visakhapatnam_apsrtc"},"geometry":{"type":"Point","coordinates":[83.30667,17.73699]}},{"type":"Feature","properties":{"stop_id":"243892","stop_name":"WALTAIR DEPOT","stop_code":"243892","mode":"bus","operator":"Andhra Pradesh State Road Transport Corporation","source_feed_id":"visakhapatnam_apsrtc"},"geometry":{"type":"Point","coordinates":[83.34264,17.73004]}},{"type":"Feature","properties":{"stop_id":"243896","stop_name":"AGANAMPUDI","stop_code":"243896","mode":"bus","operator":"Andhra Pradesh State Road Transport Corporation","source_feed_id":"visakhapatnam_apsrtc"},"geometry":{"type":"Point","coordinates":[83.13503,17.68884]}},{"type":"Feature","properties":{"stop_id":"4041","stop_name":"GAJUWAKA","stop_code":"4041","mode":"bus","operator":"Andhra Pradesh State Road Transport Corporation","source_feed_id":"visakhapatnam_apsrtc"},"geometry":{"type":"Point","coordinates":[83.224338,17.691266]}},{"type":"Feature","properties":{"stop_id":"501","stop_name":"ANAKAPALLI BYE PASS-PUDIMADAKA ROAD JUNCTION","stop_code":"501","mode":"bus","operator":"Andhra Pradesh State Road Transport Corporation","source_feed_id":"visakhapatnam_apsrtc"},"geometry":{"type":"Point","coordinates":[83.000858,17.674566]}},{"type":"Feature","properties":{"stop_id":"511","stop_name":"ANAKAPALLI","stop_code":"511","mode":"bus","operator":"Andhra Pradesh State Road Transport Corporation","source_feed_id":"visakhapatnam_apsrtc"},"geometry":{"type":"Point","coordinates":[83.002027,17.686173]}},{"type":"Feature","properties":{"stop_id":"8351","stop_name":"MADDILAPALEM","stop_code":"8351","mode":"bus","operator":"Andhra Pradesh State Road Transport Corporation","source_feed_id":"visakhapatnam_apsrtc"},"geometry":{"type":"Point","coordinates":[83.319912,17.736022]}},{"type":"Feature","properties":{"stop_id":"8431","stop_name":"MADHURAWADA","stop_code":"8431","mode":"bus","operator":"Andhra Pradesh State Road Transport Corporation","source_feed_id":"visakhapatnam_apsrtc"},"geometry":{"type":"Point","coordinates":[83.366289,17.806345]}},{"type":"Feature","properties":{"stop_id":"9851","stop_name":"NAD X ROAD","stop_code":"9851","mode":"bus","operator":"Andhra Pradesh State Road Transport Corporation","source_feed_id":"visakhapatnam_apsrtc"},"geometry":{"type":"Point","coordinates":[83.236761,17.744451]}}]}