{"type": "FeatureCollection", "features": [{"type": "Feature", "properties": {"osm_id": 4568283289, "osm_type": "node", "amenity": "library", "name": "durgabaisishusankshemam"}, "geometry": {"type": "Point", "coordinates": [83.2713265, 17.7777522]}}, {"type": "Feature", "properties": {"osm_id": 12953998962, "osm_type": "node", "amenity": "library", "name": "Book Magic Library"}, "geometry": {"type": "Point", "coordinates": [83.340503, 17.7323565]}}, {"type": "Feature", "properties": {"osm_id": 133958416, "osm_type": "way", "amenity": "library", "barrier": "wall", "name": "Visakha Public Library", "wikidata": "Q64326537", "wikipedia": "en:Visakhapatnam Public Library"}, "geometry": {"type": "Point", "coordinates": [83.3068939, 17.7292394]}}, {"type": "Feature", "properties": {"osm_id": 313809820, "osm_type": "way", "amenity": "library", "building": "yes", "name": "Knowledge Resource Center(KRC)"}, "geometry": {"type": "Point", "coordinates": [83.3770531, 17.7820019]}}, {"type": "Feature", "properties": {"osm_id": 389829082, "osm_type": "way", "amenity": "library", "building": "yes", "name": "AU Library"}, "geometry": {"type": "Point", "coordinates": [83.3233957, 17.7216045]}}, {"type": "Feature", "properties": {"osm_id": 393574047, "osm_type": "way", "amenity": "library", "building": "yes", "building:levels": "1", "height": "4", "name": "Civil Library"}, "geometry": {"type": "Point", "coordinates": [83.3202197, 17.727848]}}, {"type": "Feature", "properties": {"osm_id": 509878623, "osm_type": "way", "amenity": "library", "building": "yes", "name": "TEQIP Engineering"}, "geometry": {"type": "Point", "coordinates": [83.3188954, 17.730166]}}, {"type": "Feature", "properties": {"osm_id": 1409747228, "osm_type": "way", "amenity": "library", "barrier": "wall", "name": "Govt. Regional Library"}, "geometry": {"type": "Point", "coordinates": [83.3019814, 17.7281418]}}]}