{"type": "FeatureCollection", "features": [{"type": "Feature", "properties": {"osm_id": 923938721, "osm_type": "node", "amenity": "police"}, "geometry": {"type": "Point", "coordinates": [83.2812926, 17.7348024]}}, {"type": "Feature", "properties": {"osm_id": 4446452868, "osm_type": "node", "addr:city": "Visakhapatnam", "addr:postcode": "530027", "addr:street": "Araku-Visakhapatnam Road, Near State Bank ATM, Gopalapatam, Nad Junction, Gopalapatnam, Dungalavanipalem,", "amenity": "police", "name": "Gopalapatnam Police Station", "phone": "+91 891 252 0933"}, "geometry": {"type": "Point", "coordinates": [83.2257172, 17.7442772]}}, {"type": "Feature", "properties": {"osm_id": 6804705372, "osm_type": "node", "amenity": "police", "name": "Cyber Crime"}, "geometry": {"type": "Point", "coordinates": [83.3187815, 17.7213796]}}, {"type": "Feature", "properties": {"osm_id": 11688050188, "osm_type": "node", "amenity": "police", "name": "4th Town Police Station"}, "geometry": {"type": "Point", "coordinates": [83.3052011, 17.7381018]}}, {"type": "Feature", "properties": {"osm_id": 11740884421, "osm_type": "node", "amenity": "police", "check_date": "2024-03-18"}, "geometry": {"type": "Point", "coordinates": [83.3567371, 17.786154]}}, {"type": "Feature", "properties": {"osm_id": 12837010587, "osm_type": "node", "amenity": "police", "check_date": "2025-05-14", "name": "Malkapuram Police Station"}, "geometry": {"type": "Point", "coordinates": [83.2582017, 17.6875376]}}, {"type": "Feature", "properties": {"osm_id": 12954702919, "osm_type": "node", "amenity": "police", "name": "P.M. Palem Traffic Police Station"}, "geometry": {"type": "Point", "coordinates": [83.3526684, 17.7996523]}}, {"type": "Feature", "properties": {"osm_id": 430711432, "osm_type": "way", "amenity": "police"}, "geometry": {"type": "Point", "coordinates": [83.2994283, 17.7103215]}}, {"type": "Feature", "properties": {"osm_id": 431200400, "osm_type": "way", "amenity": "police"}, "geometry": {"type": "Point", "coordinates": [83.3098573, 17.718173]}}, {"type": "Feature", "properties": {"osm_id": 634499243, "osm_type": "way", "amenity": "police", "building": "yes", "check_date": "2025-05-14", "name": "Gajuwaka Police Station"}, "geometry": {"type": "Point", "coordinates": [83.1932988, 17.6839854]}}, {"type": "Feature", "properties": {"osm_id": 1417735966, "osm_type": "way", "amenity": "police", "building": "yes", "name": "Central Reserve Police Force ( CRPF) 198 Betallion Headquarters"}, "geometry": {"type": "Point", "coordinates": [83.304598, 17.7110306]}}, {"type": "Feature", "properties": {"osm_id": 1423815457, "osm_type": "way", "amenity": "police", "barrier": "wall", "name": "3 Town Police Station"}, "geometry": {"type": "Point", "coordinates": [83.3260854, 17.7284386]}}, {"type": "Feature", "properties": {"osm_id": 1433997909, "osm_type": "way", "amenity": "police", "name": "police station"}, "geometry": {"type": "Point", "coordinates": [83.2483459, 17.747866]}}]}