{"type": "FeatureCollection", "features": [{"type": "Feature", "properties": {"osm_id": 1465008132, "osm_type": "node", "bench": "yes", "bus": "yes", "highway": "bus_stop", "name": "Visakhapatnam Railway Station", "name:te": "విశాఖపట్నం రైల్వే స్టేషన్", "operator": "APSRTC", "public_transport": "platform", "shelter": "yes"}, "geometry": {"type": "Point", "coordinates": [83.2908589, 17.7228599]}}, {"type": "Feature", "properties": {"osm_id": 1474041919, "osm_type": "node", "bus": "yes", "highway": "bus_stop", "local_ref": "Jagadamba Stop", "name": "Jagadamba", "name:te": "జగదాంబ", "public_transport": "platform"}, "geometry": {"type": "Point", "coordinates": [83.3024586, 17.7121701]}}, {"type": "Feature", "properties": {"osm_id": 1811267986, "osm_type": "node", "bus": "yes", "highway": "bus_stop", "local_ref": "GVMC bus stop", "name": "GVMC", "public_transport": "platform"}, "geometry": {"type": "Point", "coordinates": [83.3076067, 17.7223754]}}, {"type": "Feature", "properties": {"osm_id": 1811347313, "osm_type": "node", "highway": "bus_stop", "local_ref": "dwaraka bus stand city bus stop", "name": "Dwaraka bus stand city bus stop"}, "geometry": {"type": "Point", "coordinates": [83.3071441, 17.7229823]}}, {"type": "Feature", "properties": {"osm_id": 1815811154, "osm_type": "node", "highway": "bus_stop", "name": "Siripuram Junction", "shelter": "yes"}, "geometry": {"type": "Point", "coordinates": [83.3178511, 17.723655]}}, {"type": "Feature", "properties": {"osm_id": 1815835992, "osm_type": "node", "highway": "bus_stop", "name": "Siripuram (towards Pedda Waltair)"}, "geometry": {"type": "Point", "coordinates": [83.3197938, 17.7246574]}}, {"type": "Feature", "properties": {"osm_id": 1824367441, "osm_type": "node", "highway": "bus_stop"}, "geometry": {"type": "Point", "coordinates": [83.3352417, 17.7438201]}}, {"type": "Feature", "properties": {"osm_id": 1824367450, "osm_type": "node", "bus": "yes", "highway": "bus_stop", "public_transport": "platform"}, "geometry": {"type": "Point", "coordinates": [83.3395959, 17.7427301]}}, {"type": "Feature", "properties": {"osm_id": 1824367474, "osm_type": "node", "bench": "no", "highway": "bus_stop", "shelter": "no"}, "geometry": {"type": "Point", "coordinates": [83.3355052, 17.7438644]}}, {"type": "Feature", "properties": {"osm_id": 1824367485, "osm_type": "node", "bus": "yes", "highway": "bus_stop", "name": "MVP", "public_transport": "platform"}, "geometry": {"type": "Point", "coordinates": [83.3387699, 17.7425521]}}, {"type": "Feature", "properties": {"osm_id": 1824367513, "osm_type": "node", "bus": "yes", "highway": "bus_stop", "name": "MVP", "public_transport": "platform"}, "geometry": {"type": "Point", "coordinates": [83.3384978, 17.743046]}}, {"type": "Feature", "properties": {"osm_id": 2332910442, "osm_type": "node", "bus": "yes", "highway": "bus_stop", "name": "Seethammadhara", "public_transport": "platform"}, "geometry": {"type": "Point", "coordinates": [83.3156935, 17.7435478]}}, {"type": "Feature", "properties": {"osm_id": 2332910445, "osm_type": "node", "highway": "bus_stop", "name": "Seethammadhara"}, "geometry": {"type": "Point", "coordinates": [83.3144918, 17.7433179]}}, {"type": "Feature", "properties": {"osm_id": 2900563445, "osm_type": "node", "highway": "bus_stop", "name": "N.G.G.O's Colony Bus Stop"}, "geometry": {"type": "Point", "coordinates": [83.2711426, 17.7454474]}}, {"type": "Feature", "properties": {"osm_id": 2900563446, "osm_type": "node", "highway": "bus_stop", "name": "Murali Nagar"}, "geometry": {"type": "Point", "coordinates": [83.2643781, 17.7467963]}}, {"type": "Feature", "properties": {"osm_id": 2900563447, "osm_type": "node", "bus": "yes", "highway": "bus_stop", "name": "Tenneti Nagar", "name:te": "తెన్నేటి నగర్", "public_transport": "platform"}, "geometry": {"type": "Point", "coordinates": [83.2611701, 17.7478028]}}, {"type": "Feature", "properties": {"osm_id": 3913956293, "osm_type": "node", "bus": "yes", "highway": "bus_stop", "name": "Pedda Waltair", "public_transport": "platform"}, "geometry": {"type": "Point", "coordinates": [83.335641, 17.730645]}}, {"type": "Feature", "properties": {"osm_id": 3921525381, "osm_type": "node", "bus": "yes", "highway": "bus_stop", "public_transport": "platform"}, "geometry": {"type": "Point", "coordinates": [83.2881297, 17.733608]}}, {"type": "Feature", "properties": {"osm_id": 3921525801, "osm_type": "node", "highway": "bus_stop"}, "geometry": {"type": "Point", "coordinates": [83.2878218, 17.7336653]}}, {"type": "Feature", "properties": {"osm_id": 3929866660, "osm_type": "node", "bus": "yes", "highway": "bus_stop", "public_transport": "platform"}, "geometry": {"type": "Point", "coordinates": [83.3034116, 17.7207619]}}, {"type": "Feature", "properties": {"osm_id": 3929870658, "osm_type": "node", "bus": "yes", "highway": "bus_stop", "public_transport": "platform"}, "geometry": {"type": "Point", "coordinates": [83.3066665, 17.7290046]}}, {"type": "Feature", "properties": {"osm_id": 3929887905, "osm_type": "node", "highway": "bus_stop"}, "geometry": {"type": "Point", "coordinates": [83.3376268, 17.7309583]}}, {"type": "Feature", "properties": {"osm_id": 3969897577, "osm_type": "node", "bench": "yes", "covered": "yes", "highway": "bus_stop", "shelter": "yes"}, "geometry": {"type": "Point", "coordinates": [83.3239406, 17.7266827]}}, {"type": "Feature", "properties": {"osm_id": 3969897597, "osm_type": "node", "bench": "yes", "bus": "yes", "covered": "yes", "highway": "bus_stop", "name": "Andhra University", "public_transport": "platform", "shelter": "yes"}, "geometry": {"type": "Point", "coordinates": [83.3237474, 17.7263501]}}, {"type": "Feature", "properties": {"osm_id": 3983367889, "osm_type": "node", "bus": "yes", "highway": "bus_stop", "name": "South Campus", "public_transport": "platform"}, "geometry": {"type": "Point", "coordinates": [83.3258714, 17.7215123]}}, {"type": "Feature", "properties": {"osm_id": 4031710987, "osm_type": "node", "bus": "yes", "highway": "bus_stop", "name": "Lumbini Park", "name:te": "లుంబినీ పార్క్", "public_transport": "platform", "shelter": "no"}, "geometry": {"type": "Point", "coordinates": [83.343417, 17.7418203]}}, {"type": "Feature", "properties": {"osm_id": 4049792839, "osm_type": "node", "bus": "yes", "highway": "bus_stop", "name": "Chinna Waltair", "public_transport": "platform"}, "geometry": {"type": "Point", "coordinates": [83.3314574, 17.7231727]}}, {"type": "Feature", "properties": {"osm_id": 4049792840, "osm_type": "node", "bus": "yes", "highway": "bus_stop", "name": "Chinna Waltair", "public_transport": "platform"}, "geometry": {"type": "Point", "coordinates": [83.3327314, 17.7232646]}}, {"type": "Feature", "properties": {"osm_id": 4049796505, "osm_type": "node", "bus": "yes", "highway": "bus_stop", "name": "Out Gate Stop", "public_transport": "platform"}, "geometry": {"type": "Point", "coordinates": [83.3291091, 17.7223398]}}, {"type": "Feature", "properties": {"osm_id": 4052917910, "osm_type": "node", "highway": "bus_stop"}, "geometry": {"type": "Point", "coordinates": [83.3072582, 17.7229682]}}, {"type": "Feature", "properties": {"osm_id": 4052917920, "osm_type": "node", "bus": "yes", "highway": "bus_stop", "mapillary": "811361679806838", "name": "APSRTC Complex South City Bus Stop", "public_transport": "platform"}, "geometry": {"type": "Point", "coordinates": [83.3073839, 17.7232722]}}, {"type": "Feature", "properties": {"osm_id": 4052917925, "osm_type": "node", "bus": "yes", "highway": "bus_stop", "public_transport": "platform"}, "geometry": {"type": "Point", "coordinates": [83.3071251, 17.7232932]}}, {"type": "Feature", "properties": {"osm_id": 4300560630, "osm_type": "node", "highway": "bus_stop"}, "geometry": {"type": "Point", "coordinates": [83.328225, 17.7220386]}}, {"type": "Feature", "properties": {"osm_id": 4305483049, "osm_type": "node", "highway": "bus_stop"}, "geometry": {"type": "Point", "coordinates": [83.3142225, 17.7203974]}}, {"type": "Feature", "properties": {"osm_id": 4346787392, "osm_type": "node", "bus": "yes", "highway": "bus_stop", "name": "Karasa", "operator": "APSRTC", "public_transport": "platform", "shelter": "yes"}, "geometry": {"type": "Point", "coordinates": [83.2439078, 17.7409553]}}, {"type": "Feature", "properties": {"osm_id": 4568477557, "osm_type": "node", "bench": "yes", "bus": "yes", "highway": "bus_stop", "name": "Pineapple Colony", "operator": "APSRTC", "public_transport": "platform", "shelter": "yes"}, "geometry": {"type": "Point", "coordinates": [83.2710815, 17.7776156]}}, {"type": "Feature", "properties": {"osm_id": 4965320294, "osm_type": "node", "highway": "bus_stop", "name": "Malkapuram Bus Stop"}, "geometry": {"type": "Point", "coordinates": [83.2453736, 17.6885802]}}, {"type": "Feature", "properties": {"osm_id": 5080814204, "osm_type": "node", "highway": "bus_stop"}, "geometry": {"type": "Point", "coordinates": [83.2330656, 17.6900861]}}, {"type": "Feature", "properties": {"osm_id": 5080814205, "osm_type": "node", "highway": "bus_stop"}, "geometry": {"type": "Point", "coordinates": [83.2371157, 17.6896414]}}, {"type": "Feature", "properties": {"osm_id": 5080814206, "osm_type": "node", "highway": "bus_stop"}, "geometry": {"type": "Point", "coordinates": [83.2366168, 17.6898612]}}, {"type": "Feature", "properties": {"osm_id": 5837706058, "osm_type": "node", "bus": "yes", "highway": "bus_stop", "name": "Srinivasa Nagar", "public_transport": "platform"}, "geometry": {"type": "Point", "coordinates": [83.2282398, 17.7678521]}}, {"type": "Feature", "properties": {"osm_id": 5987878895, "osm_type": "node", "highway": "bus_stop", "name": "Port Quarters Bus Stop"}, "geometry": {"type": "Point", "coordinates": [83.2496752, 17.6879216]}}, {"type": "Feature", "properties": {"osm_id": 6628967843, "osm_type": "node", "bus": "yes", "highway": "bus_stop", "local_ref": "bus stop", "public_transport": "platform"}, "geometry": {"type": "Point", "coordinates": [83.3109842, 17.7104229]}}, {"type": "Feature", "properties": {"osm_id": 7008025921, "osm_type": "node", "bus": "yes", "highway": "bus_stop", "name": "Nad Kotha Road Bus stop", "public_transport": "platform"}, "geometry": {"type": "Point", "coordinates": [83.2352837, 17.7420928]}}, {"type": "Feature", "properties": {"osm_id": 9740746804, "osm_type": "node", "bus": "yes", "highway": "bus_stop", "name": "Gurudwara", "name:te": "గురుద్వార్", "operator": "APSRTC", "public_transport": "platform"}, "geometry": {"type": "Point", "coordinates": [83.3084926, 17.7366117]}}, {"type": "Feature", "properties": {"osm_id": 10300977434, "osm_type": "node", "bench": "yes", "bus": "yes", "highway": "bus_stop", "name": "Pedda Gadhili", "name:te": "పెద్ద గదిలి", "operator": "APSRTC", "public_transport": "platform", "shelter": "yes"}, "geometry": {"type": "Point", "coordinates": [83.3200257, 17.7596989]}}, {"type": "Feature", "properties": {"osm_id": 10300977447, "osm_type": "node", "bench": "yes", "bus": "yes", "highway": "bus_stop", "operator": "APSRTC", "public_transport": "platform", "shelter": "yes"}, "geometry": {"type": "Point", "coordinates": [83.279823, 17.771685]}}, {"type": "Feature", "properties": {"osm_id": 10302756425, "osm_type": "node", "bus": "yes", "highway": "bus_stop", "name": "Sai Baba Temple", "operator": "APSRTC", "public_transport": "platform", "shelter": "yes"}, "geometry": {"type": "Point", "coordinates": [83.3158137, 17.7603845]}}, {"type": "Feature", "properties": {"osm_id": 10302756426, "osm_type": "node", "bench": "yes", "bus": "yes", "highway": "bus_stop", "name": "Sai Baba Temple", "operator": "APSRTC", "public_transport": "platform", "shelter": "yes", "wheelchair": "no"}, "geometry": {"type": "Point", "coordinates": [83.3138279, 17.7609748]}}, {"type": "Feature", "properties": {"osm_id": 10302756467, "osm_type": "node", "bench": "yes", "bus": "yes", "highway": "bus_stop", "operator": "APSRTC", "public_transport": "platform", "shelter": "yes"}, "geometry": {"type": "Point", "coordinates": [83.3060861, 17.7619781]}}, {"type": "Feature", "properties": {"osm_id": 10302756468, "osm_type": "node", "bus": "yes", "highway": "bus_stop", "public_transport": "platform", "shelter": "yes"}, "geometry": {"type": "Point", "coordinates": [83.3040083, 17.7622986]}}, {"type": "Feature", "properties": {"osm_id": 10302756471, "osm_type": "node", "bus": "yes", "highway": "bus_stop", "public_transport": "platform", "shelter": "yes"}, "geometry": {"type": "Point", "coordinates": [83.2813795, 17.7704356]}}, {"type": "Feature", "properties": {"osm_id": 10302756472, "osm_type": "node", "bench": "yes", "bin": "no", "bus": "yes", "highway": "bus_stop", "name": "Pineapple Colony", "operator": "APSRTC", "public_transport": "platform", "shelter": "yes"}, "geometry": {"type": "Point", "coordinates": [83.2725556, 17.7762887]}}, {"type": "Feature", "properties": {"osm_id": 10302756473, "osm_type": "node", "bus": "yes", "highway": "bus_stop", "public_transport": "platform", "shelter": "yes"}, "geometry": {"type": "Point", "coordinates": [83.327609, 17.7575761]}}, {"type": "Feature", "properties": {"osm_id": 10302756474, "osm_type": "node", "bus": "yes", "highway": "bus_stop", "public_transport": "platform", "shelter": "yes"}, "geometry": {"type": "Point", "coordinates": [83.3293983, 17.7567581]}}, {"type": "Feature", "properties": {"osm_id": 10831955021, "osm_type": "node", "bench": "yes", "bus": "yes", "highway": "bus_stop", "name": "Yendada", "operator": "APSRTC", "public_transport": "platform", "shelter": "yes"}, "geometry": {"type": "Point", "coordinates": [83.3575511, 17.7831798]}}, {"type": "Feature", "properties": {"osm_id": 10831955022, "osm_type": "node", "bus": "yes", "highway": "bus_stop", "name": "Yendada", "operator": "APSRTC", "public_transport": "platform"}, "geometry": {"type": "Point", "coordinates": [83.357981, 17.7829332]}}, {"type": "Feature", "properties": {"osm_id": 10831955023, "osm_type": "node", "bus": "yes", "highway": "bus_stop", "name": "Zoo Park", "operator": "APSRTC", "public_transport": "platform"}, "geometry": {"type": "Point", "coordinates": [83.3437919, 17.7689487]}}, {"type": "Feature", "properties": {"osm_id": 10831955024, "osm_type": "node", "bus": "yes", "highway": "bus_stop", "name": "Zoo Park", "operator": "APSRTC", "public_transport": "platform"}, "geometry": {"type": "Point", "coordinates": [83.3441263, 17.7687967]}}, {"type": "Feature", "properties": {"osm_id": 10831955025, "osm_type": "node", "bus": "yes", "departures_board": "yes", "highway": "bus_stop", "name": "Hanumanthuwaka", "name:te": "హనుమంతువాక", "operator": "APSRTC", "public_transport": "platform"}, "geometry": {"type": "Point", "coordinates": [83.3327507, 17.7561438]}}, {"type": "Feature", "properties": {"osm_id": 10831955026, "osm_type": "node", "bus": "yes", "highway": "bus_stop", "name": "Hanumanthuwaka", "name:te": "హనుమంతువాక", "public_transport": "platform"}, "geometry": {"type": "Point", "coordinates": [83.3324924, 17.7536854]}}, {"type": "Feature", "properties": {"osm_id": 10831955027, "osm_type": "node", "bus": "yes", "highway": "bus_stop", "name": "Venkojipalem Junction", "public_transport": "platform"}, "geometry": {"type": "Point", "coordinates": [83.328323, 17.7463714]}}, {"type": "Feature", "properties": {"osm_id": 10831955028, "osm_type": "node", "bus": "yes", "highway": "bus_stop", "name": "MVP Colony Bus Stop", "public_transport": "platform"}, "geometry": {"type": "Point", "coordinates": [83.3277473, 17.742825]}}, {"type": "Feature", "properties": {"osm_id": 10831955033, "osm_type": "node", "bus": "yes", "highway": "bus_stop", "name": "Asilmetta Bus Stop", "public_transport": "platform"}, "geometry": {"type": "Point", "coordinates": [83.3089085, 17.7246903]}}, {"type": "Feature", "properties": {"osm_id": 10831955042, "osm_type": "node", "bus": "yes", "highway": "bus_stop", "name": "NAD", "public_transport": "platform"}, "geometry": {"type": "Point", "coordinates": [83.2364022, 17.7441473]}}, {"type": "Feature", "properties": {"osm_id": 10831955043, "osm_type": "node", "bus": "yes", "highway": "bus_stop", "name": "NAD", "public_transport": "platform"}, "geometry": {"type": "Point", "coordinates": [83.2370821, 17.7445951]}}, {"type": "Feature", "properties": {"osm_id": 10834383534, "osm_type": "node", "bus": "yes", "highway": "bus_stop", "name": "Old Gajuwaka", "name:te": "పాత గాజువాక", "operator": "APSRTC", "operator:wikidata": "Q4754395", "operator:wikipedia": "en:Andhra Pradesh State Road Transport Corporation", "public_transport": "platform"}, "geometry": {"type": "Point", "coordinates": [83.204207, 17.6860499]}}, {"type": "Feature", "properties": {"osm_id": 10834383535, "osm_type": "node", "bus": "yes", "highway": "bus_stop", "name": "Old Gajuwaka", "name:te": "పాత గాజువాక", "operator": "APSRTC", "operator:wikidata": "Q4754395", "operator:wikipedia": "en:Andhra Pradesh State Road Transport Corporation", "public_transport": "platform"}, "geometry": {"type": "Point", "coordinates": [83.2038547, 17.686121]}}, {"type": "Feature", "properties": {"osm_id": 10834383563, "osm_type": "node", "bus": "yes", "highway": "bus_stop", "name": "Kailasagiri Bus Stop", "public_transport": "platform", "shelter": "yes"}, "geometry": {"type": "Point", "coordinates": [83.3462254, 17.7475439]}}, {"type": "Feature", "properties": {"osm_id": 11568880931, "osm_type": "node", "bus": "yes", "highway": "bus_stop", "name": "Purushottapuram", "name:te": "పురుషోత్తపురం", "operator": "APSRTC", "public_transport": "platform"}, "geometry": {"type": "Point", "coordinates": [83.2127314, 17.79096]}}, {"type": "Feature", "properties": {"osm_id": 11568880932, "osm_type": "node", "bus": "yes", "highway": "bus_stop", "name": "Purushottapuram", "name:te": "పురుషోత్తపురం", "operator": "APSRTC", "public_transport": "platform"}, "geometry": {"type": "Point", "coordinates": [83.2130418, 17.7903508]}}, {"type": "Feature", "properties": {"osm_id": 11568880940, "osm_type": "node", "bus": "yes", "highway": "bus_stop", "name": "Vepagunta", "name:te": "వేపగుంట", "operator": "APSRTC", "public_transport": "platform"}, "geometry": {"type": "Point", "coordinates": [83.2163616, 17.7770884]}}, {"type": "Feature", "properties": {"osm_id": 11568880942, "osm_type": "node", "bus": "yes", "highway": "bus_stop", "name": "Vepagunta", "name:te": "వేపగుంట", "operator": "APSRTC", "public_transport": "platform"}, "geometry": {"type": "Point", "coordinates": [83.2164694, 17.775121]}}, {"type": "Feature", "properties": {"osm_id": 11568880945, "osm_type": "node", "bus": "yes", "highway": "bus_stop", "name": "Naidu Thota", "name:te": "నాయుడు తోట", "operator": "APSRTC", "public_transport": "platform"}, "geometry": {"type": "Point", "coordinates": [83.2171472, 17.7692577]}}, {"type": "Feature", "properties": {"osm_id": 11568906526, "osm_type": "node", "bus": "yes", "highway": "bus_stop", "name": "Karasa", "operator": "APSRTC", "public_transport": "platform", "shelter": "yes"}, "geometry": {"type": "Point", "coordinates": [83.2426635, 17.7409448]}}, {"type": "Feature", "properties": {"osm_id": 11585387267, "osm_type": "node", "bus": "yes", "highway": "bus_stop", "name": "Gopalapatnam", "name:te": "గోపాలపట్నం", "operator": "APSRTC", "public_transport": "platform"}, "geometry": {"type": "Point", "coordinates": [83.2188408, 17.7492856]}}, {"type": "Feature", "properties": {"osm_id": 11585567231, "osm_type": "node", "bus": "yes", "highway": "bus_stop", "name": "Naidu Thota", "name:te": "నాయుడు తోట", "operator": "APSRTC", "public_transport": "platform"}, "geometry": {"type": "Point", "coordinates": [83.2170194, 17.7683153]}}, {"type": "Feature", "properties": {"osm_id": 11585567238, "osm_type": "node", "bus": "yes", "highway": "bus_stop", "name": "Sujatha Nagar", "name:te": "సుజాత నగర్", "operator": "APSRTC", "public_transport": "platform"}, "geometry": {"type": "Point", "coordinates": [83.2107136, 17.7986359]}}, {"type": "Feature", "properties": {"osm_id": 11585574890, "osm_type": "node", "bus": "yes", "highway": "bus_stop", "name": "Urvasi", "name:te": "ఊర్వసి", "operator": "APSRTC", "public_transport": "platform", "shelter": "yes"}, "geometry": {"type": "Point", "coordinates": [83.2723935, 17.7344955]}}, {"type": "Feature", "properties": {"osm_id": 11585574891, "osm_type": "node", "bus": "yes", "highway": "bus_stop", "name": "Urvasi", "name:te": "ఊర్వసి", "operator": "APSRTC", "public_transport": "platform", "shelter": "yes"}, "geometry": {"type": "Point", "coordinates": [83.2709818, 17.7350067]}}, {"type": "Feature", "properties": {"osm_id": 11585574901, "osm_type": "node", "bench": "yes", "bin": "yes", "bus": "yes", "highway": "bus_stop", "lit": "no", "name": "NAD", "operator": "APSRTC", "public_transport": "platform", "shelter": "yes", "source": "survey", "wheelchair": "no"}, "geometry": {"type": "Point", "coordinates": [83.2324009, 17.7434982]}}, {"type": "Feature", "properties": {"osm_id": 11585678469, "osm_type": "node", "bus": "yes", "highway": "bus_stop", "name": "Gopalapatnam", "name:te": "గోపాలపట్నం", "public_transport": "platform"}, "geometry": {"type": "Point", "coordinates": [83.2178916, 17.7511312]}}, {"type": "Feature", "properties": {"osm_id": 11585678471, "osm_type": "node", "bus": "yes", "highway": "bus_stop", "name": "Gopalapatnam Bunk", "name:te": "గోపాలపట్నం బంక్", "operator": "APSRTC", "public_transport": "platform"}, "geometry": {"type": "Point", "coordinates": [83.2177002, 17.7527467]}}, {"type": "Feature", "properties": {"osm_id": 11585678475, "osm_type": "node", "bus": "yes", "highway": "bus_stop", "public_transport": "platform"}, "geometry": {"type": "Point", "coordinates": [83.2171451, 17.7626795]}}, {"type": "Feature", "properties": {"osm_id": 11609588995, "osm_type": "node", "bus": "yes", "fixme": "Please merge me into a nearby highway", "highway": "bus_stop", "name": "BUS BAY LIC STOP", "public_transport": "platform", "source": "local knowledge"}, "geometry": {"type": "Point", "coordinates": [83.3046776, 17.7234734]}}, {"type": "Feature", "properties": {"osm_id": 11647277520, "osm_type": "node", "bus": "yes", "highway": "bus_stop", "name": "Gurudwara", "public_transport": "platform"}, "geometry": {"type": "Point", "coordinates": [83.3070417, 17.7369039]}}, {"type": "Feature", "properties": {"osm_id": 11647344276, "osm_type": "node", "bench": "yes", "bus": "yes", "highway": "bus_stop", "public_transport": "platform", "shelter": "yes"}, "geometry": {"type": "Point", "coordinates": [83.2476705, 17.747236]}}, {"type": "Feature", "properties": {"osm_id": 11703280592, "osm_type": "node", "bus": "yes", "highway": "bus_stop", "name": "NAD", "name:te": "ఎన్ ఏ డి", "public_transport": "platform"}, "geometry": {"type": "Point", "coordinates": [83.2380816, 17.7418436]}}, {"type": "Feature", "properties": {"osm_id": 11725385106, "osm_type": "node", "bus": "yes", "highway": "bus_stop", "name": "Sujatha Nagar", "name:te": "సుజాత నగర్", "public_transport": "platform"}, "geometry": {"type": "Point", "coordinates": [83.2105318, 17.7998242]}}, {"type": "Feature", "properties": {"osm_id": 11725385211, "osm_type": "node", "bus": "yes", "highway": "bus_stop", "name": "Simhachalam Railway Station", "name:te": "సింహాచలం రైల్వే స్టేషన్", "operator": "APSRTC", "public_transport": "platform"}, "geometry": {"type": "Point", "coordinates": [83.2215738, 17.7466609]}}, {"type": "Feature", "properties": {"osm_id": 11725385212, "osm_type": "node", "bus": "yes", "highway": "bus_stop", "name": "Simhachalam Railway Station", "name:te": "సింహాచలం రైల్వే స్టేషన్", "public_transport": "platform"}, "geometry": {"type": "Point", "coordinates": [83.2215283, 17.7466096]}}, {"type": "Feature", "properties": {"osm_id": 11725385216, "osm_type": "node", "bus": "yes", "highway": "bus_stop", "name": "Baji Junction", "name:te": "బాజీ జంక్షన్", "operator": "APSRTC", "public_transport": "platform"}, "geometry": {"type": "Point", "coordinates": [83.2279861, 17.7441257]}}, {"type": "Feature", "properties": {"osm_id": 11725385218, "osm_type": "node", "bus": "yes", "highway": "bus_stop", "name": "NAD", "name:te": "ఎన్ ఏ డి", "public_transport": "platform"}, "geometry": {"type": "Point", "coordinates": [83.2329047, 17.7435336]}}, {"type": "Feature", "properties": {"osm_id": 11725385275, "osm_type": "node", "bus": "yes", "highway": "bus_stop", "name": "Marripalem", "name:te": "మర్రిపాలెం", "operator": "APSRTC", "public_transport": "platform"}, "geometry": {"type": "Point", "coordinates": [83.2495589, 17.740433]}}, {"type": "Feature", "properties": {"osm_id": 11725385276, "osm_type": "node", "bus": "yes", "highway": "bus_stop", "name": "104 Area", "operator": "APSRTC", "public_transport": "platform"}, "geometry": {"type": "Point", "coordinates": [83.2570021, 17.7389487]}}, {"type": "Feature", "properties": {"osm_id": 11725385277, "osm_type": "node", "bench": "yes", "bus": "yes", "highway": "bus_stop", "name": "Industrial Estate", "name:te": "ఇండస్ట్రియల్ ఎస్టేట్", "operator": "APSRTC", "public_transport": "platform", "public_transport:version": "2", "shelter": "yes"}, "geometry": {"type": "Point", "coordinates": [83.2638254, 17.7368204]}}, {"type": "Feature", "properties": {"osm_id": 11725385278, "osm_type": "node", "bus": "yes", "highway": "bus_stop", "name": "Kancharapalem", "name:te": "కంచరపాలెం", "operator": "APSRTC", "public_transport": "platform"}, "geometry": {"type": "Point", "coordinates": [83.2775564, 17.7326271]}}, {"type": "Feature", "properties": {"osm_id": 11726431493, "osm_type": "node", "bench": "yes", "bus": "yes", "highway": "bus_stop", "name": "Industrial Estate", "name:te": "ఇండస్ట్రియల్ ఎస్టేట్", "operator": "APSRTC", "public_transport": "platform", "shelter": "yes"}, "geometry": {"type": "Point", "coordinates": [83.2654109, 17.7362918]}}, {"type": "Feature", "properties": {"osm_id": 11726431513, "osm_type": "node", "bus": "yes", "highway": "bus_stop", "name": "104 Area", "operator": "APSRTC", "public_transport": "platform"}, "geometry": {"type": "Point", "coordinates": [83.2564448, 17.7389645]}}, {"type": "Feature", "properties": {"osm_id": 11726431547, "osm_type": "node", "bus": "yes", "highway": "bus_stop", "name": "Marripalem Bus Stop", "name:te": "మర్రిపాలెం Bus Stop", "operator": "APSRTC", "public_transport": "platform"}, "geometry": {"type": "Point", "coordinates": [83.2495211, 17.7402894]}}, {"type": "Feature", "properties": {"osm_id": 11726451616, "osm_type": "node", "bus": "yes", "highway": "bus_stop", "name": "Gnanapuram", "public_transport": "platform"}, "geometry": {"type": "Point", "coordinates": [83.2875779, 17.7198559]}}, {"type": "Feature", "properties": {"osm_id": 11726451621, "osm_type": "node", "bus": "yes", "highway": "bus_stop", "name": "Gnanapuram", "operator": "APSRTC", "public_transport": "platform"}, "geometry": {"type": "Point", "coordinates": [83.2869877, 17.7210917]}}, {"type": "Feature", "properties": {"osm_id": 11726451622, "osm_type": "node", "bus": "yes", "highway": "bus_stop", "name": "Convent Junction", "operator": "APSRTC", "public_transport": "platform"}, "geometry": {"type": "Point", "coordinates": [83.2891605, 17.7180036]}}, {"type": "Feature", "properties": {"osm_id": 11726451627, "osm_type": "node", "bus": "yes", "highway": "bus_stop", "name": "Convent Junction", "operator": "APSRTC", "public_transport": "platform"}, "geometry": {"type": "Point", "coordinates": [83.2890157, 17.7179431]}}, {"type": "Feature", "properties": {"osm_id": 11728007272, "osm_type": "node", "bus": "yes", "highway": "bus_stop", "name": "Baji Junction", "name:te": "బాజీ జంక్షన్", "operator": "APSRTC", "public_transport": "platform"}, "geometry": {"type": "Point", "coordinates": [83.2288359, 17.7438445]}}, {"type": "Feature", "properties": {"osm_id": 11728007290, "osm_type": "node", "bus": "yes", "highway": "bus_stop", "operator": "APSRTC", "public_transport": "platform"}, "geometry": {"type": "Point", "coordinates": [83.2267097, 17.7743425]}}, {"type": "Feature", "properties": {"osm_id": 11728007295, "osm_type": "node", "bench": "yes", "bus": "yes", "highway": "bus_stop", "operator": "APSRTC", "public_transport": "platform", "shelter": "yes"}, "geometry": {"type": "Point", "coordinates": [83.2283205, 17.7740619]}}, {"type": "Feature", "properties": {"osm_id": 11728007301, "osm_type": "node", "bench": "yes", "bus": "yes", "highway": "bus_stop", "operator": "APSRTC", "public_transport": "platform", "shelter": "yes"}, "geometry": {"type": "Point", "coordinates": [83.2329655, 17.7722806]}}, {"type": "Feature", "properties": {"osm_id": 11728007306, "osm_type": "node", "bench": "yes", "bus": "yes", "highway": "bus_stop", "operator": "APSRTC", "public_transport": "platform", "shelter": "yes"}, "geometry": {"type": "Point", "coordinates": [83.2346923, 17.7718618]}}, {"type": "Feature", "properties": {"osm_id": 11730346646, "osm_type": "node", "bus": "yes", "highway": "bus_stop", "name": "Kakani Nagar", "name:te": "కాకాని నగర్", "operator": "APSRTC", "operator:wikidata": "Q4754395", "operator:wikipedia": "en:Andhra Pradesh State Road Transport Corporation", "public_transport": "platform"}, "geometry": {"type": "Point", "coordinates": [83.2315249, 17.7359691]}}, {"type": "Feature", "properties": {"osm_id": 11730346647, "osm_type": "node", "bus": "yes", "highway": "bus_stop", "name": "Kakani Nagar", "name:te": "కాకాని నగర్", "operator": "APSRTC", "operator:wikidata": "Q4754395", "operator:wikipedia": "en:Andhra Pradesh State Road Transport Corporation", "public_transport": "platform"}, "geometry": {"type": "Point", "coordinates": [83.2312961, 17.7361415]}}, {"type": "Feature", "properties": {"osm_id": 11730346648, "osm_type": "node", "bus": "yes", "highway": "bus_stop", "name": "Airport", "name:te": "ఎఐర్ పొర్టు", "operator": "APSRTC", "operator:wikidata": "Q4754395", "operator:wikipedia": "en:Andhra Pradesh State Road Transport Corporation", "public_transport": "platform"}, "geometry": {"type": "Point", "coordinates": [83.2238286, 17.73227]}}, {"type": "Feature", "properties": {"osm_id": 11730346649, "osm_type": "node", "bus": "yes", "highway": "bus_stop", "name": "Airport", "name:te": "ఎఐర్ పొర్టు", "operator": "APSRTC", "operator:wikidata": "Q4754395", "operator:wikipedia": "en:Andhra Pradesh State Road Transport Corporation", "public_transport": "platform"}, "geometry": {"type": "Point", "coordinates": [83.2232088, 17.7322604]}}, {"type": "Feature", "properties": {"osm_id": 11730346650, "osm_type": "node", "bus": "yes", "highway": "bus_stop", "name": "Sheela Nagar", "name:te": "షీలా నగర్", "operator": "APSRTC", "operator:wikidata": "Q4754395", "operator:wikipedia": "en:Andhra Pradesh State Road Transport Corporation", "public_transport": "platform"}, "geometry": {"type": "Point", "coordinates": [83.2039327, 17.7184776]}}, {"type": "Feature", "properties": {"osm_id": 11730346651, "osm_type": "node", "bus": "yes", "highway": "bus_stop", "name": "Sheela Nagar", "name:te": "షీలా నగర్", "operator": "APSRTC", "operator:wikidata": "Q4754395", "operator:wikipedia": "en:Andhra Pradesh State Road Transport Corporation", "public_transport": "platform"}, "geometry": {"type": "Point", "coordinates": [83.2036009, 17.7187707]}}, {"type": "Feature", "properties": {"osm_id": 11730346652, "osm_type": "node", "bus": "yes", "highway": "bus_stop", "name": "Akkireddy palem", "name:te": "అక్కిరెడ్డి పాలెం", "operator": "APSRTC", "operator:wikidata": "Q4754395", "operator:wikipedia": "en:Andhra Pradesh State Road Transport Corporation", "public_transport": "platform"}, "geometry": {"type": "Point", "coordinates": [83.205199, 17.7107089]}}, {"type": "Feature", "properties": {"osm_id": 11730346653, "osm_type": "node", "bus": "yes", "highway": "bus_stop", "name": "Akkireddy palem", "name:te": "అక్కిరెడ్డి పాలెం", "operator": "APSRTC", "operator:wikidata": "Q4754395", "operator:wikipedia": "en:Andhra Pradesh State Road Transport Corporation", "public_transport": "platform"}, "geometry": {"type": "Point", "coordinates": [83.204832, 17.7102828]}}, {"type": "Feature", "properties": {"osm_id": 11730387492, "osm_type": "node", "bus": "yes", "highway": "bus_stop", "name": "BHPV", "name:te": "బి.హ్.పి.వి", "operator": "APSRTC", "operator:wikidata": "Q4754395", "operator:wikipedia": "en:Andhra Pradesh State Road Transport Corporation", "public_transport": "platform"}, "geometry": {"type": "Point", "coordinates": [83.2056625, 17.7015025]}}, {"type": "Feature", "properties": {"osm_id": 11730387493, "osm_type": "node", "bus": "yes", "highway": "bus_stop", "name": "BHPV", "name:te": "బి.హ్.పి.వి", "operator": "APSRTC", "operator:wikidata": "Q4754395", "operator:wikipedia": "en:Andhra Pradesh State Road Transport Corporation", "public_transport": "platform"}, "geometry": {"type": "Point", "coordinates": [83.2053126, 17.7014244]}}, {"type": "Feature", "properties": {"osm_id": 11730387543, "osm_type": "node", "bench": "yes", "bin": "yes", "bus": "yes", "highway": "bus_stop", "lit": "yes", "name": "Auto Nagar", "name:te": "ఆటో నగర్", "operator": "APSRTC", "operator:wikidata": "Q4754395", "operator:wikipedia": "en:Andhra Pradesh State Road Transport Corporation", "public_transport": "platform", "shelter": "yes"}, "geometry": {"type": "Point", "coordinates": [83.2055358, 17.6937368]}}, {"type": "Feature", "properties": {"osm_id": 11730387544, "osm_type": "node", "bench": "yes", "bin": "yes", "bus": "yes", "highway": "bus_stop", "lit": "yes", "name": "Auto Nagar", "name:te": "ఆటో నగర్", "operator": "APSRTC", "operator:wikidata": "Q4754395", "operator:wikipedia": "en:Andhra Pradesh State Road Transport Corporation", "public_transport": "platform", "shelter": "yes"}, "geometry": {"type": "Point", "coordinates": [83.2049656, 17.6936652]}}, {"type": "Feature", "properties": {"osm_id": 11739951543, "osm_type": "node", "bus": "yes", "highway": "bus_stop", "name": "Maddilapalem", "name:te": "మద్దిలపాలెం", "public_transport": "platform"}, "geometry": {"type": "Point", "coordinates": [83.3208149, 17.7355643]}}, {"type": "Feature", "properties": {"osm_id": 11740884409, "osm_type": "node", "bus": "yes", "highway": "bus_stop", "name": "Bullayya College", "public_transport": "platform"}, "geometry": {"type": "Point", "coordinates": [83.3158887, 17.7307705]}}, {"type": "Feature", "properties": {"osm_id": 11740884413, "osm_type": "node", "bus": "yes", "highway": "bus_stop", "public_transport": "platform"}, "geometry": {"type": "Point", "coordinates": [83.32766, 17.7420862]}}, {"type": "Feature", "properties": {"osm_id": 11740884418, "osm_type": "node", "bus": "yes", "highway": "bus_stop", "name": "Old Dairy Farm", "public_transport": "platform"}, "geometry": {"type": "Point", "coordinates": [83.3339167, 17.7598198]}}, {"type": "Feature", "properties": {"osm_id": 11741089416, "osm_type": "node", "bus": "yes", "highway": "bus_stop", "name": "Pedda Gadhili", "name:te": "పెద్ద గదిలి", "operator": "APSRTC", "public_transport": "platform"}, "geometry": {"type": "Point", "coordinates": [83.3219468, 17.7591421]}}, {"type": "Feature", "properties": {"osm_id": 11741089420, "osm_type": "node", "bus": "yes", "highway": "bus_stop", "name": "Netaji Nagar", "public_transport": "platform"}, "geometry": {"type": "Point", "coordinates": [83.3095131, 17.761751]}}, {"type": "Feature", "properties": {"osm_id": 11741089423, "osm_type": "node", "bus": "yes", "highway": "bus_stop", "public_transport": "platform"}, "geometry": {"type": "Point", "coordinates": [83.2870806, 17.7667982]}}, {"type": "Feature", "properties": {"osm_id": 11741089425, "osm_type": "node", "bus": "yes", "highway": "bus_stop", "operator": "APSRTC", "public_transport": "platform", "shelter": "yes"}, "geometry": {"type": "Point", "coordinates": [83.2573358, 17.7811192]}}, {"type": "Feature", "properties": {"osm_id": 11741089426, "osm_type": "node", "bench": "no", "bus": "yes", "highway": "bus_stop", "name": "Adavivaram Junction", "operator": "APSRTC", "public_transport": "platform", "shelter": "no"}, "geometry": {"type": "Point", "coordinates": [83.2526927, 17.7801669]}}, {"type": "Feature", "properties": {"osm_id": 11741089431, "osm_type": "node", "bench": "no", "bus": "yes", "highway": "bus_stop", "public_transport": "platform", "shelter": "no"}, "geometry": {"type": "Point", "coordinates": [83.2192993, 17.7748996]}}, {"type": "Feature", "properties": {"osm_id": 11741089432, "osm_type": "node", "bench": "no", "bus": "yes", "highway": "bus_stop", "public_transport": "platform", "shelter": "no"}, "geometry": {"type": "Point", "coordinates": [83.2193247, 17.7750591]}}, {"type": "Feature", "properties": {"osm_id": 11741875834, "osm_type": "node", "bus": "yes", "highway": "bus_stop", "name": "Rama Talkies", "name:te": "రామా టాకీస్", "operator": "APSRTC", "public_transport": "platform"}, "geometry": {"type": "Point", "coordinates": [83.311448, 17.7278055]}}, {"type": "Feature", "properties": {"osm_id": 11744893143, "osm_type": "node", "bus": "yes", "highway": "bus_stop", "name": "NAD", "name:te": "ఎన్ ఏ డి", "public_transport": "platform"}, "geometry": {"type": "Point", "coordinates": [83.2377676, 17.7420004]}}, {"type": "Feature", "properties": {"osm_id": 11816052016, "osm_type": "node", "bus": "yes", "highway": "bus_stop", "public_transport": "platform"}, "geometry": {"type": "Point", "coordinates": [83.3406618, 17.7329357]}}, {"type": "Feature", "properties": {"osm_id": 11816060074, "osm_type": "node", "bus": "yes", "highway": "bus_stop", "name": "Appughar Bus Stop", "public_transport": "platform"}, "geometry": {"type": "Point", "coordinates": [83.3437849, 17.7421997]}}, {"type": "Feature", "properties": {"osm_id": 12171321608, "osm_type": "node", "bus": "yes", "highway": "bus_stop", "name": "Ravindra Nagar", "public_transport": "platform"}, "geometry": {"type": "Point", "coordinates": [83.3231333, 17.7651706]}}, {"type": "Feature", "properties": {"osm_id": 12282187671, "osm_type": "node", "bus": "yes", "highway": "bus_stop", "name": "Birla Junction", "public_transport": "platform"}, "geometry": {"type": "Point", "coordinates": [83.259731, 17.7432802]}}, {"type": "Feature", "properties": {"osm_id": 12282187672, "osm_type": "node", "bus": "yes", "highway": "bus_stop", "name": "Birla Junction", "public_transport": "platform"}, "geometry": {"type": "Point", "coordinates": [83.2604463, 17.7432887]}}, {"type": "Feature", "properties": {"osm_id": 12364878520, "osm_type": "node", "bus": "yes", "highway": "bus_stop", "public_transport": "platform"}, "geometry": {"type": "Point", "coordinates": [83.3031519, 17.7204867]}}, {"type": "Feature", "properties": {"osm_id": 12438429654, "osm_type": "node", "highway": "bus_stop", "name": "Port Hospital"}, "geometry": {"type": "Point", "coordinates": [83.2932658, 17.7387709]}}, {"type": "Feature", "properties": {"osm_id": 12441119183, "osm_type": "node", "bus": "yes", "highway": "bus_stop", "public_transport": "platform"}, "geometry": {"type": "Point", "coordinates": [83.3146953, 17.7300267]}}, {"type": "Feature", "properties": {"osm_id": 12470766542, "osm_type": "node", "bench": "yes", "bus": "yes", "highway": "bus_stop", "public_transport": "platform", "shelter": "no"}, "geometry": {"type": "Point", "coordinates": [83.2776828, 17.735331]}}, {"type": "Feature", "properties": {"osm_id": 12531583245, "osm_type": "node", "highway": "bus_stop"}, "geometry": {"type": "Point", "coordinates": [83.3382416, 17.7414492]}}, {"type": "Feature", "properties": {"osm_id": 12531584211, "osm_type": "node", "bus": "yes", "highway": "bus_stop", "public_transport": "platform"}, "geometry": {"type": "Point", "coordinates": [83.3279994, 17.7289717]}}, {"type": "Feature", "properties": {"osm_id": 12531584305, "osm_type": "node", "bus": "yes", "highway": "bus_stop", "name": "Sagar Nagar", "public_transport": "platform"}, "geometry": {"type": "Point", "coordinates": [83.3613448, 17.7645311]}}, {"type": "Feature", "properties": {"osm_id": 12531584306, "osm_type": "node", "bus": "yes", "highway": "bus_stop", "public_transport": "platform"}, "geometry": {"type": "Point", "coordinates": [83.3278373, 17.7291157]}}, {"type": "Feature", "properties": {"osm_id": 12531593663, "osm_type": "node", "bus": "yes", "highway": "bus_stop", "public_transport": "platform"}, "geometry": {"type": "Point", "coordinates": [83.3497511, 17.7515317]}}, {"type": "Feature", "properties": {"osm_id": 12531596095, "osm_type": "node", "bench": "yes", "highway": "bus_stop", "name": "Akayyapalem North", "shelter": "yes"}, "geometry": {"type": "Point", "coordinates": [83.2994417, 17.7407425]}}, {"type": "Feature", "properties": {"osm_id": 12531598713, "osm_type": "node", "bus": "yes", "description": "900 and 900k stop here", "highway": "bus_stop", "name": "Pedda Waltair", "public_transport": "platform"}, "geometry": {"type": "Point", "coordinates": [83.3347909, 17.7309057]}}, {"type": "Feature", "properties": {"osm_id": 12531602063, "osm_type": "node", "bus": "yes", "highway": "bus_stop", "name": "Sagar Nagar", "public_transport": "platform"}, "geometry": {"type": "Point", "coordinates": [83.3609498, 17.764071]}}, {"type": "Feature", "properties": {"osm_id": 12532234399, "osm_type": "node", "bus": "yes", "highway": "bus_stop", "name": "Thatichetlapalem", "public_transport": "platform"}, "geometry": {"type": "Point", "coordinates": [83.2881805, 17.7353625]}}, {"type": "Feature", "properties": {"osm_id": 12618255448, "osm_type": "node", "bench": "yes", "bus": "yes", "highway": "bus_stop", "name": "Visakhapatnam Railway Station", "name:te": "విశాఖపట్నం రైల్వే స్టేషన్", "operator": "APSRTC", "public_transport": "platform", "shelter": "yes"}, "geometry": {"type": "Point", "coordinates": [83.2912803, 17.7219335]}}, {"type": "Feature", "properties": {"osm_id": 12713272986, "osm_type": "node", "bus": "yes", "highway": "bus_stop", "name": "KGH In Gate", "public_transport": "platform"}, "geometry": {"type": "Point", "coordinates": [83.3066926, 17.7087614]}}, {"type": "Feature", "properties": {"osm_id": 12713272988, "osm_type": "node", "bus": "yes", "highway": "bus_stop", "name": "KGH Out Gate", "public_transport": "platform"}, "geometry": {"type": "Point", "coordinates": [83.3050784, 17.7095709]}}, {"type": "Feature", "properties": {"osm_id": 12716203398, "osm_type": "node", "bus": "yes", "highway": "bus_stop", "name": "Hanumanthuwaka", "public_transport": "platform"}, "geometry": {"type": "Point", "coordinates": [83.3319782, 17.7547414]}}, {"type": "Feature", "properties": {"osm_id": 12837010519, "osm_type": "node", "bus": "yes", "highway": "bus_stop", "public_transport": "platform"}, "geometry": {"type": "Point", "coordinates": [83.20502, 17.6943062]}}, {"type": "Feature", "properties": {"osm_id": 12837010536, "osm_type": "node", "bus": "yes", "highway": "bus_stop", "name": "Auto Nagar", "public_transport": "platform"}, "geometry": {"type": "Point", "coordinates": [83.1886798, 17.6836978]}}, {"type": "Feature", "properties": {"osm_id": 12837010542, "osm_type": "node", "bus": "yes", "highway": "bus_stop", "public_transport": "platform"}, "geometry": {"type": "Point", "coordinates": [83.1965929, 17.6834568]}}, {"type": "Feature", "properties": {"osm_id": 12837010545, "osm_type": "node", "bus": "yes", "highway": "bus_stop", "public_transport": "platform"}, "geometry": {"type": "Point", "coordinates": [83.2041255, 17.6855438]}}, {"type": "Feature", "properties": {"osm_id": 12837010549, "osm_type": "node", "bus": "yes", "highway": "bus_stop", "public_transport": "platform"}, "geometry": {"type": "Point", "coordinates": [83.2143075, 17.6857234]}}, {"type": "Feature", "properties": {"osm_id": 12837010559, "osm_type": "node", "bus": "yes", "highway": "bus_stop", "public_transport": "platform"}, "geometry": {"type": "Point", "coordinates": [83.2242786, 17.690263]}}, {"type": "Feature", "properties": {"osm_id": 12837010563, "osm_type": "node", "bus": "yes", "highway": "bus_stop", "public_transport": "platform"}, "geometry": {"type": "Point", "coordinates": [83.2332322, 17.6902449]}}, {"type": "Feature", "properties": {"osm_id": 12837010566, "osm_type": "node", "bus": "yes", "highway": "bus_stop", "public_transport": "platform"}, "geometry": {"type": "Point", "coordinates": [83.245469, 17.688751]}}, {"type": "Feature", "properties": {"osm_id": 12837010569, "osm_type": "node", "bus": "yes", "highway": "bus_stop", "public_transport": "platform"}, "geometry": {"type": "Point", "coordinates": [83.26083, 17.6875708]}}, {"type": "Feature", "properties": {"osm_id": 12837010571, "osm_type": "node", "bus": "yes", "highway": "bus_stop", "name": "Scindia Junction", "public_transport": "platform"}, "geometry": {"type": "Point", "coordinates": [83.2683334, 17.688621]}}, {"type": "Feature", "properties": {"osm_id": 12837010572, "osm_type": "node", "bus": "yes", "highway": "bus_stop", "name": "Scindia Junction", "public_transport": "platform"}, "geometry": {"type": "Point", "coordinates": [83.2679792, 17.6879511]}}, {"type": "Feature", "properties": {"osm_id": 12837010573, "osm_type": "node", "bus": "yes", "highway": "bus_stop", "name": "Scindia Junction", "public_transport": "platform"}, "geometry": {"type": "Point", "coordinates": [83.2679741, 17.6881768]}}, {"type": "Feature", "properties": {"osm_id": 12837010574, "osm_type": "node", "bus": "yes", "highway": "bus_stop", "public_transport": "platform"}, "geometry": {"type": "Point", "coordinates": [83.2604629, 17.6872998]}}, {"type": "Feature", "properties": {"osm_id": 12837010575, "osm_type": "node", "bus": "yes", "highway": "bus_stop", "public_transport": "platform"}, "geometry": {"type": "Point", "coordinates": [83.246285, 17.68841]}}, {"type": "Feature", "properties": {"osm_id": 12837010577, "osm_type": "node", "bus": "yes", "highway": "bus_stop", "public_transport": "platform"}, "geometry": {"type": "Point", "coordinates": [83.2375988, 17.6895761]}}, {"type": "Feature", "properties": {"osm_id": 12837010581, "osm_type": "node", "bus": "yes", "highway": "bus_stop", "public_transport": "platform"}, "geometry": {"type": "Point", "coordinates": [83.2240454, 17.6900091]}}, {"type": "Feature", "properties": {"osm_id": 12837010582, "osm_type": "node", "bus": "yes", "highway": "bus_stop", "public_transport": "platform"}, "geometry": {"type": "Point", "coordinates": [83.2140338, 17.6854852]}}, {"type": "Feature", "properties": {"osm_id": 12837273906, "osm_type": "node", "bus": "yes", "highway": "bus_stop", "name": "Airport", "public_transport": "platform"}, "geometry": {"type": "Point", "coordinates": [83.2261683, 17.7336861]}}, {"type": "Feature", "properties": {"osm_id": 12837273908, "osm_type": "node", "bus": "yes", "highway": "bus_stop", "name": "Kakani Nagar", "public_transport": "platform"}, "geometry": {"type": "Point", "coordinates": [83.2302337, 17.735634]}}, {"type": "Feature", "properties": {"osm_id": 12864632995, "osm_type": "node", "bus": "yes", "highway": "bus_stop", "public_transport": "platform"}, "geometry": {"type": "Point", "coordinates": [83.2993581, 17.7111908]}}, {"type": "Feature", "properties": {"osm_id": 12864658092, "osm_type": "node", "highway": "bus_stop"}, "geometry": {"type": "Point", "coordinates": [83.1880231, 17.6834781]}}, {"type": "Feature", "properties": {"osm_id": 12864663407, "osm_type": "node", "bus": "yes", "highway": "bus_stop", "public_transport": "platform"}, "geometry": {"type": "Point", "coordinates": [83.2945765, 17.7025926]}}, {"type": "Feature", "properties": {"osm_id": 12864702491, "osm_type": "node", "bus": "yes", "highway": "bus_stop", "name": "Jagadamba", "public_transport": "platform"}, "geometry": {"type": "Point", "coordinates": [83.3023, 17.7115136]}}, {"type": "Feature", "properties": {"osm_id": 12864704246, "osm_type": "node", "bus": "yes", "highway": "bus_stop", "public_transport": "platform"}, "geometry": {"type": "Point", "coordinates": [83.2971852, 17.7079208]}}, {"type": "Feature", "properties": {"osm_id": 12864704507, "osm_type": "node", "highway": "bus_stop"}, "geometry": {"type": "Point", "coordinates": [83.2682852, 17.6922021]}}, {"type": "Feature", "properties": {"osm_id": 12864717146, "osm_type": "node", "highway": "bus_stop", "name": "Satavahana"}, "geometry": {"type": "Point", "coordinates": [83.269491, 17.697878]}}, {"type": "Feature", "properties": {"osm_id": 12864720800, "osm_type": "node", "bus": "yes", "highway": "bus_stop", "public_transport": "platform"}, "geometry": {"type": "Point", "coordinates": [83.1950837, 17.6832636]}}, {"type": "Feature", "properties": {"osm_id": 12864721503, "osm_type": "node", "bus": "yes", "highway": "bus_stop", "public_transport": "platform"}, "geometry": {"type": "Point", "coordinates": [83.2961642, 17.7062058]}}, {"type": "Feature", "properties": {"osm_id": 12864723742, "osm_type": "node", "bus": "yes", "highway": "bus_stop", "public_transport": "platform"}, "geometry": {"type": "Point", "coordinates": [83.3006511, 17.708747]}}, {"type": "Feature", "properties": {"osm_id": 12864803887, "osm_type": "node", "bus": "yes", "highway": "bus_stop", "name": "RTC Complex", "public_transport": "platform"}, "geometry": {"type": "Point", "coordinates": [83.3076171, 17.7217267]}}, {"type": "Feature", "properties": {"osm_id": 12864803888, "osm_type": "node", "bus": "yes", "highway": "bus_stop", "name": "RTC Complex North", "public_transport": "platform"}, "geometry": {"type": "Point", "coordinates": [83.3068681, 17.7244765]}}, {"type": "Feature", "properties": {"osm_id": 12864862192, "osm_type": "node", "bus": "yes", "highway": "bus_stop", "name": "Old Post Office", "public_transport": "platform"}, "geometry": {"type": "Point", "coordinates": [83.292029, 17.6937572]}}, {"type": "Feature", "properties": {"osm_id": 12882743841, "osm_type": "node", "bus": "yes", "highway": "bus_stop", "public_transport": "platform"}, "geometry": {"type": "Point", "coordinates": [83.2915319, 17.7275715]}}, {"type": "Feature", "properties": {"osm_id": 12882743842, "osm_type": "node", "bus": "yes", "highway": "bus_stop", "public_transport": "platform"}, "geometry": {"type": "Point", "coordinates": [83.2934449, 17.7237109]}}, {"type": "Feature", "properties": {"osm_id": 12882801550, "osm_type": "node", "bus": "yes", "highway": "bus_stop", "name": "Kancharapalem", "name:te": "కంచరపాలెం", "operator": "APSRTC", "public_transport": "platform"}, "geometry": {"type": "Point", "coordinates": [83.2779439, 17.7323028]}}, {"type": "Feature", "properties": {"osm_id": 12890339577, "osm_type": "node", "bus": "yes", "highway": "bus_stop", "name": "Srinivasa Nagar", "public_transport": "platform"}, "geometry": {"type": "Point", "coordinates": [83.2284013, 17.7676663]}}, {"type": "Feature", "properties": {"osm_id": 12892272829, "osm_type": "node", "bus": "yes", "highway": "bus_stop", "name": "Zoo Park", "network": "Visakhapatnam City Bus", "public_transport": "platform", "shelter": "yes"}, "geometry": {"type": "Point", "coordinates": [83.3552119, 17.760557]}}, {"type": "Feature", "properties": {"osm_id": 12892272830, "osm_type": "node", "bus": "yes", "highway": "bus_stop", "network": "Visakhapatnam City Bus", "public_transport": "platform", "shelter": "yes"}, "geometry": {"type": "Point", "coordinates": [83.34549, 17.7442353]}}, {"type": "Feature", "properties": {"osm_id": 12892272831, "osm_type": "node", "bus": "yes", "highway": "bus_stop", "name": "Visakha Eye Hospital", "network": "Visakhapatnam City Bus", "public_transport": "platform", "shelter": "yes"}, "geometry": {"type": "Point", "coordinates": [83.3329883, 17.7318247]}}, {"type": "Feature", "properties": {"osm_id": 12892350304, "osm_type": "node", "bus": "yes", "highway": "bus_stop", "name": "Peda Rushikonda", "network": "Visakhapatnam City Bus", "public_transport": "platform", "shelter": "yes"}, "geometry": {"type": "Point", "coordinates": [83.3875962, 17.7911475]}}, {"type": "Feature", "properties": {"osm_id": 12892350305, "osm_type": "node", "bus": "yes", "highway": "bus_stop", "name": "Rushikonda Junction", "network": "Visakhapatnam City Bus", "public_transport": "platform", "shelter": "yes"}, "geometry": {"type": "Point", "coordinates": [83.3835125, 17.7846189]}}, {"type": "Feature", "properties": {"osm_id": 12892350306, "osm_type": "node", "bus": "yes", "highway": "bus_stop", "name": "GITAM", "network": "Visakhapatnam City Bus", "public_transport": "platform", "shelter": "yes"}, "geometry": {"type": "Point", "coordinates": [83.3808663, 17.7809412]}}, {"type": "Feature", "properties": {"osm_id": 12892350307, "osm_type": "node", "bus": "yes", "highway": "bus_stop", "network": "Visakhapatnam City Bus", "public_transport": "platform", "shelter": "yes"}, "geometry": {"type": "Point", "coordinates": [83.3793751, 17.7772127]}}, {"type": "Feature", "properties": {"osm_id": 12892454200, "osm_type": "node", "bus": "yes", "highway": "bus_stop", "name": "GITAM", "network": "Visakhapatnam City Bus", "public_transport": "platform", "shelter": "yes"}, "geometry": {"type": "Point", "coordinates": [83.3805823, 17.7811234]}}, {"type": "Feature", "properties": {"osm_id": 12892455001, "osm_type": "node", "bus": "yes", "highway": "bus_stop", "name": "Rushikonda Junction", "network": "Visakhapatnam City Bus", "public_transport": "platform", "shelter": "yes"}, "geometry": {"type": "Point", "coordinates": [83.3832426, 17.7847487]}}, {"type": "Feature", "properties": {"osm_id": 12892455002, "osm_type": "node", "bus": "yes", "highway": "bus_stop", "name": "Peda Rushikonda", "network": "Visakhapatnam City Bus", "public_transport": "platform", "shelter": "yes"}, "geometry": {"type": "Point", "coordinates": [83.3875965, 17.7914066]}}, {"type": "Feature", "properties": {"osm_id": 12892455029, "osm_type": "node", "bus": "yes", "highway": "bus_stop", "name": "Zoo Park", "network": "Visakhapatnam City Bus", "public_transport": "platform", "shelter": "yes"}, "geometry": {"type": "Point", "coordinates": [83.3550508, 17.7607169]}}, {"type": "Feature", "properties": {"osm_id": 12892455128, "osm_type": "node", "bus": "yes", "highway": "bus_stop", "name": "Tenneti Park", "public_transport": "platform"}, "geometry": {"type": "Point", "coordinates": [83.3494569, 17.7483001]}}, {"type": "Feature", "properties": {"osm_id": 12949181539, "osm_type": "node", "bus": "yes", "highway": "bus_stop", "name": "Narava", "name:te": "నరవ", "public_transport": "platform"}, "geometry": {"type": "Point", "coordinates": [83.1825051, 17.7440792]}}, {"type": "Feature", "properties": {"osm_id": 12949181540, "osm_type": "node", "bus": "yes", "highway": "bus_stop", "name": "M.E.S. Pump House", "public_transport": "platform"}, "geometry": {"type": "Point", "coordinates": [83.1996667, 17.7397822]}}, {"type": "Feature", "properties": {"osm_id": 12949181542, "osm_type": "node", "bus": "yes", "highway": "bus_stop", "name": "Bhagat Singh Nagar Junction", "public_transport": "platform"}, "geometry": {"type": "Point", "coordinates": [83.2123892, 17.7386278]}}, {"type": "Feature", "properties": {"osm_id": 12949181544, "osm_type": "node", "bus": "yes", "highway": "bus_stop", "name": "Kothapalem Junction", "public_transport": "platform"}, "geometry": {"type": "Point", "coordinates": [83.2149854, 17.7476701]}}, {"type": "Feature", "properties": {"osm_id": 12949181545, "osm_type": "node", "bus": "yes", "highway": "bus_stop", "name": "Old Gopalapatnam", "public_transport": "platform"}, "geometry": {"type": "Point", "coordinates": [83.2251468, 17.7422503]}}, {"type": "Feature", "properties": {"osm_id": 12982531600, "osm_type": "node", "bus": "yes", "highway": "bus_stop", "public_transport": "platform"}, "geometry": {"type": "Point", "coordinates": [83.331004, 17.7633544]}}, {"type": "Feature", "properties": {"osm_id": 12982545639, "osm_type": "node", "bus": "yes", "highway": "bus_stop", "public_transport": "platform"}, "geometry": {"type": "Point", "coordinates": [83.3531268, 17.7984627]}}, {"type": "Feature", "properties": {"osm_id": 12994125790, "osm_type": "node", "bus": "yes", "highway": "bus_stop", "name": "Netaji Nagar", "public_transport": "platform"}, "geometry": {"type": "Point", "coordinates": [83.3095145, 17.7618239]}}, {"type": "Feature", "properties": {"osm_id": 12994323976, "osm_type": "node", "bus": "yes", "highway": "bus_stop", "name": "KGH Out Gate", "public_transport": "platform"}, "geometry": {"type": "Point", "coordinates": [83.3051352, 17.7097331]}}, {"type": "Feature", "properties": {"osm_id": 12994323977, "osm_type": "node", "bus": "yes", "highway": "bus_stop", "name": "KGH In Gate", "public_transport": "platform"}, "geometry": {"type": "Point", "coordinates": [83.3068934, 17.7088993]}}, {"type": "Feature", "properties": {"osm_id": 12994323978, "osm_type": "node", "bus": "yes", "highway": "bus_stop", "name": "RK Beach", "operator": "APSRTC", "public_transport": "platform"}, "geometry": {"type": "Point", "coordinates": [83.3177678, 17.711361]}}, {"type": "Feature", "properties": {"osm_id": 12994323995, "osm_type": "node", "bus": "yes", "highway": "bus_stop", "name": "Tenneti Park", "public_transport": "platform"}, "geometry": {"type": "Point", "coordinates": [83.3492632, 17.7482981]}}, {"type": "Feature", "properties": {"osm_id": 12994391718, "osm_type": "node", "bus": "yes", "highway": "bus_stop", "name": "VUDA Park", "operator": "APSRTC", "public_transport": "platform"}, "geometry": {"type": "Point", "coordinates": [83.3389394, 17.7253811]}}, {"type": "Feature", "properties": {"osm_id": 12994391719, "osm_type": "node", "bus": "yes", "highway": "bus_stop", "name": "VUDA Park", "operator": "APSRTC", "public_transport": "platform"}, "geometry": {"type": "Point", "coordinates": [83.3388912, 17.7261418]}}, {"type": "Feature", "properties": {"osm_id": 12994391721, "osm_type": "node", "bus": "yes", "highway": "bus_stop", "name": "Kailasagiri Bus Stop", "public_transport": "platform", "shelter": "yes"}, "geometry": {"type": "Point", "coordinates": [83.3460218, 17.7474965]}}, {"type": "Feature", "properties": {"osm_id": 13083819851, "osm_type": "node", "bus": "yes", "highway": "bus_stop", "name": "Old Dairy Farm", "public_transport": "platform"}, "geometry": {"type": "Point", "coordinates": [83.3361134, 17.763125]}}, {"type": "Feature", "properties": {"osm_id": 13083852919, "osm_type": "node", "bus": "yes", "highway": "bus_stop", "public_transport": "platform"}, "geometry": {"type": "Point", "coordinates": [83.2915259, 17.7278789]}}, {"type": "Feature", "properties": {"osm_id": 13083852920, "osm_type": "node", "bus": "yes", "highway": "bus_stop", "name": "Diamond Park", "public_transport": "platform"}, "geometry": {"type": "Point", "coordinates": [83.3030963, 17.7270221]}}, {"type": "Feature", "properties": {"osm_id": 13083852921, "osm_type": "node", "bus": "yes", "highway": "bus_stop", "public_transport": "platform"}, "geometry": {"type": "Point", "coordinates": [83.306471, 17.7292718]}}, {"type": "Feature", "properties": {"osm_id": 13083852922, "osm_type": "node", "bus": "yes", "highway": "bus_stop", "name": "Dondaparthy", "public_transport": "platform"}, "geometry": {"type": "Point", "coordinates": [83.2991262, 17.727248]}}, {"type": "Feature", "properties": {"osm_id": 13318612059, "osm_type": "node", "bus": "yes", "highway": "bus_stop", "public_transport": "platform"}, "geometry": {"type": "Point", "coordinates": [83.3194189, 17.712431]}}, {"type": "Feature", "properties": {"osm_id": 13319044892, "osm_type": "node", "bus": "yes", "highway": "bus_stop", "name": "Madhavadara Vuda Colony", "public_transport": "platform", "shelter": "yes"}, "geometry": {"type": "Point", "coordinates": [83.247088, 17.7504629]}}, {"type": "Feature", "properties": {"osm_id": 13319047222, "osm_type": "node", "bus": "yes", "highway": "bus_stop", "public_transport": "platform"}, "geometry": {"type": "Point", "coordinates": [83.2498538, 17.7502871]}}, {"type": "Feature", "properties": {"osm_id": 13368779183, "osm_type": "node", "bus": "yes", "highway": "bus_stop", "public_transport": "platform"}, "geometry": {"type": "Point", "coordinates": [83.3375515, 17.723837]}}, {"type": "Feature", "properties": {"osm_id": 13408906303, "osm_type": "node", "bus": "yes", "highway": "bus_stop", "public_transport": "platform"}, "geometry": {"type": "Point", "coordinates": [83.2875897, 17.733623]}}, {"type": "Feature", "properties": {"osm_id": 13420003748, "osm_type": "node", "bus": "yes", "highway": "bus_stop", "public_transport": "platform"}, "geometry": {"type": "Point", "coordinates": [83.2476232, 17.747511]}}, {"type": "Feature", "properties": {"osm_id": 13420003758, "osm_type": "node", "bus": "yes", "highway": "bus_stop", "public_transport": "platform"}, "geometry": {"type": "Point", "coordinates": [83.2662818, 17.7399444]}}, {"type": "Feature", "properties": {"osm_id": 13429829505, "osm_type": "node", "bus": "yes", "highway": "bus_stop", "public_transport": "platform"}, "geometry": {"type": "Point", "coordinates": [83.2714362, 17.7368824]}}, {"type": "Feature", "properties": {"osm_id": 13429829509, "osm_type": "node", "bus": "yes", "highway": "bus_stop", "name": "Kancharapalem", "public_transport": "platform"}, "geometry": {"type": "Point", "coordinates": [83.2789938, 17.7354609]}}, {"type": "Feature", "properties": {"osm_id": 13429829512, "osm_type": "node", "bus": "yes", "highway": "bus_stop", "public_transport": "platform"}, "geometry": {"type": "Point", "coordinates": [83.2884141, 17.735691]}}, {"type": "Feature", "properties": {"osm_id": 13467472575, "osm_type": "node", "bus": "yes", "highway": "bus_stop", "public_transport": "platform"}, "geometry": {"type": "Point", "coordinates": [83.326563, 17.7399661]}}, {"type": "Feature", "properties": {"osm_id": 13551030358, "osm_type": "node", "bus": "yes", "highway": "bus_stop", "name": "Law College", "public_transport": "platform"}, "geometry": {"type": "Point", "coordinates": [83.3529212, 17.7917309]}}, {"type": "Feature", "properties": {"osm_id": 13551030359, "osm_type": "node", "bus": "yes", "highway": "bus_stop", "name": "Law College", "public_transport": "platform"}, "geometry": {"type": "Point", "coordinates": [83.3525935, 17.7913892]}}, {"type": "Feature", "properties": {"osm_id": 13624323301, "osm_type": "node", "bus": "yes", "highway": "bus_stop", "name": "Railway new colony Bus stop", "public_transport": "platform"}, "geometry": {"type": "Point", "coordinates": [83.2932584, 17.7279618]}}, {"type": "Feature", "properties": {"osm_id": 13822235651, "osm_type": "node", "bus": "yes", "highway": "bus_stop", "public_transport": "platform", "shelter": "yes"}, "geometry": {"type": "Point", "coordinates": [83.3132464, 17.7378653]}}, {"type": "Feature", "properties": {"osm_id": 13822235661, "osm_type": "node", "bus": "yes", "highway": "bus_stop", "public_transport": "platform"}, "geometry": {"type": "Point", "coordinates": [83.3135979, 17.7386734]}}, {"type": "Feature", "properties": {"osm_id": 13901121247, "osm_type": "node", "bus": "yes", "highway": "bus_stop", "name": "Venkojipalem", "public_transport": "platform"}, "geometry": {"type": "Point", "coordinates": [83.33096, 17.7471712]}}, {"type": "Feature", "properties": {"osm_id": 13901121249, "osm_type": "node", "bus": "yes", "highway": "bus_stop", "name": "Satyam", "public_transport": "platform"}, "geometry": {"type": "Point", "coordinates": [83.3133369, 17.734514]}}]}