{"type": "FeatureCollection", "features": [{"type": "Feature", "properties": {"osm_id": 11609440666, "osm_type": "node", "amenity": "toilets", "check_date": "2024-02-11", "description": "Public toilet, pay and use"}, "geometry": {"type": "Point", "coordinates": [83.3078551, 17.7233816]}}, {"type": "Feature", "properties": {"osm_id": 11609443008, "osm_type": "node", "amenity": "toilets", "check_date": "2024-02-11"}, "geometry": {"type": "Point", "coordinates": [83.2339699, 17.7430545]}}, {"type": "Feature", "properties": {"osm_id": 11609600114, "osm_type": "node", "access": "yes", "amenity": "toilets", "changing_table": "no", "check_date": "2024-02-11", "name": "GVMC PUBLIC TOILET", "toilets:disposal": "pitlatrine", "wheelchair": "yes"}, "geometry": {"type": "Point", "coordinates": [83.3057439, 17.7244767]}}, {"type": "Feature", "properties": {"osm_id": 11699150957, "osm_type": "node", "access": "yes", "amenity": "toilets", "unisex": "yes"}, "geometry": {"type": "Point", "coordinates": [83.345907, 17.7444776]}}, {"type": "Feature", "properties": {"osm_id": 11748976239, "osm_type": "node", "amenity": "toilets"}, "geometry": {"type": "Point", "coordinates": [83.3186237, 17.7113865]}}, {"type": "Feature", "properties": {"osm_id": 12252009628, "osm_type": "node", "amenity": "toilets"}, "geometry": {"type": "Point", "coordinates": [83.3325282, 17.7188913]}}, {"type": "Feature", "properties": {"osm_id": 12531591389, "osm_type": "node", "amenity": "toilets", "name": "GVMC Public toilet"}, "geometry": {"type": "Point", "coordinates": [83.3459548, 17.7444671]}}, {"type": "Feature", "properties": {"osm_id": 12614929413, "osm_type": "node", "amenity": "toilets", "check_date": "2025-02-24"}, "geometry": {"type": "Point", "coordinates": [83.2782827, 17.7317815]}}, {"type": "Feature", "properties": {"osm_id": 12837010554, "osm_type": "node", "amenity": "toilets", "check_date": "2025-05-14"}, "geometry": {"type": "Point", "coordinates": [83.217494, 17.6868618]}}, {"type": "Feature", "properties": {"osm_id": 13081754452, "osm_type": "node", "amenity": "toilets", "check_date": "2025-08-19"}, "geometry": {"type": "Point", "coordinates": [83.3084553, 17.7367252]}}, {"type": "Feature", "properties": {"osm_id": 13283662148, "osm_type": "node", "amenity": "toilets", "check_date": "2025-11-05"}, "geometry": {"type": "Point", "coordinates": [83.2242807, 17.7277922]}}, {"type": "Feature", "properties": {"osm_id": 13283662149, "osm_type": "node", "amenity": "toilets", "check_date": "2025-11-05"}, "geometry": {"type": "Point", "coordinates": [83.2235669, 17.7278288]}}, {"type": "Feature", "properties": {"osm_id": 13314245108, "osm_type": "node", "amenity": "toilets"}, "geometry": {"type": "Point", "coordinates": [83.299801, 17.6978248]}}, {"type": "Feature", "properties": {"osm_id": 13408889986, "osm_type": "node", "access": "yes", "amenity": "toilets", "check_date": "2025-12-26"}, "geometry": {"type": "Point", "coordinates": [83.2910166, 17.7216368]}}, {"type": "Feature", "properties": {"osm_id": 13800470093, "osm_type": "node", "access": "yes", "amenity": "toilets", "check_date": "2026-05-06"}, "geometry": {"type": "Point", "coordinates": [83.3008466, 17.7293085]}}, {"type": "Feature", "properties": {"osm_id": 1249184621, "osm_type": "way", "amenity": "toilets", "building": "yes"}, "geometry": {"type": "Point", "coordinates": [83.3058001, 17.7207537]}}, {"type": "Feature", "properties": {"osm_id": 1249184668, "osm_type": "way", "amenity": "toilets", "building": "yes"}, "geometry": {"type": "Point", "coordinates": [83.3061743, 17.7242937]}}, {"type": "Feature", "properties": {"osm_id": 1249184702, "osm_type": "way", "amenity": "toilets", "building": "yes"}, "geometry": {"type": "Point", "coordinates": [83.305068, 17.7225589]}}, {"type": "Feature", "properties": {"osm_id": 1249186336, "osm_type": "way", "amenity": "toilets", "building": "yes"}, "geometry": {"type": "Point", "coordinates": [83.3053509, 17.7233101]}}]}