{"type": "FeatureCollection", "crs": {"type": "name", "properties": {"name": "urn:ogc:def:crs:OGC:1.3:CRS84"}}, "features": [{"type": "Feature", "properties": {"ST_NAME": "WB", "PC_NAME": "Kolkata Uttar", "ST_CODE": "S25", "PC_CODE": 24, "Res": "GEN", "representative": "Sudip Bandyopadhyay", "party": "AITC", "pc_name": "Kolkata Uttar", "office": "MP"}, "geometry": {"type": "Polygon", "coordinates": [[[88.41125504154165, 22.561034480488097], [88.41382317805619, 22.554091000983885], [88.41304806082076, 22.55094338982693], [88.40582482081544, 22.549452817197658], [88.40518934490238, 22.550202495501917], [88.40367778510728, 22.54990133618213], [88.40050245401783, 22.545590603886804], [88.39810310737296, 22.54333065503581], [88.39574212924046, 22.54166678918178], [88.39370207742786, 22.539985110052125], [88.3933958803145, 22.535216157423402], [88.39262022689353, 22.53316529447721], [88.39018298774909, 22.530309111007483], [88.38773097910573, 22.532239609663314], [88.38033234398642, 22.532349965720776], [88.38024076962867, 22.53594444637219], [88.38039362660983, 22.538328936143913], [88.37697871570748, 22.540312510617813], [88.37715061908085, 22.54299506910603], [88.37639808073747, 22.5463269810394], [88.372245669648, 22.546855621930277], [88.37064123855318, 22.546944275350338], [88.37066391036727, 22.552327149257092], [88.36728319257807, 22.54982182853393], [88.3678486580099, 22.548594127733313], [88.35994073506427, 22.550825382699987], [88.357694451128, 22.550949310671097], [88.35686514684498, 22.553088871464904], [88.3556767993855, 22.55464999498693], [88.35407226151867, 22.55473847336263], [88.35303334752591, 22.553599287296677], [88.35139073344298, 22.553091604940832], [88.34629432051536, 22.55397066487963], [88.34807288703496, 22.56164969721352], [88.34656342736216, 22.56322843445559], [88.34390084756156, 22.561879497064567], [88.33872797754637, 22.56156603268225], [88.33738459395867, 22.562970887420096], [88.34698118624763, 22.57702272599633], [88.35161954098075, 22.592406153381955], [88.35585865745895, 22.600208820880496], [88.36331143028413, 22.60947369324387], [88.36801104357498, 22.608391070980748], [88.369036227477, 22.61578744949199], [88.3676555526177, 22.624093746994795], [88.36320306570322, 22.633157556933497], [88.38408829845031, 22.631183091531504], [88.39212078724545, 22.629765553507937], [88.39410389183806, 22.628152194114733], [88.39560725654019, 22.62185880634215], [88.39652953946616, 22.601191940077907], [88.39537827827664, 22.59425235927467], [88.3978110210808, 22.586814482918516], [88.40563231281752, 22.573202076215843], [88.40719288233554, 22.56580781146104], [88.4107503279688, 22.55996992675523], [88.41125504154165, 22.561034480488097]]]}}, {"type": "Feature", "properties": {"ST_NAME": "WB", "PC_NAME": "Kolkata Dakshin", "ST_CODE": "S25", "PC_CODE": 23, "Res": "GEN", "representative": "Mala Roy", "party": "AITC", "pc_name": "Kolkata Dakshin", "office": "MP"}, "geometry": {"type": "Polygon", "coordinates": [[[88.43692450416027, 22.506740823478495], [88.43263116411887, 22.50023161738519], [88.42710422119046, 22.495295896533786], [88.42671834262859, 22.494977844670764], [88.42598508785561, 22.494373468782236], [88.42525183880416, 22.493769088603567], [88.42524311921177, 22.493633751561198], [88.42521041971673, 22.493126219321233], [88.42516900097687, 22.492483349244342], [88.42512758270294, 22.491840480210854], [88.42508616477656, 22.49119761038294], [88.4250447472569, 22.490554740679663], [88.42500333020318, 22.489911872020055], [88.4249204972567, 22.488626134156302], [88.4248790813639, 22.487983264952312], [88.42483766593703, 22.48734039679236], [88.42479625085765, 22.486697527838487], [88.42475483624416, 22.48605465992885], [88.42471342197815, 22.485411791225417], [88.4253637868474, 22.484730435457422], [88.42532237006958, 22.484087568120966], [88.42597272420349, 22.483406210094508], [88.42593130485477, 22.482763343206386], [88.42658165023146, 22.482081982811867], [88.42727341321367, 22.48204348699803], [88.42723198790995, 22.481400620755743], [88.42719056295378, 22.480757753720283], [88.4278408918162, 22.480076388377718], [88.4285326438323, 22.480037886843988], [88.42849121298069, 22.47939502137397], [88.42914152830667, 22.478713650760984], [88.42983327274094, 22.478675143310216], [88.43048357756714, 22.477993768022767], [88.43186705862199, 22.477916737682126], [88.43251734903907, 22.477235352924186], [88.43320908467064, 22.47719683008945], [88.4338593645881, 22.476515440657515], [88.43455109602164, 22.476476911708787], [88.43450963668961, 22.475834047727254], [88.43520136532105, 22.47579551576521], [88.435851627912, 22.47511411810634], [88.43654335135645, 22.47507558008555], [88.43650188268717, 22.474432716949487], [88.43715213168362, 22.473751313103598], [88.43784384754612, 22.47371276916653], [88.437802372983, 22.473069907597957], [88.43776089876783, 22.47242704523724], [88.43771942501918, 22.471784183922516], [88.43767795161845, 22.471141321815775], [88.43763647868424, 22.47049846075516], [88.43759500609794, 22.469855598902733], [88.43755353391883, 22.469212737177582], [88.43682037341259, 22.468608418855656], [88.43612868322298, 22.468646958112192], [88.43608721862519, 22.468004096246734], [88.43535407165281, 22.467399771078757], [88.43466238741593, 22.467438303629326], [88.43392924913869, 22.466833970821604], [88.43319611867634, 22.466229635455097], [88.43246299393267, 22.46562529580204], [88.43177131920683, 22.465663815083424], [88.43107964308528, 22.46570233126447], [88.43038796754568, 22.465740844234993], [88.4290046132684, 22.46581786081989], [88.42762125835287, 22.46589486472806], [88.42692958077944, 22.46593336192149], [88.42623790181057, 22.465971856014477], [88.42485454364171, 22.466048834679146], [88.42416286444184, 22.466087319250793], [88.4234711838466, 22.466125800722008], [88.42277950284489, 22.46616427903778], [88.42282090152966, 22.466807144142727], [88.42212921772682, 22.466845619445234], [88.42074584791304, 22.466922560638846], [88.42009554740025, 22.46760389163226], [88.41940385858834, 22.46764235450999], [88.4187121683813, 22.467680814287235], [88.41802047776798, 22.467719270908958], [88.41732878773723, 22.467757724320204], [88.41598677113052, 22.468477489062646], [88.41460338046974, 22.468554374245507], [88.41391168403591, 22.46859281213115], [88.41395303989428, 22.469235679262162], [88.41326133967068, 22.469274114189236], [88.41330269261057, 22.46991698256367], [88.41261098958601, 22.469955414477212], [88.41265233948913, 22.4705982822569], [88.41269368985735, 22.471241151082868], [88.41273504063159, 22.47188402003601], [88.41277639175274, 22.47252688819719], [88.41285909527222, 22.47381262581951], [88.41294180041587, 22.47509836394923], [88.4129831536263, 22.475741233663598], [88.41306586120626, 22.47702697255314], [88.4131072156349, 22.47766984264712], [88.4131485704105, 22.478312711948426], [88.41318992565127, 22.478955582295004], [88.41323128123904, 22.479598451848823], [88.41327263729201, 22.4802413224477], [88.4125808787294, 22.48027975441137], [88.4126222317451, 22.480922624414198], [88.41193047038097, 22.48096105336394], [88.41197182047758, 22.481603924608628], [88.41132140145268, 22.48228522222171], [88.40997920286479, 22.483004936351982], [88.40928742972379, 22.483043353268712], [88.40798654260965, 22.484405922556604], [88.40733608991772, 22.485087203649854], [88.40668562940874, 22.485768481241905], [88.4053433696912, 22.48648815608047], [88.40400109521802, 22.48720781920693], [88.40330929712871, 22.48724620895504], [88.40196700364491, 22.487965853334547], [88.40131650194579, 22.488647109403313], [88.40066599242917, 22.489328361969985], [88.40001547719106, 22.490009612762726], [88.39936495413534, 22.4906908600531], [88.39802260371556, 22.491410471247967], [88.39737206333005, 22.492091710301843], [88.39668023848093, 22.492130069809782], [88.39598841223741, 22.49216842621632], [88.39533785854947, 22.492849657576148], [88.39464602811033, 22.492888007866757], [88.39395419825495, 22.492926354946285], [88.39326236700529, 22.492964698924425], [88.3926117941876, 22.493645918820672], [88.39191995973155, 22.493684256627894], [88.39122812388132, 22.493722591333658], [88.39057753764322, 22.49440380169707], [88.38988569759772, 22.49444213028667], [88.38919385813618, 22.494480455665155], [88.38850201728057, 22.494518777942186], [88.38781017601998, 22.4945570970629], [88.38711833534346, 22.494595412972597], [88.38715956791016, 22.49523829386584], [88.38646772245454, 22.495276606870213], [88.38508403131766, 22.495353223355295], [88.38439218563646, 22.495391526835977], [88.38370033856141, 22.495429827215148], [88.3830084910816, 22.495468124437977], [88.3823166441861, 22.495506418449715], [88.38162479589684, 22.495544709359933], [88.38093294819197, 22.495582997059064], [88.38089174609166, 22.494940114400535], [88.37950805524927, 22.495016679992503], [88.3787750172455, 22.494412075877946], [88.37804198694204, 22.49380746736574], [88.37730896241995, 22.49320285548435], [88.37661712483936, 22.493241123516334], [88.37657594472684, 22.492598241098204], [88.37584293473395, 22.491993622314734], [88.3751511031148, 22.49203188364221], [88.37441810293154, 22.491427259002034], [88.37437693412836, 22.490784375451025], [88.37368510847054, 22.490822630074145], [88.37299328339746, 22.49086088148637], [88.37226029874606, 22.490256246702135], [88.37221914090631, 22.4896133628131], [88.37152732080575, 22.489651607575755], [88.37079435068318, 22.489046965890743], [88.37006138628261, 22.488442319918498], [88.36936957272857, 22.488480554766223], [88.36867775778148, 22.488518786512408], [88.36729412766431, 22.48859524048162], [88.36591049593139, 22.48867168182608], [88.36452686258296, 22.488748110545814], [88.3631432276193, 22.488824526640734], [88.36245140903735, 22.4888627299812], [88.36175959104068, 22.48890093011088], [88.36106777165135, 22.488939127138927], [88.36037595185836, 22.488977321010765], [88.35968413265076, 22.489015511671823], [88.35830049203585, 22.48909188357983], [88.35760867062864, 22.48913006482681], [88.35622502759277, 22.489206417797526], [88.35484138294326, 22.489282758143297], [88.35276591244948, 22.48939724501745], [88.34999861347183, 22.489549849959197], [88.34861496156417, 22.489626133492557], [88.34653948018538, 22.48974053514786], [88.34584765291252, 22.489778662684124], [88.34515582424774, 22.48981678711856], [88.34446399518006, 22.489854908396758], [88.34377216669856, 22.489893026464156], [88.34308033682521, 22.489931141429786], [88.34238850753809, 22.48996925318464], [88.3416966768592, 22.490007361837698], [88.34100484676657, 22.490045467279955], [88.33958018586316, 22.48947877610127], [88.33819652864075, 22.489554964555975], [88.33746371300445, 22.48895016177719], [88.33742272643265, 22.488307268738776], [88.33738174032197, 22.487664376744643], [88.33734075455517, 22.48702148395676], [88.33729976924948, 22.486378592213345], [88.33725878428767, 22.485735699676354], [88.33717681563007, 22.48444991589813], [88.33713583187568, 22.483807023738038], [88.33778664345328, 22.483126045108136], [88.33774565711902, 22.48248315339487], [88.33839645993358, 22.481802172391664], [88.33908824722998, 22.481764078955127], [88.33900626309367, 22.48047829785836], [88.3403078287945, 22.4791163214587], [88.34026683139534, 22.478473432202126], [88.34022583434016, 22.47783054215298], [88.3409176001212, 22.47779244041955], [88.34087660014272, 22.477149551611234], [88.34156836312552, 22.477111446862587], [88.34148635754883, 22.47582566909735], [88.34217811237122, 22.47578756163776], [88.34282885879739, 22.475106562206314], [88.34278785021759, 22.47446367357178], [88.34343858596313, 22.47378267279767], [88.34404830178873, 22.47245878146811], [88.344699021946, 22.471777774766792], [88.34534973440466, 22.471096766401217], [88.3453087147043, 22.470453879311], [88.3452676954067, 22.469810992348233], [88.34591839612338, 22.46912998193626], [88.3458773742473, 22.468487095424024], [88.34583635283263, 22.46784420995854], [88.34579533176213, 22.467201323701765], [88.34575431115303, 22.466558438491905], [88.34571329088806, 22.46591555249098], [88.3456722710845, 22.465272667537], [88.34563125162504, 22.464629781792244], [88.34559023256834, 22.463986896175562], [88.34554921397303, 22.46334401160617], [88.34550819572182, 22.462701126246166], [88.34546717793198, 22.46205824193353], [88.34542616048624, 22.461415356830404], [88.34469346793868, 22.460810594730283], [88.34465245468198, 22.460167709688935], [88.34461144182794, 22.459524824776377], [88.3445704294352, 22.45888194091168], [88.3445294173865, 22.458239056256858], [88.34448840579908, 22.457596172650067], [88.3444473945557, 22.456953288253256], [88.34440638377359, 22.45631040490469], [88.34436537333549, 22.45566752076627], [88.34432436330003, 22.455024636757194], [88.34428335372583, 22.45438175379653], [88.34424234449563, 22.453738870046273], [88.34489297068892, 22.45305786773469], [88.34554358906841, 22.452376861923863], [88.34546155995235, 22.451091097031956], [88.34611216665199, 22.45041009010169], [88.34676276553817, 22.449729079672693], [88.3467217455941, 22.449086197613088], [88.3473723357813, 22.44840518574016], [88.34806394405983, 22.448367051777023], [88.34802291815528, 22.447724170368854], [88.34867349481077, 22.447043153228282], [88.34863246632888, 22.446400272276428], [88.34924200217944, 22.44507637233311], [88.34993359233532, 22.445038229882485], [88.34989255829625, 22.4443953497135], [88.35054310869492, 22.443714325325253], [88.3511936512809, 22.443033297439587], [88.35115261174369, 22.44239041897332], [88.35184418814889, 22.442352267785544], [88.35180314557327, 22.441709388726917], [88.35245367170774, 22.441028356821548], [88.35310419200708, 22.440347321310142], [88.35306314387519, 22.439704443036327], [88.35371365448871, 22.43902340613872], [88.35436415729004, 22.438342365744603], [88.35428205037613, 22.437056611818857], [88.35493254150134, 22.436375570312098], [88.35558302481468, 22.435694525309255], [88.35619244059136, 22.434370602297296], [88.35615137917497, 22.433727726187083], [88.35680184305997, 22.43304667749631], [88.3567607790676, 22.432403801846085], [88.35671971553704, 22.43176092724714], [88.35667865235087, 22.431118051861354], [88.35663758962646, 22.43047517752702], [88.35659652724642, 22.4298323024061], [88.35651440375423, 22.428546553480857], [88.35647334258337, 22.42790367875775], [88.35643228187426, 22.427260805086373], [88.35639122150948, 22.426617930628865], [88.35635016160646, 22.42597505722326], [88.35630910204775, 22.425332183031657], [88.35626804289205, 22.42468930897316], [88.35622698419809, 22.424046435966833], [88.35618592584842, 22.423403562174734], [88.35614486796047, 22.422760689435002], [88.35610381041681, 22.422117815909637], [88.35541234306824, 22.422155986211102], [88.3553712893678, 22.421513113542343], [88.35467982400928, 22.421551280547956], [88.3539473126432, 22.42094657049853], [88.35390626651161, 22.4203036977052], [88.35321480711029, 22.42034185801007], [88.35317376470435, 22.419698984235563], [88.35248230927014, 22.41973714113555], [88.35244127064846, 22.419094267298952], [88.35170878242556, 22.418489547923695], [88.35101733196014, 22.418527698177645], [88.35097630090678, 22.417884824217207], [88.35028485440847, 22.417922971066375], [88.35032588208045, 22.418565845222627], [88.34967545544418, 22.419246862734642], [88.34898400137774, 22.419285003666563], [88.34768312135414, 22.420647026669585], [88.3469916583284, 22.420685158584085], [88.34630019490015, 22.420723287344067], [88.34491726782458, 22.420799535346017], [88.34422580417737, 22.420837654587967], [88.34284287468724, 22.420913883662873], [88.34215140884436, 22.420951993495784], [88.3414599435877, 22.42099010011969], [88.34141895866733, 22.420347223017796], [88.34072749540144, 22.420385326346096], [88.34003603173329, 22.420423426519886], [88.33934456865143, 22.42046152348462], [88.33930359427796, 22.419818645929777], [88.33861213318697, 22.41985673959902], [88.33792067268233, 22.419894830059242], [88.33722921078709, 22.41993291741945], [88.33584628677893, 22.42000908262186], [88.33511387005397, 22.4194042828435], [88.33442241092061, 22.419442357335775], [88.33373095039694, 22.41948042872795], [88.33230708937813, 22.418913682752613], [88.33092417326924, 22.41898980301027], [88.32954125555327, 22.41906591064987], [88.3281583362305, 22.4191420056715], [88.3267754153012, 22.41921808807508], [88.32470103040131, 22.419332188048696], [88.32262664188823, 22.419446259631542], [88.32124371453544, 22.419522291562664], [88.31986078557742, 22.419598310875617], [88.31778638863695, 22.419712316213083], [88.31640345566703, 22.419788303980507], [88.31571198907471, 22.419826293105242], [88.31502052109285, 22.419864279129698], [88.31432905270998, 22.41990226199961], [88.31363758491463, 22.419940241660612], [88.31294611572984, 22.41997821822138], [88.31156317714607, 22.420054161824815], [88.31087170774715, 22.42009212886756], [88.31018023695893, 22.420130092809966], [88.30952959491869, 22.420810939224065], [88.30957042342132, 22.421453824119418], [88.30896059662872, 22.42277755456173], [88.30830993405232, 22.42345839550543], [88.30765926575901, 22.424139234682297], [88.30700858965497, 22.424820070362614], [88.30631709377813, 22.42485801668653], [88.30639872223192, 22.426143791079237], [88.3057072182019, 22.42618173469217], [88.30505652285275, 22.426862563341164], [88.30440581969252, 22.427543388492957], [88.30444662520442, 22.42818627719868], [88.30379591235666, 22.42886710096462], [88.30314519367478, 22.429547921124584], [88.30249446729817, 22.430228739624944], [88.30253526420717, 22.430871628526592], [88.30188452907274, 22.43155244466683], [88.30192532340034, 22.432195334028073], [88.30123378612674, 22.43223325730905], [88.30062382588478, 22.43355695911681], [88.30066461464884, 22.434199849264115], [88.30001385226745, 22.434880658211878], [88.30005463844977, 22.435523548817873], [88.30009542509079, 22.43616644047485], [88.29944464992155, 22.43684724652258], [88.29948543398072, 22.437490138637774], [88.29952621844025, 22.438133030884675], [88.2989162134072, 22.439456727600938], [88.29830619505566, 22.44078042252011], [88.29761461239444, 22.440818329345486], [88.29765538864906, 22.441461221914096], [88.29769616536228, 22.442104115533045], [88.2970453482187, 22.442784912671716], [88.29639452535622, 22.44346570804001], [88.2964352965044, 22.444108602440917], [88.29574369473907, 22.44414650082699], [88.29578446284619, 22.44478939463415], [88.29513362346881, 22.445470185056607], [88.2951743889933, 22.446113079319638], [88.2944827762783, 22.446150971978305], [88.29452353887811, 22.446793867485436], [88.29460506522003, 22.44807965797224], [88.29391344195525, 22.448117548058544], [88.29326257631293, 22.448798331222605], [88.29334409152283, 22.450084123268788], [88.29338484969888, 22.450727019027667], [88.29342560833335, 22.451369915835663], [88.2934663673097, 22.45201281185456], [88.2935071267445, 22.45265570892242], [88.29354788657947, 22.453298606120093], [88.29358864675636, 22.453941502528536], [88.2936294073917, 22.454584399985656], [88.29301926513824, 22.45590808047645], [88.29306002353223, 22.45655097759729], [88.29240911153946, 22.457231759052224], [88.29175819173217, 22.45791253700438], [88.29106651670293, 22.45795041417312], [88.2904155864025, 22.458631187444883], [88.28972390620052, 22.4586690585507], [88.28907296633743, 22.45934982616865], [88.287771065261, 22.460711352624386], [88.28264461020396, 22.467443158306377], [88.28268532131163, 22.468086061639212], [88.28272603281906, 22.468728965099945], [88.28276674466802, 22.469371867769475], [88.28280745697495, 22.470014771485804], [88.28284816962345, 22.470657674410788], [88.28288888272992, 22.471300578382408], [88.28292959617796, 22.47194348156248], [88.28297031008401, 22.472586385789036], [88.28301102433163, 22.47322928922391], [88.28305173903725, 22.47387219370511], [88.28309245414268, 22.47451509831351], [88.28386565808717, 22.475763065556134], [88.28390637771858, 22.476405969432662], [88.28463887578118, 22.47701102942892], [88.28467959959711, 22.47765393336517], [88.285412109203, 22.47825898982294], [88.28614462458961, 22.478864042917394], [88.28683641250637, 22.47882618788685], [88.28760967759186, 22.480074137826414], [88.28834221322964, 22.48067917974891], [88.28907475668456, 22.4812842191185], [88.28980730586223, 22.48188925420522], [88.29053986285713, 22.482494286738714], [88.29200499611002, 22.483704340686046], [88.29269680790541, 22.483666458853683], [88.29342938720652, 22.48427147783589], [88.29347015644363, 22.484914380959513], [88.29416197420856, 22.48487649242643], [88.2942027472895, 22.485519396400715], [88.29489456705018, 22.485481504571332], [88.29493534385843, 22.486124407558236], [88.29566794824504, 22.486729416161698], [88.2964005583548, 22.487334420481197], [88.29709238805867, 22.487296518546295], [88.29713317628239, 22.487939422246445], [88.29782500897097, 22.487901516961024], [88.298598431402, 22.489149414654037], [88.29929027005996, 22.48911150266751], [88.29933106964147, 22.489754406161055], [88.29937186956535, 22.490397308860672], [88.29941266994823, 22.491040212604435], [88.29945347067347, 22.491683115554114], [88.29949427185774, 22.49232601954778], [88.29953507344273, 22.49296892366628], [88.29957587537008, 22.493611826990442], [88.29961667775649, 22.494254731358374], [88.2996574804853, 22.494897634931775], [88.29969828367315, 22.495540539548777], [88.29973908720342, 22.496183443371166], [88.2998206955245, 22.497469252307923], [88.29986150031533, 22.49811215742213], [88.29990230550692, 22.498755062660432], [88.29998391703408, 22.500040872590017], [88.30002472336965, 22.500683777281143], [88.30006553016433, 22.50132668301501], [88.30010633730147, 22.5019695879536], [88.30014714489775, 22.50261249393485], [88.30022876123434, 22.503898305348812], [88.30026957003302, 22.50454121170042], [88.30031037917419, 22.505184117256256], [88.30035118877451, 22.505827023854348], [88.30039199871733, 22.50646992965654], [88.30043280911931, 22.507112836500845], [88.30047361992216, 22.50775574346813], [88.30051443106748, 22.508398649639194], [88.30055524267202, 22.509041556852182], [88.30059605461905, 22.50968446326879], [88.30063686702532, 22.510327370727158], [88.3007184929821, 22.511613185092354], [88.30075930653263, 22.51225609199909], [88.30084093495307, 22.513541908017597], [88.30089600722648, 22.514409395942543], [88.29745426109311, 22.514792889777677], [88.29163975225862, 22.517661507433495], [88.29147893342694, 22.528745327888522], [88.29001976879029, 22.53618781692042], [88.28516915700891, 22.546684221426034], [88.27824480791915, 22.54718487728341], [88.27550958524009, 22.549545659069164], [88.27425095359304, 22.555312175683518], [88.28717922426937, 22.551605671083983], [88.31173221685206, 22.54816242503989], [88.32426268817163, 22.55039611585857], [88.3323993618793, 22.55566983965867], [88.33738459395867, 22.562970887420096], [88.33872797754637, 22.56156603268225], [88.34390084756156, 22.561879497064567], [88.34656342736216, 22.56322843445559], [88.34807288703496, 22.56164969721352], [88.34629432051536, 22.55397066487963], [88.35139073344298, 22.553091604940832], [88.35303334752591, 22.553599287296677], [88.35407226151867, 22.55473847336263], [88.3556767993855, 22.55464999498693], [88.35686514684498, 22.553088871464904], [88.357694451128, 22.550949310671097], [88.35994073506427, 22.550825382699987], [88.3678486580099, 22.548594127733313], [88.36728319257807, 22.54982182853393], [88.37066391036727, 22.552327149257092], [88.37064123855318, 22.546944275350338], [88.372245669648, 22.546855621930277], [88.37639808073747, 22.5463269810394], [88.37715061908085, 22.54299506910603], [88.37697871570748, 22.540312510617813], [88.38039362660983, 22.538328936143913], [88.38024076962867, 22.53594444637219], [88.38033234398642, 22.532349965720776], [88.38773097910573, 22.532239609663314], [88.39018298774909, 22.530309111007483], [88.39262022689353, 22.53316529447721], [88.3933958803145, 22.535216157423402], [88.39370207742786, 22.539985110052125], [88.39574212924046, 22.54166678918178], [88.39810310737296, 22.54333065503581], [88.40050245401783, 22.545590603886804], [88.40367778510728, 22.54990133618213], [88.40518934490238, 22.550202495501917], [88.40739425488816, 22.54760128851416], [88.41270975873172, 22.540127271981607], [88.42049542178309, 22.53102015464034], [88.42488545233445, 22.524195360460265], [88.42835103404137, 22.51802011622294], [88.43127080169164, 22.513370782381703], [88.43547349773154, 22.508649941956104], [88.43692450416027, 22.506740823478495]]]}}]}