{"type": "FeatureCollection", "crs": {"type": "name", "properties": {"name": "urn:ogc:def:crs:OGC:1.3:CRS84"}}, "features": [{"type": "Feature", "properties": {"amenity": "school", "name": "Loreto Convent", "osm_id": 1283776632}, "geometry": {"type": "Point", "coordinates": [88.3728451, 22.5595068]}}, {"type": "Feature", "properties": {"addr:postcode": "700150", "addr:street": "Mission Pally", "amenity": "school", "designation": "School", "name": "Sarada Vidyapith", "osm_id": 1579184934}, "geometry": {"type": "Point", "coordinates": [88.4176503, 22.4400409]}}, {"type": "Feature", "properties": {"addr:housenumber": "82/7a", "addr:street": "Ballygunge Place", "amenity": "school", "check_date": "2023-12-16", "name": "Patha Bhavan Higher Secondary School", "operator:type": "private", "osm_id": 1686118748}, "geometry": {"type": "Point", "coordinates": [88.3690927, 22.5251285]}}, {"type": "Feature", "properties": {"amenity": "school", "check_date": "2023-12-16", "name": "Patha Bhavan High School", "osm_id": 1686118749}, "geometry": {"type": "Point", "coordinates": [88.3683953, 22.5287655]}}, {"type": "Feature", "properties": {"addr:street": "D.r A.k paul raod", "amenity": "school", "name": "National Gems Higher Secoundry School", "osm_id": 1894645910}, "geometry": {"type": "Point", "coordinates": [88.3146978, 22.492189]}}, {"type": "Feature", "properties": {"addr:street": "Diamond Harbour road", "amenity": "school", "name": "Behla Blind School", "osm_id": 1894648468}, "geometry": {"type": "Point", "coordinates": [88.3158083, 22.4911829]}}, {"type": "Feature", "properties": {"addr:street": "Fakir para road", "amenity": "school", "name": "Shaw Public Girls High School", "osm_id": 1894651523}, "geometry": {"type": "Point", "coordinates": [88.313523, 22.492422]}}, {"type": "Feature", "properties": {"amenity": "school", "check_date": "2025-04-30", "name": "Loreto Girls School, Sealdah", "osm_id": 2266850256}, "geometry": {"type": "Point", "coordinates": [88.3681468, 22.5645214]}}, {"type": "Feature", "properties": {"addr:housenumber": "2", "addr:street": "Duff Street", "amenity": "school", "name": "Holy child school", "osm_id": 2383558698}, "geometry": {"type": "Point", "coordinates": [88.3707472, 22.5882004]}}, {"type": "Feature", "properties": {"amenity": "school", "name": "St. Joan's School", "osm_id": 2429212166}, "geometry": {"type": "Point", "coordinates": [88.4166053, 22.5764032]}}, {"type": "Feature", "properties": {"amenity": "school", "name": "Calcutta Public School", "osm_id": 2454541733}, "geometry": {"type": "Point", "coordinates": [88.4293256, 22.6121777]}}, {"type": "Feature", "properties": {"amenity": "school", "name": "Aliah University", "osm_id": 2460767459}, "geometry": {"type": "Point", "coordinates": [88.4127596, 22.5918761]}}, {"type": "Feature", "properties": {"amenity": "school", "name": "Salt Lake Collegiate School", "osm_id": 2460827371}, "geometry": {"type": "Point", "coordinates": [88.4095866, 22.5916061]}}, {"type": "Feature", "properties": {"amenity": "school", "name": "Bidhannagar College", "osm_id": 2460843435}, "geometry": {"type": "Point", "coordinates": [88.4053353, 22.5844913]}}, {"type": "Feature", "properties": {"amenity": "school", "name": "Institute Of Engeneering & Management Business School(ASHRAM CAMPUS)", "osm_id": 2461173865}, "geometry": {"type": "Point", "coordinates": [88.4294563, 22.5697093]}}, {"type": "Feature", "properties": {"amenity": "school", "name": "Globsyn Business School", "osm_id": 2461180971}, "geometry": {"type": "Point", "coordinates": [88.4335976, 22.5715496]}}, {"type": "Feature", "properties": {"amenity": "school", "name": "The New Horizon High School", "osm_id": 2471894139}, "geometry": {"type": "Point", "coordinates": [88.3476941, 22.525445]}}, {"type": "Feature", "properties": {"amenity": "school", "name": "Brahmo Balika Shikshalaya", "wikidata": "Q16255382", "wikipedia": "en:Brahmo Balika Shikshalaya", "osm_id": 3413973942}, "geometry": {"type": "Point", "coordinates": [88.3740861, 22.5799109]}}, {"type": "Feature", "properties": {"amenity": "school", "name": "ITI (TOLLYGUNGE)", "osm_id": 5162632122}, "geometry": {"type": "Point", "coordinates": [88.3432922, 22.4852557]}}, {"type": "Feature", "properties": {"amenity": "school", "name": "ITI", "osm_id": 5162659223}, "geometry": {"type": "Point", "coordinates": [88.3460047, 22.4852308]}}, {"type": "Feature", "properties": {"amenity": "school", "name": "Swami pranabananda school", "osm_id": 5162685021}, "geometry": {"type": "Point", "coordinates": [88.3421025, 22.4856531]}}, {"type": "Feature", "properties": {"amenity": "school", "check_date": "2026-03-22", "name": "St.Augustine's Day School", "name:en": "St.Augustine's Day School", "osm_id": 5169245623}, "geometry": {"type": "Point", "coordinates": [88.3621813, 22.5525146]}}, {"type": "Feature", "properties": {"amenity": "school", "name": "Amarabati school", "osm_id": 5929440093}, "geometry": {"type": "Point", "coordinates": [88.3884744, 22.6988189]}}, {"type": "Feature", "properties": {"addr:housenumber": "375", "addr:postcode": "700068", "addr:street": "Prince Anwar Shah Road", "amenity": "school", "name": "South City International School", "website": "https://www.scis.co.in/", "wikidata": "Q24940031", "wikipedia": "en:South City International School", "osm_id": 5996138986}, "geometry": {"type": "Point", "coordinates": [88.3623891, 22.5002815]}}, {"type": "Feature", "properties": {"addr:city": "Kolkata", "addr:postcode": "700152", "addr:street": "ganga joara road", "amenity": "school", "name": "Biswabani School", "religion": "hindu", "osm_id": 6032681523}, "geometry": {"type": "Point", "coordinates": [88.4176778, 22.4590976]}}, {"type": "Feature", "properties": {"addr:housenumber": "63", "addr:postcode": "700016", "addr:street": "Park Street", "amenity": "school", "name": "Jewish Girls' School", "operator": "Emunah Calcutta Jewish Trust", "osm_id": 6135362109}, "geometry": {"type": "Point", "coordinates": [88.3545701, 22.5528356]}}, {"type": "Feature", "properties": {"addr:postcode": "700030", "amenity": "school", "name": "Prachya Bani  Mondir for Boys", "osm_id": 6474357285}, "geometry": {"type": "Point", "coordinates": [88.3940806, 22.6158823]}}, {"type": "Feature", "properties": {"amenity": "school", "name": "Loreto School", "wikidata": "Q6680900", "wikipedia": "en:Loreto College, Kolkata", "osm_id": 6541624088}, "geometry": {"type": "Point", "coordinates": [88.3526693, 22.5496347]}}, {"type": "Feature", "properties": {"amenity": "school", "name": "Patha Bhaban", "osm_id": 6774997586}, "geometry": {"type": "Point", "coordinates": [88.3032053, 22.6869122]}}, {"type": "Feature", "properties": {"amenity": "school", "name": "Methodist School", "osm_id": 6774997687}, "geometry": {"type": "Point", "coordinates": [88.2990814, 22.6852234]}}, {"type": "Feature", "properties": {"addr:city": "Kolkata", "addr:housenumber": "43/5H", "addr:postcode": "700031", "addr:street": "Jheel Road", "amenity": "school", "description": "A very Reputable Higher Secondary School in Jadavpur", "name": "Jadavpur N.K. Pal Adarsha Sikshayatan", "phone": "+91 33 2472 3339", "osm_id": 7265194481}, "geometry": {"type": "Point", "coordinates": [88.3739599, 22.5008535]}}, {"type": "Feature", "properties": {"addr:city": "Kolkata", "addr:postcode": "700075", "amenity": "school", "description": "A higher secondary school(upto 18 years) for girls.", "name": "Adarsha Balika Shikshayatan", "phone": "+91 33 2418 2975", "religion": "none", "osm_id": 7265218444}, "geometry": {"type": "Point", "coordinates": [88.3750971, 22.500405]}}, {"type": "Feature", "properties": {"addr:city": "Kolkata", "addr:housenumber": "188", "addr:postcode": "700032", "addr:street": "Raja Subodh Chandra Mullick Road", "amenity": "school", "name": "Jadavpur Vidyapith", "phone": "+91 33 2414 6746", "website": "https://jadavpurvidyapithhs.org/", "wikidata": "Q17058443", "wikipedia": "en:Jadavpur Vidyapith", "osm_id": 7265545939}, "geometry": {"type": "Point", "coordinates": [88.3699876, 22.4993295]}}, {"type": "Feature", "properties": {"addr:city": "Kolkata", "addr:housenumber": "1/68", "addr:postcode": "700075", "addr:street": "Jheel Road", "amenity": "school", "name": "Shishu Siksha Niketan", "religion": "none", "osm_id": 7265758614}, "geometry": {"type": "Point", "coordinates": [88.3747787, 22.4997741]}}, {"type": "Feature", "properties": {"amenity": "school", "name": "RD Memorial School", "osm_id": 7265838416}, "geometry": {"type": "Point", "coordinates": [88.3791735, 22.5032499]}}, {"type": "Feature", "properties": {"amenity": "school", "name": "Podra Mahakali Vidyalaya", "osm_id": 7592914055}, "geometry": {"type": "Point", "coordinates": [88.2687635, 22.5604779]}}, {"type": "Feature", "properties": {"addr:postcode": "700156", "addr:street": "Major Arterial Road(South-East), Jodthbhim, Newtown, Kolkata", "amenity": "school", "email": "communications.oisnt@orchids.edu.in", "name": "(Acharya Tulsi Academy) Orchids The International School, Newtown", "opening_hours": "Mo-Su 09:00-18:30", "operator": "Orchids International School", "phone": "9513923100", "website": "https://www.orchidsinternationalschool.com/kolkata-branches/new-town/", "osm_id": 7934257286}, "geometry": {"type": "Point", "coordinates": [88.4819048, 22.5671818]}}, {"type": "Feature", "properties": {"addr:postcode": "711114", "addr:street": "Kona, Benaras Road", "amenity": "school", "name": "Kona High School", "osm_id": 7990017085}, "geometry": {"type": "Point", "coordinates": [88.3046618, 22.6166525]}}, {"type": "Feature", "properties": {"amenity": "school", "osm_id": 8011950457}, "geometry": {"type": "Point", "coordinates": [88.3668259, 22.5215559]}}, {"type": "Feature", "properties": {"amenity": "school", "name": "Makhla High School", "osm_id": 8418366754}, "geometry": {"type": "Point", "coordinates": [88.3386475, 22.6708517]}}, {"type": "Feature", "properties": {"addr:street": "108, 18, Bidhannagar Rd, Block-9, Murari Pukur, Ultadanga, Kolkata, West Bengal 700067", "amenity": "school", "name": "Sarada Prasad Institution (For Boys)", "opening_hours": "Mo-Sa 09:00-17:30", "phone": "03323561172", "osm_id": 8859174031}, "geometry": {"type": "Point", "coordinates": [88.3873714, 22.5932305]}}, {"type": "Feature", "properties": {"addr:street": "RH-47 Raghunathpur, Sarkar Bagan", "amenity": "school", "name": "Little Friends school", "phone": "9379353953", "osm_id": 9288276792}, "geometry": {"type": "Point", "coordinates": [88.4295772, 22.622826]}}, {"type": "Feature", "properties": {"amenity": "school", "name": "Salt lake indira gandhi girls sr. Secondary school", "osm_id": 9638074217}, "geometry": {"type": "Point", "coordinates": [88.3980933, 22.5933449]}}, {"type": "Feature", "properties": {"addr:housenumber": "125,1", "addr:postcode": "700017", "addr:street": "Park Street", "amenity": "school", "check_date": "2026-03-22", "name": "The Assembly of God Church School (Senior Section), Park Street", "opening_hours": "Mo-Fr 07:15-17:15", "phone": "0033 2229 4484", "website": "https://www.agcschools.edu.in/", "osm_id": 9658705417}, "geometry": {"type": "Point", "coordinates": [88.3608192, 22.5477035]}}, {"type": "Feature", "properties": {"addr:housenumber": "106", "addr:postcode": "700011", "addr:street": "Narkel Danga North Road", "amenity": "school", "name": "Deshabandhu Vidyapith", "opening_hours": "Mo-Sa 10:00-17:00", "phone": "098042 77695", "osm_id": 9691487817}, "geometry": {"type": "Point", "coordinates": [88.3825458, 22.5790125]}}, {"type": "Feature", "properties": {"addr:housenumber": "69c", "addr:postcode": "700010", "addr:street": "Avinash Chandra Banerjee Ln", "amenity": "school", "name": "Beleghata Deshabandhu High School (Main)", "opening_hours": "Mo-Fr 11:00-17:00; Sa 11:00-14:30", "osm_id": 9829888917}, "geometry": {"type": "Point", "coordinates": [88.390612, 22.5654556]}}, {"type": "Feature", "properties": {"amenity": "school", "name": "Beleghata Deshabandhu High School brance", "name:en": "Beleghata Deshabandhu High School Branch", "osm_id": 9833955517}, "geometry": {"type": "Point", "coordinates": [88.3905788, 22.5652197]}}, {"type": "Feature", "properties": {"amenity": "school", "name": "Belaghata deshbondhu school for girls", "osm_id": 9833955617}, "geometry": {"type": "Point", "coordinates": [88.3907162, 22.5656519]}}, {"type": "Feature", "properties": {"amenity": "school", "name": "SOUTHEND SCHOOL", "osm_id": 9910279968}, "geometry": {"type": "Point", "coordinates": [88.345584, 22.4817158]}}, {"type": "Feature", "properties": {"amenity": "school", "name": "Nava Nalanda High School", "osm_id": 9911367818}, "geometry": {"type": "Point", "coordinates": [88.3647526, 22.5165758]}}, {"type": "Feature", "properties": {"addr:city": "New Barrackpore", "addr:postcode": "700131", "addr:street": "Dr BC Roy Sarani", "amenity": "school", "name": "Masunda Boys' High School", "osm_id": 10027794946}, "geometry": {"type": "Point", "coordinates": [88.4398073, 22.6940051]}}, {"type": "Feature", "properties": {"addr:city": "New Barrackpore", "addr:postcode": "700131", "amenity": "school", "name": "Masunda Government Colony G.S.F.P School", "osm_id": 10027794972}, "geometry": {"type": "Point", "coordinates": [88.4388736, 22.6912165]}}, {"type": "Feature", "properties": {"addr:postcode": "700132", "addr:street": "Jessore Road", "amenity": "school", "name": "MBC Sudhir Memorial Institute", "opening_hours": "Mo-Fr 10:00-16:30; Sa 10:00-16:00", "phone": "1800 313 7049", "website": "https://www.sudhirmemorialinstitute.com/", "osm_id": 10044004317}, "geometry": {"type": "Point", "coordinates": [88.463186, 22.6841539]}}, {"type": "Feature", "properties": {"addr:street": "Banku Bihari Chatterjee Road", "amenity": "school", "name": "Silver Point School", "osm_id": 10247535209}, "geometry": {"type": "Point", "coordinates": [88.3802091, 22.5144727]}}, {"type": "Feature", "properties": {"addr:city": "Kolkata", "addr:district": "North 24 Parganas", "addr:postcode": "700049", "addr:state": "WB", "addr:street": "Ghanashyam Banerjee Road", "amenity": "school", "name": "Rabindra Path Bhaban Academy", "osm_id": 10581627490}, "geometry": {"type": "Point", "coordinates": [88.3998187, 22.671427]}}, {"type": "Feature", "properties": {"amenity": "school", "name": "the newtown school", "osm_id": 10960407339}, "geometry": {"type": "Point", "coordinates": [88.4692536, 22.5709376]}}, {"type": "Feature", "properties": {"amenity": "school", "name": "auxiliam convent school", "osm_id": 10960407385}, "geometry": {"type": "Point", "coordinates": [88.4164476, 22.6416649]}}, {"type": "Feature", "properties": {"amenity": "school", "name": "prafulla kanan deshapriya balika vidyamandir", "osm_id": 10960407394}, "geometry": {"type": "Point", "coordinates": [88.4243044, 22.6033465]}}, {"type": "Feature", "properties": {"addr:postcode": "700037", "addr:street": "Belgachia Road", "amenity": "school", "check_date": "2023-10-04", "name": "Belgachia Muslim High School", "name:en": "Belgachia Muslim High School ( Co-Ed )", "opening_hours": "Mo-Th, Sa 06:00-17:00", "osm_id": 10964841306}, "geometry": {"type": "Point", "coordinates": [88.3845292, 22.6023121]}}, {"type": "Feature", "properties": {"addr:postcode": "700037", "addr:street": "Belggachia Road", "amenity": "school", "name": "Belgachia Urdu High School ( Co-Ed )", "opening_hours": "Mo-Su 06:00-17:00", "osm_id": 10967279405}, "geometry": {"type": "Point", "coordinates": [88.3839619, 22.6032143]}}, {"type": "Feature", "properties": {"addr:postcode": "700037", "addr:street": "Belgachia Road", "amenity": "school", "internet_access": "wlan", "name": "Iqra Assembly School", "opening_hours": "Mo-Sa 06:00-18:00", "osm_id": 10968138706}, "geometry": {"type": "Point", "coordinates": [88.384768, 22.6051625]}}, {"type": "Feature", "properties": {"addr:postcode": "700037", "addr:street": "Belgachia Road", "amenity": "school", "name": "Blue Bell Day School", "opening_hours": "Mo-Sa 06:00-13:00", "osm_id": 10977085505}, "geometry": {"type": "Point", "coordinates": [88.3864773, 22.6049719]}}, {"type": "Feature", "properties": {"amenity": "school", "check_date": "2023-10-12", "name": "Jadunath Vidyamandir", "osm_id": 11256957940}, "geometry": {"type": "Point", "coordinates": [88.477665, 22.4007421]}}, {"type": "Feature", "properties": {"amenity": "school", "check_date": "2023-10-17", "internet_access": "no", "name": "Bharati Bhavan Girls High School", "payment:cards": "no", "payment:cash": "yes", "payment:credit_cards": "no", "payment:debit_cards": "no", "wheelchair": "yes", "osm_id": 11268625234}, "geometry": {"type": "Point", "coordinates": [88.364333, 22.654839]}}, {"type": "Feature", "properties": {"amenity": "school", "check_date": "2023-10-30", "fee": "yes", "name": "Kendua Mahendragarh High School", "operator:type": "government", "religion": "hindu", "osm_id": 11300039718}, "geometry": {"type": "Point", "coordinates": [88.3810173, 22.476745]}}, {"type": "Feature", "properties": {"amenity": "school", "check_date": "2023-10-30", "name": "BD Memorial Primary School", "operator:type": "private", "source": "local knowledge", "osm_id": 11300237037}, "geometry": {"type": "Point", "coordinates": [88.3778406, 22.4674766]}}, {"type": "Feature", "properties": {"amenity": "school", "check_date": "2023-10-30", "name": "SB girls High School", "operator:type": "government", "source": "local knowledge", "osm_id": 11300245908}, "geometry": {"type": "Point", "coordinates": [88.3778875, 22.4647949]}}, {"type": "Feature", "properties": {"addr:housenumber": "53/1/3", "addr:street": "Hazra Road", "amenity": "school", "check_date": "2023-12-16", "name": "M G Rungta Academy", "operator:type": "private", "osm_id": 11422441931}, "geometry": {"type": "Point", "coordinates": [88.3658586, 22.5270866]}}, {"type": "Feature", "properties": {"addr:city": "South Garia-1-viii", "addr:district": "South 24 Pargana", "addr:postcode": "743613", "amenity": "school", "grades": "1-5", "name": "Pranabananda Sishu Vidyapith", "start_date": "2014", "osm_id": 11546236644}, "geometry": {"type": "Point", "coordinates": [88.4754072, 22.4047799]}}, {"type": "Feature", "properties": {"addr:city": "Kolkata", "addr:postcode": "700097", "amenity": "school", "name": "St. Francis Xavier School", "osm_id": 11608921069}, "geometry": {"type": "Point", "coordinates": [88.4062786, 22.5729189]}}, {"type": "Feature", "properties": {"addr:housenumber": "9B", "addr:postcode": "700073", "addr:street": "Bolai Dutta Street", "amenity": "school", "name": "Md Jan Higher Secondary School", "opening_hours": "Mo-Sa 06:00-04:30", "website": "http://mdjanschool.org.in/", "osm_id": 11736253669}, "geometry": {"type": "Point", "coordinates": [88.3572206, 22.5767656]}}, {"type": "Feature", "properties": {"amenity": "school", "name": "Kids Kingdome", "operator:type": "private", "wheelchair": "designated", "osm_id": 11836940147}, "geometry": {"type": "Point", "coordinates": [88.4239052, 22.6307062]}}, {"type": "Feature", "properties": {"addr:postcode": "700084", "addr:street": "Garia Station Road", "amenity": "school", "name": "Garia Barada Prasad Uchcha Vidyalaya (Estd.-1919)", "opening_hours": "Mo-Fr 10:00-17:00; Sa 10:00-14:30", "operator": "Garia Barada Prasad Uchcha Vidyalaya (Estd.-1919)", "phone": "03324622387", "osm_id": 11847022218}, "geometry": {"type": "Point", "coordinates": [88.3807611, 22.462766]}}, {"type": "Feature", "properties": {"addr:postcode": "700002", "addr:street": "Dum Dum Road", "amenity": "school", "name": "PM", "name:en": "PM Shri Kendriya Vidyalaya Cossipore", "opening_hours": "Mo-Sa 08:00-14:10", "operator": "PM Shri Kendriya Vidyalaya Cossipore", "phone": "03325578327", "website": "https://cossipore.kvs.ac.in/", "osm_id": 11874870170}, "geometry": {"type": "Point", "coordinates": [88.3869186, 22.622171]}}, {"type": "Feature", "properties": {"addr:housenumber": "601", "addr:postcode": "700091", "addr:street": "Unit - 601, & GP, Godrej Genesis Building, EP Block, Sector V,", "amenity": "school", "internet_access": "wlan", "name": "IEMLabs - Cyber Security & Ethical Hacking Course in Kolkata", "opening_hours": "Mo-Sa 09:00-19:30", "phone": "098319 78317", "website": "https://iemlabs.com/", "osm_id": 11992630169}, "geometry": {"type": "Point", "coordinates": [88.4339162, 22.5727319]}}, {"type": "Feature", "properties": {"addr:housenumber": "8th floor", "addr:postcode": "700014", "addr:street": "AJC Bose Road (Sealdah Flyover)", "amenity": "school", "check_date": "2026-03-22", "internet_access": "wlan", "name": "PW Govt Exam Wallah Kolkata", "opening_hours": "Mo-Su 07:00-20:00", "phone": "+917044531884;+918420620749", "website": "https://pw.live/", "osm_id": 12080634069}, "geometry": {"type": "Point", "coordinates": [88.369557, 22.5660376]}}, {"type": "Feature", "properties": {"addr:housenumber": "36", "addr:postcode": "700007", "addr:street": "Chittaranjan Avenue", "amenity": "school", "name": "Shree Vishudhanand Saraswati Vidyalay school", "opening_hours": "Mo-Sa 06:00-17:30", "outdoor_seating": "no", "phone": "033 2241 1539", "osm_id": 12164967801}, "geometry": {"type": "Point", "coordinates": [88.3616203, 22.5800786]}}, {"type": "Feature", "properties": {"addr:city": "Kolkata", "addr:district": "Kolkata", "addr:postcode": "700008", "addr:street": "Kailash Ghosh Road", "amenity": "school", "name": "Purba Barisha High School", "osm_id": 12308788601}, "geometry": {"type": "Point", "coordinates": [88.3203914, 22.4774268]}}, {"type": "Feature", "properties": {"addr:housenumber": "p-232", "addr:postcode": "700054", "addr:street": "CIT Road", "alt_name": "পূর্বাঞ্চল বিদ্যামন্দির", "amenity": "school", "name": "Purwanchal Vidyamandir", "opening_hours": "Mo-Fr 06:00-18:00", "phone": "033 3561 9830", "website": "https://purwanchalvidyamandir.org/", "osm_id": 12336503001}, "geometry": {"type": "Point", "coordinates": [88.3883287, 22.5821847]}}, {"type": "Feature", "properties": {"addr:postcode": "700019", "addr:street": "Ballygunge Place", "amenity": "school", "name": "Ballygunge Vidyalaya & Silpa Sikshayatana", "opening_hours": "Mo-Sa 10:45-17:00", "osm_id": 12346102001}, "geometry": {"type": "Point", "coordinates": [88.3696565, 22.5276908]}}, {"type": "Feature", "properties": {"addr:housenumber": "80/A", "addr:postcode": "700019", "addr:street": "Bondel Road", "amenity": "school", "name": "Jagriti Vidyapeeth High School", "osm_id": 12346105101}, "geometry": {"type": "Point", "coordinates": [88.3680212, 22.5284937]}}, {"type": "Feature", "properties": {"amenity": "school", "osm_id": 12428864716}, "geometry": {"type": "Point", "coordinates": [88.3417557, 22.6622498]}}, {"type": "Feature", "properties": {"amenity": "school", "name": "North Kolkata Public", "osm_id": 12573575622}, "geometry": {"type": "Point", "coordinates": [88.4022842, 22.6215504]}}, {"type": "Feature", "properties": {"amenity": "school", "name": "Ramakrishna Mission School", "osm_id": 12743656001}, "geometry": {"type": "Point", "coordinates": [88.3918084, 22.6553307]}}, {"type": "Feature", "properties": {"amenity": "school", "name": "Priyonath Vidyapith", "opening_hours": "Mo-Sa 06:00-16:00", "osm_id": 12745158302}, "geometry": {"type": "Point", "coordinates": [88.3972184, 22.65363]}}, {"type": "Feature", "properties": {"amenity": "school", "name": "DP Nursery School", "osm_id": 12745634701}, "geometry": {"type": "Point", "coordinates": [88.3913697, 22.6592468]}}, {"type": "Feature", "properties": {"addr:postcode": "700002", "addr:street": "Seven Tanks Ln.", "amenity": "school", "name": "W.W.A. Cossipore English School", "phone": "+913325574373", "website": "https://www.wwaces.in/", "osm_id": 12979340601}, "geometry": {"type": "Point", "coordinates": [88.386705, 22.6217112]}}, {"type": "Feature", "properties": {"amenity": "school", "name": "Dum Dum Mothijeel Girls School", "osm_id": 13023122676}, "geometry": {"type": "Point", "coordinates": [88.4105543, 22.6222037]}}, {"type": "Feature", "properties": {"addr:housenumber": "235/1", "addr:postcode": "70042", "addr:street": "Banku Bihari Chatterjee Road", "amenity": "school", "name": "Kasba Modern Institute For Girls", "osm_id": 13406746701}, "geometry": {"type": "Point", "coordinates": [88.3787871, 22.5163806]}}, {"type": "Feature", "properties": {"addr:postcode": "700057", "amenity": "school", "education": "school", "name": "Techno India School, Ariadaha", "osm_id": 13526892090}, "geometry": {"type": "Point", "coordinates": [88.3723212, 22.6708878]}}, {"type": "Feature", "properties": {"amenity": "school", "check_date": "2026-05-27", "education": "school", "name": "Bansdroni Chakdah Vidyamandir", "osm_id": 13885049501}, "geometry": {"type": "Point", "coordinates": [88.3506459, 22.4706095]}}, {"type": "Feature", "properties": {"amenity": "school", "check_date": "2026-05-27", "education": "school", "name": "Muktadhara Nursery & Kindergarten School", "osm_id": 13885066101}, "geometry": {"type": "Point", "coordinates": [88.3523217, 22.4699105]}}, {"type": "Feature", "properties": {"amenity": "school", "name": "Sun Ray Mission School", "osm_id": 13919680186}, "geometry": {"type": "Point", "coordinates": [88.3801711, 22.6299652]}}]}