{"type": "FeatureCollection", "crs": {"type": "name", "properties": {"name": "urn:ogc:def:crs:OGC:1.3:CRS84"}}, "features": [{"type": "Feature", "properties": {"amenity": "toilets", "osm_id": 1881428450}, "geometry": {"type": "Point", "coordinates": [88.3442078, 22.522402]}}, {"type": "Feature", "properties": {"amenity": "toilets", "check_date": "2026-03-22", "osm_id": 2266850251}, "geometry": {"type": "Point", "coordinates": [88.3651696, 22.5660695]}}, {"type": "Feature", "properties": {"amenity": "toilets", "osm_id": 4069810783}, "geometry": {"type": "Point", "coordinates": [88.3326756, 22.509515]}}, {"type": "Feature", "properties": {"amenity": "toilets", "osm_id": 4072202051}, "geometry": {"type": "Point", "coordinates": [88.337245, 22.5069793]}}, {"type": "Feature", "properties": {"access": "yes", "amenity": "toilets", "osm_id": 4178789860}, "geometry": {"type": "Point", "coordinates": [88.3531911, 22.6189573]}}, {"type": "Feature", "properties": {"amenity": "toilets", "operator": "DDMC", "osm_id": 4364284789}, "geometry": {"type": "Point", "coordinates": [88.4310268, 22.6416502]}}, {"type": "Feature", "properties": {"amenity": "toilets", "name": "Pay Toilet", "source": "Survey", "osm_id": 4368120292}, "geometry": {"type": "Point", "coordinates": [88.356732, 22.553748]}}, {"type": "Feature", "properties": {"amenity": "toilets", "operator": "public cr (shower)", "osm_id": 5169245524}, "geometry": {"type": "Point", "coordinates": [88.3631561, 22.5747496]}}, {"type": "Feature", "properties": {"amenity": "toilets", "osm_id": 5273034721}, "geometry": {"type": "Point", "coordinates": [88.3418619, 22.5420725]}}, {"type": "Feature", "properties": {"amenity": "toilets", "osm_id": 5273034921}, "geometry": {"type": "Point", "coordinates": [88.346026, 22.5419989]}}, {"type": "Feature", "properties": {"amenity": "toilets", "osm_id": 5336091222}, "geometry": {"type": "Point", "coordinates": [88.3477725, 22.5337729]}}, {"type": "Feature", "properties": {"amenity": "toilets", "fee": "yes", "osm_id": 5341885721}, "geometry": {"type": "Point", "coordinates": [88.3508965, 22.5560145]}}, {"type": "Feature", "properties": {"amenity": "toilets", "osm_id": 5982424185}, "geometry": {"type": "Point", "coordinates": [88.2860739, 22.5601485]}}, {"type": "Feature", "properties": {"amenity": "toilets", "osm_id": 6135364806}, "geometry": {"type": "Point", "coordinates": [88.3499112, 22.5497031]}}, {"type": "Feature", "properties": {"amenity": "toilets", "fee": "yes", "osm_id": 6143232801}, "geometry": {"type": "Point", "coordinates": [88.3498205, 22.5655231]}}, {"type": "Feature", "properties": {"amenity": "toilets", "fee": "yes", "osm_id": 6143232802}, "geometry": {"type": "Point", "coordinates": [88.3508588, 22.5642972]}}, {"type": "Feature", "properties": {"access": "private", "amenity": "toilets", "check_date": "2024-07-15", "fee": "yes", "toilets:disposal": "flush", "osm_id": 6144987275}, "geometry": {"type": "Point", "coordinates": [88.3478041, 22.5784216]}}, {"type": "Feature", "properties": {"amenity": "toilets", "fee": "no", "female": "no", "male": "yes", "osm_id": 6144992691}, "geometry": {"type": "Point", "coordinates": [88.3507693, 22.5560154]}}, {"type": "Feature", "properties": {"amenity": "toilets", "osm_id": 6173584906}, "geometry": {"type": "Point", "coordinates": [88.3459005, 22.5753812]}}, {"type": "Feature", "properties": {"amenity": "toilets", "check_date": "2025-02-05", "osm_id": 6173705433}, "geometry": {"type": "Point", "coordinates": [88.3514768, 22.5576086]}}, {"type": "Feature", "properties": {"access": "customers", "amenity": "toilets", "changing_table": "no", "check_date": "2023-10-30", "fee": "yes", "payment:cash": "yes", "toilets:disposal": "pitlatrine", "osm_id": 9052559014}, "geometry": {"type": "Point", "coordinates": [88.370267, 22.5933051]}}, {"type": "Feature", "properties": {"amenity": "toilets", "opening_hours": "24/7", "osm_id": 9566132717}, "geometry": {"type": "Point", "coordinates": [88.3919642, 22.5846991]}}, {"type": "Feature", "properties": {"amenity": "toilets", "opening_hours": "24/7", "osm_id": 9638076917}, "geometry": {"type": "Point", "coordinates": [88.4077768, 22.6007177]}}, {"type": "Feature", "properties": {"amenity": "toilets", "osm_id": 10224475884}, "geometry": {"type": "Point", "coordinates": [88.4391025, 22.6409892]}}, {"type": "Feature", "properties": {"amenity": "toilets", "osm_id": 10224504993}, "geometry": {"type": "Point", "coordinates": [88.4398159, 22.6416821]}}, {"type": "Feature", "properties": {"amenity": "toilets", "osm_id": 10224511957}, "geometry": {"type": "Point", "coordinates": [88.4399995, 22.6441932]}}, {"type": "Feature", "properties": {"amenity": "toilets", "osm_id": 10224523274}, "geometry": {"type": "Point", "coordinates": [88.4397087, 22.6432826]}}, {"type": "Feature", "properties": {"amenity": "toilets", "osm_id": 10224538669}, "geometry": {"type": "Point", "coordinates": [88.4398451, 22.6423505]}}, {"type": "Feature", "properties": {"amenity": "toilets", "osm_id": 10768254994}, "geometry": {"type": "Point", "coordinates": [88.4613622, 22.6081804]}}, {"type": "Feature", "properties": {"amenity": "toilets", "male": "yes", "osm_id": 10797136313}, "geometry": {"type": "Point", "coordinates": [88.4647917, 22.5626821]}}, {"type": "Feature", "properties": {"amenity": "toilets", "female": "yes", "osm_id": 10797136314}, "geometry": {"type": "Point", "coordinates": [88.4649041, 22.5626784]}}, {"type": "Feature", "properties": {"amenity": "toilets", "fee": "yes", "wheelchair": "limited", "osm_id": 10822337105}, "geometry": {"type": "Point", "coordinates": [88.349219, 22.5633434]}}, {"type": "Feature", "properties": {"amenity": "toilets", "osm_id": 10822337305}, "geometry": {"type": "Point", "coordinates": [88.3333922, 22.5390235]}}, {"type": "Feature", "properties": {"amenity": "toilets", "osm_id": 10822337405}, "geometry": {"type": "Point", "coordinates": [88.333274, 22.536874]}}, {"type": "Feature", "properties": {"amenity": "toilets", "osm_id": 10822337609}, "geometry": {"type": "Point", "coordinates": [88.3323512, 22.5346531]}}, {"type": "Feature", "properties": {"amenity": "toilets", "osm_id": 10822337610}, "geometry": {"type": "Point", "coordinates": [88.3308453, 22.5332509]}}, {"type": "Feature", "properties": {"access": "yes", "amenity": "toilets", "check_date": "2023-10-30", "source": "local knowledge", "osm_id": 11300084063}, "geometry": {"type": "Point", "coordinates": [88.3815961, 22.4765809]}}, {"type": "Feature", "properties": {"access": "yes", "amenity": "toilets", "changing_table": "yes", "check_date": "2023-12-16", "toilets:disposal": "flush", "osm_id": 11422441929}, "geometry": {"type": "Point", "coordinates": [88.3663347, 22.5259051]}}, {"type": "Feature", "properties": {"amenity": "toilets", "opening_hours": "Mo-Su 06:00-20:00", "operator": "kmda", "osm_id": 11963325168}, "geometry": {"type": "Point", "coordinates": [88.3555027, 22.509167]}}, {"type": "Feature", "properties": {"amenity": "toilets", "osm_id": 12133228314}, "geometry": {"type": "Point", "coordinates": [88.3370522, 22.5241449]}}, {"type": "Feature", "properties": {"amenity": "toilets", "osm_id": 12133871280}, "geometry": {"type": "Point", "coordinates": [88.3394189, 22.5642441]}}, {"type": "Feature", "properties": {"amenity": "toilets", "osm_id": 12133891169}, "geometry": {"type": "Point", "coordinates": [88.3407793, 22.566546]}}, {"type": "Feature", "properties": {"amenity": "toilets", "osm_id": 12136549040}, "geometry": {"type": "Point", "coordinates": [88.3464379, 22.6147473]}}, {"type": "Feature", "properties": {"amenity": "toilets", "fee": "yes", "wheelchair": "yes", "osm_id": 12136549041}, "geometry": {"type": "Point", "coordinates": [88.3559088, 22.6313479]}}, {"type": "Feature", "properties": {"amenity": "toilets", "check_date": "2024-09-29", "internet_access": "wlan", "internet_access:fee": "no", "payment:cards": "no", "payment:cash": "yes", "payment:credit_cards": "no", "payment:debit_cards": "no", "wheelchair": "limited", "osm_id": 12208616776}, "geometry": {"type": "Point", "coordinates": [88.4341017, 22.5747114]}}, {"type": "Feature", "properties": {"access": "yes", "amenity": "toilets", "check_date": "2026-03-22", "osm_id": 12492448757}, "geometry": {"type": "Point", "coordinates": [88.3654235, 22.5687394]}}, {"type": "Feature", "properties": {"access": "yes", "amenity": "toilets", "osm_id": 12581616169}, "geometry": {"type": "Point", "coordinates": [88.3942723, 22.6200305]}}, {"type": "Feature", "properties": {"amenity": "toilets", "osm_id": 12776621046}, "geometry": {"type": "Point", "coordinates": [88.3062605, 22.5079297]}}, {"type": "Feature", "properties": {"amenity": "toilets", "fee": "yes", "osm_id": 13206857189}, "geometry": {"type": "Point", "coordinates": [88.347093, 22.5260799]}}, {"type": "Feature", "properties": {"amenity": "toilets", "changing_table": "no", "fee": "yes", "fee:conditional": "3 @ urinal; 10 @ toilet", "female": "yes", "male": "yes", "toilets:disposal": "flush", "toilets:menstrual_products": "no", "toilets:position": "seated;squat;urinal", "unisex": "yes", "wheelchair": "limited", "osm_id": 13207967209}, "geometry": {"type": "Point", "coordinates": [88.3451962, 22.5434268]}}, {"type": "Feature", "properties": {"amenity": "toilets", "osm_id": 13227037500}, "geometry": {"type": "Point", "coordinates": [88.353688, 22.5121704]}}, {"type": "Feature", "properties": {"amenity": "toilets", "fee": "yes", "wheelchair": "no", "osm_id": 13227043143}, "geometry": {"type": "Point", "coordinates": [88.359682, 22.5128574]}}, {"type": "Feature", "properties": {"access": "yes", "amenity": "toilets", "fee": "no", "level": "0", "male": "yes", "toilets:disposal": "flush", "wheelchair": "no", "osm_id": 13290125044}, "geometry": {"type": "Point", "coordinates": [88.3541618, 22.5501228]}}, {"type": "Feature", "properties": {"access": "yes", "amenity": "toilets", "fee": "no", "female": "yes", "level": "0", "toilets:disposal": "flush", "wheelchair": "no", "osm_id": 13290125064}, "geometry": {"type": "Point", "coordinates": [88.3541484, 22.5501399]}}, {"type": "Feature", "properties": {"access": "customers", "amenity": "toilets", "fee": "no", "female": "yes", "level": "-1", "toilets:disposal": "flush", "toilets:handwashing": "yes", "toilets:position": "seated", "wheelchair": "designated", "osm_id": 13290265843}, "geometry": {"type": "Point", "coordinates": [88.3899657, 22.5721801]}}, {"type": "Feature", "properties": {"access": "customers", "amenity": "toilets", "fee": "no", "level": "-1", "male": "yes", "toilets:disposal": "flush", "toilets:handwashing": "yes", "toilets:position": "seated;urinal", "osm_id": 13290284933}, "geometry": {"type": "Point", "coordinates": [88.3899288, 22.5722326]}}, {"type": "Feature", "properties": {"access": "customers", "amenity": "toilets", "fee": "no", "female": "yes", "level": "-1", "male": "yes", "toilets:disposal": "flush", "toilets:handwashing": "yes", "toilets:position": "seated", "unisex": "yes", "wheelchair": "designated", "osm_id": 13290284938}, "geometry": {"type": "Point", "coordinates": [88.3899639, 22.5722142]}}, {"type": "Feature", "properties": {"access": "yes", "amenity": "toilets", "fee": "yes", "female": "yes", "level": "0", "toilets:handwashing": "yes", "toilets:position": "urinal", "wheelchair": "limited", "osm_id": 13291177188}, "geometry": {"type": "Point", "coordinates": [88.3718597, 22.5671063]}}, {"type": "Feature", "properties": {"access": "yes", "amenity": "toilets", "fee": "yes", "level": "0", "male": "yes", "toilets:handwashing": "yes", "toilets:position": "urinal", "wheelchair": "limited", "osm_id": 13291177196}, "geometry": {"type": "Point", "coordinates": [88.3718978, 22.5670463]}}, {"type": "Feature", "properties": {"access": "yes", "amenity": "toilets", "fee": "yes", "female": "yes", "male": "yes", "toilets:disposal": "flush", "toilets:menstrual_products": "no", "toilets:position": "squat;urinal", "unisex": "yes", "wheelchair": "no", "osm_id": 13751420290}, "geometry": {"type": "Point", "coordinates": [88.3527846, 22.4984631]}}]}