{
"type": "FeatureCollection",
"name": "air_quality",
"crs": { "type": "name", "properties": { "name": "urn:ogc:def:crs:OGC:1.3:CRS84" } },
"features": [
{ "type": "Feature", "properties": { "station": "Alipur", "agency": "DPCC", "aqi_annual_mean": 210.2, "aqi_winter_mean": 303.5, "pm25_annual_mean": 100.1, "pm25_winter_mean": 179.9 }, "geometry": { "type": "Point", "coordinates": [ 77.1555, 28.7993 ] } },
{ "type": "Feature", "properties": { "station": "Anand Vihar", "agency": "DPCC", "aqi_annual_mean": 262.9, "aqi_winter_mean": 354.3, "pm25_annual_mean": 128.9, "pm25_winter_mean": 228.1 }, "geometry": { "type": "Point", "coordinates": [ 77.315, 28.6464 ] } },
{ "type": "Feature", "properties": { "station": "Ashok Vihar", "agency": "DPCC", "aqi_annual_mean": 217.6, "aqi_winter_mean": 317.4, "pm25_annual_mean": 109.5, "pm25_winter_mean": 203.9 }, "geometry": { "type": "Point", "coordinates": [ 77.1715, 28.6883 ] } },
{ "type": "Feature", "properties": { "station": "Aya Nagar", "agency": "IMD", "aqi_annual_mean": 180.6, "aqi_winter_mean": 259.8, "pm25_annual_mean": 82.8, "pm25_winter_mean": 139.7 }, "geometry": { "type": "Point", "coordinates": [ 77.1388, 28.4686 ] } },
{ "type": "Feature", "properties": { "station": "Bawana", "agency": "DPCC", "aqi_annual_mean": 237.0, "aqi_winter_mean": 331.0, "pm25_annual_mean": 124.1, "pm25_winter_mean": 219.6 }, "geometry": { "type": "Point", "coordinates": [ 77.0469, 28.8113 ] } },
{ "type": "Feature", "properties": { "station": "Burari Crossing", "agency": "IMD", "aqi_annual_mean": 218.1, "aqi_winter_mean": 297.3, "pm25_annual_mean": 102.8, "pm25_winter_mean": 184.9 }, "geometry": { "type": "Point", "coordinates": [ 77.2036, 28.7301 ] } },
{ "type": "Feature", "properties": { "station": "CRRI Mathura Road", "agency": "IMD", "aqi_annual_mean": 217.9, "aqi_winter_mean": 306.6, "pm25_annual_mean": 96.4, "pm25_winter_mean": 171.4 }, "geometry": { "type": "Point", "coordinates": [ 77.2741, 28.5646 ] } },
{ "type": "Feature", "properties": { "station": "Chandni Chowk", "agency": "IITM", "aqi_annual_mean": 245.6, "aqi_winter_mean": 319.8, "pm25_annual_mean": 98.7, "pm25_winter_mean": 164.3 }, "geometry": { "type": "Point", "coordinates": [ 77.2303, 28.6505 ] } },
{ "type": "Feature", "properties": { "station": "DTU", "agency": "CPCB", "aqi_annual_mean": 218.6, "aqi_winter_mean": 313.7, "pm25_annual_mean": 75.6, "pm25_winter_mean": 121.0 }, "geometry": { "type": "Point", "coordinates": [ 77.1175, 28.7492 ] } },
{ "type": "Feature", "properties": { "station": "Dr. Karni Singh Shooting Range", "agency": "DPCC", "aqi_annual_mean": 197.4, "aqi_winter_mean": 297.9, "pm25_annual_mean": 97.1, "pm25_winter_mean": 181.2 }, "geometry": { "type": "Point", "coordinates": [ 77.2396, 28.4785 ] } },
{ "type": "Feature", "properties": { "station": "Dwarka-Sector 8", "agency": "DPCC", "aqi_annual_mean": 235.0, "aqi_winter_mean": 332.9, "pm25_annual_mean": 106.2, "pm25_winter_mean": 191.2 }, "geometry": { "type": "Point", "coordinates": [ 77.0556, 28.5646 ] } },
{ "type": "Feature", "properties": { "station": "IGI Airport (T3)", "agency": "IMD", "aqi_annual_mean": 194.2, "aqi_winter_mean": 275.0, "pm25_annual_mean": 86.4, "pm25_winter_mean": 147.8 }, "geometry": { "type": "Point", "coordinates": [ 77.1, 28.5562 ] } },
{ "type": "Feature", "properties": { "station": "IHBAS", "agency": "CPCB", "aqi_annual_mean": 191.8, "aqi_winter_mean": 269.3, "pm25_annual_mean": 75.2, "pm25_winter_mean": 123.2 }, "geometry": { "type": "Point", "coordinates": [ 77.3168, 28.6826 ] } },
{ "type": "Feature", "properties": { "station": "ITO", "agency": "CPCB", "aqi_annual_mean": 211.1, "aqi_winter_mean": 300.5, "pm25_annual_mean": 100.5, "pm25_winter_mean": 175.8 }, "geometry": { "type": "Point", "coordinates": [ 77.2425, 28.6288 ] } },
{ "type": "Feature", "properties": { "station": "Jahangirpuri", "agency": "DPCC", "aqi_annual_mean": 244.5, "aqi_winter_mean": 351.7, "pm25_annual_mean": 130.2, "pm25_winter_mean": 229.7 }, "geometry": { "type": "Point", "coordinates": [ 77.1804, 28.734 ] } },
{ "type": "Feature", "properties": { "station": "Jawaharlal Nehru Stadium", "agency": "DPCC", "aqi_annual_mean": 204.3, "aqi_winter_mean": 304.8, "pm25_annual_mean": 83.9, "pm25_winter_mean": 167.0 }, "geometry": { "type": "Point", "coordinates": [ 77.2341, 28.5828 ] } },
{ "type": "Feature", "properties": { "station": "Lodhi Road", "agency": "IITM", "aqi_annual_mean": 168.0, "aqi_winter_mean": 216.1, "pm25_annual_mean": 77.5, "pm25_winter_mean": 116.8 }, "geometry": { "type": "Point", "coordinates": [ 77.2279, 28.5931 ] } },
{ "type": "Feature", "properties": { "station": "Lodhi Road IMD", "agency": "IMD", "aqi_annual_mean": 182.6, "aqi_winter_mean": 260.7, "pm25_annual_mean": 82.2, "pm25_winter_mean": 138.9 }, "geometry": { "type": "Point", "coordinates": [ 77.2248, 28.5902 ] } },
{ "type": "Feature", "properties": { "station": "Major Dhyan Chand National Stadium", "agency": "DPCC", "aqi_annual_mean": 202.7, "aqi_winter_mean": 301.4, "pm25_annual_mean": 97.7, "pm25_winter_mean": 175.0 }, "geometry": { "type": "Point", "coordinates": [ 77.2368, 28.6135 ] } },
{ "type": "Feature", "properties": { "station": "Mandir Marg", "agency": "DPCC", "aqi_annual_mean": 197.2, "aqi_winter_mean": 292.4, "pm25_annual_mean": 90.5, "pm25_winter_mean": 166.2 }, "geometry": { "type": "Point", "coordinates": [ 77.2006, 28.6289 ] } },
{ "type": "Feature", "properties": { "station": "Mundka", "agency": "DPCC", "aqi_annual_mean": 249.3, "aqi_winter_mean": 344.1, "pm25_annual_mean": 119.2, "pm25_winter_mean": 214.7 }, "geometry": { "type": "Point", "coordinates": [ 77.0316, 28.6764 ] } },
{ "type": "Feature", "properties": { "station": "NSIT Dwarka", "agency": "CPCB", "aqi_annual_mean": 220.4, "aqi_winter_mean": 303.9, "pm25_annual_mean": 87.0, "pm25_winter_mean": 126.5 }, "geometry": { "type": "Point", "coordinates": [ 77.0364, 28.6084 ] } },
{ "type": "Feature", "properties": { "station": "Najafgarh", "agency": "DPCC", "aqi_annual_mean": 187.5, "aqi_winter_mean": 266.2, "pm25_annual_mean": 83.5, "pm25_winter_mean": 147.3 }, "geometry": { "type": "Point", "coordinates": [ 76.9796, 28.6091 ] } },
{ "type": "Feature", "properties": { "station": "Narela", "agency": "DPCC", "aqi_annual_mean": 228.1, "aqi_winter_mean": 316.7, "pm25_annual_mean": 108.3, "pm25_winter_mean": 190.9 }, "geometry": { "type": "Point", "coordinates": [ 77.0931, 28.8377 ] } },
{ "type": "Feature", "properties": { "station": "Nehru Nagar", "agency": "DPCC", "aqi_annual_mean": 221.6, "aqi_winter_mean": 337.6, "pm25_annual_mean": 114.8, "pm25_winter_mean": 219.9 }, "geometry": { "type": "Point", "coordinates": [ 77.2486, 28.5634 ] } },
{ "type": "Feature", "properties": { "station": "North Campus", "agency": "IMD", "aqi_annual_mean": 214.3, "aqi_winter_mean": 299.9, "pm25_annual_mean": 98.8, "pm25_winter_mean": 174.0 }, "geometry": { "type": "Point", "coordinates": [ 77.2092, 28.6885 ] } },
{ "type": "Feature", "properties": { "station": "Okhla Phase-2", "agency": "DPCC", "aqi_annual_mean": 210.9, "aqi_winter_mean": 315.7, "pm25_annual_mean": 98.5, "pm25_winter_mean": 187.7 }, "geometry": { "type": "Point", "coordinates": [ 77.279, 28.5352 ] } },
{ "type": "Feature", "properties": { "station": "Patparganj", "agency": "DPCC", "aqi_annual_mean": 206.3, "aqi_winter_mean": 314.0, "pm25_annual_mean": 102.8, "pm25_winter_mean": 198.2 }, "geometry": { "type": "Point", "coordinates": [ 77.2903, 28.629 ] } },
{ "type": "Feature", "properties": { "station": "Punjabi Bagh", "agency": "DPCC", "aqi_annual_mean": 222.1, "aqi_winter_mean": 319.7, "pm25_annual_mean": 114.1, "pm25_winter_mean": 208.8 }, "geometry": { "type": "Point", "coordinates": [ 77.1304, 28.6758 ] } },
{ "type": "Feature", "properties": { "station": "Pusa", "agency": "DPCC", "aqi_annual_mean": 209.6, "aqi_winter_mean": 310.0, "pm25_annual_mean": 90.9, "pm25_winter_mean": 171.2 }, "geometry": { "type": "Point", "coordinates": [ 77.1804, 28.6399 ] } },
{ "type": "Feature", "properties": { "station": "Pusa IMD", "agency": "IMD", "aqi_annual_mean": 184.9, "aqi_winter_mean": 264.6, "pm25_annual_mean": 90.6, "pm25_winter_mean": 155.4 }, "geometry": { "type": "Point", "coordinates": [ 77.1463, 28.6397 ] } },
{ "type": "Feature", "properties": { "station": "R K Puram", "agency": "DPCC", "aqi_annual_mean": 216.3, "aqi_winter_mean": 311.1, "pm25_annual_mean": 113.3, "pm25_winter_mean": 203.3 }, "geometry": { "type": "Point", "coordinates": [ 77.174, 28.5626 ] } },
{ "type": "Feature", "properties": { "station": "Rohini", "agency": "DPCC", "aqi_annual_mean": 231.0, "aqi_winter_mean": 334.6, "pm25_annual_mean": 117.2, "pm25_winter_mean": 219.0 }, "geometry": { "type": "Point", "coordinates": [ 77.1096, 28.736 ] } },
{ "type": "Feature", "properties": { "station": "Shadipur", "agency": "CPCB", "aqi_annual_mean": 213.0, "aqi_winter_mean": 300.3, "pm25_annual_mean": 108.3, "pm25_winter_mean": 159.1 }, "geometry": { "type": "Point", "coordinates": [ 77.1572, 28.6462 ] } },
{ "type": "Feature", "properties": { "station": "Sirifort", "agency": "CPCB", "aqi_annual_mean": 218.4, "aqi_winter_mean": 311.0, "pm25_annual_mean": 106.7, "pm25_winter_mean": 186.1 }, "geometry": { "type": "Point", "coordinates": [ 77.2094, 28.5537 ] } },
{ "type": "Feature", "properties": { "station": "Sri Aurobindo Marg", "agency": "DPCC", "aqi_annual_mean": 183.4, "aqi_winter_mean": 280.4, "pm25_annual_mean": 79.5, "pm25_winter_mean": 141.3 }, "geometry": { "type": "Point", "coordinates": [ 77.1945, 28.5396 ] } },
{ "type": "Feature", "properties": { "station": "Vivek Vihar", "agency": "DPCC", "aqi_annual_mean": 222.7, "aqi_winter_mean": 322.8, "pm25_annual_mean": 115.7, "pm25_winter_mean": 220.9 }, "geometry": { "type": "Point", "coordinates": [ 77.3044, 28.6766 ] } },
{ "type": "Feature", "properties": { "station": "Wazirpur", "agency": "DPCC", "aqi_annual_mean": 241.1, "aqi_winter_mean": 338.5, "pm25_annual_mean": 124.7, "pm25_winter_mean": 228.0 }, "geometry": { "type": "Point", "coordinates": [ 77.1725, 28.7044 ] } },
{ "type": "Feature", "properties": { "station": "Sonia Vihar", "agency": "DPCC", "aqi_annual_mean": null, "aqi_winter_mean": null, "pm25_annual_mean": 103.7, "pm25_winter_mean": 189.9 }, "geometry": { "type": "Point", "coordinates": [ 77.2471, 28.7303 ] } }
]
}
