{
"type": "FeatureCollection",
"name": "dpl_libraries",
"crs": { "type": "name", "properties": { "name": "urn:ogc:def:crs:OGC:1.3:CRS84" } },
"features": [
{ "type": "Feature", "properties": { "name": "DPL Head Quarter", "location_type": "fixed_library", "zone": "central", "geocode_confidence": "verified", "Name": "DPL Head Quarter" }, "geometry": { "type": "Point", "coordinates": [ 77.229180829205006, 28.659943775695407 ] } },
{ "type": "Feature", "properties": { "name": "New Police Line", "location_type": "sub_branch_library", "zone": "central", "geocode_confidence": "google_approx", "Name": "New Police Line" }, "geometry": { "type": "Point", "coordinates": [ 77.203374, 28.699169 ] } },
{ "type": "Feature", "properties": { "name": "Shahdara", "location_type": "zonal_library", "zone": "east", "geocode_confidence": "verified", "Name": "Shahdara" }, "geometry": { "type": "Point", "coordinates": [ 77.290982949993278, 28.668826657359801 ] } },
{ "type": "Feature", "properties": { "name": "Yojna Vihar", "location_type": "sub_branch_library", "zone": "east", "geocode_confidence": "google_verified", "Name": "Yojna Vihar" }, "geometry": { "type": "Point", "coordinates": [ 77.3168145, 28.6622464 ] } },
{ "type": "Feature", "properties": { "name": "Vigyan Vihar", "location_type": "sub_branch_library", "zone": "east", "geocode_confidence": "google_approx", "Name": "Vigyan Vihar" }, "geometry": { "type": "Point", "coordinates": [ 77.3119806, 28.6606745 ] } },
{ "type": "Feature", "properties": { "name": "Kalyan Puri", "location_type": "fixed_library", "zone": "east", "geocode_confidence": "google_verified", "Name": "Kalyan Puri" }, "geometry": { "type": "Point", "coordinates": [ 77.3153717, 28.6124993 ] } },
{ "type": "Feature", "properties": { "name": "Nand Nagari Closed", "location_type": "fixed_library", "zone": "east", "geocode_confidence": "google_verified", "Name": "Nand Nagari Closed" }, "geometry": { "type": "Point", "coordinates": [ 77.3070587, 28.6911162 ] } },
{ "type": "Feature", "properties": { "name": "Seelam Pur", "location_type": "fixed_library", "zone": "east", "geocode_confidence": "google_verified", "Name": "Seelam Pur" }, "geometry": { "type": "Point", "coordinates": [ 77.2672356, 28.6881518 ] } },
{ "type": "Feature", "properties": { "name": "Ashok Vihar", "location_type": "sub_branch_library", "zone": "north", "geocode_confidence": "verified", "Name": "Ashok Vihar" }, "geometry": { "type": "Point", "coordinates": [ 77.178064685540122, 28.69847194805336 ] } },
{ "type": "Feature", "properties": { "name": "New Rohtak Road", "location_type": "sub_branch_library", "zone": "north", "geocode_confidence": "google_verified", "Name": "New Rohtak Road" }, "geometry": { "type": "Point", "coordinates": [ 77.1127789, 28.6595379 ] } },
{ "type": "Feature", "properties": { "name": "Bagh Kare Khan", "location_type": "sub_branch_library", "zone": "north", "geocode_confidence": "google_approx", "Name": "Bagh Kare Khan" }, "geometry": { "type": "Point", "coordinates": [ 77.1927279, 28.6658039 ] } },
{ "type": "Feature", "properties": { "name": "Qadi Pur", "location_type": "sub_branch_library", "zone": "north", "geocode_confidence": "google_verified", "Name": "Qadi Pur" }, "geometry": { "type": "Point", "coordinates": [ 77.1632295, 28.7696366 ] } },
{ "type": "Feature", "properties": { "name": "Katewara", "location_type": "sub_branch_library", "zone": "north", "geocode_confidence": "google_approx", "Name": "Katewara" }, "geometry": { "type": "Point", "coordinates": [ 76.9769917, 28.8038224 ] } },
{ "type": "Feature", "properties": { "name": "Bawana", "location_type": "sub_branch_library", "zone": "north", "geocode_confidence": "google_approx", "Name": "Bawana" }, "geometry": { "type": "Point", "coordinates": [ 76.9765475, 28.8042303 ] } },
{ "type": "Feature", "properties": { "name": "Narela", "location_type": "sub_branch_library", "zone": "north", "geocode_confidence": "google_approx", "Name": "Narela" }, "geometry": { "type": "Point", "coordinates": [ 77.0880622, 28.8532126 ] } },
{ "type": "Feature", "properties": { "name": "Aruna Nagar", "location_type": "fixed_library", "zone": "north", "geocode_confidence": "google_approx", "Name": "Aruna Nagar" }, "geometry": { "type": "Point", "coordinates": [ 77.2250673, 28.697557 ] } },
{ "type": "Feature", "properties": { "name": "Sangam Park", "location_type": "fixed_library", "zone": "north", "geocode_confidence": "google_approx", "Name": "Sangam Park" }, "geometry": { "type": "Point", "coordinates": [ 77.1891341, 28.6898217 ] } },
{ "type": "Feature", "properties": { "name": "Shakur Pur", "location_type": "fixed_library", "zone": "north", "geocode_confidence": "google_verified", "Name": "Shakur Pur" }, "geometry": { "type": "Point", "coordinates": [ 77.1441531, 28.6877771 ] } },
{ "type": "Feature", "properties": { "name": "Jwala Puri", "location_type": "fixed_library", "zone": "north", "geocode_confidence": "google_approx", "Name": "Jwala Puri" }, "geometry": { "type": "Point", "coordinates": [ 77.078751, 28.6781308 ] } },
{ "type": "Feature", "properties": { "name": "Mundka Closed", "location_type": "sub_branch_library", "zone": "north", "geocode_confidence": "google_verified", "Name": "Mundka Closed" }, "geometry": { "type": "Point", "coordinates": [ 77.0282935, 28.6754791 ] } },
{ "type": "Feature", "properties": { "name": "Karol Bagh Closed", "location_type": "zonal_library", "zone": "north", "geocode_confidence": "google_verified", "Name": "Karol Bagh Closed" }, "geometry": { "type": "Point", "coordinates": [ 77.1956184, 28.6512721 ] } },
{ "type": "Feature", "properties": { "name": "Sarojini Nagar", "location_type": "zonal_library", "zone": "south", "geocode_confidence": "verified", "Name": "Sarojini Nagar" }, "geometry": { "type": "Point", "coordinates": [ 77.193935557716202, 28.57541837075426 ] } },
{ "type": "Feature", "properties": { "name": "Braille Library", "location_type": "fixed_library", "zone": "south", "geocode_confidence": "google_verified", "Name": "Braille Library" }, "geometry": { "type": "Point", "coordinates": [ 77.2398037, 28.5945141 ] } },
{ "type": "Feature", "properties": { "name": "R.K.Puram, Sector-8", "location_type": "sub_branch_library", "zone": "south", "geocode_confidence": "google_verified", "Name": "R.K.Puram, Sector-8" }, "geometry": { "type": "Point", "coordinates": [ 77.1666702, 28.5724616 ] } },
{ "type": "Feature", "properties": { "name": "Andrews Gunj", "location_type": "sub_branch_library", "zone": "south", "geocode_confidence": "google_verified", "Name": "Andrews Gunj" }, "geometry": { "type": "Point", "coordinates": [ 77.208225, 28.5579228 ] } },
{ "type": "Feature", "properties": { "name": "Vinoba Puri", "location_type": "sub_branch_library", "zone": "south", "geocode_confidence": "google_approx", "Name": "Vinoba Puri" }, "geometry": { "type": "Point", "coordinates": [ 77.250502, 28.565944 ] } },
{ "type": "Feature", "properties": { "name": "Dakshin Puri", "location_type": "fixed_library", "zone": "south", "geocode_confidence": "google_approx", "Name": "Dakshin Puri" }, "geometry": { "type": "Point", "coordinates": [ 77.2077374, 28.5233016 ] } },
{ "type": "Feature", "properties": { "name": "Lodhi Colony", "location_type": "community_library", "zone": "south", "geocode_confidence": "google_verified", "Name": "Lodhi Colony" }, "geometry": { "type": "Point", "coordinates": [ 77.1641212, 28.5576514 ] } },
{ "type": "Feature", "properties": { "name": "Patel Nagar", "location_type": "zonal_library", "zone": "west", "geocode_confidence": "verified", "Name": "Patel Nagar" }, "geometry": { "type": "Point", "coordinates": [ 77.1726977, 28.6446592 ] } },
{ "type": "Feature", "properties": { "name": "Janak Puri", "location_type": "sub_branch_library", "zone": "west", "geocode_confidence": "google_verified", "Name": "Janak Puri" }, "geometry": { "type": "Point", "coordinates": [ 77.0945327, 28.6114547 ] } },
{ "type": "Feature", "properties": { "name": "Peshwa Road", "location_type": "sub_branch_library", "zone": "west", "geocode_confidence": "google_approx", "Name": "Peshwa Road" }, "geometry": { "type": "Point", "coordinates": [ 77.2106214, 28.6305471 ] } },
{ "type": "Feature", "properties": { "name": "DIZ. Area", "location_type": "sub_branch_library", "zone": "west", "geocode_confidence": "google_approx", "Name": "DIZ. Area" }, "geometry": { "type": "Point", "coordinates": [ 77.20856, 28.63924 ] } },
{ "type": "Feature", "properties": { "name": "Kasturba Gandhi Marg", "location_type": "sub_branch_library", "zone": "west", "geocode_confidence": "google_verified", "Name": "Kasturba Gandhi Marg" }, "geometry": { "type": "Point", "coordinates": [ 77.2260704, 28.6208403 ] } },
{ "type": "Feature", "properties": { "name": "Tri Nagar", "location_type": "sub_branch_library", "zone": "west", "geocode_confidence": "google_approx", "Name": "Tri Nagar" }, "geometry": { "type": "Point", "coordinates": [ 77.1622963, 28.6770275 ] } },
{ "type": "Feature", "properties": { "name": "Tihar Jail", "location_type": "sub_branch_library", "zone": "west", "geocode_confidence": "google_approx", "Name": "Tihar Jail" }, "geometry": { "type": "Point", "coordinates": [ 77.1024691, 28.6217624 ] } }
]
}
