{"type": "FeatureCollection", "features": [{"type": "Feature", "properties": {"name": "Sushant Lok Fire Station"}, "geometry": {"type": "Point", "coordinates": [77.0729645, 28.463707]}}, {"type": "Feature", "properties": {"name": ""}, "geometry": {"type": "Point", "coordinates": [77.1669817, 28.5728012]}}, {"type": "Feature", "properties": {"name": "Fire Station"}, "geometry": {"type": "Point", "coordinates": [77.1843122, 28.5685669]}}, {"type": "Feature", "properties": {"name": ""}, "geometry": {"type": "Point", "coordinates": [77.1812066, 28.6470756]}}, {"type": "Feature", "properties": {"name": ""}, "geometry": {"type": "Point", "coordinates": [77.0796272, 28.6623205]}}, {"type": "Feature", "properties": {"name": "Sector 6 Fire Station"}, "geometry": {"type": "Point", "coordinates": [77.0640235, 28.5973177]}}, {"type": "Feature", "properties": {"name": "Fire Station Chanakyapuri"}, "geometry": {"type": "Point", "coordinates": [77.1903646, 28.602644]}}, {"type": "Feature", "properties": {"name": ""}, "geometry": {"type": "Point", "coordinates": [77.2076446, 28.6214349]}}, {"type": "Feature", "properties": {"name": "Fire Station Naraina"}, "geometry": {"type": "Point", "coordinates": [77.1390034, 28.6329962]}}, {"type": "Feature", "properties": {"name": ""}, "geometry": {"type": "Point", "coordinates": [77.216097, 28.659476]}}, {"type": "Feature", "properties": {"name": ""}, "geometry": {"type": "Point", "coordinates": [77.1539231, 28.737415]}}, {"type": "Feature", "properties": {"name": ""}, "geometry": {"type": "Point", "coordinates": [77.2336802, 28.6518215]}}, {"type": "Feature", "properties": {"name": ""}, "geometry": {"type": "Point", "coordinates": [77.297457, 28.7361567]}}, {"type": "Feature", "properties": {"name": "FIRE STATION"}, "geometry": {"type": "Point", "coordinates": [77.2859055, 28.6861712]}}, {"type": "Feature", "properties": {"name": "Fire Brigade Station"}, "geometry": {"type": "Point", "coordinates": [77.2049529, 28.6982368]}}, {"type": "Feature", "properties": {"name": "CBD Shahdara Fire Station"}, "geometry": {"type": "Point", "coordinates": [77.2967067, 28.661811]}}, {"type": "Feature", "properties": {"name": "Delhi Fire Service ,Kalyanvas Fire Station"}, "geometry": {"type": "Point", "coordinates": [77.3091716, 28.6172307]}}, {"type": "Feature", "properties": {"name": "Roop Nagar Fire Station"}, "geometry": {"type": "Point", "coordinates": [77.2029077, 28.6850059]}}, {"type": "Feature", "properties": {"name": "Hari Nagar Fire Station"}, "geometry": {"type": "Point", "coordinates": [77.1101364, 28.6222902]}}, {"type": "Feature", "properties": {"name": "Keshavpuram Fire Station"}, "geometry": {"type": "Point", "coordinates": [77.1478054, 28.6815114]}}, {"type": "Feature", "properties": {"name": "Janakpuri Fire Station"}, "geometry": {"type": "Point", "coordinates": [77.0911143, 28.6212148]}}, {"type": "Feature", "properties": {"name": "Moti Nagar Fire Station"}, "geometry": {"type": "Point", "coordinates": [77.1455789, 28.6598615]}}]}