{"type": "FeatureCollection", "features": [{"type": "Feature", "properties": {"name": ""}, "geometry": {"type": "Point", "coordinates": [77.2047752, 28.4942666]}}, {"type": "Feature", "properties": {"name": "General Library"}, "geometry": {"type": "Point", "coordinates": [77.209199, 28.6396027]}}, {"type": "Feature", "properties": {"name": ""}, "geometry": {"type": "Point", "coordinates": [77.236735, 28.6326963]}}, {"type": "Feature", "properties": {"name": "Marwari Public Library"}, "geometry": {"type": "Point", "coordinates": [77.2314822, 28.6563835]}}, {"type": "Feature", "properties": {"name": "Shree Mahavir Jain Public Library"}, "geometry": {"type": "Point", "coordinates": [77.2309239, 28.6563695]}}, {"type": "Feature", "properties": {"name": "Delhi Public Library"}, "geometry": {"type": "Point", "coordinates": [77.2486547, 28.5666919]}}, {"type": "Feature", "properties": {"name": "Lal Bahadur Shastri Library"}, "geometry": {"type": "Point", "coordinates": [77.2485614, 28.566689]}}, {"type": "Feature", "properties": {"name": ""}, "geometry": {"type": "Point", "coordinates": [77.2415723, 28.630347]}}, {"type": "Feature", "properties": {"name": "Ambience Library"}, "geometry": {"type": "Point", "coordinates": [77.2008302, 28.5084355]}}, {"type": "Feature", "properties": {"name": ""}, "geometry": {"type": "Point", "coordinates": [77.2427929, 28.540601]}}, {"type": "Feature", "properties": {"name": "NCR library"}, "geometry": {"type": "Point", "coordinates": [77.078887, 28.460961]}}, {"type": "Feature", "properties": {"name": "library"}, "geometry": {"type": "Point", "coordinates": [77.2167691, 28.7135899]}}, {"type": "Feature", "properties": {"name": "district library gurgaon"}, "geometry": {"type": "Point", "coordinates": [77.0332843, 28.4600912]}}, {"type": "Feature", "properties": {"name": "Delhi Public Library"}, "geometry": {"type": "Point", "coordinates": [77.2248024, 28.5844558]}}, {"type": "Feature", "properties": {"name": "Central Library"}, "geometry": {"type": "Point", "coordinates": [77.3348456, 28.5438974]}}, {"type": "Feature", "properties": {"name": "Central Library"}, "geometry": {"type": "Point", "coordinates": [77.0389687, 28.6103953]}}, {"type": "Feature", "properties": {"name": "Zakir Hussain Library (JMI)"}, "geometry": {"type": "Point", "coordinates": [77.281506, 28.5625944]}}, {"type": "Feature", "properties": {"name": "Bibliotheca"}, "geometry": {"type": "Point", "coordinates": [77.3041255, 28.6373936]}}, {"type": "Feature", "properties": {"name": "acme lib"}, "geometry": {"type": "Point", "coordinates": [77.2924273, 28.6921105]}}, {"type": "Feature", "properties": {"name": ""}, "geometry": {"type": "Point", "coordinates": [77.2963134, 28.7358926]}}, {"type": "Feature", "properties": {"name": "DEEP STUDY LIB"}, "geometry": {"type": "Point", "coordinates": [77.2953063, 28.6895949]}}, {"type": "Feature", "properties": {"name": "JVCC Library"}, "geometry": {"type": "Point", "coordinates": [77.3367985, 28.5848906]}}, {"type": "Feature", "properties": {"name": "KNOWLEDGE HUB LIB"}, "geometry": {"type": "Point", "coordinates": [77.2855948, 28.6867672]}}, {"type": "Feature", "properties": {"name": "DTU Library"}, "geometry": {"type": "Point", "coordinates": [77.1165275, 28.7506425]}}, {"type": "Feature", "properties": {"name": "Nirwan Library"}, "geometry": {"type": "Point", "coordinates": [77.1419899, 28.7319529]}}, {"type": "Feature", "properties": {"name": "Pratap Library"}, "geometry": {"type": "Point", "coordinates": [77.2905549, 28.6226815]}}, {"type": "Feature", "properties": {"name": "Vachanalaya"}, "geometry": {"type": "Point", "coordinates": [77.1226782, 28.5957593]}}, {"type": "Feature", "properties": {"name": "Palika Library"}, "geometry": {"type": "Point", "coordinates": [77.2337334, 28.6295291]}}, {"type": "Feature", "properties": {"name": "Hardayal Municipal Public Library"}, "geometry": {"type": "Point", "coordinates": [77.2400873, 28.645105]}}, {"type": "Feature", "properties": {"name": "Hari Kishan Library"}, "geometry": {"type": "Point", "coordinates": [77.0714444, 28.5896687]}}, {"type": "Feature", "properties": {"name": "Hari Kishan Library"}, "geometry": {"type": "Point", "coordinates": [77.0714686, 28.589698]}}, {"type": "Feature", "properties": {"name": "Palika Pustakalaya"}, "geometry": {"type": "Point", "coordinates": [77.2043407, 28.6402059]}}, {"type": "Feature", "properties": {"name": "Delhi Public Library"}, "geometry": {"type": "Point", "coordinates": [77.2756781, 28.6729887]}}, {"type": "Feature", "properties": {"name": "Delhi Public Library"}, "geometry": {"type": "Point", "coordinates": [77.2039828, 28.6351463]}}, {"type": "Feature", "properties": {"name": ""}, "geometry": {"type": "Point", "coordinates": [77.2097237, 28.6938298]}}, {"type": "Feature", "properties": {"name": "Central Archaeological Library"}, "geometry": {"type": "Point", "coordinates": [77.2393304, 28.6247889]}}, {"type": "Feature", "properties": {"name": "iHub"}, "geometry": {"type": "Point", "coordinates": [77.2224657, 28.6289031]}}, {"type": "Feature", "properties": {"name": ""}, "geometry": {"type": "Point", "coordinates": [77.2642756, 28.5387761]}}, {"type": "Feature", "properties": {"name": "Prudent Library"}, "geometry": {"type": "Point", "coordinates": [77.2787651, 28.6311203]}}, {"type": "Feature", "properties": {"name": ""}, "geometry": {"type": "Point", "coordinates": [77.2215874, 28.6028466]}}, {"type": "Feature", "properties": {"name": ""}, "geometry": {"type": "Point", "coordinates": [77.2237424, 28.6237939]}}]}