{"type": "FeatureCollection", "features": [{"type": "Feature", "properties": {"stop_name": "Dilshad Garden", "stop_code": "", "stop_id": "1"}, "geometry": {"type": "Point", "coordinates": [77.321495, 28.675991]}}, {"type": "Feature", "properties": {"stop_name": "Jhilmil", "stop_code": "", "stop_id": "2"}, "geometry": {"type": "Point", "coordinates": [77.312393, 28.675648]}}, {"type": "Feature", "properties": {"stop_name": "Mansrover park", "stop_code": "", "stop_id": "3"}, "geometry": {"type": "Point", "coordinates": [77.301178, 28.675352]}}, {"type": "Feature", "properties": {"stop_name": "Shahdara", "stop_code": "", "stop_id": "4"}, "geometry": {"type": "Point", "coordinates": [77.28727, 28.673531]}}, {"type": "Feature", "properties": {"stop_name": "Welcome", "stop_code": "", "stop_id": "5"}, "geometry": {"type": "Point", "coordinates": [77.277931, 28.671986]}}, {"type": "Feature", "properties": {"stop_name": "Seelam Pur", "stop_code": "", "stop_id": "6"}, "geometry": {"type": "Point", "coordinates": [77.267311, 28.670324]}}, {"type": "Feature", "properties": {"stop_name": "Shastri Park", "stop_code": "", "stop_id": "7"}, "geometry": {"type": "Point", "coordinates": [77.250404, 28.668451]}}, {"type": "Feature", "properties": {"stop_name": "Kashmere Gate", "stop_code": "", "stop_id": "8"}, "geometry": {"type": "Point", "coordinates": [77.228012, 28.667879]}}, {"type": "Feature", "properties": {"stop_name": "Tis Hazari", "stop_code": "", "stop_id": "9"}, "geometry": {"type": "Point", "coordinates": [77.216721, 28.667137]}}, {"type": "Feature", "properties": {"stop_name": "Pul Bangash", "stop_code": "", "stop_id": "10"}, "geometry": {"type": "Point", "coordinates": [77.206329, 28.66571]}}, {"type": "Feature", "properties": {"stop_name": "Pratap Nagar", "stop_code": "", "stop_id": "11"}, "geometry": {"type": "Point", "coordinates": [77.196869, 28.666632]}}, {"type": "Feature", "properties": {"stop_name": "Shastri Nagar", "stop_code": "", "stop_id": "12"}, "geometry": {"type": "Point", "coordinates": [77.181679, 28.670135]}}, {"type": "Feature", "properties": {"stop_name": "Inderlok", "stop_code": "", "stop_id": "13"}, "geometry": {"type": "Point", "coordinates": [77.170235, 28.673452]}}, {"type": "Feature", "properties": {"stop_name": "Kanhaiya Nagar", "stop_code": "", "stop_id": "14"}, "geometry": {"type": "Point", "coordinates": [77.162552, 28.682386]}}, {"type": "Feature", "properties": {"stop_name": "Keshav Puram", "stop_code": "", "stop_id": "15"}, "geometry": {"type": "Point", "coordinates": [77.161774, 28.688944]}}, {"type": "Feature", "properties": {"stop_name": "Netaji Subash Place", "stop_code": "", "stop_id": "16"}, "geometry": {"type": "Point", "coordinates": [77.152428, 28.695637]}}, {"type": "Feature", "properties": {"stop_name": "Kohat Enclave", "stop_code": "", "stop_id": "17"}, "geometry": {"type": "Point", "coordinates": [77.140465, 28.697943]}}, {"type": "Feature", "properties": {"stop_name": "Pitampura", "stop_code": "", "stop_id": "18"}, "geometry": {"type": "Point", "coordinates": [77.132355, 28.70318]}}, {"type": "Feature", "properties": {"stop_name": "Rohini East", "stop_code": "", "stop_id": "19"}, "geometry": {"type": "Point", "coordinates": [77.125732, 28.707941]}}, {"type": "Feature", "properties": {"stop_name": "Rohini West", "stop_code": "", "stop_id": "20"}, "geometry": {"type": "Point", "coordinates": [77.115746, 28.715008]}}, {"type": "Feature", "properties": {"stop_name": "Rithala", "stop_code": "", "stop_id": "21"}, "geometry": {"type": "Point", "coordinates": [77.105042, 28.720821]}}, {"type": "Feature", "properties": {"stop_name": "Mundka", "stop_code": "", "stop_id": "22"}, "geometry": {"type": "Point", "coordinates": [77.028282, 28.682411]}}, {"type": "Feature", "properties": {"stop_name": "Rajdhani Park", "stop_code": "", "stop_id": "23"}, "geometry": {"type": "Point", "coordinates": [77.043869, 28.682217]}}, {"type": "Feature", "properties": {"stop_name": "Nangloi Railway Station", "stop_code": "", "stop_id": "24"}, "geometry": {"type": "Point", "coordinates": [77.05619, 28.682091]}}, {"type": "Feature", "properties": {"stop_name": "Nangloi", "stop_code": "", "stop_id": "25"}, "geometry": {"type": "Point", "coordinates": [77.064728, 28.682356]}}, {"type": "Feature", "properties": {"stop_name": "Maharaja Surajmal Stadium", "stop_code": "", "stop_id": "26"}, "geometry": {"type": "Point", "coordinates": [77.073891, 28.681833]}}, {"type": "Feature", "properties": {"stop_name": "Udyog Nagar", "stop_code": "", "stop_id": "27"}, "geometry": {"type": "Point", "coordinates": [77.078674, 28.681047]}}, {"type": "Feature", "properties": {"stop_name": "Peera Garhi", "stop_code": "", "stop_id": "28"}, "geometry": {"type": "Point", "coordinates": [77.092491, 28.67972]}}, {"type": "Feature", "properties": {"stop_name": "Paschim Vihar (West)", "stop_code": "", "stop_id": "29"}, "geometry": {"type": "Point", "coordinates": [77.102119, 28.678539]}}, {"type": "Feature", "properties": {"stop_name": "Paschim Vihar (East)", "stop_code": "", "stop_id": "30"}, "geometry": {"type": "Point", "coordinates": [77.112251, 28.677305]}}, {"type": "Feature", "properties": {"stop_name": "Madipur", "stop_code": "", "stop_id": "31"}, "geometry": {"type": "Point", "coordinates": [77.117294, 28.676418]}}, {"type": "Feature", "properties": {"stop_name": "Shivaji Park", "stop_code": "", "stop_id": "32"}, "geometry": {"type": "Point", "coordinates": [77.128258, 28.674965]}}, {"type": "Feature", "properties": {"stop_name": "Punjabi Bagh", "stop_code": "", "stop_id": "33"}, "geometry": {"type": "Point", "coordinates": [77.146011, 28.672943]}}, {"type": "Feature", "properties": {"stop_name": "Ashok Park Main", "stop_code": "", "stop_id": "34"}, "geometry": {"type": "Point", "coordinates": [77.155159, 28.671572]}}, {"type": "Feature", "properties": {"stop_name": "Satguru Ram Singh Marg", "stop_code": "", "stop_id": "35"}, "geometry": {"type": "Point", "coordinates": [77.157829, 28.662188]}}, {"type": "Feature", "properties": {"stop_name": "Samaypur Badli", "stop_code": "", "stop_id": "36"}, "geometry": {"type": "Point", "coordinates": [77.146545, 28.742872]}}, {"type": "Feature", "properties": {"stop_name": "Rohini Sector 18-19", "stop_code": "", "stop_id": "37"}, "geometry": {"type": "Point", "coordinates": [77.135574, 28.740192]}}, {"type": "Feature", "properties": {"stop_name": "Haiderpur Badli Mor", "stop_code": "", "stop_id": "38"}, "geometry": {"type": "Point", "coordinates": [77.149956, 28.718657]}}, {"type": "Feature", "properties": {"stop_name": "Jahangirpuri", "stop_code": "", "stop_id": "39"}, "geometry": {"type": "Point", "coordinates": [77.16124, 28.72818]}}, {"type": "Feature", "properties": {"stop_name": "Adarsh Nagar", "stop_code": "", "stop_id": "40"}, "geometry": {"type": "Point", "coordinates": [77.208809, 28.696377]}}, {"type": "Feature", "properties": {"stop_name": "Azadpur", "stop_code": "", "stop_id": "41"}, "geometry": {"type": "Point", "coordinates": [77.179863, 28.707287]}}, {"type": "Feature", "properties": {"stop_name": "Model Town", "stop_code": "", "stop_id": "42"}, "geometry": {"type": "Point", "coordinates": [77.193764, 28.702833]}}, {"type": "Feature", "properties": {"stop_name": "Guru Tegh Bahadur Nagar", "stop_code": "", "stop_id": "43"}, "geometry": {"type": "Point", "coordinates": [77.206985, 28.698195]}}, {"type": "Feature", "properties": {"stop_name": "Vishwavidyalaya", "stop_code": "", "stop_id": "44"}, "geometry": {"type": "Point", "coordinates": [77.212418, 28.694765]}}, {"type": "Feature", "properties": {"stop_name": "Vidhan Sabha", "stop_code": "", "stop_id": "45"}, "geometry": {"type": "Point", "coordinates": [77.221626, 28.687845]}}, {"type": "Feature", "properties": {"stop_name": "Civil Lines", "stop_code": "", "stop_id": "46"}, "geometry": {"type": "Point", "coordinates": [77.224953, 28.676945]}}, {"type": "Feature", "properties": {"stop_name": "Chandni Chowk", "stop_code": "", "stop_id": "47"}, "geometry": {"type": "Point", "coordinates": [77.229218, 28.656443]}}, {"type": "Feature", "properties": {"stop_name": "Chawri Bazar", "stop_code": "", "stop_id": "48"}, "geometry": {"type": "Point", "coordinates": [77.22628, 28.649635]}}, {"type": "Feature", "properties": {"stop_name": "New Delhi", "stop_code": "", "stop_id": "49"}, "geometry": {"type": "Point", "coordinates": [77.222351, 28.642944]}}, {"type": "Feature", "properties": {"stop_name": "Rajiv Chowk", "stop_code": "", "stop_id": "50"}, "geometry": {"type": "Point", "coordinates": [77.219574, 28.632896]}}, {"type": "Feature", "properties": {"stop_name": "Patel Chowk", "stop_code": "", "stop_id": "51"}, "geometry": {"type": "Point", "coordinates": [77.212288, 28.622967]}}, {"type": "Feature", "properties": {"stop_name": "Central Secretariat", "stop_code": "", "stop_id": "52"}, "geometry": {"type": "Point", "coordinates": [77.212029, 28.614973]}}, {"type": "Feature", "properties": {"stop_name": "Udyog Bhawan", "stop_code": "", "stop_id": "53"}, "geometry": {"type": "Point", "coordinates": [77.210052, 28.611525]}}, {"type": "Feature", "properties": {"stop_name": "Lok Kalyan Marg", "stop_code": "", "stop_id": "54"}, "geometry": {"type": "Point", "coordinates": [77.209122, 28.597519]}}, {"type": "Feature", "properties": {"stop_name": "Jorbagh", "stop_code": "", "stop_id": "55"}, "geometry": {"type": "Point", "coordinates": [77.212662, 28.587234]}}, {"type": "Feature", "properties": {"stop_name": "Dilli Haat - INA", "stop_code": "", "stop_id": "56"}, "geometry": {"type": "Point", "coordinates": [77.209473, 28.575195]}}, {"type": "Feature", "properties": {"stop_name": "AIIMS", "stop_code": "", "stop_id": "57"}, "geometry": {"type": "Point", "coordinates": [77.207947, 28.568199]}}, {"type": "Feature", "properties": {"stop_name": "Green Park", "stop_code": "", "stop_id": "58"}, "geometry": {"type": "Point", "coordinates": [77.206902, 28.559853]}}, {"type": "Feature", "properties": {"stop_name": "Hauz Khas", "stop_code": "", "stop_id": "59"}, "geometry": {"type": "Point", "coordinates": [77.206673, 28.543346]}}, {"type": "Feature", "properties": {"stop_name": "Malviya Nagar", "stop_code": "", "stop_id": "60"}, "geometry": {"type": "Point", "coordinates": [77.205612, 28.52817]}}, {"type": "Feature", "properties": {"stop_name": "Saket", "stop_code": "", "stop_id": "61"}, "geometry": {"type": "Point", "coordinates": [77.199379, 28.520638]}}, {"type": "Feature", "properties": {"stop_name": "Qutab Minar", "stop_code": "", "stop_id": "62"}, "geometry": {"type": "Point", "coordinates": [77.185791, 28.512714]}}, {"type": "Feature", "properties": {"stop_name": "Chhattarpur", "stop_code": "", "stop_id": "63"}, "geometry": {"type": "Point", "coordinates": [77.174866, 28.506584]}}, {"type": "Feature", "properties": {"stop_name": "Sultanpur", "stop_code": "", "stop_id": "64"}, "geometry": {"type": "Point", "coordinates": [77.161362, 28.499214]}}, {"type": "Feature", "properties": {"stop_name": "Ghitorni", "stop_code": "", "stop_id": "65"}, "geometry": {"type": "Point", "coordinates": [77.149071, 28.49383]}}, {"type": "Feature", "properties": {"stop_name": "Arjan Garh", "stop_code": "", "stop_id": "66"}, "geometry": {"type": "Point", "coordinates": [77.12587, 28.48082]}}, {"type": "Feature", "properties": {"stop_name": "Gurudronacharya", "stop_code": "", "stop_id": "67"}, "geometry": {"type": "Point", "coordinates": [77.102219, 28.482075]}}, {"type": "Feature", "properties": {"stop_name": "Sikanderpur", "stop_code": "", "stop_id": "68"}, "geometry": {"type": "Point", "coordinates": [77.092995, 28.481352]}}, {"type": "Feature", "properties": {"stop_name": "MG Road", "stop_code": "", "stop_id": "69"}, "geometry": {"type": "Point", "coordinates": [77.080444, 28.47967]}}, {"type": "Feature", "properties": {"stop_name": "IFFCO Chowk", "stop_code": "", "stop_id": "70"}, "geometry": {"type": "Point", "coordinates": [77.072502, 28.472137]}}, {"type": "Feature", "properties": {"stop_name": "Huda City Centre", "stop_code": "", "stop_id": "71"}, "geometry": {"type": "Point", "coordinates": [77.072586, 28.459118]}}, {"type": "Feature", "properties": {"stop_name": "Vaishali", "stop_code": "", "stop_id": "72"}, "geometry": {"type": "Point", "coordinates": [77.337608, 28.650059]}}, {"type": "Feature", "properties": {"stop_name": "Kaushambi", "stop_code": "", "stop_id": "73"}, "geometry": {"type": "Point", "coordinates": [77.322273, 28.645428]}}, {"type": "Feature", "properties": {"stop_name": "Anand Vihar", "stop_code": "", "stop_id": "74"}, "geometry": {"type": "Point", "coordinates": [77.316185, 28.647005]}}, {"type": "Feature", "properties": {"stop_name": "Karkarduma", "stop_code": "", "stop_id": "75"}, "geometry": {"type": "Point", "coordinates": [77.304581, 28.648653]}}, {"type": "Feature", "properties": {"stop_name": "Preet Vihar", "stop_code": "", "stop_id": "76"}, "geometry": {"type": "Point", "coordinates": [77.295158, 28.641352]}}, {"type": "Feature", "properties": {"stop_name": "Nirman Vihar", "stop_code": "", "stop_id": "77"}, "geometry": {"type": "Point", "coordinates": [77.287872, 28.637049]}}, {"type": "Feature", "properties": {"stop_name": "Laxmi Nagar", "stop_code": "", "stop_id": "78"}, "geometry": {"type": "Point", "coordinates": [77.276428, 28.629843]}}, {"type": "Feature", "properties": {"stop_name": "Noida City Centre", "stop_code": "", "stop_id": "79"}, "geometry": {"type": "Point", "coordinates": [77.356117, 28.574593]}}, {"type": "Feature", "properties": {"stop_name": "Golf Course", "stop_code": "", "stop_id": "80"}, "geometry": {"type": "Point", "coordinates": [77.345726, 28.566917]}}, {"type": "Feature", "properties": {"stop_name": "Botanical Garden", "stop_code": "", "stop_id": "81"}, "geometry": {"type": "Point", "coordinates": [77.334656, 28.564198]}}, {"type": "Feature", "properties": {"stop_name": "Noida Sec -18", "stop_code": "", "stop_id": "82"}, "geometry": {"type": "Point", "coordinates": [77.326088, 28.570843]}}, {"type": "Feature", "properties": {"stop_name": "Noida Sec -16", "stop_code": "", "stop_id": "83"}, "geometry": {"type": "Point", "coordinates": [77.318115, 28.577921]}}, {"type": "Feature", "properties": {"stop_name": "Noida Sec -15", "stop_code": "", "stop_id": "84"}, "geometry": {"type": "Point", "coordinates": [77.311584, 28.585018]}}, {"type": "Feature", "properties": {"stop_name": "New Ashok Nagar", "stop_code": "", "stop_id": "85"}, "geometry": {"type": "Point", "coordinates": [77.30146, 28.58847]}}, {"type": "Feature", "properties": {"stop_name": "Mayur Vihar Ext", "stop_code": "", "stop_id": "86"}, "geometry": {"type": "Point", "coordinates": [77.294495, 28.594124]}}, {"type": "Feature", "properties": {"stop_name": "Mayur Vihar-I", "stop_code": "", "stop_id": "87"}, "geometry": {"type": "Point", "coordinates": [77.289421, 28.604425]}}, {"type": "Feature", "properties": {"stop_name": "Akshardham", "stop_code": "", "stop_id": "88"}, "geometry": {"type": "Point", "coordinates": [77.279816, 28.618364]}}, {"type": "Feature", "properties": {"stop_name": "Yamuna Bank", "stop_code": "", "stop_id": "89"}, "geometry": {"type": "Point", "coordinates": [77.267937, 28.623178]}}, {"type": "Feature", "properties": {"stop_name": "Indraprastha", "stop_code": "", "stop_id": "90"}, "geometry": {"type": "Point", "coordinates": [77.250076, 28.620272]}}, {"type": "Feature", "properties": {"stop_name": "Supreme Court", "stop_code": "", "stop_id": "91"}, "geometry": {"type": "Point", "coordinates": [77.2425, 28.623438]}}, {"type": "Feature", "properties": {"stop_name": "Mandi House", "stop_code": "", "stop_id": "92"}, "geometry": {"type": "Point", "coordinates": [77.234726, 28.625816]}}, {"type": "Feature", "properties": {"stop_name": "Barakhamba", "stop_code": "", "stop_id": "93"}, "geometry": {"type": "Point", "coordinates": [77.224876, 28.629662]}}, {"type": "Feature", "properties": {"stop_name": "RK Ashram Marg", "stop_code": "", "stop_id": "94"}, "geometry": {"type": "Point", "coordinates": [77.206291, 28.639217]}}, {"type": "Feature", "properties": {"stop_name": "Jhandewalan", "stop_code": "", "stop_id": "95"}, "geometry": {"type": "Point", "coordinates": [77.199791, 28.644312]}}, {"type": "Feature", "properties": {"stop_name": "Karol Bagh", "stop_code": "", "stop_id": "96"}, "geometry": {"type": "Point", "coordinates": [77.188416, 28.643925]}}, {"type": "Feature", "properties": {"stop_name": "Rajendra Place", "stop_code": "", "stop_id": "97"}, "geometry": {"type": "Point", "coordinates": [77.191833, 28.64241]}}, {"type": "Feature", "properties": {"stop_name": "Patel Nagar", "stop_code": "", "stop_id": "98"}, "geometry": {"type": "Point", "coordinates": [77.167046, 28.645037]}}, {"type": "Feature", "properties": {"stop_name": "Shadipur", "stop_code": "", "stop_id": "99"}, "geometry": {"type": "Point", "coordinates": [77.156021, 28.65143]}}, {"type": "Feature", "properties": {"stop_name": "Kirti Nagar", "stop_code": "", "stop_id": "100"}, "geometry": {"type": "Point", "coordinates": [77.148499, 28.655773]}}, {"type": "Feature", "properties": {"stop_name": "Moti Nagar", "stop_code": "", "stop_id": "101"}, "geometry": {"type": "Point", "coordinates": [77.140488, 28.657803]}}, {"type": "Feature", "properties": {"stop_name": "Ramesh Nagar", "stop_code": "", "stop_id": "102"}, "geometry": {"type": "Point", "coordinates": [77.131462, 28.652809]}}, {"type": "Feature", "properties": {"stop_name": "Rajouri Garden", "stop_code": "", "stop_id": "103"}, "geometry": {"type": "Point", "coordinates": [77.122749, 28.649157]}}, {"type": "Feature", "properties": {"stop_name": "Tagore Garden", "stop_code": "", "stop_id": "104"}, "geometry": {"type": "Point", "coordinates": [77.112747, 28.643795]}}, {"type": "Feature", "properties": {"stop_name": "Subash Nagar", "stop_code": "", "stop_id": "105"}, "geometry": {"type": "Point", "coordinates": [77.10273, 28.640381]}}, {"type": "Feature", "properties": {"stop_name": "Tilak Nagar", "stop_code": "", "stop_id": "106"}, "geometry": {"type": "Point", "coordinates": [77.096336, 28.636568]}}, {"type": "Feature", "properties": {"stop_name": "Janak Puri East", "stop_code": "", "stop_id": "107"}, "geometry": {"type": "Point", "coordinates": [77.086578, 28.633121]}}, {"type": "Feature", "properties": {"stop_name": "Janak Puri West", "stop_code": "", "stop_id": "108"}, "geometry": {"type": "Point", "coordinates": [77.077866, 28.629637]}}, {"type": "Feature", "properties": {"stop_name": "Uttam Nagar East", "stop_code": "", "stop_id": "109"}, "geometry": {"type": "Point", "coordinates": [77.063126, 28.624643]}}, {"type": "Feature", "properties": {"stop_name": "Uttam Nagar West", "stop_code": "", "stop_id": "110"}, "geometry": {"type": "Point", "coordinates": [77.055664, 28.621672]}}, {"type": "Feature", "properties": {"stop_name": "Nawada", "stop_code": "", "stop_id": "111"}, "geometry": {"type": "Point", "coordinates": [77.044991, 28.620222]}}, {"type": "Feature", "properties": {"stop_name": "Dwarka Mor", "stop_code": "", "stop_id": "112"}, "geometry": {"type": "Point", "coordinates": [77.033188, 28.619366]}}, {"type": "Feature", "properties": {"stop_name": "Dwarka", "stop_code": "", "stop_id": "113"}, "geometry": {"type": "Point", "coordinates": [77.022629, 28.614899]}}, {"type": "Feature", "properties": {"stop_name": "Dwarka Sector - 14", "stop_code": "", "stop_id": "114"}, "geometry": {"type": "Point", "coordinates": [77.02594, 28.602232]}}, {"type": "Feature", "properties": {"stop_name": "Dwarka Sector - 13", "stop_code": "", "stop_id": "115"}, "geometry": {"type": "Point", "coordinates": [77.033043, 28.59705]}}, {"type": "Feature", "properties": {"stop_name": "Dwarka Sector - 12", "stop_code": "", "stop_id": "116"}, "geometry": {"type": "Point", "coordinates": [77.040558, 28.592234]}}, {"type": "Feature", "properties": {"stop_name": "Dwarka Sector - 11", "stop_code": "", "stop_id": "117"}, "geometry": {"type": "Point", "coordinates": [77.049255, 28.58642]}}, {"type": "Feature", "properties": {"stop_name": "Dwarka Sector - 10", "stop_code": "", "stop_id": "118"}, "geometry": {"type": "Point", "coordinates": [77.05719, 28.581108]}}, {"type": "Feature", "properties": {"stop_name": "Dwarka Sector - 9", "stop_code": "", "stop_id": "119"}, "geometry": {"type": "Point", "coordinates": [77.065086, 28.574284]}}, {"type": "Feature", "properties": {"stop_name": "Dwarka Sector - 8", "stop_code": "", "stop_id": "120"}, "geometry": {"type": "Point", "coordinates": [77.064896, 28.565706]}}, {"type": "Feature", "properties": {"stop_name": "Dwarka Sector - 21", "stop_code": "", "stop_id": "121"}, "geometry": {"type": "Point", "coordinates": [77.056198, 28.552322]}}, {"type": "Feature", "properties": {"stop_name": "ITO", "stop_code": "", "stop_id": "122"}, "geometry": {"type": "Point", "coordinates": [77.240952, 28.627205]}}, {"type": "Feature", "properties": {"stop_name": "Janpath", "stop_code": "", "stop_id": "123"}, "geometry": {"type": "Point", "coordinates": [77.218956, 28.627817]}}, {"type": "Feature", "properties": {"stop_name": "Khan Market", "stop_code": "", "stop_id": "124"}, "geometry": {"type": "Point", "coordinates": [77.228096, 28.602682]}}, {"type": "Feature", "properties": {"stop_name": "Jawahar Lal Nehru Stadium", "stop_code": "", "stop_id": "125"}, "geometry": {"type": "Point", "coordinates": [77.23307, 28.590475]}}, {"type": "Feature", "properties": {"stop_name": "Jangpura", "stop_code": "", "stop_id": "126"}, "geometry": {"type": "Point", "coordinates": [77.239662, 28.583231]}}, {"type": "Feature", "properties": {"stop_name": "Lajpat Nagar", "stop_code": "", "stop_id": "127"}, "geometry": {"type": "Point", "coordinates": [77.233124, 28.570705]}}, {"type": "Feature", "properties": {"stop_name": "Moolchand", "stop_code": "", "stop_id": "128"}, "geometry": {"type": "Point", "coordinates": [77.234222, 28.564629]}}, {"type": "Feature", "properties": {"stop_name": "Kailash Colony", "stop_code": "", "stop_id": "129"}, "geometry": {"type": "Point", "coordinates": [77.239738, 28.554617]}}, {"type": "Feature", "properties": {"stop_name": "Nehru Place", "stop_code": "", "stop_id": "130"}, "geometry": {"type": "Point", "coordinates": [77.251511, 28.551134]}}, {"type": "Feature", "properties": {"stop_name": "Kalkaji Mandir", "stop_code": "", "stop_id": "131"}, "geometry": {"type": "Point", "coordinates": [77.258789, 28.549532]}}, {"type": "Feature", "properties": {"stop_name": "Govind Puri", "stop_code": "", "stop_id": "132"}, "geometry": {"type": "Point", "coordinates": [77.264259, 28.544413]}}, {"type": "Feature", "properties": {"stop_name": "Harkesh Nagar Okhla", "stop_code": "", "stop_id": "133"}, "geometry": {"type": "Point", "coordinates": [77.275955, 28.543194]}}, {"type": "Feature", "properties": {"stop_name": "Jasola-Apollo", "stop_code": "", "stop_id": "134"}, "geometry": {"type": "Point", "coordinates": [77.285538, 28.538084]}}, {"type": "Feature", "properties": {"stop_name": "Sarita Vihar", "stop_code": "", "stop_id": "135"}, "geometry": {"type": "Point", "coordinates": [77.288345, 28.528622]}}, {"type": "Feature", "properties": {"stop_name": "Mohan Estate", "stop_code": "", "stop_id": "136"}, "geometry": {"type": "Point", "coordinates": [77.294518, 28.51959]}}, {"type": "Feature", "properties": {"stop_name": "Tughlakabad Station", "stop_code": "", "stop_id": "137"}, "geometry": {"type": "Point", "coordinates": [77.29866, 28.502232]}}, {"type": "Feature", "properties": {"stop_name": "Badarpur Border", "stop_code": "", "stop_id": "138"}, "geometry": {"type": "Point", "coordinates": [77.30085, 28.4932]}}, {"type": "Feature", "properties": {"stop_name": "Sarai", "stop_code": "", "stop_id": "139"}, "geometry": {"type": "Point", "coordinates": [77.304932, 28.47794]}}, {"type": "Feature", "properties": {"stop_name": "NHPC Chowk", "stop_code": "", "stop_id": "140"}, "geometry": {"type": "Point", "coordinates": [77.305252, 28.462435]}}, {"type": "Feature", "properties": {"stop_name": "Mewala Maharajpur", "stop_code": "", "stop_id": "141"}, "geometry": {"type": "Point", "coordinates": [77.308098, 28.4485]}}, {"type": "Feature", "properties": {"stop_name": "Sector-28", "stop_code": "", "stop_id": "142"}, "geometry": {"type": "Point", "coordinates": [77.305992, 28.440586]}}, {"type": "Feature", "properties": {"stop_name": "Badkal Mor", "stop_code": "", "stop_id": "143"}, "geometry": {"type": "Point", "coordinates": [77.310234, 28.422707]}}, {"type": "Feature", "properties": {"stop_name": "Old Faridabad", "stop_code": "", "stop_id": "144"}, "geometry": {"type": "Point", "coordinates": [77.311272, 28.412172]}}, {"type": "Feature", "properties": {"stop_name": "Neelam Chowk Ajronda", "stop_code": "", "stop_id": "145"}, "geometry": {"type": "Point", "coordinates": [77.309105, 28.400707]}}, {"type": "Feature", "properties": {"stop_name": "Bata Chowk", "stop_code": "", "stop_id": "146"}, "geometry": {"type": "Point", "coordinates": [77.298782, 28.386362]}}, {"type": "Feature", "properties": {"stop_name": "Escorts Mujesar", "stop_code": "", "stop_id": "147"}, "geometry": {"type": "Point", "coordinates": [77.315002, 28.370199]}}, {"type": "Feature", "properties": {"stop_name": "Sikanderpur (Rapid Metro)", "stop_code": "", "stop_id": "148"}, "geometry": {"type": "Point", "coordinates": [77.094246, 28.480833]}}, {"type": "Feature", "properties": {"stop_name": "Phase 2 (Rapid Metro)", "stop_code": "", "stop_id": "149"}, "geometry": {"type": "Point", "coordinates": [77.092865, 28.488371]}}, {"type": "Feature", "properties": {"stop_name": "Belvedere Towers (Rapid Metro)", "stop_code": "", "stop_id": "150"}, "geometry": {"type": "Point", "coordinates": [77.088142, 28.492065]}}, {"type": "Feature", "properties": {"stop_name": "Cyber City (Rapid Metro)", "stop_code": "", "stop_id": "151"}, "geometry": {"type": "Point", "coordinates": [77.089088, 28.498478]}}, {"type": "Feature", "properties": {"stop_name": "Moulsari Avenue (Rapid Metro)", "stop_code": "", "stop_id": "152"}, "geometry": {"type": "Point", "coordinates": [77.094536, 28.501572]}}, {"type": "Feature", "properties": {"stop_name": "Phase 3 (Rapid Metro)", "stop_code": "", "stop_id": "153"}, "geometry": {"type": "Point", "coordinates": [77.093552, 28.494329]}}, {"type": "Feature", "properties": {"stop_name": "IGI Airport", "stop_code": "", "stop_id": "154"}, "geometry": {"type": "Point", "coordinates": [77.087921, 28.554869]}}, {"type": "Feature", "properties": {"stop_name": "Delhi Aerocity", "stop_code": "", "stop_id": "155"}, "geometry": {"type": "Point", "coordinates": [77.120743, 28.548792]}}, {"type": "Feature", "properties": {"stop_name": "Dhaula Kuan", "stop_code": "", "stop_id": "156"}, "geometry": {"type": "Point", "coordinates": [77.161545, 28.591776]}}, {"type": "Feature", "properties": {"stop_name": "Shivaji Stadium", "stop_code": "", "stop_id": "157"}, "geometry": {"type": "Point", "coordinates": [77.209213, 28.629007]}}, {"type": "Feature", "properties": {"stop_name": "Delhi Gate", "stop_code": "", "stop_id": "158"}, "geometry": {"type": "Point", "coordinates": [77.240303, 28.640488]}}, {"type": "Feature", "properties": {"stop_name": "Jama Masjid", "stop_code": "", "stop_id": "159"}, "geometry": {"type": "Point", "coordinates": [77.237556, 28.650393]}}, {"type": "Feature", "properties": {"stop_name": "Lal Quila", "stop_code": "", "stop_id": "160"}, "geometry": {"type": "Point", "coordinates": [77.236595, 28.657576]}}, {"type": "Feature", "properties": {"stop_name": "Okhla Bird Sanctuary", "stop_code": "", "stop_id": "161"}, "geometry": {"type": "Point", "coordinates": [77.321564, 28.552816]}}, {"type": "Feature", "properties": {"stop_name": "Kalindi Kunj", "stop_code": "", "stop_id": "162"}, "geometry": {"type": "Point", "coordinates": [77.310173, 28.542835]}}, {"type": "Feature", "properties": {"stop_name": "Jasola Vihar Shaheen Bagh", "stop_code": "", "stop_id": "163"}, "geometry": {"type": "Point", "coordinates": [77.296715, 28.546005]}}, {"type": "Feature", "properties": {"stop_name": "Okhla Vihar", "stop_code": "", "stop_id": "164"}, "geometry": {"type": "Point", "coordinates": [77.291916, 28.561255]}}, {"type": "Feature", "properties": {"stop_name": "Jamia Millia Islamia", "stop_code": "", "stop_id": "165"}, "geometry": {"type": "Point", "coordinates": [77.286209, 28.562944]}}, {"type": "Feature", "properties": {"stop_name": "Sukhdev Vihar", "stop_code": "", "stop_id": "166"}, "geometry": {"type": "Point", "coordinates": [77.275116, 28.559887]}}, {"type": "Feature", "properties": {"stop_name": "Okhla NSIC", "stop_code": "", "stop_id": "167"}, "geometry": {"type": "Point", "coordinates": [77.26487, 28.554575]}}, {"type": "Feature", "properties": {"stop_name": "Phase-I (Rapid Metro)", "stop_code": "", "stop_id": "168"}, "geometry": {"type": "Point", "coordinates": [77.094009, 28.471981]}}, {"type": "Feature", "properties": {"stop_name": "Sector 42-43 (Rapid Metro)", "stop_code": "", "stop_id": "169"}, "geometry": {"type": "Point", "coordinates": [77.09684, 28.458475]}}, {"type": "Feature", "properties": {"stop_name": "Sector 53-54 (Rapid Metro)", "stop_code": "", "stop_id": "170"}, "geometry": {"type": "Point", "coordinates": [77.100487, 28.447533]}}, {"type": "Feature", "properties": {"stop_name": "Sector 54 Chowk (Rapid Metro)", "stop_code": "", "stop_id": "171"}, "geometry": {"type": "Point", "coordinates": [77.104782, 28.434212]}}, {"type": "Feature", "properties": {"stop_name": "Sector 55-56 (Rapid Metro)", "stop_code": "", "stop_id": "172"}, "geometry": {"type": "Point", "coordinates": [77.105042, 28.424587]}}, {"type": "Feature", "properties": {"stop_name": "Majlis Park", "stop_code": "", "stop_id": "173"}, "geometry": {"type": "Point", "coordinates": [77.182068, 28.724157]}}, {"type": "Feature", "properties": {"stop_name": "Shalimar Bagh", "stop_code": "", "stop_id": "174"}, "geometry": {"type": "Point", "coordinates": [77.165184, 28.70182]}}, {"type": "Feature", "properties": {"stop_name": "Shakurpur", "stop_code": "", "stop_id": "175"}, "geometry": {"type": "Point", "coordinates": [77.149651, 28.685781]}}, {"type": "Feature", "properties": {"stop_name": "Punjabi Bagh West", "stop_code": "", "stop_id": "176"}, "geometry": {"type": "Point", "coordinates": [77.139183, 28.672747]}}, {"type": "Feature", "properties": {"stop_name": "ESI Basai Darapur", "stop_code": "", "stop_id": "177"}, "geometry": {"type": "Point", "coordinates": [77.127319, 28.658159]}}, {"type": "Feature", "properties": {"stop_name": "Mayapuri", "stop_code": "", "stop_id": "178"}, "geometry": {"type": "Point", "coordinates": [77.129738, 28.637098]}}, {"type": "Feature", "properties": {"stop_name": "Naraina Vihar", "stop_code": "", "stop_id": "179"}, "geometry": {"type": "Point", "coordinates": [77.136482, 28.624121]}}, {"type": "Feature", "properties": {"stop_name": "Delhi Cantt.", "stop_code": "", "stop_id": "180"}, "geometry": {"type": "Point", "coordinates": [77.140373, 28.608641]}}, {"type": "Feature", "properties": {"stop_name": "Durgabai Deshmukh South Campus", "stop_code": "", "stop_id": "181"}, "geometry": {"type": "Point", "coordinates": [77.169518, 28.589376]}}, {"type": "Feature", "properties": {"stop_name": "Nehru Enclave", "stop_code": "", "stop_id": "182"}, "geometry": {"type": "Point", "coordinates": [77.25116, 28.545856]}}, {"type": "Feature", "properties": {"stop_name": "Greater Kailash", "stop_code": "", "stop_id": "183"}, "geometry": {"type": "Point", "coordinates": [77.238243, 28.541836]}}, {"type": "Feature", "properties": {"stop_name": "Chirag Delhi", "stop_code": "", "stop_id": "184"}, "geometry": {"type": "Point", "coordinates": [77.229385, 28.541229]}}, {"type": "Feature", "properties": {"stop_name": "Panchsheel Park", "stop_code": "", "stop_id": "185"}, "geometry": {"type": "Point", "coordinates": [77.220512, 28.542339]}}, {"type": "Feature", "properties": {"stop_name": "IIT", "stop_code": "", "stop_id": "186"}, "geometry": {"type": "Point", "coordinates": [77.193832, 28.547194]}}, {"type": "Feature", "properties": {"stop_name": "RK Puram", "stop_code": "", "stop_id": "187"}, "geometry": {"type": "Point", "coordinates": [77.184952, 28.550486]}}, {"type": "Feature", "properties": {"stop_name": "Munirka", "stop_code": "", "stop_id": "188"}, "geometry": {"type": "Point", "coordinates": [77.174026, 28.557821]}}, {"type": "Feature", "properties": {"stop_name": "Vasant Vihar", "stop_code": "", "stop_id": "189"}, "geometry": {"type": "Point", "coordinates": [77.160774, 28.558378]}}, {"type": "Feature", "properties": {"stop_name": "Shankar Vihar", "stop_code": "", "stop_id": "190"}, "geometry": {"type": "Point", "coordinates": [77.140442, 28.560787]}}, {"type": "Feature", "properties": {"stop_name": "Terminal 1- IGI Airport", "stop_code": "", "stop_id": "191"}, "geometry": {"type": "Point", "coordinates": [77.122391, 28.565275]}}, {"type": "Feature", "properties": {"stop_name": "Sadar Bazar Contonment", "stop_code": "", "stop_id": "192"}, "geometry": {"type": "Point", "coordinates": [77.111305, 28.577108]}}, {"type": "Feature", "properties": {"stop_name": "Palam", "stop_code": "", "stop_id": "193"}, "geometry": {"type": "Point", "coordinates": [77.082954, 28.589067]}}, {"type": "Feature", "properties": {"stop_name": "Dashrath Puri", "stop_code": "", "stop_id": "194"}, "geometry": {"type": "Point", "coordinates": [77.08255, 28.602333]}}, {"type": "Feature", "properties": {"stop_name": "Dabri Mor - Janakpuri South", "stop_code": "", "stop_id": "195"}, "geometry": {"type": "Point", "coordinates": [77.085258, 28.615904]}}, {"type": "Feature", "properties": {"stop_name": "Mundka Industrial Area (M.I.A)", "stop_code": "", "stop_id": "196"}, "geometry": {"type": "Point", "coordinates": [76.989822, 28.68396]}}, {"type": "Feature", "properties": {"stop_name": "Ghevra Metro station", "stop_code": "", "stop_id": "197"}, "geometry": {"type": "Point", "coordinates": [76.993584, 28.685289]}}, {"type": "Feature", "properties": {"stop_name": "Tikri Kalan", "stop_code": "", "stop_id": "198"}, "geometry": {"type": "Point", "coordinates": [76.977249, 28.686899]}}, {"type": "Feature", "properties": {"stop_name": "Tikri Border", "stop_code": "", "stop_id": "199"}, "geometry": {"type": "Point", "coordinates": [76.963783, 28.687876]}}, {"type": "Feature", "properties": {"stop_name": "Pandit Shree Ram Sharma", "stop_code": "", "stop_id": "200"}, "geometry": {"type": "Point", "coordinates": [76.951088, 28.689213]}}, {"type": "Feature", "properties": {"stop_name": "Bahadurgarh City", "stop_code": "", "stop_id": "201"}, "geometry": {"type": "Point", "coordinates": [76.935265, 28.690784]}}, {"type": "Feature", "properties": {"stop_name": "Brigadier Hoshiyar Singh", "stop_code": "", "stop_id": "202"}, "geometry": {"type": "Point", "coordinates": [76.919128, 28.697428]}}, {"type": "Feature", "properties": {"stop_name": "Sir Vishweshwaraiah Moti Bagh", "stop_code": "", "stop_id": "203"}, "geometry": {"type": "Point", "coordinates": [77.175713, 28.578529]}}, {"type": "Feature", "properties": {"stop_name": "Bhikaji Cama Place", "stop_code": "", "stop_id": "204"}, "geometry": {"type": "Point", "coordinates": [77.187866, 28.570208]}}, {"type": "Feature", "properties": {"stop_name": "Sarojini Nagar", "stop_code": "", "stop_id": "205"}, "geometry": {"type": "Point", "coordinates": [77.187866, 28.570208]}}, {"type": "Feature", "properties": {"stop_name": "South Extension", "stop_code": "", "stop_id": "206"}, "geometry": {"type": "Point", "coordinates": [77.219818, 28.5686]}}, {"type": "Feature", "properties": {"stop_name": "Trilokpuri Sanjay Lake", "stop_code": "", "stop_id": "207"}, "geometry": {"type": "Point", "coordinates": [77.308678, 28.613506]}}, {"type": "Feature", "properties": {"stop_name": "East Vinod Nagar - Mayur Vihar-II", "stop_code": "", "stop_id": "208"}, "geometry": {"type": "Point", "coordinates": [77.305588, 28.620052]}}, {"type": "Feature", "properties": {"stop_name": "Mandawali - West Vinod Nagar", "stop_code": "", "stop_id": "209"}, "geometry": {"type": "Point", "coordinates": [77.304146, 28.624861]}}, {"type": "Feature", "properties": {"stop_name": "IP Extension", "stop_code": "", "stop_id": "210"}, "geometry": {"type": "Point", "coordinates": [77.310898, 28.631599]}}, {"type": "Feature", "properties": {"stop_name": "Karkarduma Court", "stop_code": "", "stop_id": "211"}, "geometry": {"type": "Point", "coordinates": [77.295341, 28.649473]}}, {"type": "Feature", "properties": {"stop_name": "Krishna Nagar", "stop_code": "", "stop_id": "212"}, "geometry": {"type": "Point", "coordinates": [77.290306, 28.65782]}}, {"type": "Feature", "properties": {"stop_name": "East Azad Nagar", "stop_code": "", "stop_id": "213"}, "geometry": {"type": "Point", "coordinates": [77.284599, 28.665043]}}, {"type": "Feature", "properties": {"stop_name": "Jafrabad", "stop_code": "", "stop_id": "214"}, "geometry": {"type": "Point", "coordinates": [77.27507, 28.682943]}}, {"type": "Feature", "properties": {"stop_name": "Maujpur - Babarpur", "stop_code": "", "stop_id": "215"}, "geometry": {"type": "Point", "coordinates": [77.280922, 28.692057]}}, {"type": "Feature", "properties": {"stop_name": "Gokulpuri", "stop_code": "", "stop_id": "216"}, "geometry": {"type": "Point", "coordinates": [77.286301, 28.703009]}}, {"type": "Feature", "properties": {"stop_name": "Johri Enclave", "stop_code": "", "stop_id": "217"}, "geometry": {"type": "Point", "coordinates": [77.290154, 28.713297]}}, {"type": "Feature", "properties": {"stop_name": "Shiv Vihar", "stop_code": "", "stop_id": "218"}, "geometry": {"type": "Point", "coordinates": [77.289635, 28.721863]}}, {"type": "Feature", "properties": {"stop_name": "Sant Surdas (Sihi)", "stop_code": "", "stop_id": "219"}, "geometry": {"type": "Point", "coordinates": [77.316261, 28.354666]}}, {"type": "Feature", "properties": {"stop_name": "Raja Nahar Singh", "stop_code": "", "stop_id": "220"}, "geometry": {"type": "Point", "coordinates": [77.331657, 28.339899]}}, {"type": "Feature", "properties": {"stop_name": "Vinobapuri", "stop_code": "", "stop_id": "221"}, "geometry": {"type": "Point", "coordinates": [77.249367, 28.566179]}}, {"type": "Feature", "properties": {"stop_name": "Ashram", "stop_code": "", "stop_id": "222"}, "geometry": {"type": "Point", "coordinates": [77.25753, 28.576065]}}, {"type": "Feature", "properties": {"stop_name": "Sarai Kale Khan - Nizamuddin", "stop_code": "", "stop_id": "223"}, "geometry": {"type": "Point", "coordinates": [77.253189, 28.5889]}}, {"type": "Feature", "properties": {"stop_name": "Mayur Vihar Pocket 1", "stop_code": "", "stop_id": "224"}, "geometry": {"type": "Point", "coordinates": [77.296326, 28.606598]}}, {"type": "Feature", "properties": {"stop_name": "Shaheed Sthal (New Bus Adda)", "stop_code": "", "stop_id": "225"}, "geometry": {"type": "Point", "coordinates": [77.416031, 28.670177]}}, {"type": "Feature", "properties": {"stop_name": "Hindon River", "stop_code": "", "stop_id": "226"}, "geometry": {"type": "Point", "coordinates": [77.40654, 28.673508]}}, {"type": "Feature", "properties": {"stop_name": "Arthala", "stop_code": "", "stop_id": "227"}, "geometry": {"type": "Point", "coordinates": [77.391876, 28.6772]}}, {"type": "Feature", "properties": {"stop_name": "Mohan Nagar", "stop_code": "", "stop_id": "228"}, "geometry": {"type": "Point", "coordinates": [77.384209, 28.67856]}}, {"type": "Feature", "properties": {"stop_name": "Shyam Park", "stop_code": "", "stop_id": "229"}, "geometry": {"type": "Point", "coordinates": [77.370911, 28.678217]}}, {"type": "Feature", "properties": {"stop_name": "Major Mohit Sharma Rajender Nagar", "stop_code": "", "stop_id": "230"}, "geometry": {"type": "Point", "coordinates": [77.359528, 28.678095]}}, {"type": "Feature", "properties": {"stop_name": "Raj Bagh", "stop_code": "", "stop_id": "231"}, "geometry": {"type": "Point", "coordinates": [77.346466, 28.677122]}}, {"type": "Feature", "properties": {"stop_name": "Shaheed Nagar", "stop_code": "", "stop_id": "232"}, "geometry": {"type": "Point", "coordinates": [77.333809, 28.676615]}}, {"type": "Feature", "properties": {"stop_name": "Noida Sec-34", "stop_code": "", "stop_id": "233"}, "geometry": {"type": "Point", "coordinates": [77.363518, 28.580229]}}, {"type": "Feature", "properties": {"stop_name": "Noida Sec-52", "stop_code": "", "stop_id": "234"}, "geometry": {"type": "Point", "coordinates": [77.372749, 28.586849]}}, {"type": "Feature", "properties": {"stop_name": "Noida Sec-61", "stop_code": "", "stop_id": "235"}, "geometry": {"type": "Point", "coordinates": [77.372368, 28.597677]}}, {"type": "Feature", "properties": {"stop_name": "Noida Sec-59", "stop_code": "", "stop_id": "236"}, "geometry": {"type": "Point", "coordinates": [77.372955, 28.609089]}}, {"type": "Feature", "properties": {"stop_name": "Noida Sec-62", "stop_code": "", "stop_id": "237"}, "geometry": {"type": "Point", "coordinates": [77.373611, 28.616991]}}, {"type": "Feature", "properties": {"stop_name": "Noida Electronic City", "stop_code": "", "stop_id": "238"}, "geometry": {"type": "Point", "coordinates": [77.375229, 28.628685]}}, {"type": "Feature", "properties": {"stop_name": "Nangli", "stop_code": "", "stop_id": "239"}, "geometry": {"type": "Point", "coordinates": [77.010345, 28.61722]}}, {"type": "Feature", "properties": {"stop_name": "Najafgarh", "stop_code": "", "stop_id": "240"}, "geometry": {"type": "Point", "coordinates": [76.986259, 28.613316]}}, {"type": "Feature", "properties": {"stop_name": "Dhansa Bus Stand", "stop_code": "", "stop_id": "241"}, "geometry": {"type": "Point", "coordinates": [76.975426, 28.611858]}}, {"type": "Feature", "properties": {"stop_name": "Noida Sector 51", "stop_code": "", "stop_id": "500"}, "geometry": {"type": "Point", "coordinates": [77.375374, 28.585548]}}, {"type": "Feature", "properties": {"stop_name": "Noida Sector 50", "stop_code": "", "stop_id": "501"}, "geometry": {"type": "Point", "coordinates": [77.378357, 28.574547]}}, {"type": "Feature", "properties": {"stop_name": "Noida Sector 76", "stop_code": "", "stop_id": "502"}, "geometry": {"type": "Point", "coordinates": [77.37973, 28.565445]}}, {"type": "Feature", "properties": {"stop_name": "Noida Sector 101", "stop_code": "", "stop_id": "503"}, "geometry": {"type": "Point", "coordinates": [77.385056, 28.556065]}}, {"type": "Feature", "properties": {"stop_name": "Noida Sector 81", "stop_code": "", "stop_id": "504"}, "geometry": {"type": "Point", "coordinates": [77.390099, 28.549259]}}, {"type": "Feature", "properties": {"stop_name": "NSEZ", "stop_code": "", "stop_id": "505"}, "geometry": {"type": "Point", "coordinates": [77.394951, 28.532248]}}, {"type": "Feature", "properties": {"stop_name": "Noida Sector 83", "stop_code": "", "stop_id": "506"}, "geometry": {"type": "Point", "coordinates": [77.396477, 28.522284]}}, {"type": "Feature", "properties": {"stop_name": "Noida Sector 137", "stop_code": "", "stop_id": "507"}, "geometry": {"type": "Point", "coordinates": [77.403625, 28.510817]}}, {"type": "Feature", "properties": {"stop_name": "Noida Sector 142", "stop_code": "", "stop_id": "508"}, "geometry": {"type": "Point", "coordinates": [77.412567, 28.498999]}}, {"type": "Feature", "properties": {"stop_name": "Noida Sector 143", "stop_code": "", "stop_id": "509"}, "geometry": {"type": "Point", "coordinates": [77.422318, 28.494246]}}, {"type": "Feature", "properties": {"stop_name": "Noida Sector 144", "stop_code": "", "stop_id": "510"}, "geometry": {"type": "Point", "coordinates": [77.432968, 28.486376]}}, {"type": "Feature", "properties": {"stop_name": "Noida Sector 145", "stop_code": "", "stop_id": "511"}, "geometry": {"type": "Point", "coordinates": [77.442307, 28.47913]}}, {"type": "Feature", "properties": {"stop_name": "Noida Sector 146", "stop_code": "", "stop_id": "512"}, "geometry": {"type": "Point", "coordinates": [77.455101, 28.468822]}}, {"type": "Feature", "properties": {"stop_name": "Noida Sector 147", "stop_code": "", "stop_id": "513"}, "geometry": {"type": "Point", "coordinates": [77.465965, 28.4594]}}, {"type": "Feature", "properties": {"stop_name": "Noida Sector 148", "stop_code": "", "stop_id": "514"}, "geometry": {"type": "Point", "coordinates": [77.476692, 28.448021]}}, {"type": "Feature", "properties": {"stop_name": "Knowledge Park", "stop_code": "", "stop_id": "515"}, "geometry": {"type": "Point", "coordinates": [77.500298, 28.456865]}}, {"type": "Feature", "properties": {"stop_name": "Pari Chowk", "stop_code": "", "stop_id": "516"}, "geometry": {"type": "Point", "coordinates": [77.508308, 28.463331]}}, {"type": "Feature", "properties": {"stop_name": "Alpha 1", "stop_code": "", "stop_id": "517"}, "geometry": {"type": "Point", "coordinates": [77.512718, 28.470879]}}, {"type": "Feature", "properties": {"stop_name": "Delta 1", "stop_code": "", "stop_id": "518"}, "geometry": {"type": "Point", "coordinates": [77.525581, 28.478374]}}, {"type": "Feature", "properties": {"stop_name": "GNIDA Office", "stop_code": "", "stop_id": "519"}, "geometry": {"type": "Point", "coordinates": [77.536621, 28.484531]}}, {"type": "Feature", "properties": {"stop_name": "Depot Station", "stop_code": "", "stop_id": "520"}, "geometry": {"type": "Point", "coordinates": [77.544075, 28.488651]}}]}