{"type": "FeatureCollection", "features": [{"type": "Feature", "properties": {"name": ""}, "geometry": {"type": "Point", "coordinates": [77.3375263, 28.5779649]}}, {"type": "Feature", "properties": {"name": "Police Station Sadar"}, "geometry": {"type": "Point", "coordinates": [77.0375117, 28.4291623]}}, {"type": "Feature", "properties": {"name": "Sadar Police Station"}, "geometry": {"type": "Point", "coordinates": [77.0360665, 28.4640597]}}, {"type": "Feature", "properties": {"name": "Sushant Lok Police Station"}, "geometry": {"type": "Point", "coordinates": [77.0728175, 28.462993]}}, {"type": "Feature", "properties": {"name": "Sector 18 Police Station"}, "geometry": {"type": "Point", "coordinates": [77.0660949, 28.4863642]}}, {"type": "Feature", "properties": {"name": "Police Station Sector 56"}, "geometry": {"type": "Point", "coordinates": [77.1031506, 28.4248272]}}, {"type": "Feature", "properties": {"name": "Thana Kundli"}, "geometry": {"type": "Point", "coordinates": [77.1233526, 28.8638535]}}, {"type": "Feature", "properties": {"name": "Bawana Police station"}, "geometry": {"type": "Point", "coordinates": [77.0256424, 28.8055119]}}, {"type": "Feature", "properties": {"name": "Shalimar Bagh Police Station"}, "geometry": {"type": "Point", "coordinates": [77.1571367, 28.7170924]}}, {"type": "Feature", "properties": {"name": ""}, "geometry": {"type": "Point", "coordinates": [77.1810077, 28.6345193]}}, {"type": "Feature", "properties": {"name": "Vikas Puri"}, "geometry": {"type": "Point", "coordinates": [77.0682683, 28.6301441]}}, {"type": "Feature", "properties": {"name": "Police Post Kaushambi, Police Station Indirapuram"}, "geometry": {"type": "Point", "coordinates": [77.3270651, 28.6421878]}}, {"type": "Feature", "properties": {"name": "Ashok Vihar Police Station"}, "geometry": {"type": "Point", "coordinates": [77.1739049, 28.6925224]}}, {"type": "Feature", "properties": {"name": ""}, "geometry": {"type": "Point", "coordinates": [77.2971327, 28.4309808]}}, {"type": "Feature", "properties": {"name": "Najafgarh Police Thana"}, "geometry": {"type": "Point", "coordinates": [76.9828316, 28.6098145]}}, {"type": "Feature", "properties": {"name": "Police Chowki"}, "geometry": {"type": "Point", "coordinates": [76.9867433, 28.6126106]}}, {"type": "Feature", "properties": {"name": "Jaffar Pur Police Station"}, "geometry": {"type": "Point", "coordinates": [76.9151778, 28.5958543]}}, {"type": "Feature", "properties": {"name": "Police Station Malviya Nagar"}, "geometry": {"type": "Point", "coordinates": [77.2045562, 28.5306718]}}, {"type": "Feature", "properties": {"name": "Hari Nagar Police Station"}, "geometry": {"type": "Point", "coordinates": [77.0997911, 28.6097133]}}, {"type": "Feature", "properties": {"name": "Prasad Nagar Police Station"}, "geometry": {"type": "Point", "coordinates": [77.180705, 28.6478735]}}, {"type": "Feature", "properties": {"name": "Dwarka Ploce Station"}, "geometry": {"type": "Point", "coordinates": [77.0584523, 28.5649687]}}, {"type": "Feature", "properties": {"name": "Police Booth"}, "geometry": {"type": "Point", "coordinates": [77.1336893, 28.6702484]}}, {"type": "Feature", "properties": {"name": "Punjabi Bagh Police Station"}, "geometry": {"type": "Point", "coordinates": [77.1322843, 28.6741463]}}, {"type": "Feature", "properties": {"name": "Rajendra Nagar Police Station"}, "geometry": {"type": "Point", "coordinates": [77.1826937, 28.634698]}}, {"type": "Feature", "properties": {"name": "Police Residential Complex"}, "geometry": {"type": "Point", "coordinates": [77.1837505, 28.6349617]}}, {"type": "Feature", "properties": {"name": "New Ashok Nagar Police Station"}, "geometry": {"type": "Point", "coordinates": [77.3112386, 28.5983359]}}, {"type": "Feature", "properties": {"name": "Baba Haridas Nagar Police Station"}, "geometry": {"type": "Point", "coordinates": [76.9666822, 28.6289362]}}, {"type": "Feature", "properties": {"name": "Subroto Park Police Station"}, "geometry": {"type": "Point", "coordinates": [77.1651188, 28.5942138]}}, {"type": "Feature", "properties": {"name": ""}, "geometry": {"type": "Point", "coordinates": [77.1219621, 28.6499571]}}, {"type": "Feature", "properties": {"name": ""}, "geometry": {"type": "Point", "coordinates": [77.2432349, 28.6499319]}}, {"type": "Feature", "properties": {"name": "Lahori Gate Police Station"}, "geometry": {"type": "Point", "coordinates": [77.2190161, 28.6558358]}}, {"type": "Feature", "properties": {"name": "Kotwali Police Station"}, "geometry": {"type": "Point", "coordinates": [77.2310844, 28.6585978]}}, {"type": "Feature", "properties": {"name": "Jama Masjid Police Station"}, "geometry": {"type": "Point", "coordinates": [77.2337052, 28.6524641]}}, {"type": "Feature", "properties": {"name": "Cycle Market Police Post"}, "geometry": {"type": "Point", "coordinates": [77.2347384, 28.6559206]}}, {"type": "Feature", "properties": {"name": "Police Station"}, "geometry": {"type": "Point", "coordinates": [77.2543284, 28.5246843]}}, {"type": "Feature", "properties": {"name": "police station"}, "geometry": {"type": "Point", "coordinates": [77.195299, 28.5820097]}}, {"type": "Feature", "properties": {"name": "Police Chowki"}, "geometry": {"type": "Point", "coordinates": [77.2854276, 28.8638951]}}, {"type": "Feature", "properties": {"name": "Police Post Sanjay Colony"}, "geometry": {"type": "Point", "coordinates": [77.2261104, 28.4300428]}}, {"type": "Feature", "properties": {"name": "Police Staion"}, "geometry": {"type": "Point", "coordinates": [77.0172873, 28.4651874]}}, {"type": "Feature", "properties": {"name": ""}, "geometry": {"type": "Point", "coordinates": [77.2217498, 28.6891306]}}, {"type": "Feature", "properties": {"name": "Police station Surya nagar"}, "geometry": {"type": "Point", "coordinates": [77.331314, 28.66921]}}, {"type": "Feature", "properties": {"name": "Police Station Hazrat Nizamudin Railway station"}, "geometry": {"type": "Point", "coordinates": [77.2536138, 28.5879796]}}, {"type": "Feature", "properties": {"name": "Police Station Karol Bagh"}, "geometry": {"type": "Point", "coordinates": [77.1930248, 28.652398]}}, {"type": "Feature", "properties": {"name": "Police Station New Delhi Railway Station"}, "geometry": {"type": "Point", "coordinates": [77.2189266, 28.6437003]}}, {"type": "Feature", "properties": {"name": "Police Post"}, "geometry": {"type": "Point", "coordinates": [77.2222854, 28.635912]}}, {"type": "Feature", "properties": {"name": "Police Post Majnu ka Tila"}, "geometry": {"type": "Point", "coordinates": [77.2270376, 28.6965167]}}, {"type": "Feature", "properties": {"name": "Police Station Pul Prahladpur"}, "geometry": {"type": "Point", "coordinates": [77.2907092, 28.5019105]}}, {"type": "Feature", "properties": {"name": "Police Station Khyala"}, "geometry": {"type": "Point", "coordinates": [77.0963462, 28.6517663]}}, {"type": "Feature", "properties": {"name": ""}, "geometry": {"type": "Point", "coordinates": [77.3171717, 28.613379]}}, {"type": "Feature", "properties": {"name": "Durga Puri Police Station"}, "geometry": {"type": "Point", "coordinates": [77.2915327, 28.6894132]}}, {"type": "Feature", "properties": {"name": "Police Post PSRI Hospital"}, "geometry": {"type": "Point", "coordinates": [77.2252646, 28.5318943]}}, {"type": "Feature", "properties": {"name": "Police Chowki"}, "geometry": {"type": "Point", "coordinates": [77.2920281, 28.6862014]}}, {"type": "Feature", "properties": {"name": "Police Station Dabri"}, "geometry": {"type": "Point", "coordinates": [77.0860753, 28.6131514]}}, {"type": "Feature", "properties": {"name": "Police Station Old Delhi Railway Station"}, "geometry": {"type": "Point", "coordinates": [77.2293263, 28.6603874]}}, {"type": "Feature", "properties": {"name": "Police Station Badarpur"}, "geometry": {"type": "Point", "coordinates": [77.3037682, 28.4937527]}}, {"type": "Feature", "properties": {"name": "Kirti Nagar Police Station"}, "geometry": {"type": "Point", "coordinates": [77.135379, 28.6402677]}}, {"type": "Feature", "properties": {"name": "Bhajgera Police Station"}, "geometry": {"type": "Point", "coordinates": [77.0235407, 28.5205858]}}, {"type": "Feature", "properties": {"name": "Vivek Vihar"}, "geometry": {"type": "Point", "coordinates": [77.3062943, 28.667016]}}, {"type": "Feature", "properties": {"name": "Bharat Nagar Police station"}, "geometry": {"type": "Point", "coordinates": [77.178135, 28.6807121]}}, {"type": "Feature", "properties": {"name": "Teela Mod Police Station"}, "geometry": {"type": "Point", "coordinates": [77.3346234, 28.7258687]}}, {"type": "Feature", "properties": {"name": "Sector 18 Police Station"}, "geometry": {"type": "Point", "coordinates": [77.0660455, 28.487675]}}, {"type": "Feature", "properties": {"name": "Women Facilitation Booth"}, "geometry": {"type": "Point", "coordinates": [77.1699161, 28.7283053]}}, {"type": "Feature", "properties": {"name": "Police Post, Khan Market"}, "geometry": {"type": "Point", "coordinates": [77.2262488, 28.6003274]}}, {"type": "Feature", "properties": {"name": "Police Station, DLF Phase 2"}, "geometry": {"type": "Point", "coordinates": [77.0910642, 28.4873346]}}, {"type": "Feature", "properties": {"name": "No entry for foreigners going towards the government buildings"}, "geometry": {"type": "Point", "coordinates": [77.2093428, 28.6153345]}}, {"type": "Feature", "properties": {"name": "Gate 35, No entry for foreigners"}, "geometry": {"type": "Point", "coordinates": [77.1985707, 28.6176525]}}, {"type": "Feature", "properties": {"name": ""}, "geometry": {"type": "Point", "coordinates": [77.2020072, 28.617356]}}, {"type": "Feature", "properties": {"name": "POLICE CHOWLI SIKANDARAPUR"}, "geometry": {"type": "Point", "coordinates": [77.3392139, 28.6949996]}}, {"type": "Feature", "properties": {"name": "Traffic Police Station, RK Puram, Sector-4"}, "geometry": {"type": "Point", "coordinates": [77.1811399, 28.560194]}}, {"type": "Feature", "properties": {"name": "Delhi Police Post (Babarpur)"}, "geometry": {"type": "Point", "coordinates": [77.2787079, 28.6892958]}}, {"type": "Feature", "properties": {"name": ""}, "geometry": {"type": "Point", "coordinates": [77.1627448, 28.7541865]}}, {"type": "Feature", "properties": {"name": "Police Station Sushant Lok"}, "geometry": {"type": "Point", "coordinates": [77.080971, 28.460703]}}, {"type": "Feature", "properties": {"name": "Railway Police Force Station"}, "geometry": {"type": "Point", "coordinates": [77.2188823, 28.6452469]}}, {"type": "Feature", "properties": {"name": ""}, "geometry": {"type": "Point", "coordinates": [77.2774333, 28.6304085]}}, {"type": "Feature", "properties": {"name": "Police Station Barakhamba Road"}, "geometry": {"type": "Point", "coordinates": [77.2253541, 28.6308823]}}, {"type": "Feature", "properties": {"name": "Police station"}, "geometry": {"type": "Point", "coordinates": [77.3163336, 28.5006344]}}, {"type": "Feature", "properties": {"name": "All Women police assistance booth"}, "geometry": {"type": "Point", "coordinates": [77.2507374, 28.549942]}}, {"type": "Feature", "properties": {"name": "DCP Residence"}, "geometry": {"type": "Point", "coordinates": [77.232869, 28.6274655]}}, {"type": "Feature", "properties": {"name": "Police check point"}, "geometry": {"type": "Point", "coordinates": [77.2877917, 28.5617873]}}, {"type": "Feature", "properties": {"name": "Police assistance booth"}, "geometry": {"type": "Point", "coordinates": [77.2273752, 28.6012604]}}, {"type": "Feature", "properties": {"name": "Gandhi Nagar Police Station"}, "geometry": {"type": "Point", "coordinates": [77.2671907, 28.6599766]}}, {"type": "Feature", "properties": {"name": ""}, "geometry": {"type": "Point", "coordinates": [77.1683104, 28.5956693]}}, {"type": "Feature", "properties": {"name": "Bara Hindu Rao Police Station"}, "geometry": {"type": "Point", "coordinates": [77.2080538, 28.6657245]}}, {"type": "Feature", "properties": {"name": "Sabzi Mandi Police Station"}, "geometry": {"type": "Point", "coordinates": [77.2073279, 28.6689322]}}, {"type": "Feature", "properties": {"name": "Crime Against Women Cell"}, "geometry": {"type": "Point", "coordinates": [77.2073751, 28.6694195]}}, {"type": "Feature", "properties": {"name": ""}, "geometry": {"type": "Point", "coordinates": [77.2849399, 28.4610831]}}, {"type": "Feature", "properties": {"name": "Delhi Police \u2014 Mehrauli"}, "geometry": {"type": "Point", "coordinates": [77.1779413, 28.5262044]}}, {"type": "Feature", "properties": {"name": "Keshavpur Sabzi Mandi"}, "geometry": {"type": "Point", "coordinates": [77.0881006, 28.6515928]}}, {"type": "Feature", "properties": {"name": "Police Station Mandawali"}, "geometry": {"type": "Point", "coordinates": [77.3061809, 28.6250464]}}, {"type": "Feature", "properties": {"name": "Police Station Madhu Vihar"}, "geometry": {"type": "Point", "coordinates": [77.3062871, 28.6250657]}}, {"type": "Feature", "properties": {"name": "Pink Booth"}, "geometry": {"type": "Point", "coordinates": [77.1332471, 28.5966453]}}, {"type": "Feature", "properties": {"name": "Facilitation Kiosk"}, "geometry": {"type": "Point", "coordinates": [77.1973707, 28.5758546]}}, {"type": "Feature", "properties": {"name": "Police Booth"}, "geometry": {"type": "Point", "coordinates": [77.195241, 28.5757026]}}, {"type": "Feature", "properties": {"name": "Prepaid Auto Service"}, "geometry": {"type": "Point", "coordinates": [77.219012, 28.6316262]}}, {"type": "Feature", "properties": {"name": "Tourist Police Booth"}, "geometry": {"type": "Point", "coordinates": [77.2182954, 28.6420284]}}, {"type": "Feature", "properties": {"name": "Delhi Police"}, "geometry": {"type": "Point", "coordinates": [77.3161693, 28.6487676]}}, {"type": "Feature", "properties": {"name": "G.R.P Police Station Anand Vihar"}, "geometry": {"type": "Point", "coordinates": [77.314937, 28.6480027]}}, {"type": "Feature", "properties": {"name": "Police Station Rithala Metro"}, "geometry": {"type": "Point", "coordinates": [77.1077634, 28.7198672]}}, {"type": "Feature", "properties": {"name": "Office Of The Deputy Commissioner Of Police Central District"}, "geometry": {"type": "Point", "coordinates": [77.2409554, 28.6415133]}}, {"type": "Feature", "properties": {"name": "Delhi Police"}, "geometry": {"type": "Point", "coordinates": [77.2265741, 28.6494703]}}, {"type": "Feature", "properties": {"name": "shalimar garden police chowki"}, "geometry": {"type": "Point", "coordinates": [77.3404923, 28.6883392]}}, {"type": "Feature", "properties": {"name": "DCP Shahdara District Office"}, "geometry": {"type": "Point", "coordinates": [77.2867347, 28.6653684]}}, {"type": "Feature", "properties": {"name": "Delhi Police Dog Squad"}, "geometry": {"type": "Point", "coordinates": [77.298339, 28.6554103]}}, {"type": "Feature", "properties": {"name": ""}, "geometry": {"type": "Point", "coordinates": [77.0417182, 28.591667]}}, {"type": "Feature", "properties": {"name": "Integrated Facilitation Booth"}, "geometry": {"type": "Point", "coordinates": [77.1269382, 28.6050112]}}, {"type": "Feature", "properties": {"name": "Integrated Facilitation Booth"}, "geometry": {"type": "Point", "coordinates": [77.1691272, 28.5892018]}}, {"type": "Feature", "properties": {"name": "South Campus Police Station"}, "geometry": {"type": "Point", "coordinates": [77.1760286, 28.5796397]}}, {"type": "Feature", "properties": {"name": "Kailash Colony Market Integrated Facilitation Booth"}, "geometry": {"type": "Point", "coordinates": [77.2411483, 28.5528334]}}, {"type": "Feature", "properties": {"name": ""}, "geometry": {"type": "Point", "coordinates": [77.2442795, 28.5588883]}}, {"type": "Feature", "properties": {"name": "Welcome Metro Station Integrated Facilitation Booth"}, "geometry": {"type": "Point", "coordinates": [77.2761129, 28.6725287]}}, {"type": "Feature", "properties": {"name": "Swami Dayanand Hospital Police Booth"}, "geometry": {"type": "Point", "coordinates": [77.3032989, 28.6778818]}}, {"type": "Feature", "properties": {"name": ""}, "geometry": {"type": "Point", "coordinates": [77.2140888, 28.4989184]}}, {"type": "Feature", "properties": {"name": "Integrated police booth, Model Town"}, "geometry": {"type": "Point", "coordinates": [77.1798446, 28.7074219]}}, {"type": "Feature", "properties": {"name": ""}, "geometry": {"type": "Point", "coordinates": [77.2917074, 28.5356392]}}, {"type": "Feature", "properties": {"name": "Police Station Pandav Nagar"}, "geometry": {"type": "Point", "coordinates": [77.3027366, 28.6201262]}}, {"type": "Feature", "properties": {"name": "Bharola Police Post"}, "geometry": {"type": "Point", "coordinates": [77.1705927, 28.7159166]}}, {"type": "Feature", "properties": {"name": "Integrated Police Booth"}, "geometry": {"type": "Point", "coordinates": [77.1649585, 28.7225762]}}, {"type": "Feature", "properties": {"name": "Kotla Mubarakpur Police Station"}, "geometry": {"type": "Point", "coordinates": [77.2251127, 28.5759348]}}, {"type": "Feature", "properties": {"name": "Jaitpur Thana"}, "geometry": {"type": "Point", "coordinates": [77.3193324, 28.5037996]}}, {"type": "Feature", "properties": {"name": "Assistant Comissioner of Police DLF Subdivision Gurugram"}, "geometry": {"type": "Point", "coordinates": [77.0954743, 28.4513374]}}, {"type": "Feature", "properties": {"name": "Assistant Comissioner of Police Cyber Crime Gurugram"}, "geometry": {"type": "Point", "coordinates": [77.0954882, 28.4513903]}}, {"type": "Feature", "properties": {"name": ""}, "geometry": {"type": "Point", "coordinates": [77.1268184, 28.7181571]}}, {"type": "Feature", "properties": {"name": "Adarsh Nagar Police Station"}, "geometry": {"type": "Point", "coordinates": [77.1752464, 28.7098594]}}, {"type": "Feature", "properties": {"name": "Delhi Police Headquarters"}, "geometry": {"type": "Point", "coordinates": [77.212071, 28.6253997]}}, {"type": "Feature", "properties": {"name": "Civil Lines Police Station"}, "geometry": {"type": "Point", "coordinates": [77.2215343, 28.6890673]}}, {"type": "Feature", "properties": {"name": "Metro Walk"}, "geometry": {"type": "Point", "coordinates": [77.1111954, 28.721911]}}, {"type": "Feature", "properties": {"name": "CYBER POLICE STATION, EAST DISTRICT"}, "geometry": {"type": "Point", "coordinates": [77.3098433, 28.6129295]}}, {"type": "Feature", "properties": {"name": "Police Booth Model Town"}, "geometry": {"type": "Point", "coordinates": [77.1905813, 28.7062721]}}, {"type": "Feature", "properties": {"name": "Integrated Facilitation Booth"}, "geometry": {"type": "Point", "coordinates": [77.2096762, 28.573737]}}, {"type": "Feature", "properties": {"name": "Police Station Rani Bagh"}, "geometry": {"type": "Point", "coordinates": [77.1192353, 28.697606]}}, {"type": "Feature", "properties": {"name": "Integrated Police Facility"}, "geometry": {"type": "Point", "coordinates": [77.2207078, 28.5682785]}}, {"type": "Feature", "properties": {"name": "Public Facilitation Booth"}, "geometry": {"type": "Point", "coordinates": [77.2195152, 28.6331466]}}, {"type": "Feature", "properties": {"name": "Moti Nagar Police Station"}, "geometry": {"type": "Point", "coordinates": [77.1467439, 28.6604512]}}, {"type": "Feature", "properties": {"name": "Suvidha Seva"}, "geometry": {"type": "Point", "coordinates": [77.2090211, 28.5732388]}}, {"type": "Feature", "properties": {"name": "Mayapuri Police Station"}, "geometry": {"type": "Point", "coordinates": [77.1215572, 28.6267109]}}, {"type": "Feature", "properties": {"name": "Police Post ISBT"}, "geometry": {"type": "Point", "coordinates": [77.2323235, 28.6694198]}}, {"type": "Feature", "properties": {"name": ""}, "geometry": {"type": "Point", "coordinates": [77.3237677, 28.5669719]}}, {"type": "Feature", "properties": {"name": "Police Chowki, Batra Complex, Mukherjee Nagar"}, "geometry": {"type": "Point", "coordinates": [77.2150326, 28.7112625]}}, {"type": "Feature", "properties": {"name": "Police Chowki, Mukherjee Nagar Bandh"}, "geometry": {"type": "Point", "coordinates": [77.2159937, 28.715409]}}]}