{"type": "FeatureCollection", "features": [{"type": "Feature", "properties": {"name": "Heritage International School"}, "geometry": {"type": "Point", "coordinates": [77.166546, 28.5084497]}}, {"type": "Feature", "properties": {"name": "Deep Public School"}, "geometry": {"type": "Point", "coordinates": [77.1634819, 28.5117155]}}, {"type": "Feature", "properties": {"name": ""}, "geometry": {"type": "Point", "coordinates": [77.1384019, 28.4896385]}}, {"type": "Feature", "properties": {"name": "Delhi Public School, Primary Section"}, "geometry": {"type": "Point", "coordinates": [77.0525305, 28.4295352]}}, {"type": "Feature", "properties": {"name": "CR Model Public School"}, "geometry": {"type": "Point", "coordinates": [77.0458728, 28.4463106]}}, {"type": "Feature", "properties": {"name": "Salvan Public School"}, "geometry": {"type": "Point", "coordinates": [77.0465147, 28.4636101]}}, {"type": "Feature", "properties": {"name": "Stones2milestones"}, "geometry": {"type": "Point", "coordinates": [77.0783203, 28.4539934]}}, {"type": "Feature", "properties": {"name": "Government Boys and Girls Senior Secondary School"}, "geometry": {"type": "Point", "coordinates": [76.9877135, 28.6114104]}}, {"type": "Feature", "properties": {"name": "Government(Bada school)"}, "geometry": {"type": "Point", "coordinates": [77.0372885, 28.7946905]}}, {"type": "Feature", "properties": {"name": ""}, "geometry": {"type": "Point", "coordinates": [77.177701, 28.5962679]}}, {"type": "Feature", "properties": {"name": "Govt. Girls Senior Secondary School"}, "geometry": {"type": "Point", "coordinates": [77.1842457, 28.573859]}}, {"type": "Feature", "properties": {"name": "DPS International School"}, "geometry": {"type": "Point", "coordinates": [77.1783234, 28.5697886]}}, {"type": "Feature", "properties": {"name": "Jose Martin Sarvodya Vidyalya"}, "geometry": {"type": "Point", "coordinates": [77.1781517, 28.5712962]}}, {"type": "Feature", "properties": {"name": "NIIT - New Friends Colony, South Delhi"}, "geometry": {"type": "Point", "coordinates": [77.2667188, 28.5603226]}}, {"type": "Feature", "properties": {"name": ""}, "geometry": {"type": "Point", "coordinates": [77.0787484, 28.4616751]}}, {"type": "Feature", "properties": {"name": "Sumermal Jain Public School"}, "geometry": {"type": "Point", "coordinates": [77.0940113, 28.6300965]}}, {"type": "Feature", "properties": {"name": "American Montessori"}, "geometry": {"type": "Point", "coordinates": [77.080977, 28.4850535]}}, {"type": "Feature", "properties": {"name": "Kamla International"}, "geometry": {"type": "Point", "coordinates": [77.0612, 28.418088]}}, {"type": "Feature", "properties": {"name": "Ratan Devi Girls Senior Sec. School"}, "geometry": {"type": "Point", "coordinates": [77.2799953, 28.6614428]}}, {"type": "Feature", "properties": {"name": "St. Angels (Jr)"}, "geometry": {"type": "Point", "coordinates": [77.0651743, 28.4469205]}}, {"type": "Feature", "properties": {"name": "St. Angels (Sr)"}, "geometry": {"type": "Point", "coordinates": [77.0695058, 28.4419185]}}, {"type": "Feature", "properties": {"name": "Delhi Public School, Dwarka"}, "geometry": {"type": "Point", "coordinates": [77.0479506, 28.6059739]}}, {"type": "Feature", "properties": {"name": "Holy Cross School"}, "geometry": {"type": "Point", "coordinates": [76.9811687, 28.6147687]}}, {"type": "Feature", "properties": {"name": ""}, "geometry": {"type": "Point", "coordinates": [76.9837474, 28.6182087]}}, {"type": "Feature", "properties": {"name": "Krishna Model School"}, "geometry": {"type": "Point", "coordinates": [76.985117, 28.6060798]}}, {"type": "Feature", "properties": {"name": "Mitraon Govt School"}, "geometry": {"type": "Point", "coordinates": [76.9396906, 28.6067575]}}, {"type": "Feature", "properties": {"name": "Ujwa Govt School"}, "geometry": {"type": "Point", "coordinates": [76.9036618, 28.5704851]}}, {"type": "Feature", "properties": {"name": "Govt Primary School Malik Pur"}, "geometry": {"type": "Point", "coordinates": [76.8999464, 28.551102]}}, {"type": "Feature", "properties": {"name": "Govt Primary School DaryaPur"}, "geometry": {"type": "Point", "coordinates": [76.9075424, 28.552763]}}, {"type": "Feature", "properties": {"name": "Govt Senior Secondary School"}, "geometry": {"type": "Point", "coordinates": [76.9317444, 28.6024715]}}, {"type": "Feature", "properties": {"name": "Kendriya Vidhyalya"}, "geometry": {"type": "Point", "coordinates": [77.1578285, 28.6826588]}}, {"type": "Feature", "properties": {"name": "New Ideal Public School"}, "geometry": {"type": "Point", "coordinates": [77.2921488, 28.5467878]}}, {"type": "Feature", "properties": {"name": "Jai Bharti Public School"}, "geometry": {"type": "Point", "coordinates": [77.2925361, 28.5464998]}}, {"type": "Feature", "properties": {"name": "Disha Public School"}, "geometry": {"type": "Point", "coordinates": [77.2929511, 28.5480622]}}, {"type": "Feature", "properties": {"name": "Jasola Public School"}, "geometry": {"type": "Point", "coordinates": [77.2930513, 28.5483522]}}, {"type": "Feature", "properties": {"name": "MCD Public School"}, "geometry": {"type": "Point", "coordinates": [77.2940566, 28.5482349]}}, {"type": "Feature", "properties": {"name": "Bharat Vasisht Vidya Mandir"}, "geometry": {"type": "Point", "coordinates": [77.1285742, 28.4717157]}}, {"type": "Feature", "properties": {"name": "Cambridge Primary School"}, "geometry": {"type": "Point", "coordinates": [77.2746488, 28.5662292]}}, {"type": "Feature", "properties": {"name": "Delhi International School"}, "geometry": {"type": "Point", "coordinates": [77.0578228, 28.5642198]}}, {"type": "Feature", "properties": {"name": "Paramount International School"}, "geometry": {"type": "Point", "coordinates": [77.0574223, 28.5637249]}}, {"type": "Feature", "properties": {"name": "Basava International School"}, "geometry": {"type": "Point", "coordinates": [77.055416, 28.5648745]}}, {"type": "Feature", "properties": {"name": "The Indian Heights School"}, "geometry": {"type": "Point", "coordinates": [77.0527569, 28.5618483]}}, {"type": "Feature", "properties": {"name": "Mount Carmel"}, "geometry": {"type": "Point", "coordinates": [77.0586025, 28.560653]}}, {"type": "Feature", "properties": {"name": "Guru Nanak Public School"}, "geometry": {"type": "Point", "coordinates": [77.1326211, 28.6699013]}}, {"type": "Feature", "properties": {"name": "S M Arya Public School"}, "geometry": {"type": "Point", "coordinates": [77.1337166, 28.6721011]}}, {"type": "Feature", "properties": {"name": "SD Public School"}, "geometry": {"type": "Point", "coordinates": [77.1393322, 28.6677379]}}, {"type": "Feature", "properties": {"name": "Vishal Bharti Public School"}, "geometry": {"type": "Point", "coordinates": [77.1002235, 28.6776074]}}, {"type": "Feature", "properties": {"name": "St. Nirankari Public School"}, "geometry": {"type": "Point", "coordinates": [77.1072725, 28.676031]}}, {"type": "Feature", "properties": {"name": "Rajkiya Pratibha Vikas Vidyalaya"}, "geometry": {"type": "Point", "coordinates": [77.1066654, 28.6757409]}}, {"type": "Feature", "properties": {"name": "Sarvodaya Vidyalaya"}, "geometry": {"type": "Point", "coordinates": [77.1058706, 28.6750003]}}, {"type": "Feature", "properties": {"name": "Government Higher Secondary School"}, "geometry": {"type": "Point", "coordinates": [77.1271291, 28.6739957]}}, {"type": "Feature", "properties": {"name": "Sarvodaya Co-Educational School"}, "geometry": {"type": "Point", "coordinates": [77.1497669, 28.6692325]}}, {"type": "Feature", "properties": {"name": "Government Senior Secondary School"}, "geometry": {"type": "Point", "coordinates": [77.1658655, 28.6535437]}}, {"type": "Feature", "properties": {"name": "Sarvodaya Kanya Vidyalaya"}, "geometry": {"type": "Point", "coordinates": [77.1655973, 28.652348]}}, {"type": "Feature", "properties": {"name": "Govt. Boys HB School"}, "geometry": {"type": "Point", "coordinates": [77.1660801, 28.6541792]}}, {"type": "Feature", "properties": {"name": "DAV School"}, "geometry": {"type": "Point", "coordinates": [77.1680059, 28.6471225]}}, {"type": "Feature", "properties": {"name": "Vidya Bhawan Senior Secondary School"}, "geometry": {"type": "Point", "coordinates": [77.1763691, 28.6387283]}}, {"type": "Feature", "properties": {"name": "Sindhi Higher Secondary School"}, "geometry": {"type": "Point", "coordinates": [77.1778604, 28.6357621]}}, {"type": "Feature", "properties": {"name": "Manav Sthali School"}, "geometry": {"type": "Point", "coordinates": [77.1782466, 28.6352772]}}, {"type": "Feature", "properties": {"name": "Andh Kanya Vidyalaya"}, "geometry": {"type": "Point", "coordinates": [77.1803119, 28.6368309]}}, {"type": "Feature", "properties": {"name": "DI Khan Bharati Sabha Higher Secondary School"}, "geometry": {"type": "Point", "coordinates": [77.1795502, 28.6307618]}}, {"type": "Feature", "properties": {"name": "Bapu Adarsh Vidyalaya"}, "geometry": {"type": "Point", "coordinates": [77.1804675, 28.6306394]}}, {"type": "Feature", "properties": {"name": "Swami Dayanand Govt. Sarvodaya Vidyalaya"}, "geometry": {"type": "Point", "coordinates": [77.1856155, 28.6397954]}}, {"type": "Feature", "properties": {"name": "GD Salwan Public School"}, "geometry": {"type": "Point", "coordinates": [77.1858677, 28.6403133]}}, {"type": "Feature", "properties": {"name": "Don Bosco School"}, "geometry": {"type": "Point", "coordinates": [77.2473321, 28.5285072]}}, {"type": "Feature", "properties": {"name": "M B Boys School"}, "geometry": {"type": "Point", "coordinates": [77.2002755, 28.6350118]}}, {"type": "Feature", "properties": {"name": "govt sec school"}, "geometry": {"type": "Point", "coordinates": [77.0327425, 28.4618627]}}, {"type": "Feature", "properties": {"name": "Sarvodaya Kanya Senior Secondary School"}, "geometry": {"type": "Point", "coordinates": [77.1560501, 28.6896388]}}, {"type": "Feature", "properties": {"name": "HIRA YOGA TRAINING KENDER"}, "geometry": {"type": "Point", "coordinates": [77.1344924, 28.7551761]}}, {"type": "Feature", "properties": {"name": ""}, "geometry": {"type": "Point", "coordinates": [77.1114558, 28.6927134]}}, {"type": "Feature", "properties": {"name": "Sahoday Senior Secondary School"}, "geometry": {"type": "Point", "coordinates": [77.2002206, 28.5526424]}}, {"type": "Feature", "properties": {"name": "St. Peters School"}, "geometry": {"type": "Point", "coordinates": [77.3139529, 28.4139784]}}, {"type": "Feature", "properties": {"name": "Delhi Public School"}, "geometry": {"type": "Point", "coordinates": [77.1479893, 28.5386253]}}, {"type": "Feature", "properties": {"name": ""}, "geometry": {"type": "Point", "coordinates": [77.106348, 28.425882]}}, {"type": "Feature", "properties": {"name": "Little Ones Public School"}, "geometry": {"type": "Point", "coordinates": [77.2035198, 28.519551]}}, {"type": "Feature", "properties": {"name": "deepak vaiyas home"}, "geometry": {"type": "Point", "coordinates": [77.1133697, 28.625488]}}, {"type": "Feature", "properties": {"name": "Chiranjiv Bharati School"}, "geometry": {"type": "Point", "coordinates": [77.037658, 28.5194596]}}, {"type": "Feature", "properties": {"name": "Swiss Cottage school"}, "geometry": {"type": "Point", "coordinates": [77.0502838, 28.5157955]}}, {"type": "Feature", "properties": {"name": "MAAC"}, "geometry": {"type": "Point", "coordinates": [77.2175752, 28.5692131]}}, {"type": "Feature", "properties": {"name": "Sarvodaya Vidyalaya (GBSSS), Govt. School"}, "geometry": {"type": "Point", "coordinates": [77.2170585, 28.7144613]}}, {"type": "Feature", "properties": {"name": "DAV Public School Pushpanjali"}, "geometry": {"type": "Point", "coordinates": [77.1081266, 28.6939915]}}, {"type": "Feature", "properties": {"name": "Evolution dance school"}, "geometry": {"type": "Point", "coordinates": [77.0512991, 28.8032691]}}, {"type": "Feature", "properties": {"name": "Dev Public School."}, "geometry": {"type": "Point", "coordinates": [76.9685752, 28.6304673]}}, {"type": "Feature", "properties": {"name": "S.D. Public"}, "geometry": {"type": "Point", "coordinates": [77.169391, 28.6473887]}}, {"type": "Feature", "properties": {"name": "FORE School of Management"}, "geometry": {"type": "Point", "coordinates": [77.1849245, 28.5370038]}}, {"type": "Feature", "properties": {"name": "Modern school"}, "geometry": {"type": "Point", "coordinates": [77.0542962, 28.5788563]}}, {"type": "Feature", "properties": {"name": "Venkateshwara international school"}, "geometry": {"type": "Point", "coordinates": [77.0389764, 28.5889898]}}, {"type": "Feature", "properties": {"name": "Adarsh World School"}, "geometry": {"type": "Point", "coordinates": [77.0435682, 28.5943755]}}, {"type": "Feature", "properties": {"name": ""}, "geometry": {"type": "Point", "coordinates": [76.9537195, 28.6331399]}}, {"type": "Feature", "properties": {"name": "St. Prayag school"}, "geometry": {"type": "Point", "coordinates": [77.1168424, 28.6918581]}}, {"type": "Feature", "properties": {"name": "Mount abu junior branch school"}, "geometry": {"type": "Point", "coordinates": [77.1023916, 28.7117973]}}, {"type": "Feature", "properties": {"name": "Kendrya Vidyalya"}, "geometry": {"type": "Point", "coordinates": [77.1699743, 28.7051428]}}, {"type": "Feature", "properties": {"name": "\u0627\u0644\u0645\u062f\u0631\u0633\u0629 \u0627\u0644\u0639\u0631\u0627\u0642\u064a\u0629"}, "geometry": {"type": "Point", "coordinates": [77.2049515, 28.556265]}}, {"type": "Feature", "properties": {"name": "Prakash Punj Vidya Sadan"}, "geometry": {"type": "Point", "coordinates": [77.2840423, 28.6701353]}}, {"type": "Feature", "properties": {"name": "Government SChool"}, "geometry": {"type": "Point", "coordinates": [77.0591164, 28.5611545]}}, {"type": "Feature", "properties": {"name": ""}, "geometry": {"type": "Point", "coordinates": [77.175441, 28.5841578]}}, {"type": "Feature", "properties": {"name": "Sulabh Public School"}, "geometry": {"type": "Point", "coordinates": [77.0799205, 28.597807]}}, {"type": "Feature", "properties": {"name": "Government school"}, "geometry": {"type": "Point", "coordinates": [77.126039, 28.7369367]}}, {"type": "Feature", "properties": {"name": "NC Jindal Public School"}, "geometry": {"type": "Point", "coordinates": [77.124514, 28.6628679]}}, {"type": "Feature", "properties": {"name": "Bal vikash School"}, "geometry": {"type": "Point", "coordinates": [76.9009775, 28.7330269]}}, {"type": "Feature", "properties": {"name": ""}, "geometry": {"type": "Point", "coordinates": [77.0005244, 28.5654935]}}, {"type": "Feature", "properties": {"name": "Jaganath intl mngt school"}, "geometry": {"type": "Point", "coordinates": [77.2563459, 28.5470179]}}, {"type": "Feature", "properties": {"name": "Scottish Early Years"}, "geometry": {"type": "Point", "coordinates": [77.3007936, 28.6489732]}}, {"type": "Feature", "properties": {"name": "Soami Nagar Model School"}, "geometry": {"type": "Point", "coordinates": [77.2254741, 28.5440473]}}, {"type": "Feature", "properties": {"name": "The Pinnacle School"}, "geometry": {"type": "Point", "coordinates": [77.2279586, 28.5448773]}}, {"type": "Feature", "properties": {"name": "Soami Nagar Pre-Primary School"}, "geometry": {"type": "Point", "coordinates": [77.2257564, 28.543396]}}, {"type": "Feature", "properties": {"name": "Ahlcon International School"}, "geometry": {"type": "Point", "coordinates": [77.2881353, 28.6120628]}}, {"type": "Feature", "properties": {"name": "Government Primary School for the Deaf"}, "geometry": {"type": "Point", "coordinates": [77.287413, 28.6118017]}}, {"type": "Feature", "properties": {"name": "School for Mentally Retarded Children"}, "geometry": {"type": "Point", "coordinates": [77.2876138, 28.6118221]}}, {"type": "Feature", "properties": {"name": "Aster Public School"}, "geometry": {"type": "Point", "coordinates": [77.2896107, 28.6096116]}}, {"type": "Feature", "properties": {"name": "Mount Carmel School (Senior Wing)"}, "geometry": {"type": "Point", "coordinates": [77.1652909, 28.5760199]}}, {"type": "Feature", "properties": {"name": ""}, "geometry": {"type": "Point", "coordinates": [77.1217455, 28.4736928]}}, {"type": "Feature", "properties": {"name": "Saint Mary's Junior School"}, "geometry": {"type": "Point", "coordinates": [77.203907, 28.5123981]}}, {"type": "Feature", "properties": {"name": "BCC Model School"}, "geometry": {"type": "Point", "coordinates": [77.1193927, 28.7396725]}}, {"type": "Feature", "properties": {"name": "Snehil Frontline Special School"}, "geometry": {"type": "Point", "coordinates": [77.1195329, 28.7397795]}}, {"type": "Feature", "properties": {"name": "Kids Temple Public School"}, "geometry": {"type": "Point", "coordinates": [77.1214922, 28.7385379]}}, {"type": "Feature", "properties": {"name": "Alok Bharti Public School"}, "geometry": {"type": "Point", "coordinates": [77.128777, 28.7364974]}}, {"type": "Feature", "properties": {"name": "DAV Public School"}, "geometry": {"type": "Point", "coordinates": [77.1727645, 28.5743511]}}, {"type": "Feature", "properties": {"name": "Kendriya Vidyalaya"}, "geometry": {"type": "Point", "coordinates": [77.1638274, 28.5721181]}}, {"type": "Feature", "properties": {"name": "MC Primary School J-Block Sec-16 Rohini"}, "geometry": {"type": "Point", "coordinates": [77.1306159, 28.7392311]}}, {"type": "Feature", "properties": {"name": "Delhi International Public School"}, "geometry": {"type": "Point", "coordinates": [77.1291872, 28.7367974]}}, {"type": "Feature", "properties": {"name": "Modern Delhi International School"}, "geometry": {"type": "Point", "coordinates": [77.3361157, 28.412628]}}, {"type": "Feature", "properties": {"name": "Rockfield Public School"}, "geometry": {"type": "Point", "coordinates": [77.1248235, 28.734744]}}, {"type": "Feature", "properties": {"name": "Ryan Shalom Montessori"}, "geometry": {"type": "Point", "coordinates": [77.1241352, 28.7346232]}}, {"type": "Feature", "properties": {"name": "Government Boys Senior Secondary School"}, "geometry": {"type": "Point", "coordinates": [77.2335349, 28.5730899]}}, {"type": "Feature", "properties": {"name": ""}, "geometry": {"type": "Point", "coordinates": [77.2329222, 28.6052898]}}, {"type": "Feature", "properties": {"name": "Jindal Public School"}, "geometry": {"type": "Point", "coordinates": [77.3305192, 28.6720027]}}, {"type": "Feature", "properties": {"name": "Fulwari Play School"}, "geometry": {"type": "Point", "coordinates": [77.32234, 28.659489]}}, {"type": "Feature", "properties": {"name": "Kaviraj Khazan Chand Quetta Dayachand Arya Vedic Senior Secondary School"}, "geometry": {"type": "Point", "coordinates": [77.2523949, 28.5866396]}}, {"type": "Feature", "properties": {"name": "s6 BHIM Singh ni was"}, "geometry": {"type": "Point", "coordinates": [77.218045, 28.5309957]}}, {"type": "Feature", "properties": {"name": "SH Computer Education"}, "geometry": {"type": "Point", "coordinates": [77.2170319, 28.5309108]}}, {"type": "Feature", "properties": {"name": "Sant Nirankari"}, "geometry": {"type": "Point", "coordinates": [77.2177052, 28.535831]}}, {"type": "Feature", "properties": {"name": "Swarn public school"}, "geometry": {"type": "Point", "coordinates": [77.2185763, 28.5330124]}}, {"type": "Feature", "properties": {"name": "swarn public school"}, "geometry": {"type": "Point", "coordinates": [77.219553, 28.5332175]}}, {"type": "Feature", "properties": {"name": ""}, "geometry": {"type": "Point", "coordinates": [77.2281724, 28.5191896]}}, {"type": "Feature", "properties": {"name": "Government Boys Senior Secondary School"}, "geometry": {"type": "Point", "coordinates": [77.1389634, 28.4899855]}}, {"type": "Feature", "properties": {"name": "Lieutenant Atul Kataria School"}, "geometry": {"type": "Point", "coordinates": [77.0337175, 28.4783458]}}, {"type": "Feature", "properties": {"name": "Government Sarvoday Bal Vidyalaya"}, "geometry": {"type": "Point", "coordinates": [77.2303905, 28.6327017]}}, {"type": "Feature", "properties": {"name": ""}, "geometry": {"type": "Point", "coordinates": [77.2842459, 28.6707436]}}, {"type": "Feature", "properties": {"name": "Kendriya Vidyalaya"}, "geometry": {"type": "Point", "coordinates": [77.2239646, 28.5204901]}}, {"type": "Feature", "properties": {"name": "SDMC Primary Model School"}, "geometry": {"type": "Point", "coordinates": [77.2397878, 28.5768012]}}, {"type": "Feature", "properties": {"name": ""}, "geometry": {"type": "Point", "coordinates": [77.2407455, 28.5768608]}}, {"type": "Feature", "properties": {"name": "Saint Mary's School"}, "geometry": {"type": "Point", "coordinates": [77.2061624, 28.5051676]}}, {"type": "Feature", "properties": {"name": ""}, "geometry": {"type": "Point", "coordinates": [77.3025188, 28.5323755]}}, {"type": "Feature", "properties": {"name": "Government Sarvodaya Vidyalaya"}, "geometry": {"type": "Point", "coordinates": [77.2159162, 28.6959475]}}, {"type": "Feature", "properties": {"name": "SDMC Primary Coeducational School"}, "geometry": {"type": "Point", "coordinates": [77.248199, 28.5695905]}}, {"type": "Feature", "properties": {"name": "Madarasa Millat-ul-Islam"}, "geometry": {"type": "Point", "coordinates": [77.264387, 28.5433478]}}, {"type": "Feature", "properties": {"name": "Swami Hariharanand Public School"}, "geometry": {"type": "Point", "coordinates": [77.2403662, 28.6627534]}}, {"type": "Feature", "properties": {"name": "Rajkiya Sarvodaya Bal Vidyalaya"}, "geometry": {"type": "Point", "coordinates": [77.3185994, 28.6138254]}}, {"type": "Feature", "properties": {"name": ""}, "geometry": {"type": "Point", "coordinates": [77.1896796, 28.5238936]}}, {"type": "Feature", "properties": {"name": "Government Sarvodaya Vidyalaya"}, "geometry": {"type": "Point", "coordinates": [77.1841549, 28.4588686]}}, {"type": "Feature", "properties": {"name": "Samvad Shala"}, "geometry": {"type": "Point", "coordinates": [77.3133462, 28.710528]}}, {"type": "Feature", "properties": {"name": "Decent Public School"}, "geometry": {"type": "Point", "coordinates": [77.1072435, 28.7069273]}}, {"type": "Feature", "properties": {"name": "Ramanujan Sarvodaya Kanya Vidyalaya"}, "geometry": {"type": "Point", "coordinates": [77.1799665, 28.5231246]}}, {"type": "Feature", "properties": {"name": ""}, "geometry": {"type": "Point", "coordinates": [77.1773673, 28.5229593]}}, {"type": "Feature", "properties": {"name": "Bhatnagar International School"}, "geometry": {"type": "Point", "coordinates": [77.1540449, 28.5295429]}}, {"type": "Feature", "properties": {"name": "Masjid-e-Quba Madrasa Islamia"}, "geometry": {"type": "Point", "coordinates": [77.1899811, 28.5806388]}}, {"type": "Feature", "properties": {"name": ""}, "geometry": {"type": "Point", "coordinates": [77.2134518, 28.5369319]}}, {"type": "Feature", "properties": {"name": "Manav Mangal Public School"}, "geometry": {"type": "Point", "coordinates": [77.2954384, 28.4986996]}}, {"type": "Feature", "properties": {"name": "Darul Qur'an Madrasa Abdurrahman Tahfizul Qur'an"}, "geometry": {"type": "Point", "coordinates": [77.2143363, 28.5295756]}}, {"type": "Feature", "properties": {"name": "Government Coeducational Senior Secondary School"}, "geometry": {"type": "Point", "coordinates": [77.2391399, 28.5762957]}}, {"type": "Feature", "properties": {"name": "India international secondary school"}, "geometry": {"type": "Point", "coordinates": [77.2869559, 28.7172505]}}, {"type": "Feature", "properties": {"name": "Kendriya Vidyalaya No.2 Sohna Road"}, "geometry": {"type": "Point", "coordinates": [77.0291583, 28.43885]}}, {"type": "Feature", "properties": {"name": "Shaheed Captain Anuj Nayyar Government Boys Senior Secondary School"}, "geometry": {"type": "Point", "coordinates": [77.0927024, 28.6255941]}}, {"type": "Feature", "properties": {"name": "Kendriya Vidyalaya"}, "geometry": {"type": "Point", "coordinates": [77.1779814, 28.5610558]}}, {"type": "Feature", "properties": {"name": ""}, "geometry": {"type": "Point", "coordinates": [77.1189585, 28.7117425]}}, {"type": "Feature", "properties": {"name": "Green View Public School"}, "geometry": {"type": "Point", "coordinates": [77.0018985, 28.6043448]}}, {"type": "Feature", "properties": {"name": "GOVERNMENT SCHOOL"}, "geometry": {"type": "Point", "coordinates": [77.1444826, 28.4244248]}}, {"type": "Feature", "properties": {"name": "MCD School"}, "geometry": {"type": "Point", "coordinates": [77.2757333, 28.6327723]}}, {"type": "Feature", "properties": {"name": "National Victor Public School"}, "geometry": {"type": "Point", "coordinates": [77.3118241, 28.631544]}}, {"type": "Feature", "properties": {"name": "DBSE"}, "geometry": {"type": "Point", "coordinates": [77.3121384, 28.6307892]}}, {"type": "Feature", "properties": {"name": "Vivekanand International School"}, "geometry": {"type": "Point", "coordinates": [77.3140766, 28.6319004]}}, {"type": "Feature", "properties": {"name": "MCD school"}, "geometry": {"type": "Point", "coordinates": [77.1286156, 28.7330379]}}, {"type": "Feature", "properties": {"name": "Sarvodaya Kanya Vidyalaya"}, "geometry": {"type": "Point", "coordinates": [77.3126495, 28.6807221]}}, {"type": "Feature", "properties": {"name": "Bloomfield Public School"}, "geometry": {"type": "Point", "coordinates": [77.3148395, 28.6816308]}}, {"type": "Feature", "properties": {"name": "East Delhi M.C Primary School"}, "geometry": {"type": "Point", "coordinates": [77.3088704, 28.6787962]}}, {"type": "Feature", "properties": {"name": "Govt Boys Senior Secondary School"}, "geometry": {"type": "Point", "coordinates": [77.3127674, 28.6807704]}}, {"type": "Feature", "properties": {"name": "Greenway Modern School"}, "geometry": {"type": "Point", "coordinates": [77.315704, 28.6822842]}}, {"type": "Feature", "properties": {"name": ""}, "geometry": {"type": "Point", "coordinates": [77.2359195, 28.6589497]}}, {"type": "Feature", "properties": {"name": ""}, "geometry": {"type": "Point", "coordinates": [77.3155184, 28.6351719]}}, {"type": "Feature", "properties": {"name": "Rajkiya Sarvodaya Kanya Vidyalaya (Jeeja Bai)"}, "geometry": {"type": "Point", "coordinates": [77.3194623, 28.6147038]}}, {"type": "Feature", "properties": {"name": "Hans Raj Smarak SR Sec School"}, "geometry": {"type": "Point", "coordinates": [77.3179445, 28.6815139]}}, {"type": "Feature", "properties": {"name": "Vaidic Public School"}, "geometry": {"type": "Point", "coordinates": [77.3112651, 28.6224543]}}, {"type": "Feature", "properties": {"name": "Baba Banda Singh Bahadur Memorial Secondary School"}, "geometry": {"type": "Point", "coordinates": [77.1816408, 28.5217944]}}, {"type": "Feature", "properties": {"name": "Saint John's School"}, "geometry": {"type": "Point", "coordinates": [77.1816816, 28.5215056]}}, {"type": "Feature", "properties": {"name": "Bapu Public School"}, "geometry": {"type": "Point", "coordinates": [77.2892876, 28.6133314]}}, {"type": "Feature", "properties": {"name": "New Suriya Public school"}, "geometry": {"type": "Point", "coordinates": [77.2422016, 28.5043828]}}, {"type": "Feature", "properties": {"name": "S B Public School"}, "geometry": {"type": "Point", "coordinates": [77.0875482, 28.473313]}}, {"type": "Feature", "properties": {"name": "Royal Convent School"}, "geometry": {"type": "Point", "coordinates": [77.0896041, 28.4727485]}}, {"type": "Feature", "properties": {"name": "The Ardee School"}, "geometry": {"type": "Point", "coordinates": [77.2757538, 28.5606026]}}, {"type": "Feature", "properties": {"name": "TCV Day School, Samyeling"}, "geometry": {"type": "Point", "coordinates": [77.2277608, 28.7018344]}}, {"type": "Feature", "properties": {"name": "New Horizon School"}, "geometry": {"type": "Point", "coordinates": [77.2477028, 28.5947172]}}, {"type": "Feature", "properties": {"name": "Native Public School"}, "geometry": {"type": "Point", "coordinates": [77.1702275, 28.7246014]}}, {"type": "Feature", "properties": {"name": "Navyug School"}, "geometry": {"type": "Point", "coordinates": [77.2165688, 28.5872412]}}, {"type": "Feature", "properties": {"name": "Satyawati Sood Arya Girls senior secondary school"}, "geometry": {"type": "Point", "coordinates": [77.2516215, 28.5870203]}}, {"type": "Feature", "properties": {"name": "Nios Study center"}, "geometry": {"type": "Point", "coordinates": [77.2514966, 28.5871452]}}, {"type": "Feature", "properties": {"name": "YMCA Public School"}, "geometry": {"type": "Point", "coordinates": [77.2511171, 28.5872431]}}, {"type": "Feature", "properties": {"name": "Government Primary School"}, "geometry": {"type": "Point", "coordinates": [77.0842019, 28.4792729]}}, {"type": "Feature", "properties": {"name": "Modern Education Public School"}, "geometry": {"type": "Point", "coordinates": [77.1633984, 28.7305602]}}, {"type": "Feature", "properties": {"name": "My Play School"}, "geometry": {"type": "Point", "coordinates": [77.159657, 28.7072002]}}, {"type": "Feature", "properties": {"name": "Sharda Public School"}, "geometry": {"type": "Point", "coordinates": [77.1681427, 28.7202814]}}, {"type": "Feature", "properties": {"name": "Aadyant"}, "geometry": {"type": "Point", "coordinates": [77.1498449, 28.5324614]}}, {"type": "Feature", "properties": {"name": "Saint Model Public School"}, "geometry": {"type": "Point", "coordinates": [77.1682228, 28.7243163]}}, {"type": "Feature", "properties": {"name": "Arya Hansraj Model School"}, "geometry": {"type": "Point", "coordinates": [77.1670311, 28.7335313]}}, {"type": "Feature", "properties": {"name": ""}, "geometry": {"type": "Point", "coordinates": [77.1706397, 28.7209109]}}, {"type": "Feature", "properties": {"name": "Madarsa Daruluoom Hamidia"}, "geometry": {"type": "Point", "coordinates": [77.1733823, 28.7289581]}}, {"type": "Feature", "properties": {"name": "Darshan Academy"}, "geometry": {"type": "Point", "coordinates": [77.1943027, 28.6943452]}}, {"type": "Feature", "properties": {"name": "Pathways"}, "geometry": {"type": "Point", "coordinates": [77.1059569, 28.4295661]}}, {"type": "Feature", "properties": {"name": ""}, "geometry": {"type": "Point", "coordinates": [77.1627691, 28.7406356]}}, {"type": "Feature", "properties": {"name": ""}, "geometry": {"type": "Point", "coordinates": [77.1611524, 28.7400888]}}, {"type": "Feature", "properties": {"name": ""}, "geometry": {"type": "Point", "coordinates": [77.2476036, 28.5947114]}}, {"type": "Feature", "properties": {"name": ""}, "geometry": {"type": "Point", "coordinates": [77.1631194, 28.7551751]}}, {"type": "Feature", "properties": {"name": ""}, "geometry": {"type": "Point", "coordinates": [77.1612643, 28.7521862]}}, {"type": "Feature", "properties": {"name": "Sky Public School"}, "geometry": {"type": "Point", "coordinates": [77.1606342, 28.7438961]}}, {"type": "Feature", "properties": {"name": ""}, "geometry": {"type": "Point", "coordinates": [77.1986814, 28.5471568]}}, {"type": "Feature", "properties": {"name": "Jingle Bell School"}, "geometry": {"type": "Point", "coordinates": [77.1778744, 28.7201841]}}, {"type": "Feature", "properties": {"name": "Aryan Model Public School"}, "geometry": {"type": "Point", "coordinates": [77.1611125, 28.7466071]}}, {"type": "Feature", "properties": {"name": ""}, "geometry": {"type": "Point", "coordinates": [77.1707573, 28.727873]}}, {"type": "Feature", "properties": {"name": ""}, "geometry": {"type": "Point", "coordinates": [77.0288535, 28.5445054]}}, {"type": "Feature", "properties": {"name": "Molarband school"}, "geometry": {"type": "Point", "coordinates": [77.3260089, 28.4945193]}}, {"type": "Feature", "properties": {"name": "New bal vaishali public school"}, "geometry": {"type": "Point", "coordinates": [77.3260786, 28.4930183]}}, {"type": "Feature", "properties": {"name": "Government school"}, "geometry": {"type": "Point", "coordinates": [77.3046099, 28.4982037]}}, {"type": "Feature", "properties": {"name": "Adarsh Bal Vidyalaya"}, "geometry": {"type": "Point", "coordinates": [77.274201, 28.6304676]}}, {"type": "Feature", "properties": {"name": "Manisha public school"}, "geometry": {"type": "Point", "coordinates": [77.2737215, 28.6302337]}}, {"type": "Feature", "properties": {"name": "M C D primary co-ed model school"}, "geometry": {"type": "Point", "coordinates": [77.2440823, 28.5853022]}}, {"type": "Feature", "properties": {"name": "Govt girls senior secondary school no . 3"}, "geometry": {"type": "Point", "coordinates": [77.3256146, 28.4946147]}}, {"type": "Feature", "properties": {"name": "Sarvodaya bal vidyalaya no. 1"}, "geometry": {"type": "Point", "coordinates": [77.3256489, 28.4945557]}}, {"type": "Feature", "properties": {"name": "Einsteins play school"}, "geometry": {"type": "Point", "coordinates": [77.2734518, 28.6300144]}}, {"type": "Feature", "properties": {"name": "Jamia Milia Islamia School ground"}, "geometry": {"type": "Point", "coordinates": [77.2835401, 28.5638054]}}, {"type": "Feature", "properties": {"name": "Deshraj public school"}, "geometry": {"type": "Point", "coordinates": [77.1076037, 28.5116999]}}, {"type": "Feature", "properties": {"name": "KENDRIYA VIDYALAYA SHAHDARA"}, "geometry": {"type": "Point", "coordinates": [77.2873607, 28.6863497]}}, {"type": "Feature", "properties": {"name": "Mission public school"}, "geometry": {"type": "Point", "coordinates": [77.057532, 28.5996273]}}, {"type": "Feature", "properties": {"name": "xtreme tennis academy"}, "geometry": {"type": "Point", "coordinates": [77.0512983, 28.6037753]}}, {"type": "Feature", "properties": {"name": "Jinwani public school"}, "geometry": {"type": "Point", "coordinates": [77.049833, 28.6000308]}}, {"type": "Feature", "properties": {"name": ""}, "geometry": {"type": "Point", "coordinates": [77.2069986, 28.6636]}}, {"type": "Feature", "properties": {"name": "New Sanik Public School"}, "geometry": {"type": "Point", "coordinates": [77.068435, 28.6071489]}}, {"type": "Feature", "properties": {"name": "Learning Angels Play School"}, "geometry": {"type": "Point", "coordinates": [77.1217797, 28.5944407]}}, {"type": "Feature", "properties": {"name": "G.G.S.S.S. VIVEK VIHAR PHASE 2"}, "geometry": {"type": "Point", "coordinates": [77.3073786, 28.6696109]}}, {"type": "Feature", "properties": {"name": "Avinash Chandra Chadha Central Savoday Bal School"}, "geometry": {"type": "Point", "coordinates": [77.3073786, 28.6696109]}}, {"type": "Feature", "properties": {"name": "Govt. Boys Secondary School"}, "geometry": {"type": "Point", "coordinates": [77.3094983, 28.6698721]}}, {"type": "Feature", "properties": {"name": "Greenway Modern School"}, "geometry": {"type": "Point", "coordinates": [77.3090614, 28.6699213]}}, {"type": "Feature", "properties": {"name": "RAJKIYA PRATIBHA VIKAS VIDYALAYA"}, "geometry": {"type": "Point", "coordinates": [77.3087445, 28.6660091]}}, {"type": "Feature", "properties": {"name": "DR. B.R. AMBEDKAR SCHOOL OF DPECIALISED EXCELLENCE"}, "geometry": {"type": "Point", "coordinates": [77.309429, 28.6658495]}}, {"type": "Feature", "properties": {"name": "Carmel Convent School"}, "geometry": {"type": "Point", "coordinates": [77.1881167, 28.6013333]}}, {"type": "Feature", "properties": {"name": "Arena Animation"}, "geometry": {"type": "Point", "coordinates": [77.2963033, 28.6419638]}}, {"type": "Feature", "properties": {"name": "MCD Primary school No. 2"}, "geometry": {"type": "Point", "coordinates": [77.2351102, 28.5249774]}}, {"type": "Feature", "properties": {"name": "Government Girl Middle School"}, "geometry": {"type": "Point", "coordinates": [77.0664505, 28.4277612]}}, {"type": "Feature", "properties": {"name": "Government Model Sanskriti Primary School"}, "geometry": {"type": "Point", "coordinates": [77.0664871, 28.4277435]}}, {"type": "Feature", "properties": {"name": "Hemani Public School"}, "geometry": {"type": "Point", "coordinates": [77.2475193, 28.5684003]}}, {"type": "Feature", "properties": {"name": "Lakhi Public School"}, "geometry": {"type": "Point", "coordinates": [77.2939379, 28.626934]}}, {"type": "Feature", "properties": {"name": "The Neev School"}, "geometry": {"type": "Point", "coordinates": [77.2911355, 28.6229288]}}, {"type": "Feature", "properties": {"name": "Mamta Public School"}, "geometry": {"type": "Point", "coordinates": [77.3166492, 28.6004549]}}, {"type": "Feature", "properties": {"name": "Bal Bhavan Public School"}, "geometry": {"type": "Point", "coordinates": [77.3025948, 28.6187992]}}, {"type": "Feature", "properties": {"name": "Madrassa Jamia Islamia Latifia"}, "geometry": {"type": "Point", "coordinates": [77.2911697, 28.6239305]}}, {"type": "Feature", "properties": {"name": "K.S.K Academy"}, "geometry": {"type": "Point", "coordinates": [77.2476048, 28.5016344]}}, {"type": "Feature", "properties": {"name": "L.N. Girdharri Lal"}, "geometry": {"type": "Point", "coordinates": [77.2237125, 28.6587675]}}, {"type": "Feature", "properties": {"name": "Durgabai Deshmukh Balwadi"}, "geometry": {"type": "Point", "coordinates": [77.2115618, 28.692024]}}, {"type": "Feature", "properties": {"name": "Usha Ganguli Shishu Vihar"}, "geometry": {"type": "Point", "coordinates": [77.2116113, 28.6921196]}}, {"type": "Feature", "properties": {"name": "Little Kingdom"}, "geometry": {"type": "Point", "coordinates": [77.1228826, 28.7059898]}}, {"type": "Feature", "properties": {"name": "School Entrance"}, "geometry": {"type": "Point", "coordinates": [77.0164121, 28.8357081]}}, {"type": "Feature", "properties": {"name": "Asha School Delhi Cantt."}, "geometry": {"type": "Point", "coordinates": [77.1379852, 28.6103924]}}, {"type": "Feature", "properties": {"name": "Modern Green Valley public school"}, "geometry": {"type": "Point", "coordinates": [77.2239141, 28.4970991]}}, {"type": "Feature", "properties": {"name": "Surjit Wasu Memorial Charitable school"}, "geometry": {"type": "Point", "coordinates": [77.220101, 28.4957034]}}, {"type": "Feature", "properties": {"name": "Experimental Basic School"}, "geometry": {"type": "Point", "coordinates": [77.2097821, 28.6942624]}}, {"type": "Feature", "properties": {"name": "Pratibha Vidyalaya"}, "geometry": {"type": "Point", "coordinates": [77.2307224, 28.5724903]}}, {"type": "Feature", "properties": {"name": "M.S. Tutorial"}, "geometry": {"type": "Point", "coordinates": [77.3386733, 28.6449294]}}, {"type": "Feature", "properties": {"name": "Jaishankar Memorial Centre"}, "geometry": {"type": "Point", "coordinates": [77.3002293, 28.5379491]}}, {"type": "Feature", "properties": {"name": "Dr B.R. Ambedkar School of Specialised Excellence (ASOSE), IP Extension"}, "geometry": {"type": "Point", "coordinates": [77.3141765, 28.631551]}}, {"type": "Feature", "properties": {"name": "Rajkiya Pratibha Vikas Vidyalaya ,I.P. Extension"}, "geometry": {"type": "Point", "coordinates": [77.3144956, 28.6315581]}}, {"type": "Feature", "properties": {"name": "KENDRIYA VIDYALAYA"}, "geometry": {"type": "Point", "coordinates": [77.225629, 28.5569422]}}, {"type": "Feature", "properties": {"name": "Government Sarvodaya Bal Vidyalaya"}, "geometry": {"type": "Point", "coordinates": [77.3033963, 28.6175093]}}, {"type": "Feature", "properties": {"name": "Government Sarvodaya Kanya Vidyalaya"}, "geometry": {"type": "Point", "coordinates": [77.3035273, 28.6173633]}}, {"type": "Feature", "properties": {"name": "Municipal Corporation Primary School"}, "geometry": {"type": "Point", "coordinates": [77.2027529, 28.6799307]}}, {"type": "Feature", "properties": {"name": "\u0928\u093f\u0917\u092e \u092a\u094d\u0930\u093e\u0925\u092e\u093f\u0915 \u0935\u093f\u0926\u094d\u092f\u093e\u0932\u092f"}, "geometry": {"type": "Point", "coordinates": [77.2020054, 28.6800535]}}, {"type": "Feature", "properties": {"name": "Government Model Senior Secondary School, Wazirabad"}, "geometry": {"type": "Point", "coordinates": [77.0798032, 28.4345697]}}, {"type": "Feature", "properties": {"name": "Government Boys Model Sanskriti Primary School, Wazirabad"}, "geometry": {"type": "Point", "coordinates": [77.0803974, 28.4343321]}}, {"type": "Feature", "properties": {"name": "Bright Future Point"}, "geometry": {"type": "Point", "coordinates": [77.2163072, 28.5489881]}}, {"type": "Feature", "properties": {"name": "German school"}, "geometry": {"type": "Point", "coordinates": [77.1802814, 28.594099]}}, {"type": "Feature", "properties": {"name": "Cosmos Public School"}, "geometry": {"type": "Point", "coordinates": [77.3145291, 28.601763]}}, {"type": "Feature", "properties": {"name": "Sarvodaya Bal Vidyalaya, Tikri Khurd"}, "geometry": {"type": "Point", "coordinates": [77.1283236, 28.8335293]}}, {"type": "Feature", "properties": {"name": "Pole Star"}, "geometry": {"type": "Point", "coordinates": [77.0969816, 28.6986861]}}, {"type": "Feature", "properties": {"name": "AVN International School"}, "geometry": {"type": "Point", "coordinates": [77.3352273, 28.6994551]}}, {"type": "Feature", "properties": {"name": "Diamond Bloom Public School"}, "geometry": {"type": "Point", "coordinates": [77.3372083, 28.6991045]}}, {"type": "Feature", "properties": {"name": ""}, "geometry": {"type": "Point", "coordinates": [77.2840569, 28.6139792]}}, {"type": "Feature", "properties": {"name": "Mac Marvels Montessori"}, "geometry": {"type": "Point", "coordinates": [77.2976485, 28.6347567]}}, {"type": "Feature", "properties": {"name": "Central Baptist Church Primary school"}, "geometry": {"type": "Point", "coordinates": [77.2336847, 28.6564137]}}, {"type": "Feature", "properties": {"name": "Masoom Special School"}, "geometry": {"type": "Point", "coordinates": [77.221249, 28.7069256]}}, {"type": "Feature", "properties": {"name": "Virendra Public School"}, "geometry": {"type": "Point", "coordinates": [77.220302, 28.6956505]}}, {"type": "Feature", "properties": {"name": "Holy Angel Public School"}, "geometry": {"type": "Point", "coordinates": [77.31833, 28.4975864]}}, {"type": "Feature", "properties": {"name": "Bal Bhavan Public School"}, "geometry": {"type": "Point", "coordinates": [77.2797632, 28.635347]}}, {"type": "Feature", "properties": {"name": "Lovely Public Sr. Sec. School"}, "geometry": {"type": "Point", "coordinates": [77.2781236, 28.6410444]}}, {"type": "Feature", "properties": {"name": ""}, "geometry": {"type": "Point", "coordinates": [77.181602, 28.5031578]}}, {"type": "Feature", "properties": {"name": "D.M.G. play school"}, "geometry": {"type": "Point", "coordinates": [77.1931482, 28.5628266]}}, {"type": "Feature", "properties": {"name": "Govt. Sarvodaya Bal vidyalaya"}, "geometry": {"type": "Point", "coordinates": [77.07325, 28.6543549]}}, {"type": "Feature", "properties": {"name": "MS public school"}, "geometry": {"type": "Point", "coordinates": [77.0690139, 28.6726466]}}, {"type": "Feature", "properties": {"name": "HBM PUBLIC SCHOOL"}, "geometry": {"type": "Point", "coordinates": [77.0689249, 28.6708005]}}, {"type": "Feature", "properties": {"name": "CRS public school"}, "geometry": {"type": "Point", "coordinates": [77.0698692, 28.6724869]}}, {"type": "Feature", "properties": {"name": "Government Primary School"}, "geometry": {"type": "Point", "coordinates": [77.2181268, 28.713982]}}, {"type": "Feature", "properties": {"name": "Sant Nirankari Public School"}, "geometry": {"type": "Point", "coordinates": [77.2096575, 28.7154208]}}, {"type": "Feature", "properties": {"name": "Sant Nirankari Sr Sec School Girls and Boys"}, "geometry": {"type": "Point", "coordinates": [77.2089194, 28.7157137]}}]}