{"type": "FeatureCollection", "features": [{"type": "Feature", "properties": {"osm_id": 1472290462, "osm_type": "node", "addr:street": "Kirlampudi Layout, Chinna WaltairVisakhapatnam(Vizag), Andhra Pradesh", "amenity": "school", "name": "Siva Sivani Public School"}, "geometry": {"type": "Point", "coordinates": [83.3315061, 17.7209547]}}, {"type": "Feature", "properties": {"osm_id": 4353502490, "osm_type": "node", "amenity": "school", "name": "Systems Design"}, "geometry": {"type": "Point", "coordinates": [83.3270212, 17.7230565]}}, {"type": "Feature", "properties": {"osm_id": 5087013673, "osm_type": "node", "amenity": "school"}, "geometry": {"type": "Point", "coordinates": [83.2206898, 17.6872274]}}, {"type": "Feature", "properties": {"osm_id": 6629019201, "osm_type": "node", "amenity": "school", "name": "NBM law college"}, "geometry": {"type": "Point", "coordinates": [83.3136878, 17.7135912]}}, {"type": "Feature", "properties": {"osm_id": 6629380280, "osm_type": "node", "amenity": "school", "name": "Bethany school"}, "geometry": {"type": "Point", "coordinates": [83.3137921, 17.7105591]}}, {"type": "Feature", "properties": {"osm_id": 6822830986, "osm_type": "node", "addr:postcode": "530016", "amenity": "school", "name": "Narayana Em school"}, "geometry": {"type": "Point", "coordinates": [83.3004644, 17.7360659]}}, {"type": "Feature", "properties": {"osm_id": 11568880937, "osm_type": "node", "amenity": "school", "check_date": "2024-01-30", "name": "MPP school"}, "geometry": {"type": "Point", "coordinates": [83.2163785, 17.777915]}}, {"type": "Feature", "properties": {"osm_id": 11585567239, "osm_type": "node", "amenity": "school", "check_date": "2024-02-05", "name": "Ravindra Bharathi School"}, "geometry": {"type": "Point", "coordinates": [83.2096569, 17.79843]}}, {"type": "Feature", "properties": {"osm_id": 11586128072, "osm_type": "node", "amenity": "school", "description": "school", "education": "school", "name": "Sri Chaitanya Techno School"}, "geometry": {"type": "Point", "coordinates": [83.3287958, 17.7428792]}}, {"type": "Feature", "properties": {"osm_id": 11688050181, "osm_type": "node", "amenity": "school", "name": "Sri Viswa School"}, "geometry": {"type": "Point", "coordinates": [83.3058704, 17.739898]}}, {"type": "Feature", "properties": {"osm_id": 11741089415, "osm_type": "node", "amenity": "school", "check_date": "2024-03-18", "name": "Dr BR Ambedkar Gurukulam"}, "geometry": {"type": "Point", "coordinates": [83.2812434, 17.7695657]}}, {"type": "Feature", "properties": {"osm_id": 11851269476, "osm_type": "node", "amenity": "school", "name": "Sri Chaitanya Techno School"}, "geometry": {"type": "Point", "coordinates": [83.2375401, 17.7413557]}}, {"type": "Feature", "properties": {"osm_id": 12104314145, "osm_type": "node", "addr:city": "Visakhapatnam (Outskirts)", "addr:district": "Visakhapatnam (Urban)", "addr:postcode": "530040", "addr:street": "Adarsh Nagar 8th Street", "amenity": "school", "grades": "3-14", "name": "Sri Krishna Grammar School", "operator": "Sree Krishna Grmmar School", "operator:type": "private", "religion": "none", "website": "https://content.jdmagicbox.com/comp/visakhapatnam/h5/0891px891.x891.000576454779.p6h5/catalogue/sri-krishna-grammar-school-adarsha-nagar-visakhapatnam-schools-hd6bgh-250.jpg"}, "geometry": {"type": "Point", "coordinates": [83.3296454, 17.7639754]}}, {"type": "Feature", "properties": {"osm_id": 12104314147, "osm_type": "node", "addr:city": "Visakhapatnam (Outskirts)", "addr:district": "Visakhapatnam (Urban)", "addr:postcode": "530040", "addr:street": "Adarsh Nagar 4th Street", "amenity": "school", "grades": "3-16", "name": "Sree Arunodaya School", "operator": "Sree Arunodaya School", "operator:type": "private", "religion": "none", "website": "https://content.jdmagicbox.com/comp/visakhapatnam/p6/0891px891.x891.110719130911.l6p6/catalogue/sri-arunodaya-english-medium-school-adarsha-nagar-visakhapatnam-schools-1oim439-250.jpg"}, "geometry": {"type": "Point", "coordinates": [83.3309447, 17.7632507]}}, {"type": "Feature", "properties": {"osm_id": 12171321612, "osm_type": "node", "addr:city": "Visakhapatnam", "addr:district": "Visakhapatnam (Urban)", "addr:housenumber": "Adharsh Nagar road", "addr:postcode": "530040", "addr:street": "Adharsh Nagar", "amenity": "school", "name": "Sree krishna Grammar School"}, "geometry": {"type": "Point", "coordinates": [83.3294722, 17.7637595]}}, {"type": "Feature", "properties": {"osm_id": 12171321613, "osm_type": "node", "addr:city": "Visakhapatnam", "addr:district": "Visakhapatnam (Urban)", "addr:housenumber": "Adharsh Nagar", "addr:postcode": "530040", "addr:street": "Adharsh Nagar 10th Street", "amenity": "school", "name": "Sree Krishna Grammar School"}, "geometry": {"type": "Point", "coordinates": [83.3293192, 17.7656345]}}, {"type": "Feature", "properties": {"osm_id": 12171321614, "osm_type": "node", "addr:housenumber": "Adharsh Nagar", "amenity": "school", "name": "Sree Krishna Grammar School"}, "geometry": {"type": "Point", "coordinates": [83.3292387, 17.7654285]}}, {"type": "Feature", "properties": {"osm_id": 12254690661, "osm_type": "node", "amenity": "school"}, "geometry": {"type": "Point", "coordinates": [83.3158903, 17.7657497]}}, {"type": "Feature", "properties": {"osm_id": 12254690668, "osm_type": "node", "amenity": "school"}, "geometry": {"type": "Point", "coordinates": [83.3168957, 17.7666473]}}, {"type": "Feature", "properties": {"osm_id": 12470766366, "osm_type": "node", "amenity": "school", "name": "Rightway School"}, "geometry": {"type": "Point", "coordinates": [83.2700271, 17.7349954]}}, {"type": "Feature", "properties": {"osm_id": 12470766407, "osm_type": "node", "amenity": "school", "name": "Sri Vagdevi School"}, "geometry": {"type": "Point", "coordinates": [83.270296, 17.7354555]}}, {"type": "Feature", "properties": {"osm_id": 12614929412, "osm_type": "node", "amenity": "school", "check_date": "2025-02-24", "name": "GVMC Primary School"}, "geometry": {"type": "Point", "coordinates": [83.2785659, 17.7313197]}}, {"type": "Feature", "properties": {"osm_id": 12711070098, "osm_type": "node", "amenity": "school", "check_date": "2025-03-30", "name": "Delhi Public School"}, "geometry": {"type": "Point", "coordinates": [83.2396113, 17.7425283]}}, {"type": "Feature", "properties": {"osm_id": 12986990370, "osm_type": "node", "amenity": "school", "name": "The School of Autism"}, "geometry": {"type": "Point", "coordinates": [83.3310416, 17.7437218]}}, {"type": "Feature", "properties": {"osm_id": 13179825669, "osm_type": "node", "amenity": "school", "name": "Government School"}, "geometry": {"type": "Point", "coordinates": [83.2426355, 17.7400572]}}, {"type": "Feature", "properties": {"osm_id": 13314245140, "osm_type": "node", "amenity": "school", "education": "school", "name": "Bal Vikasa Foundation Bridge School"}, "geometry": {"type": "Point", "coordinates": [83.3015825, 17.6995098]}}, {"type": "Feature", "properties": {"osm_id": 13319047240, "osm_type": "node", "amenity": "school", "education": "school", "name": "Sri Gayatri Vidya Nilayam"}, "geometry": {"type": "Point", "coordinates": [83.2513306, 17.7499395]}}, {"type": "Feature", "properties": {"osm_id": 13319047246, "osm_type": "node", "amenity": "school", "education": "school", "name": "PEN School"}, "geometry": {"type": "Point", "coordinates": [83.2525354, 17.7497761]}}, {"type": "Feature", "properties": {"osm_id": 13429829515, "osm_type": "node", "amenity": "school", "check_date": "2026-01-04", "education": "school", "name": "PEN School"}, "geometry": {"type": "Point", "coordinates": [83.3011546, 17.7149959]}}, {"type": "Feature", "properties": {"osm_id": 13429892345, "osm_type": "node", "amenity": "school", "check_date": "2026-01-04", "education": "school", "name": "P.E.N. School", "official_name": "Pereira English Noble School"}, "geometry": {"type": "Point", "coordinates": [83.3008254, 17.7157107]}}, {"type": "Feature", "properties": {"osm_id": 13800472528, "osm_type": "node", "amenity": "school", "check_date": "2026-05-06", "name": "GVMC Primary School"}, "geometry": {"type": "Point", "coordinates": [83.3020386, 17.7282409]}}, {"type": "Feature", "properties": {"osm_id": 133762879, "osm_type": "way", "addr:postcode": "530003", "addr:street": "CBM COMPOUND, VISAKHAPATNAM", "amenity": "school", "barrier": "wall", "name": "Timpany School"}, "geometry": {"type": "Point", "coordinates": [83.3107556, 17.7255228]}}, {"type": "Feature", "properties": {"osm_id": 133958004, "osm_type": "way", "addr:street": "Ram Nagar, Vishakhapatnam, Andhra Pradesh, India", "amenity": "school", "name": "Government Municipal School"}, "geometry": {"type": "Point", "coordinates": [83.3096052, 17.7218381]}}, {"type": "Feature", "properties": {"osm_id": 134029873, "osm_type": "way", "addr:postcode": "531116", "addr:street": "Kranti Nagar, Satyam Junction Eenadu Road, Narsipatnam, Visakhapatnam Ph: 0891 - 2553031", "amenity": "school", "name": "Sri Sarada Vidya Nilayam"}, "geometry": {"type": "Point", "coordinates": [83.3138023, 17.7356198]}}, {"type": "Feature", "properties": {"osm_id": 134032444, "osm_type": "way", "addr:city": "Visakhapatnam", "addr:postcode": "530013", "addr:street": "T P T Colony, Seethammadhara", "amenity": "school", "name": "Sri Prakash Vidyaniketan"}, "geometry": {"type": "Point", "coordinates": [83.3124086, 17.7400752]}}, {"type": "Feature", "properties": {"osm_id": 134035338, "osm_type": "way", "addr:street": "Seethammadhara. Visakhapatnam, Andhra Pradesh Ph: 0891 2534773", "amenity": "school", "barrier": "wall", "education": "school", "name": "SFS High School", "official_name": "St. Francis Sales School"}, "geometry": {"type": "Point", "coordinates": [83.312832, 17.7417368]}}, {"type": "Feature", "properties": {"osm_id": 134049048, "osm_type": "way", "addr:street": "MVP Sector 7, MVP Colony, Visakhapatnam(Vizag), Andhra Pradesh", "amenity": "school", "name": "Seventh Day Adventist School"}, "geometry": {"type": "Point", "coordinates": [83.3322061, 17.7405112]}}, {"type": "Feature", "properties": {"osm_id": 134061360, "osm_type": "way", "addr:street": "MVP Colony, Vishakhapatnam, Andhra Pradesh", "amenity": "school", "name": "Bhashyam Public School"}, "geometry": {"type": "Point", "coordinates": [83.3395034, 17.7412548]}}, {"type": "Feature", "properties": {"osm_id": 134062797, "osm_type": "way", "amenity": "school", "name": "MVP Public School"}, "geometry": {"type": "Point", "coordinates": [83.3395074, 17.7423941]}}, {"type": "Feature", "properties": {"osm_id": 263958440, "osm_type": "way", "addr:city": "Visakhapatnam", "addr:postcode": "530043", "addr:street": "Visakha Valley Road", "amenity": "school", "name": "Visakha Valley School"}, "geometry": {"type": "Point", "coordinates": [83.3421637, 17.7620475]}}, {"type": "Feature", "properties": {"osm_id": 286390990, "osm_type": "way", "addr:city": "Visakhapatnam", "addr:postcode": "530007", "amenity": "school", "name": "Balabhanu School"}, "geometry": {"type": "Point", "coordinates": [83.2647895, 17.7509183]}}, {"type": "Feature", "properties": {"osm_id": 286393601, "osm_type": "way", "addr:city": "Visakhapatnam", "addr:postcode": "530007", "amenity": "school", "name": "Apporva School"}, "geometry": {"type": "Point", "coordinates": [83.2614736, 17.7495767]}}, {"type": "Feature", "properties": {"osm_id": 301425366, "osm_type": "way", "amenity": "school", "name": "Adarsha CBSE School"}, "geometry": {"type": "Point", "coordinates": [83.2004671, 17.6779286]}}, {"type": "Feature", "properties": {"osm_id": 386676255, "osm_type": "way", "addr:city": "Visakhapatnam", "addr:district": "Visakhapatnam", "addr:postcode": "530017", "addr:street": "Sector 3, MVP Colony", "amenity": "school", "building": "school", "education": "school", "grades": "lkg-10", "name": "Little Angels School", "operator": "Person", "operator:type": "private", "website": "https://www.littleangels.org.in/mvp/"}, "geometry": {"type": "Point", "coordinates": [83.3332201, 17.7435043]}}, {"type": "Feature", "properties": {"osm_id": 388753883, "osm_type": "way", "addr:city": "visakhapatnam", "addr:street": "sector 8 mvp", "amenity": "school", "name": "satya sai baba"}, "geometry": {"type": "Point", "coordinates": [83.3349026, 17.7382614]}}, {"type": "Feature", "properties": {"osm_id": 398643522, "osm_type": "way", "amenity": "school", "name": "KDPM high school"}, "geometry": {"type": "Point", "coordinates": [83.3385756, 17.7293002]}}, {"type": "Feature", "properties": {"osm_id": 402359966, "osm_type": "way", "amenity": "school", "barrier": "wall", "name": "Kotak Salesian School"}, "geometry": {"type": "Point", "coordinates": [83.3327115, 17.7222021]}}, {"type": "Feature", "properties": {"osm_id": 402616195, "osm_type": "way", "amenity": "school", "name": "Bethany School"}, "geometry": {"type": "Point", "coordinates": [83.3145883, 17.7211995]}}, {"type": "Feature", "properties": {"osm_id": 402632872, "osm_type": "way", "amenity": "school"}, "geometry": {"type": "Point", "coordinates": [83.3312777, 17.7237507]}}, {"type": "Feature", "properties": {"osm_id": 402662675, "osm_type": "way", "amenity": "school", "name": "Kotak Salesian School"}, "geometry": {"type": "Point", "coordinates": [83.333166, 17.7230464]}}, {"type": "Feature", "properties": {"osm_id": 409056214, "osm_type": "way", "amenity": "school", "name": "Municipal High School"}, "geometry": {"type": "Point", "coordinates": [83.301453, 17.7370574]}}, {"type": "Feature", "properties": {"osm_id": 430677225, "osm_type": "way", "amenity": "school"}, "geometry": {"type": "Point", "coordinates": [83.302134, 17.7130673]}}, {"type": "Feature", "properties": {"osm_id": 430677228, "osm_type": "way", "amenity": "school", "name": "Seventh Day"}, "geometry": {"type": "Point", "coordinates": [83.3023359, 17.7129043]}}, {"type": "Feature", "properties": {"osm_id": 430692460, "osm_type": "way", "addr:city": "visakhapatnam", "addr:postcode": "530002", "addr:street": "Jagadamba", "amenity": "school", "name": "st. anthony primary and high school"}, "geometry": {"type": "Point", "coordinates": [83.3067574, 17.714304]}}, {"type": "Feature", "properties": {"osm_id": 430718263, "osm_type": "way", "amenity": "school"}, "geometry": {"type": "Point", "coordinates": [83.3336891, 17.7242782]}}, {"type": "Feature", "properties": {"osm_id": 430772715, "osm_type": "way", "amenity": "school"}, "geometry": {"type": "Point", "coordinates": [83.3064371, 17.7190204]}}, {"type": "Feature", "properties": {"osm_id": 431341689, "osm_type": "way", "amenity": "school"}, "geometry": {"type": "Point", "coordinates": [83.3129468, 17.719635]}}, {"type": "Feature", "properties": {"osm_id": 431341695, "osm_type": "way", "amenity": "school", "name": "Sri Prakash"}, "geometry": {"type": "Point", "coordinates": [83.3138417, 17.7242399]}}, {"type": "Feature", "properties": {"osm_id": 486162072, "osm_type": "way", "amenity": "school", "name": "St. Joseph's Sec., School"}, "geometry": {"type": "Point", "coordinates": [83.2415218, 17.6868082]}}, {"type": "Feature", "properties": {"osm_id": 512024396, "osm_type": "way", "amenity": "school", "barrier": "wall", "name": "Stella Maris School"}, "geometry": {"type": "Point", "coordinates": [83.2422639, 17.7459176]}}, {"type": "Feature", "properties": {"osm_id": 512024442, "osm_type": "way", "amenity": "school", "name": "Narayana Junior College"}, "geometry": {"type": "Point", "coordinates": [83.2342339, 17.7438484]}}, {"type": "Feature", "properties": {"osm_id": 521439620, "osm_type": "way", "amenity": "school", "building": "yes", "name": "Saraswati School"}, "geometry": {"type": "Point", "coordinates": [83.237313, 17.6849193]}}, {"type": "Feature", "properties": {"osm_id": 521439638, "osm_type": "way", "amenity": "school"}, "geometry": {"type": "Point", "coordinates": [83.2364251, 17.6873978]}}, {"type": "Feature", "properties": {"osm_id": 521439640, "osm_type": "way", "amenity": "school"}, "geometry": {"type": "Point", "coordinates": [83.2371332, 17.6852295]}}, {"type": "Feature", "properties": {"osm_id": 521439641, "osm_type": "way", "amenity": "school"}, "geometry": {"type": "Point", "coordinates": [83.2372016, 17.6845868]}}, {"type": "Feature", "properties": {"osm_id": 544537078, "osm_type": "way", "addr:city": "visakhapatnam", "addr:postcode": "530026", "addr:street": "gajuwaka", "amenity": "school", "name": "ZP High School"}, "geometry": {"type": "Point", "coordinates": [83.2123431, 17.6889934]}}, {"type": "Feature", "properties": {"osm_id": 776651179, "osm_type": "way", "amenity": "school", "name": "Narayana school"}, "geometry": {"type": "Point", "coordinates": [83.312944, 17.7235337]}}, {"type": "Feature", "properties": {"osm_id": 902588734, "osm_type": "way", "amenity": "school", "building": "yes", "name": "Viswateja"}, "geometry": {"type": "Point", "coordinates": [83.2895274, 17.7332163]}}, {"type": "Feature", "properties": {"osm_id": 971286109, "osm_type": "way", "amenity": "school", "name": "KNM Girls High School"}, "geometry": {"type": "Point", "coordinates": [83.2958081, 17.7286255]}}, {"type": "Feature", "properties": {"osm_id": 1106495916, "osm_type": "way", "amenity": "school"}, "geometry": {"type": "Point", "coordinates": [83.2846016, 17.7196391]}}, {"type": "Feature", "properties": {"osm_id": 1247537968, "osm_type": "way", "amenity": "school", "barrier": "wall", "name": "MPP School"}, "geometry": {"type": "Point", "coordinates": [83.216494, 17.7778956]}}, {"type": "Feature", "properties": {"osm_id": 1249184681, "osm_type": "way", "amenity": "school", "name": "Sri Krishna Vidya Mandir"}, "geometry": {"type": "Point", "coordinates": [83.3068709, 17.7283351]}}, {"type": "Feature", "properties": {"osm_id": 1274787077, "osm_type": "way", "amenity": "school", "name": "SubhaVedha EM school"}, "geometry": {"type": "Point", "coordinates": [83.2233721, 17.7618212]}}, {"type": "Feature", "properties": {"osm_id": 1306486820, "osm_type": "way", "amenity": "school", "check_date": "2025-09-10", "name": "SVLN ZP High School"}, "geometry": {"type": "Point", "coordinates": [83.217771, 17.7500712]}}, {"type": "Feature", "properties": {"osm_id": 1318810223, "osm_type": "way", "amenity": "school"}, "geometry": {"type": "Point", "coordinates": [83.212489, 17.7913037]}}, {"type": "Feature", "properties": {"osm_id": 1318810228, "osm_type": "way", "amenity": "school", "name": "High Fields School", "operator": "Balaji"}, "geometry": {"type": "Point", "coordinates": [83.2132059, 17.7874799]}}, {"type": "Feature", "properties": {"osm_id": 1319192483, "osm_type": "way", "amenity": "school", "name": "Alwardas School"}, "geometry": {"type": "Point", "coordinates": [83.2182465, 17.757049]}}, {"type": "Feature", "properties": {"osm_id": 1320025436, "osm_type": "way", "amenity": "school", "mobile": "+919666681911", "name": "Mahathi"}, "geometry": {"type": "Point", "coordinates": [83.212691, 17.7899924]}}, {"type": "Feature", "properties": {"osm_id": 1322638104, "osm_type": "way", "amenity": "school", "barrier": "wall", "name": "BR Ambedkar Gurukulam", "name:etymology:wikidata": "Q231690"}, "geometry": {"type": "Point", "coordinates": [83.1988646, 17.7600288]}}, {"type": "Feature", "properties": {"osm_id": 1322638127, "osm_type": "way", "amenity": "school", "barrier": "wall", "name": "ZPHS School"}, "geometry": {"type": "Point", "coordinates": [83.2010807, 17.7612432]}}, {"type": "Feature", "properties": {"osm_id": 1322638129, "osm_type": "way", "amenity": "school", "name": "Bhashyam School"}, "geometry": {"type": "Point", "coordinates": [83.2121447, 17.7664639]}}, {"type": "Feature", "properties": {"osm_id": 1324936050, "osm_type": "way", "amenity": "school"}, "geometry": {"type": "Point", "coordinates": [83.2307495, 17.6437289]}}, {"type": "Feature", "properties": {"osm_id": 1329042441, "osm_type": "way", "amenity": "school", "barrier": "wall", "name": "V.B.V High School"}, "geometry": {"type": "Point", "coordinates": [83.3085433, 17.7372911]}}, {"type": "Feature", "properties": {"osm_id": 1329042442, "osm_type": "way", "addr:street": "PT Colony", "amenity": "school", "name": "NMC High School"}, "geometry": {"type": "Point", "coordinates": [83.3102179, 17.7368109]}}, {"type": "Feature", "properties": {"osm_id": 1338621541, "osm_type": "way", "addr:city": "Visakhapatnam", "addr:postcode": "530040", "amenity": "school", "barrier": "wall", "name": "Thothagaruvu ZPHS Government school"}, "geometry": {"type": "Point", "coordinates": [83.3214953, 17.7618724]}}, {"type": "Feature", "properties": {"osm_id": 1340247085, "osm_type": "way", "amenity": "school", "name": "Queen Marys Government Girls High School"}, "geometry": {"type": "Point", "coordinates": [83.2915023, 17.6938074]}}, {"type": "Feature", "properties": {"osm_id": 1344815260, "osm_type": "way", "amenity": "school", "barrier": "wall", "name": "Timpany School"}, "geometry": {"type": "Point", "coordinates": [83.3123987, 17.7261203]}}, {"type": "Feature", "properties": {"osm_id": 1345392776, "osm_type": "way", "amenity": "school", "building": "school", "education": "school", "grades": "1-10", "name": "Daffodils School"}, "geometry": {"type": "Point", "coordinates": [83.2459741, 17.7506773]}}, {"type": "Feature", "properties": {"osm_id": 1345399592, "osm_type": "way", "amenity": "school", "barrier": "wall", "name": "Saint Ann's School Grounds"}, "geometry": {"type": "Point", "coordinates": [83.232672, 17.7448069]}}, {"type": "Feature", "properties": {"osm_id": 1346680731, "osm_type": "way", "amenity": "school", "barrier": "wall"}, "geometry": {"type": "Point", "coordinates": [83.3589889, 17.7925849]}}, {"type": "Feature", "properties": {"osm_id": 1346852860, "osm_type": "way", "amenity": "school", "barrier": "wall"}, "geometry": {"type": "Point", "coordinates": [83.3789976, 17.787331]}}, {"type": "Feature", "properties": {"osm_id": 1356624315, "osm_type": "way", "amenity": "school", "barrier": "wall", "brand": "Kendriya Vidyalaya", "brand:wikidata": "Q1156653", "education": "school", "name": "Kendriya Vidyalaya Waltair"}, "geometry": {"type": "Point", "coordinates": [83.2933382, 17.736236]}}, {"type": "Feature", "properties": {"osm_id": 1362869461, "osm_type": "way", "amenity": "school", "barrier": "wall", "name": "Oak"}, "geometry": {"type": "Point", "coordinates": [83.1982686, 17.6756465]}}, {"type": "Feature", "properties": {"osm_id": 1362869462, "osm_type": "way", "addr:housenumber": "24-4-1", "addr:postcode": "530026", "addr:street": "Sivalayam Road", "amenity": "school", "barrier": "wall", "check_date": "2026-04-15", "email": "support.tscs@timpany.in", "name": "ETASI Timpany Steel City School", "phone": "(0891) 2517728", "website": "https://timpanysteelcityschool.in/"}, "geometry": {"type": "Point", "coordinates": [83.197277, 17.6757198]}}, {"type": "Feature", "properties": {"osm_id": 1362873513, "osm_type": "way", "amenity": "school", "barrier": "wall"}, "geometry": {"type": "Point", "coordinates": [83.2022645, 17.6661777]}}, {"type": "Feature", "properties": {"osm_id": 1389777706, "osm_type": "way", "amenity": "school", "barrier": "wall", "name": "St Aloysius' Anglo-Indian High School", "name:te": "te:సెయింట్ అలోసియస్ ఆంగ్లో-ఇండియన్ హై స్కూల్", "religion": "christian", "wikidata": "Q65057575", "wikipedia": "en:St Aloysius' Anglo-Indian High School"}, "geometry": {"type": "Point", "coordinates": [83.293356, 17.6923099]}}, {"type": "Feature", "properties": {"osm_id": 1389777709, "osm_type": "way", "amenity": "school", "barrier": "wall", "name": "Fort Catholic Girls School"}, "geometry": {"type": "Point", "coordinates": [83.2926675, 17.6927944]}}, {"type": "Feature", "properties": {"osm_id": 1410364470, "osm_type": "way", "amenity": "school", "name": "St. Brigid's Convent"}, "geometry": {"type": "Point", "coordinates": [83.2941887, 17.6943708]}}, {"type": "Feature", "properties": {"osm_id": 1411933074, "osm_type": "way", "amenity": "school", "barrier": "wall", "name": "Balaji School"}, "geometry": {"type": "Point", "coordinates": [83.2196652, 17.7557705]}}, {"type": "Feature", "properties": {"osm_id": 1413181621, "osm_type": "way", "amenity": "school", "name": "Ralla Bella"}, "geometry": {"type": "Point", "coordinates": [83.3310282, 17.7436239]}}, {"type": "Feature", "properties": {"osm_id": 1416031112, "osm_type": "way", "amenity": "school", "barrier": "wall"}, "geometry": {"type": "Point", "coordinates": [83.2591202, 17.7375488]}}, {"type": "Feature", "properties": {"osm_id": 1424978975, "osm_type": "way", "amenity": "school", "check_date": "2026-05-06", "name": "Sri Krishna Vidya Mandir Primary School", "official_name": "Sri Kapila Gopala Rao Sri Krishna Vidya Mandir Primary School"}, "geometry": {"type": "Point", "coordinates": [83.3036609, 17.7308279]}}, {"type": "Feature", "properties": {"osm_id": 1452314723, "osm_type": "way", "amenity": "school", "barrier": "wall", "education": "school", "name": "Raviki's Little Champs School"}, "geometry": {"type": "Point", "coordinates": [83.2482384, 17.7501609]}}, {"type": "Feature", "properties": {"osm_id": 1452314732, "osm_type": "way", "amenity": "school", "building": "yes", "education": "school", "name": "Delhi Public School"}, "geometry": {"type": "Point", "coordinates": [83.2576342, 17.7488502]}}, {"type": "Feature", "properties": {"osm_id": 1460423830, "osm_type": "way", "amenity": "school", "education": "school", "name": "D.A.V. School", "website": "http://davvisakhapatnam.com/"}, "geometry": {"type": "Point", "coordinates": [83.2305951, 17.7468411]}}, {"type": "Feature", "properties": {"osm_id": 1463785601, "osm_type": "way", "amenity": "school", "barrier": "wall", "education": "school", "name": "AU High School"}, "geometry": {"type": "Point", "coordinates": [83.3278102, 17.7196861]}}, {"type": "Feature", "properties": {"osm_id": 1494525232, "osm_type": "way", "amenity": "school", "education": "school"}, "geometry": {"type": "Point", "coordinates": [83.3178394, 17.7684443]}}, {"type": "Feature", "properties": {"osm_id": 1509506776, "osm_type": "way", "amenity": "school", "barrier": "wall", "education": "school", "name": "Mandal Parishad Primary School"}, "geometry": {"type": "Point", "coordinates": [83.2452688, 17.7734315]}}, {"type": "Feature", "properties": {"osm_id": 1512706607, "osm_type": "way", "amenity": "school", "barrier": "wall", "education": "school"}, "geometry": {"type": "Point", "coordinates": [83.3133808, 17.7366613]}}]}