{"type": "FeatureCollection", "crs": {"type": "name", "properties": {"name": "urn:ogc:def:crs:OGC:1.3:CRS84"}}, "features": [{"type": "Feature", "properties": {"internet_access": "no", "name": "Cochin Harbour Terminus", "name:ml": "കൊച്ചിൻ ഹാർബർ ടെർമിനസ്", "network": "IR", "operator": "SR", "railway": "station", "ref": "CHTS", "wikidata": "Q5139311", "wikipedia": "en:Cochin Harbour Terminus railway station", "osm_id": 732425300, "osm_type": "node"}, "geometry": {"type": "Point", "coordinates": [76.2676188, 9.9602949]}}, {"type": "Feature", "properties": {"internet_access": "no", "name": "Tripunittura", "name:ml": "തൃപ്പൂണിത്തുറ", "network": "IR", "operator": "SR", "platforms": "2", "public_transport": "station", "railway": "station", "ref": "TRTR", "wikidata": "Q18394844", "wikipedia": "en:Tripunithura railway station", "osm_id": 1190898883, "osm_type": "node"}, "geometry": {"type": "Point", "coordinates": [76.3526309, 9.9497664]}}, {"type": "Feature", "properties": {"internet_access": "no", "name": "Kumbalam", "name:ml": "കുമ്പളം", "network": "IR", "operator": "SR", "public_transport": "station", "railway": "station", "ref": "KUMM", "wikidata": "Q63354887", "osm_id": 3290949290, "osm_type": "node"}, "geometry": {"type": "Point", "coordinates": [76.3113965, 9.9064186]}}, {"type": "Feature", "properties": {"alt_name": "Idappilly", "internet_access": "no", "name": "Idappalli", "name:ml": "ഇടപ്പള്ളി", "network": "IR", "operator": "SR", "railway": "station", "ref": "IPL", "wikidata": "Q5335703", "wikipedia": "en:Edappally railway station", "osm_id": 4760378947, "osm_type": "node"}, "geometry": {"type": "Point", "coordinates": [76.298762, 10.0345332]}}, {"type": "Feature", "properties": {"addr:district": "Ernakulam", "addr:state": "KL", "addr:street": "Xavier Arakkal Road", "alt_name": "Ernakulam North", "internet_access": "wlan", "name": "Ernakulam Town", "name:hi": "एर्नाकुलम टाउन", "name:ml": "എറണാകുളം ടൗൺ", "network": "IR", "operator": "SR", "public_transport": "station", "railway": "station", "ref": "ERN", "wheelchair": "limited", "wikidata": "Q5392597", "wikipedia": "en:Ernakulam Town railway station", "osm_id": 4760378948, "osm_type": "node"}, "geometry": {"type": "Point", "coordinates": [76.2863559, 9.9916561]}}, {"type": "Feature", "properties": {"internet_access": "wlan", "name": "Ernakulam Junction", "name:ml": "എറണാകുളം ജംഗ്ഷൻ", "network": "IR", "operator": "SR", "public_transport": "station", "railway": "station", "ref": "ERS", "wheelchair": "yes", "wikidata": "Q5392599", "wikipedia": "en:Ernakulam Junction railway station", "osm_id": 4760378949, "osm_type": "node"}, "geometry": {"type": "Point", "coordinates": [76.2909524, 9.9690003]}}, {"type": "Feature", "properties": {"internet_access": "no", "name": "Kalamassery", "name:hi": "कलमश्शेरि", "name:ml": "കളമശ്ശേരി", "network": "IR", "operator": "SR", "public_transport": "station", "railway": "station", "ref": "KLMR", "wikidata": "Q63354882", "osm_id": 4760503121, "osm_type": "node"}, "geometry": {"type": "Point", "coordinates": [76.3272102, 10.0623617]}}, {"type": "Feature", "properties": {"internet_access": "no", "name": "Tirunettur", "name:ml": "തിരുനെട്ടുർ", "network": "IR", "operator": "SR", "railway": "station", "ref": "TNU", "wikidata": "Q60182470", "osm_id": 4824919682, "osm_type": "node"}, "geometry": {"type": "Point", "coordinates": [76.3085098, 9.9342399]}}, {"type": "Feature", "properties": {"addr:city": "Kureekkad", "addr:postcode": "682305", "internet_access": "no", "name": "Chottanikkara Road", "name:ml": "ചോറ്റാനിക്കര റോഡ്", "network": "IR", "operator": "SR", "public_transport": "station", "railway": "station", "ref": "KFE", "train": "yes", "wikidata": "Q20717384", "osm_id": 4825232028, "osm_type": "node"}, "geometry": {"type": "Point", "coordinates": [76.3759783, 9.9244744]}}, {"type": "Feature", "properties": {"internet_access": "no", "name": "Kanjiramattam", "name:en": "Kanjiramattam", "name:ml": "കാഞ്ഞിരമറ്റം", "network": "IR", "operator": "SR", "public_transport": "station", "railway": "station", "ref": "KPTM", "train": "yes", "wikidata": "Q63370117", "osm_id": 4825232030, "osm_type": "node"}, "geometry": {"type": "Point", "coordinates": [76.4123043, 9.8619389]}}, {"type": "Feature", "properties": {"internet_access": "yes", "name": "Changampuzha Park", "name:hi": "चंगमपुष़ा पार्क", "name:ml": "ചങ്ങമ്പുഴ പാർക്ക്", "network": "Kochi Metro", "note": "Contributors are requested to not edit the \"network\" and the \"operator\" tags. (2023/11/08)", "operator": "Kochi Metro Rail Limited", "public_transport": "station", "railway": "station", "ref": "CGPP", "station": "subway", "subway": "yes", "tactile_paving": "yes", "toilets:wheelchair": "yes", "wheelchair": "yes", "wikidata": "Q38584315", "wikipedia": "en:Changampuzha Park metro station", "osm_id": 4903755240, "osm_type": "node"}, "geometry": {"type": "Point", "coordinates": [76.3024538, 10.0151019]}}, {"type": "Feature", "properties": {"internet_access": "yes", "name": "Cochin University", "name:hi": "कोच्चिन यूनिवर्सिटी", "name:ml": "കൊച്ചിൻ യൂണിവേഴ്സിറ്റി", "network": "Kochi Metro", "note": "Contributors are requested to not edit the \"network\" and the \"operator\" tags. (2023/11/08)", "operator": "Kochi Metro Rail Limited", "public_transport": "station", "railway": "station", "ref": "CCUV", "station": "subway", "subway": "yes", "tactile_paving": "yes", "toilets:wheelchair": "yes", "wheelchair": "yes", "wikidata": "Q38499541", "wikipedia": "en:Cochin University metro station", "osm_id": 4903755241, "osm_type": "node"}, "geometry": {"type": "Point", "coordinates": [76.3183086, 10.0466793]}}, {"type": "Feature", "properties": {"internet_access": "yes", "name": "Edappally", "name:hi": "इडप्पल्ली", "name:ml": "ഇടപ്പള്ളി", "network": "Kochi Metro", "note": "Contributors are requested to not edit the \"network\" and the \"operator\" tags. (2023/11/08)", "operator": "Kochi Metro Rail Limited", "public_transport": "station", "railway": "station", "ref": "EDAP", "station": "subway", "subway": "yes", "tactile_paving": "yes", "toilets:wheelchair": "yes", "wheelchair": "yes", "wikidata": "Q38582577", "wikipedia": "en:Edapally metro station", "osm_id": 4903755243, "osm_type": "node"}, "geometry": {"type": "Point", "coordinates": [76.3079848, 10.025487]}}, {"type": "Feature", "properties": {"internet_access": "yes", "name": "JLN Stadium", "name:hi": "जे०एल०एन० स्टेडियम", "name:ml": "ജെ. എൽ. എൻ സ്റ്റേഡിയം", "network": "Kochi Metro", "note": "Contributors are requested to not edit the \"network\" and the \"operator\" tags. (2023/11/08)", "operator": "Kochi Metro Rail Limited", "public_transport": "station", "railway": "station", "ref": "JLSD", "station": "subway", "subway": "yes", "tactile_paving": "yes", "toilets:wheelchair": "yes", "wheelchair": "yes", "wikidata": "Q42306467", "wikipedia": "en:J. L. N. Stadium metro station", "osm_id": 4903755244, "osm_type": "node"}, "geometry": {"type": "Point", "coordinates": [76.2990841, 10.0002723]}}, {"type": "Feature", "properties": {"internet_access": "yes", "name": "Kalamassery Town", "name:hi": "कलमशेरी टउन", "name:ml": "കളമശ്ശേരി", "network": "Kochi Metro", "note": "Contributors are requested to not edit the \"network\" and the \"operator\" tags. (2023/11/08)", "operator": "Kochi Metro Rail Limited", "public_transport": "station", "railway": "station", "ref": "KLMT", "station": "subway", "subway": "yes", "tactile_paving": "yes", "toilets:wheelchair": "yes", "wheelchair": "yes", "wikidata": "Q38478898", "wikipedia": "en:Kalamassery metro station", "osm_id": 4903755245, "osm_type": "node"}, "geometry": {"type": "Point", "coordinates": [76.3221673, 10.0585393]}}, {"type": "Feature", "properties": {"internet_access": "yes", "name": "Kaloor", "name:hi": "कलूर", "name:ml": "കലൂർ", "network": "Kochi Metro", "note": "Contributors are requested to not edit the \"network\" and the \"operator\" tags. (2023/11/08)", "operator": "Kochi Metro Rail Limited", "public_transport": "station", "railway": "station", "ref": "KALR", "station": "subway", "subway": "yes", "tactile_paving": "yes", "toilets:wheelchair": "yes", "wheelchair": "yes", "wikidata": "Q42308815", "wikipedia": "en:Kaloor metro station", "osm_id": 4903755246, "osm_type": "node"}, "geometry": {"type": "Point", "coordinates": [76.2916664, 9.9942991]}}, {"type": "Feature", "properties": {"internet_access": "yes", "name": "Palarivattom", "name:hi": "पालारिवट्टम", "name:ml": "പാലാരിവട്ടം", "network": "Kochi Metro", "note": "Contributors are requested to not edit the \"network\" and the \"operator\" tags. (2023/11/08)", "operator": "Kochi Metro Rail Limited", "public_transport": "station", "railway": "station", "ref": "PARV", "station": "subway", "subway": "yes", "tactile_paving": "yes", "toilets:wheelchair": "yes", "wheelchair": "yes", "wikidata": "Q38697682", "wikipedia": "en:Palarivattom metro station", "osm_id": 4903755248, "osm_type": "node"}, "geometry": {"type": "Point", "coordinates": [76.3049281, 10.00633]}}, {"type": "Feature", "properties": {"internet_access": "yes", "name": "Pathadipalam", "name:hi": "पत्तडिप्पालम", "name:ml": "പത്തടിപ്പാലം", "network": "Kochi Metro", "note": "Contributors are requested to not edit the \"network\" and the \"operator\" tags. (2023/11/08)", "operator": "Kochi Metro Rail Limited", "public_transport": "station", "railway": "station", "ref": "PDPM", "station": "subway", "subway": "yes", "tactile_paving": "yes", "toilets:wheelchair": "yes", "wheelchair": "yes", "wikidata": "Q38566574", "wikipedia": "en:Pathadipalam metro station", "osm_id": 4903755249, "osm_type": "node"}, "geometry": {"type": "Point", "coordinates": [76.314485, 10.0359805]}}, {"type": "Feature", "properties": {"internet_access": "yes", "name": "M. G. Road", "name:hi": "एम०जी० रोड", "name:ml": "എം. ജി റോഡ്", "network": "Kochi Metro", "note": "Contributors are requested to not edit the \"network\" and the \"operator\" tags. (2023/11/08)", "operator": "Kochi Metro Rail Limited", "public_transport": "station", "railway": "station", "ref": "MGRD", "station": "subway", "subway": "yes", "tactile_paving": "yes", "toilets:wheelchair": "yes", "wheelchair": "yes", "wikidata": "Q42328335", "wikipedia": "en:M. G. Road metro station", "osm_id": 4903755539, "osm_type": "node"}, "geometry": {"type": "Point", "coordinates": [76.2824385, 9.9833224]}}, {"type": "Feature", "properties": {"internet_access": "yes", "name": "Maharaja's College", "name:hi": "महाराजास् कॉलज", "name:ml": "മഹാരാജാസ് കോളേജ്", "network": "Kochi Metro", "note": "Contributors are requested to not edit the \"network\" and the \"operator\" tags. (2023/11/08)", "operator": "Kochi Metro Rail Limited", "public_transport": "station", "railway": "station", "ref": "MACE", "station": "subway", "subway": "yes", "tactile_paving": "yes", "toilets:wheelchair": "yes", "wheelchair": "yes", "wikidata": "Q42343250", "wikipedia": "en:Maharaja's College metro station", "osm_id": 5242586671, "osm_type": "node"}, "geometry": {"type": "Point", "coordinates": [76.2851082, 9.9733747]}}, {"type": "Feature", "properties": {"internet_access": "yes", "name": "Town Hall", "name:ml": "ടൗണ്‍ ഹാൾ", "network": "Kochi Metro", "note": "Contributors are requested to not edit the \"network\" and the \"operator\" tags. (2023/11/08)", "old_name": "Lissie", "operator": "Kochi Metro Rail Limited", "public_transport": "station", "railway": "station", "ref": "LSSE", "station": "subway", "subway": "yes", "tactile_paving": "yes", "toilets:wheelchair": "yes", "wheelchair": "yes", "wikidata": "Q42308850", "wikipedia": "en:Lissie metro station", "osm_id": 5242586672, "osm_type": "node"}, "geometry": {"type": "Point", "coordinates": [76.2884381, 9.9912053]}}, {"type": "Feature", "properties": {"internet_access": "no", "name": "Mulanturutti", "name:ml": "മുളന്തുരുത്തി", "network": "IR", "operator": "SR", "public_transport": "station", "railway": "station", "ref": "MNTT", "train": "yes", "wikidata": "Q63370115", "osm_id": 5253929167, "osm_type": "node"}, "geometry": {"type": "Point", "coordinates": [76.3906682, 9.8977739]}}, {"type": "Feature", "properties": {"internet_access": "no", "name": "Mattancheri", "network": "IR", "operator": "SR", "public_transport": "station", "railway": "station", "ref": "MTNC", "train": "yes", "wikidata": "Q63422698", "osm_id": 6036084320, "osm_type": "node"}, "geometry": {"type": "Point", "coordinates": [76.2703326, 9.9398956]}}, {"type": "Feature", "properties": {"internet_access": "yes", "name": "Kadavanthra", "name:hi": "कडवान्त्र", "name:ml": "കടവന്ത്ര", "network": "Kochi Metro", "note": "Contributors are requested to not edit the \"network\" and the \"operator\" tags. (2023/11/08)", "operator": "Kochi Metro Rail Limited", "public_transport": "station", "railway": "station", "station": "subway", "subway": "yes", "tactile_paving": "yes", "toilets:wheelchair": "yes", "wheelchair": "yes", "wikidata": "Q67154725", "wikipedia": "en:Kadavanthra metro station", "osm_id": 6777772107, "osm_type": "node"}, "geometry": {"type": "Point", "coordinates": [76.2982044, 9.9666766]}}, {"type": "Feature", "properties": {"internet_access": "yes", "name": "Elamkulam", "name:hi": "एलमकुलम", "name:ml": "എളംകുളം", "network": "Kochi Metro", "note": "Contributors are requested to not edit the \"network\" and the \"operator\" tags. (2023/11/08)", "operator": "Kochi Metro Rail Limited", "public_transport": "station", "railway": "station", "station": "subway", "subway": "yes", "tactile_paving": "yes", "toilets:wheelchair": "yes", "wheelchair": "yes", "wikidata": "Q67170983", "wikipedia": "en:Elamkulam metro station", "osm_id": 6777772108, "osm_type": "node"}, "geometry": {"type": "Point", "coordinates": [76.3084361, 9.9672669]}}, {"type": "Feature", "properties": {"internet_access": "yes", "name": "Thykoodam", "name:hi": "थाईकूडम", "name:ml": "തൈക്കൂടം", "network": "Kochi Metro", "network:wikidata": "Q3522910", "note": "Contributors are requested to not edit the \"network\" and the \"operator\" tags. (2023/11/08)", "operator": "Kochi Metro Rail Limited", "public_transport": "station", "railway": "station", "station": "subway", "subway": "yes", "tactile_paving": "yes", "toilets:wheelchair": "yes", "wheelchair": "yes", "wikidata": "Q67171027", "wikipedia": "en:Thaikoodam metro station", "osm_id": 6777772110, "osm_type": "node"}, "geometry": {"type": "Point", "coordinates": [76.3237287, 9.9601104]}}, {"type": "Feature", "properties": {"internet_access": "yes", "name": "Ernakulam South", "name:hi": "एर्नाकुलम साउथ", "name:ml": "എറണാകുളം തെക്ക്", "network": "Kochi Metro", "note": "Contributors are requested to not edit the \"network\" and the \"operator\" tags. (2023/11/08)", "operator": "Kochi Metro Rail Limited", "public_transport": "station", "railway": "station", "station": "subway", "subway": "yes", "tactile_paving": "yes", "toilets:wheelchair": "yes", "wheelchair": "yes", "wikidata": "Q20574885", "wikipedia": "en:Ernakulam South metro station", "osm_id": 6777772111, "osm_type": "node"}, "geometry": {"type": "Point", "coordinates": [76.2894579, 9.9686172]}}, {"type": "Feature", "properties": {"name": "Valarpadam Railway Station", "name:ml": "വല്ലാർപാടം റെയിൽവേ സ്റ്റേഷൻ", "operator": "SR", "public_transport": "station", "railway": "station", "train": "yes", "osm_id": 7376457360, "osm_type": "node"}, "geometry": {"type": "Point", "coordinates": [76.2571486, 9.9876004]}}, {"type": "Feature", "properties": {"internet_access": "yes", "name": "Pettah", "name:hi": "पेट्टा", "name:ml": "പേട്ട", "network": "Kochi Metro", "note": "Contributors are requested to not edit the \"network\" and the \"operator\" tags. (2023/11/08)", "operator": "Kochi Metro Rail Limited", "public_transport": "station", "railway": "station", "station": "subway", "subway": "yes", "tactile_paving": "yes", "toilets:wheelchair": "yes", "wheelchair": "yes", "wikidata": "Q67172500", "wikipedia": "en:Pettah metro station", "osm_id": 7883924233, "osm_type": "node"}, "geometry": {"type": "Point", "coordinates": [76.3301852, 9.9524963]}}, {"type": "Feature", "properties": {"internet_access": "yes", "name": "Vadakkekotta", "name:ml": "വടക്കേക്കോട്ട", "network": "Kochi Metro", "note": "Contributors are requested to not edit the \"network\" and the \"operator\" tags. (2023/11/08)", "operator": "Kochi Metro Rail Limited", "public_transport": "station", "railway": "station", "station": "subway", "subway": "yes", "tactile_paving": "yes", "toilets:wheelchair": "yes", "wheelchair": "yes", "wikidata": "Q113997246", "wikipedia": "en:Vadakkekotta metro station", "osm_id": 7944685628, "osm_type": "node"}, "geometry": {"type": "Point", "coordinates": [76.339488, 9.9528098]}}, {"type": "Feature", "properties": {"name": "InfoPark I Station", "network": "Kochi Metro Pink Line", "opening_date": "2026-12", "proposed": "station", "public_transport": "station", "railway": "station", "station": "subway", "subway": "yes", "osm_id": 7944686345, "osm_type": "node"}, "geometry": {"type": "Point", "coordinates": [76.362724, 10.0083511]}}, {"type": "Feature", "properties": {"internet_access": "yes", "name": "SN Junction", "name:ml": "എസ്എൻ ജംഗ്ഷൻ", "network": "Kochi Metro", "note": "Contributors are requested to not edit the \"network\" and the \"operator\" tags. (2023/11/08)", "operator": "Kochi Metro Rail Limited", "public_transport": "station", "railway": "station", "station": "subway", "subway": "yes", "tactile_paving": "yes", "toilets:wheelchair": "yes", "wheelchair": "yes", "wikidata": "Q113997249", "wikipedia": "en:SN Junction metro station", "osm_id": 7944686562, "osm_type": "node"}, "geometry": {"type": "Point", "coordinates": [76.3460351, 9.9546771]}}, {"type": "Feature", "properties": {"addr:street": "Ponnurunni, Vyttila, Ernakulam, Kerala 682020, India", "name": "Ernakulam D Cabin", "network": "IR", "operator": "SR", "public_transport": "station", "railway": "station", "ref": "ERSD", "train": "yes", "wheelchair": "no", "osm_id": 9924628170, "osm_type": "node"}, "geometry": {"type": "Point", "coordinates": [76.3022282, 9.9799466]}}, {"type": "Feature", "properties": {"internet_access": "yes", "name": "Thrippunithura Terminal", "name:ml": "തൃപ്പൂണിത്തുറ ടെർമിനൽ", "network": "Kochi Metro", "note": "Contributors are requested to not edit the \"network\" and the \"operator\" tags. (2023/11/08)", "operator": "Kochi Metro Rail Limited", "public_transport": "station", "railway": "station", "start_date": "2024-03-06", "station": "subway", "subway": "yes", "tactile_paving": "yes", "toilets:wheelchair": "yes", "wheelchair": "yes", "wikidata": "Q124759251", "wikipedia": "en:Thrippunithura Terminal metro station", "osm_id": 11699277186, "osm_type": "node"}, "geometry": {"type": "Point", "coordinates": [76.3517236, 9.9505728]}}]}