{"type": "FeatureCollection", "crs": {"type": "name", "properties": {"name": "urn:ogc:def:crs:OGC:1.3:CRS84"}}, "features": [{"type": "Feature", "properties": {"OBJECTID": 36, "ST_CODE": 27, "ST_NAME": "MAHARASHTRA", "DT_CODE": 25, "DIST_NAME": "PUNE", "AC_NO": 195, "AC_NAME": "Junnar", "PC_NO": 36, "PC_NAME": "SHIRUR", "PC_ID": 2736, "STATUS": "", "Shape_Leng": 2.20967045129, "Shape_Area": 0.11596043862, "office": "MLA", "representative": "Sharaddada Sonawane", "party": "IND", "ac_name": "Junnar"}, "geometry": {"type": "Polygon", "coordinates": [[[73.77947418308713, 19.38681693795138], [73.80333546595904, 19.3947316689314], [73.81491544868908, 19.3868492712769], [73.82181973019647, 19.387824762303012], [73.8388005608972, 19.37643807535693], [73.84410170463002, 19.37056296001265], [73.84147001133204, 19.366736250277768], [73.85380599924753, 19.356211495164416], [73.87448626313062, 19.35881137314641], [73.88503570733207, 19.374467276743474], [73.89145226041353, 19.373332722627083], [73.90530502061029, 19.362669414362017], [73.91266670450489, 19.36295965706256], [73.92745755022582, 19.338510158217275], [73.94290604767599, 19.344335021244262], [73.94498030429764, 19.339425465712736], [73.95473026648864, 19.342475297896726], [73.95383666053351, 19.34773882928357], [73.96318143677394, 19.348395228257232], [73.96896931608114, 19.354237112752628], [73.97187463260826, 19.347901604775302], [73.99543925881483, 19.352824158208364], [73.99928664486282, 19.360488219355886], [74.00229676118664, 19.341171113656003], [74.01199135032061, 19.33534260747541], [74.01203898291277, 19.326362232930762], [74.01936764909777, 19.32175683441045], [74.01819545565581, 19.315693313795464], [74.0264635284691, 19.314326405439317], [74.02624440505531, 19.310165317875146], [74.02067797660737, 19.30997610051668], [74.02555388580322, 19.297772371397855], [74.01210374309335, 19.29850006232806], [74.0202397432696, 19.28237724331518], [74.02392379264899, 19.288830946491032], [74.03070768910862, 19.282781933739273], [74.03169519687589, 19.277753547188524], [74.02348814845936, 19.2665547016382], [74.03216494605545, 19.25815789626995], [74.03162289947727, 19.250864293752215], [74.04461119624978, 19.26181918740565], [74.05109105440869, 19.243542158443915], [74.05935254958058, 19.24546358067977], [74.08953424890655, 19.2276056798583], [74.0930508238365, 19.226811709792628], [74.08414408398232, 19.238723713228808], [74.1121362344997, 19.226591150161482], [74.11594287496376, 19.22920668713897], [74.1262262907108, 19.222131072191303], [74.15229100432646, 19.226151230594894], [74.15788873637615, 19.202495499467773], [74.16586906840286, 19.207230682749866], [74.16849521198452, 19.22347978456446], [74.17199417369221, 19.22185885010589], [74.18886905616205, 19.209906378976257], [74.21916371933025, 19.20297413484849], [74.22790281566245, 19.204036423941886], [74.24651432227819, 19.21925593781134], [74.25638293202672, 19.21928477727073], [74.26194933169637, 19.22400570000309], [74.26028301564872, 19.227246371922604], [74.31661985092546, 19.207521296870425], [74.30317636679592, 19.192349926408042], [74.29423707508101, 19.19040237077286], [74.29477667280526, 19.186076514819376], [74.27336492914822, 19.18623797820021], [74.26676460410323, 19.181719990185456], [74.26347894539708, 19.168862516891693], [74.26644207124463, 19.16242560225976], [74.25785210499072, 19.158935491679642], [74.24926750858873, 19.14513307283312], [74.24397323657564, 19.14470986896532], [74.23433204648683, 19.123360008557597], [74.22882145514609, 19.122262868036955], [74.22497744964966, 19.128526046240097], [74.21039119249957, 19.128471893563074], [74.19700467592509, 19.10067606684703], [74.20244603205879, 19.089334202111786], [74.19140561647606, 19.079198138483378], [74.19149990139937, 19.060720640745046], [74.17210193585572, 19.040893065462626], [74.17407939934486, 19.031502815002966], [74.18754999623542, 19.024408173098777], [74.18923380949275, 19.018868343898987], [74.18332307020358, 19.01253560493427], [74.16708212613929, 19.00911162510147], [74.14498495159432, 19.0308873306858], [74.1021247296726, 19.053264164709503], [74.09977715199403, 19.06649820123107], [74.07377483064397, 19.075313735440602], [74.03620039473248, 19.067742951076355], [74.00926394667385, 19.05017271639781], [73.99210904769444, 19.061032862876345], [73.98533467505524, 19.077915675568022], [73.97925425348109, 19.079967767498545], [73.97227525000284, 19.072169005894978], [73.96492884019386, 19.085480140396214], [73.95039155112926, 19.085811988432567], [73.94577686441085, 19.10093548528448], [73.93904508816036, 19.105902383388354], [73.87889338632078, 19.10562125171947], [73.86295513966803, 19.115578594876297], [73.85324230418905, 19.113986813740496], [73.82742230959195, 19.127277212573347], [73.80735286883987, 19.13127177896945], [73.79438751737007, 19.14499207082747], [73.78316226772455, 19.146098429399046], [73.77704200078779, 19.15183759422962], [73.76806202014615, 19.154658580429214], [73.75450288320155, 19.146197193845467], [73.7518627929336, 19.14883673372833], [73.75617438294148, 19.156287141138705], [73.75205359130024, 19.164886633911067], [73.74556942988534, 19.173877491852807], [73.74065518528863, 19.172070997578544], [73.72869953775353, 19.177407052093827], [73.72751950761926, 19.187132737086188], [73.71928141910229, 19.19614559244519], [73.6941420611073, 19.187023362438254], [73.68145627918398, 19.204312067048306], [73.6767637642364, 19.194719710146558], [73.6435440992808, 19.218492443971172], [73.66222521522155, 19.240521464294204], [73.67253587772865, 19.23858692184899], [73.6856654103305, 19.2425679390592], [73.6939195418534, 19.251788787822363], [73.69038751836933, 19.269129608144965], [73.6680814825744, 19.291074654271938], [73.67240645719232, 19.302024067456784], [73.6817050712321, 19.304007800119905], [73.6844057605175, 19.310702096224816], [73.70675693778253, 19.324346726320414], [73.74200080849056, 19.335061721321438], [73.74816493266559, 19.335283140704405], [73.74294673340506, 19.323246640520097], [73.77392892827748, 19.33093146701367], [73.77305900147178, 19.341890825801045], [73.77772011119424, 19.336424276059518], [73.78915496582908, 19.33717429625682], [73.79547121392545, 19.330639904108352], [73.79232857170626, 19.35917808160326], [73.77947418308713, 19.38681693795138]]]}}, {"type": "Feature", "properties": {"OBJECTID": 36, "ST_CODE": 27, "ST_NAME": "MAHARASHTRA", "DT_CODE": 25, "DIST_NAME": "PUNE", "AC_NO": 196, "AC_NAME": "Ambegaon", "PC_NO": 36, "PC_NAME": "SHIRUR", "PC_ID": 2736, "STATUS": "", "Shape_Leng": 2.83467825308, "Shape_Area": 0.15640891151, "office": "MLA", "representative": "Dilip Walse Patil", "party": "NCP", "ac_name": "Ambegaon"}, "geometry": {"type": "Polygon", "coordinates": [[[73.63125443904119, 19.205074301837612], [73.6435440992808, 19.218492443971172], [73.6767637642364, 19.194719710146558], [73.68145627918398, 19.204312067048306], [73.6941420611073, 19.187023362438254], [73.71928141910229, 19.19614559244519], [73.72751950761926, 19.187132737086188], [73.72869953775353, 19.177407052093827], [73.74065518528863, 19.172070997578544], [73.74556942988534, 19.173877491852807], [73.75205359130024, 19.164886633911067], [73.75617438294148, 19.156287141138705], [73.7518627929336, 19.14883673372833], [73.75450288320155, 19.146197193845467], [73.76806202014615, 19.154658580429214], [73.77704200078779, 19.15183759422962], [73.78316226772455, 19.146098429399046], [73.79438751737007, 19.14499207082747], [73.80735286883987, 19.13127177896945], [73.82742230959195, 19.127277212573347], [73.85324230418905, 19.113986813740496], [73.86295513966803, 19.115578594876297], [73.87889338632078, 19.10562125171947], [73.93904508816036, 19.105902383388354], [73.94577686441085, 19.10093548528448], [73.95039155112926, 19.085811988432567], [73.96492884019386, 19.085480140396214], [73.97227525000284, 19.072169005894978], [73.97925425348109, 19.079967767498545], [73.98533467505524, 19.077915675568022], [73.99210904769444, 19.061032862876345], [74.00926394667385, 19.05017271639781], [74.03620039473248, 19.067742951076355], [74.07377483064397, 19.075313735440602], [74.09977715199403, 19.06649820123107], [74.1021247296726, 19.053264164709503], [74.14498495159432, 19.0308873306858], [74.16708212613929, 19.00911162510147], [74.18332307020358, 19.01253560493427], [74.18923380949275, 19.018868343898987], [74.19938991990892, 19.014004193338906], [74.2006530923664, 19.005719802327064], [74.21278726432087, 19.00904805652266], [74.21486412447985, 19.000758213820575], [74.21089155460163, 18.994826371040233], [74.22086091000307, 18.995271682042528], [74.22556788155254, 18.985548186000017], [74.22153287174467, 18.971438762888624], [74.23668150194982, 18.968455313262155], [74.23655355989894, 18.952871787103334], [74.24855607919977, 18.955128429833223], [74.27140138986232, 18.918883269247544], [74.29601733433259, 18.9029713034829], [74.2950299200948, 18.88991612772719], [74.30832328399242, 18.868195460652032], [74.30690150080369, 18.854514146310862], [74.32499159308759, 18.83841490122677], [74.34120194311527, 18.838370091606464], [74.34098247076446, 18.822175388883124], [74.35077879480559, 18.816865308587182], [74.34571303512854, 18.811377181411842], [74.3447554091349, 18.791435581087228], [74.34974419943529, 18.78145643296807], [74.32807783072735, 18.779006131128085], [74.32054662642571, 18.730175473819088], [74.31401904754108, 18.71552264525394], [74.31671576452095, 18.712512275321274], [74.31182248761775, 18.70686252018919], [74.28492268513389, 18.709609617190154], [74.27239738543108, 18.73707289439858], [74.26162224197293, 18.73594358782634], [74.2535168133503, 18.71832295064371], [74.24255997985927, 18.718632289548566], [74.22994586041318, 18.73006596517223], [74.22278508416434, 18.728743682974653], [74.20327344431405, 18.704601087670085], [74.17637753319667, 18.71388543216699], [74.17792046855482, 18.719096098706018], [74.15579972547698, 18.73022096872279], [74.14797897634872, 18.712443648955286], [74.13832252026816, 18.714236488822962], [74.13272106052858, 18.70277852251087], [74.12310551820514, 18.716114748996517], [74.11353213430061, 18.720419270333082], [74.09696208243423, 18.694052598548637], [74.06613655755615, 18.7170408312694], [74.03312260532402, 18.727991820066507], [74.03392350106878, 18.74852615635706], [74.01291824917791, 18.77303399422351], [73.99653179660521, 18.801356658183295], [74.00450434499959, 18.80813957078459], [74.01594189400328, 18.805053935690637], [74.01905971763193, 18.814285104174246], [74.03188190692453, 18.81453592869019], [74.03215878030352, 18.841537377947702], [74.01952323091245, 18.84443120203838], [74.02250905924575, 18.858656075617432], [74.03498110289564, 18.866654791585404], [74.04309957078863, 18.88489731535884], [74.04160450094702, 18.89234536744482], [74.02473701630032, 18.896004997532657], [74.03057718488924, 18.908877005669353], [74.02707602703708, 18.917393742827016], [73.99568972090395, 18.931987827676153], [73.97666786892705, 18.928281680155465], [73.97921400072562, 18.898349832278996], [73.96674315047608, 18.890171440759445], [73.95066716006147, 18.893157881531067], [73.94498188530582, 18.906113485249193], [73.93013061323728, 18.915664120802603], [73.90198166052528, 18.91839062692594], [73.89528146396844, 18.947221932146476], [73.88202736357204, 18.94479406029768], [73.8635551691358, 18.95828663751837], [73.85929651142493, 18.96618893627044], [73.84470428007853, 18.970000403395943], [73.8387654369754, 18.987049953992255], [73.82382665007987, 18.994904481656533], [73.8211352031272, 19.001145916051257], [73.80264150230357, 19.003864420906325], [73.78856974639672, 19.011699475550415], [73.7838294378783, 19.00230578968052], [73.77850213736383, 19.011609215093245], [73.77001155968577, 19.014327728042247], [73.76905272050669, 19.02740493988614], [73.75468185008737, 19.03782291039903], [73.74052340043465, 19.038651552926865], [73.7219883074145, 19.049422701596427], [73.69366955370697, 19.053546135445856], [73.69226033404726, 19.063472088666003], [73.67897029854049, 19.072675396152647], [73.66050048910637, 19.069667674723462], [73.6537725322766, 19.06061645338667], [73.62840329587544, 19.06759774474017], [73.62723812074273, 19.07895359303393], [73.60136124492556, 19.07945523846854], [73.58145311916616, 19.0765582721466], [73.57982596319772, 19.06153072756109], [73.5630562186696, 19.059370727776923], [73.54641996321078, 19.06260553611662], [73.5397595643525, 19.073564200627402], [73.52129196904917, 19.070551723583208], [73.52800880306387, 19.084482066494218], [73.51482741375418, 19.083396900446644], [73.5118481171969, 19.095363681588708], [73.51876519695634, 19.099255115531207], [73.52577712011805, 19.12958443047711], [73.53473413747054, 19.127386032339587], [73.54186965446104, 19.118467948437115], [73.54555938036117, 19.1409005674073], [73.5376300084182, 19.148871263198316], [73.53355182305825, 19.14631225400734], [73.53037127441485, 19.156782316850467], [73.542110331027, 19.15909521127503], [73.53518008159557, 19.178039830373905], [73.54416151734023, 19.175426886141906], [73.54432536122647, 19.185196387003714], [73.5650550032858, 19.183184716901224], [73.56539502705891, 19.188709033694977], [73.57589469198649, 19.192421376645257], [73.5838361229388, 19.188721237495145], [73.59689583127766, 19.194240055833973], [73.60892364311172, 19.193097469872384], [73.61189642767806, 19.21112021102897], [73.6229759610718, 19.216131326999175], [73.63125443904119, 19.205074301837612]]]}}, {"type": "Feature", "properties": {"OBJECTID": 36, "ST_CODE": 27, "ST_NAME": "MAHARASHTRA", "DT_CODE": 25, "DIST_NAME": "PUNE", "AC_NO": 197, "AC_NAME": "Khed Alandi", "PC_NO": 36, "PC_NAME": "SHIRUR", "PC_ID": 2736, "STATUS": "", "Shape_Leng": 2.13437609454, "Shape_Area": 0.11755167959, "office": "MLA", "representative": "Babaji Kale", "party": "Shiv Sena (UBT)", "ac_name": "Khed Alandi"}, "geometry": {"type": "Polygon", "coordinates": [[[73.60136124492556, 19.07945523846854], [73.62723812074273, 19.07895359303393], [73.62840329587544, 19.06759774474017], [73.6537725322766, 19.06061645338667], [73.66050048910637, 19.069667674723462], [73.67897029854049, 19.072675396152647], [73.69226033404726, 19.063472088666003], [73.69366955370697, 19.053546135445856], [73.7219883074145, 19.049422701596427], [73.74052340043465, 19.038651552926865], [73.75468185008737, 19.03782291039903], [73.76905272050669, 19.02740493988614], [73.77001155968577, 19.014327728042247], [73.77850213736383, 19.011609215093245], [73.7838294378783, 19.00230578968052], [73.78856974639672, 19.011699475550415], [73.80264150230357, 19.003864420906325], [73.8211352031272, 19.001145916051257], [73.82382665007987, 18.994904481656533], [73.8387654369754, 18.987049953992255], [73.84470428007853, 18.970000403395943], [73.85929651142493, 18.96618893627044], [73.8635551691358, 18.95828663751837], [73.88202736357204, 18.94479406029768], [73.89528146396844, 18.947221932146476], [73.90198166052528, 18.91839062692594], [73.93013061323728, 18.915664120802603], [73.94498188530582, 18.906113485249193], [73.95066716006147, 18.893157881531067], [73.96674315047608, 18.890171440759445], [73.97921400072562, 18.898349832278996], [73.97666786892705, 18.928281680155465], [73.99568972090395, 18.931987827676153], [74.02707602703708, 18.917393742827016], [74.03057718488924, 18.908877005669353], [74.02473701630032, 18.896004997532657], [74.04160450094702, 18.89234536744482], [74.04309957078863, 18.88489731535884], [74.03498110289564, 18.866654791585404], [74.02250905924575, 18.858656075617432], [74.01952323091245, 18.84443120203838], [74.03215878030352, 18.841537377947702], [74.03188190692453, 18.81453592869019], [74.01905971763193, 18.814285104174246], [74.01594189400328, 18.805053935690637], [74.00450434499959, 18.80813957078459], [73.99653179660521, 18.801356658183295], [74.01291824917791, 18.77303399422351], [74.03392350106878, 18.74852615635706], [74.03312260532402, 18.727991820066507], [74.01848343386342, 18.692532978114514], [74.0019121130536, 18.693896965472618], [74.00475580263821, 18.676121706951278], [74.0017365554977, 18.672585566370856], [73.99278403745342, 18.679773676613934], [73.98654355274283, 18.678029054797094], [73.99157439804009, 18.664342960559225], [73.98171595332866, 18.655555629089065], [73.98729307111842, 18.640787930118904], [73.98381051484347, 18.628248589300995], [73.97016515000172, 18.6190161338875], [73.9654570345146, 18.622353964064246], [73.96587543240531, 18.624903740815057], [73.96953101734266, 18.63734153198618], [73.94867552055888, 18.642729820924558], [73.94262012621789, 18.66041092762225], [73.92749176673169, 18.652421056486617], [73.91137493000906, 18.657176674164248], [73.89943181812396, 18.673743646751973], [73.87055160057594, 18.687604875864395], [73.86037651356531, 18.679839060923996], [73.85668821668793, 18.68348984258222], [73.84375305545922, 18.687235431669876], [73.81696015628626, 18.687640329837393], [73.81325388106183, 18.704437561244504], [73.80184182963677, 18.702894479296845], [73.78751211219429, 18.72474472608826], [73.77418188148869, 18.736990034462565], [73.76713774281262, 18.732930158400166], [73.76644537815173, 18.72048337940447], [73.75152834675583, 18.719292418910072], [73.742826509336, 18.70254699115077], [73.72477271279053, 18.70751964221779], [73.72540959647574, 18.71626859422031], [73.73499586316859, 18.7162999598753], [73.7381197500265, 18.742311770871595], [73.75837217403665, 18.737735460922806], [73.7702350313217, 18.742036813048514], [73.77332328074488, 18.763404628420915], [73.76770716655255, 18.764350986808665], [73.76835325389959, 18.772843448566334], [73.75054942031954, 18.774874347972855], [73.74229343979044, 18.76712384039297], [73.73361751183876, 18.778404281432472], [73.74294592671322, 18.808855919465145], [73.7228848154819, 18.812338829173655], [73.70543086224455, 18.829046769592765], [73.67388957504392, 18.830453559284365], [73.65986513067128, 18.84714797300063], [73.646923882831, 18.8530729944232], [73.6382422217012, 18.874435082912782], [73.61329951216283, 18.883787800166886], [73.59496155503177, 18.897888757959834], [73.57947762519228, 18.92492169338152], [73.53704369810822, 18.95625324878847], [73.53794721279371, 18.962447339273353], [73.52244529201664, 18.978319143113993], [73.52540443206897, 18.987324504422418], [73.53408560576617, 18.9909619869062], [73.53362200345276, 18.997585048611143], [73.54015432536187, 18.997225477174084], [73.5538882185665, 19.01314883015442], [73.54728174485672, 19.011571398601234], [73.53857288642962, 19.016412825091834], [73.543154300031, 19.02406720683615], [73.53331095853395, 19.030739147593636], [73.54043312149145, 19.04759513260933], [73.51509767172024, 19.045924731840955], [73.51766434313498, 19.057514574737866], [73.52611732825216, 19.054821563864152], [73.52129196904917, 19.070551723583208], [73.5397595643525, 19.073564200627402], [73.54641996321078, 19.06260553611662], [73.5630562186696, 19.059370727776923], [73.57982596319772, 19.06153072756109], [73.58145311916616, 19.0765582721466], [73.60136124492556, 19.07945523846854]]]}}, {"type": "Feature", "properties": {"OBJECTID": 33, "ST_CODE": 27, "ST_NAME": "MAHARASHTRA", "DT_CODE": 25, "DIST_NAME": "PUNE", "AC_NO": 204, "AC_NAME": "Maval", "PC_NO": 33, "PC_NAME": "MAVAL", "PC_ID": 2733, "STATUS": "", "Shape_Leng": 1.60813934087, "Shape_Area": 0.09687986679, "office": "MLA", "representative": "Sunil Shelke", "party": "NCP", "ac_name": "Maval"}, "geometry": {"type": "Polygon", "coordinates": [[[73.52244529201664, 18.978319143113993], [73.53794721279371, 18.962447339273353], [73.53704369810822, 18.95625324878847], [73.57947762519228, 18.92492169338152], [73.59496155503177, 18.897888757959834], [73.61329951216283, 18.883787800166886], [73.6382422217012, 18.874435082912782], [73.646923882831, 18.8530729944232], [73.65986513067128, 18.84714797300063], [73.67388957504392, 18.830453559284365], [73.70543086224455, 18.829046769592765], [73.7228848154819, 18.812338829173655], [73.74294592671322, 18.808855919465145], [73.73361751183876, 18.778404281432472], [73.74229343979044, 18.76712384039297], [73.75054942031954, 18.774874347972855], [73.76835325389959, 18.772843448566334], [73.76770716655255, 18.764350986808665], [73.77332328074488, 18.763404628420915], [73.7702350313217, 18.742036813048514], [73.75837217403665, 18.737735460922806], [73.7381197500265, 18.742311770871595], [73.73499586316859, 18.7162999598753], [73.72540959647574, 18.71626859422031], [73.72477271279053, 18.70751964221779], [73.71351081037568, 18.68638282220951], [73.71069567966197, 18.663587950923272], [73.71727309177982, 18.65560297389817], [73.7014074132216, 18.64321459687619], [73.67333943186935, 18.63751647170784], [73.66455741898977, 18.62276655862985], [73.66459258787768, 18.600013941090538], [73.66043707970749, 18.596627001634886], [73.62403345767797, 18.602826832492383], [73.62471849286419, 18.608683077362173], [73.60753376247322, 18.61729218838383], [73.55508602739832, 18.62523685149955], [73.53761039330504, 18.636358456077915], [73.52337129335058, 18.63802285477101], [73.49097638854954, 18.592272651561643], [73.45016509204544, 18.602605663120926], [73.44649851289608, 18.611887315047625], [73.43747545203053, 18.618385922272523], [73.42113335761843, 18.662134567356475], [73.42808462690408, 18.667290548819835], [73.42910506154942, 18.6739587088274], [73.38630198884579, 18.67837266236853], [73.3872236725345, 18.69082781135444], [73.37498833494374, 18.708614323991924], [73.37086087482959, 18.703195462600547], [73.36130937232974, 18.701194800199914], [73.36207287426379, 18.710550373700812], [73.35315402863557, 18.708942413761463], [73.34415348139811, 18.696162453934164], [73.34068994218711, 18.699083641696745], [73.33602907977826, 18.695320467265788], [73.33240967456686, 18.70158301594347], [73.34795996088354, 18.711226999326584], [73.34421460022367, 18.716379462642124], [73.35535878138273, 18.721467877140867], [73.35874624694179, 18.75520796357671], [73.34995853955502, 18.75647584578371], [73.36238522859549, 18.770658759694072], [73.36848747042046, 18.794899210230426], [73.3733926057842, 18.788130775814693], [73.37868656393385, 18.792959671151948], [73.38201179011207, 18.807317794580626], [73.37899883193063, 18.818229844531743], [73.38494953439357, 18.819079189453078], [73.38909922664806, 18.853401621087983], [73.40171683996027, 18.842769912301662], [73.41186143635628, 18.857620199612597], [73.42480711875356, 18.861357856679774], [73.42898767664002, 18.866849228609055], [73.43837769147734, 18.886476733514485], [73.43508294871918, 18.899405572509238], [73.44094112803072, 18.899513887755745], [73.43111559041222, 18.91566444815578], [73.43679914206683, 18.915304165354996], [73.44203950332047, 18.9290221126804], [73.44823371161658, 18.9239266951609], [73.45850917645737, 18.92970561901916], [73.45577087752406, 18.945211451847058], [73.45722706877427, 18.949954189434322], [73.46088832933299, 18.948707067177452], [73.46069914345077, 18.96500772802426], [73.46978379168871, 18.968997644026103], [73.47950189809416, 18.96695328176861], [73.48051687205606, 18.9801649044868], [73.48815253171404, 18.97931834566515], [73.50398525731384, 18.966603353761798], [73.51134834055352, 18.96742965805231], [73.51424961732602, 18.971919166336534], [73.51104765582471, 18.973143447612074], [73.51781232927561, 18.980083395332485], [73.52244529201664, 18.978319143113993]]]}}, {"type": "Feature", "properties": {"OBJECTID": 36, "ST_CODE": 27, "ST_NAME": "MAHARASHTRA", "DT_CODE": 25, "DIST_NAME": "PUNE", "AC_NO": 198, "AC_NAME": "Shirur", "PC_NO": 36, "PC_NAME": "SHIRUR", "PC_ID": 2736, "STATUS": "", "Shape_Leng": 2.59690109221, "Shape_Area": 0.10856423239, "office": "MLA", "representative": "Dnyaneshwar (Mauli) Katke", "party": "NCP", "ac_name": "Shirur"}, "geometry": {"type": "Polygon", "coordinates": [[[74.38904005555418, 18.83266189493054], [74.38957300638918, 18.832497491665947], [74.3986101065712, 18.82293714972974], [74.38403858841019, 18.803756114153373], [74.38892294943463, 18.783547724547873], [74.40079756445607, 18.77652812747118], [74.39343831952289, 18.76690587710459], [74.39931384136077, 18.742415564326905], [74.40990055076986, 18.741355303204728], [74.42643639422425, 18.749482985551367], [74.44098888902607, 18.737279937219398], [74.44384782931394, 18.72180295644131], [74.4656149400775, 18.725448759452718], [74.47295279553515, 18.722827408358285], [74.47905806717614, 18.716514635242277], [74.48130048442988, 18.704725217494854], [74.47378858587462, 18.692254246736127], [74.47555172743034, 18.686733582988495], [74.48795995698646, 18.675776984220477], [74.49778091525707, 18.679376085438037], [74.50827958643384, 18.67292061869165], [74.50857598589312, 18.664786117685253], [74.48964234212048, 18.65463766319766], [74.48652975524408, 18.64692249897422], [74.47627086670718, 18.649526091156247], [74.47141138452781, 18.646615097209008], [74.47669704193498, 18.634921302576117], [74.50530426398063, 18.623316840299992], [74.50972850216868, 18.612830449365788], [74.53697820747834, 18.617938386347475], [74.55126436086164, 18.60974072595377], [74.54343045645044, 18.598801073111076], [74.54155388970031, 18.580406631360972], [74.57824852964598, 18.546943054978044], [74.57007759980144, 18.54527679288975], [74.56623317612025, 18.525024989411804], [74.5471402723058, 18.50896754031976], [74.5372243240434, 18.509274521202258], [74.51243047388732, 18.490800020004997], [74.50414007720286, 18.49548596180773], [74.49990432432514, 18.533923878184453], [74.49128302209385, 18.540338088531996], [74.47518510530841, 18.54421201447292], [74.4744240009669, 18.52669216521133], [74.46611219502182, 18.523457024122422], [74.43869891742116, 18.537275781851918], [74.43221975803544, 18.56064440081849], [74.39715614114306, 18.575479014744758], [74.35332097408372, 18.560140987316743], [74.34733736452779, 18.56220096630159], [74.34126150431501, 18.57161468277144], [74.33234431343936, 18.572906300785178], [74.32067909836178, 18.581982929768458], [74.30881806310316, 18.629756248751903], [74.2947055400287, 18.636857600497933], [74.28065951912157, 18.625520730597316], [74.26821523664393, 18.62940827227402], [74.26686115172083, 18.636347871057467], [74.2807399886596, 18.651931677804725], [74.27889494134854, 18.673271913667918], [74.26716843567482, 18.667641209774047], [74.25680867827793, 18.66857760007622], [74.24454014940841, 18.663339315357177], [74.2387719634554, 18.653231989564745], [74.22089279276821, 18.64936896430629], [74.22471070353618, 18.633389356034], [74.21619635767581, 18.631461293204154], [74.20322227738626, 18.616222400743254], [74.19472406986, 18.617518967726255], [74.1899065572419, 18.595644675761207], [74.16789904600421, 18.58094459052046], [74.17023151507243, 18.54674381737334], [74.18351260862005, 18.534365588301284], [74.17738797727338, 18.489393277078136], [74.1517386946851, 18.487911109809943], [74.15024932114932, 18.46941312101876], [74.14076946224094, 18.468219200855458], [74.14277719151426, 18.418106772209796], [74.11689973383568, 18.41254577117047], [74.08575880322627, 18.417307122026102], [74.06454672974786, 18.409038601350403], [74.04284552759907, 18.41361904548262], [74.02054693729139, 18.426284560284273], [74.01273010830789, 18.42585320316283], [73.99973133982951, 18.436824085862895], [73.99623426220148, 18.454686877197673], [74.00447982678264, 18.48855250629316], [73.98894218493393, 18.491426618143976], [73.9969303878272, 18.505202504292185], [73.99165797383648, 18.508371909436107], [74.00174365834323, 18.530772861478397], [73.99289457222676, 18.532790684742338], [73.9931211968858, 18.543626223971103], [73.97358372670766, 18.546183398545054], [73.9696636952234, 18.543356079319665], [73.96254815127622, 18.54815175639851], [73.95140870324911, 18.56853495262601], [73.95636718639662, 18.573493747838256], [73.95725866275711, 18.597567086352], [73.96091174847845, 18.610181417138733], [73.96493756811435, 18.61030647866113], [73.9654570345146, 18.622353964064246], [73.97016515000172, 18.6190161338875], [73.98381051484347, 18.628248589300995], [73.98729307111842, 18.640787930118904], [73.98171595332866, 18.655555629089065], [73.99157439804009, 18.664342960559225], [73.98654355274283, 18.678029054797094], [73.99278403745342, 18.679773676613934], [74.0017365554977, 18.672585566370856], [74.00475580263821, 18.676121706951278], [74.0019121130536, 18.693896965472618], [74.01848343386342, 18.692532978114514], [74.03312260532402, 18.727991820066507], [74.06613655755615, 18.7170408312694], [74.09696208243423, 18.694052598548637], [74.11353213430061, 18.720419270333082], [74.12310551820514, 18.716114748996517], [74.13272106052858, 18.70277852251087], [74.13832252026816, 18.714236488822962], [74.14797897634872, 18.712443648955286], [74.15579972547698, 18.73022096872279], [74.17792046855482, 18.719096098706018], [74.17637753319667, 18.71388543216699], [74.20327344431405, 18.704601087670085], [74.22278508416434, 18.728743682974653], [74.22994586041318, 18.73006596517223], [74.24255997985927, 18.718632289548566], [74.2535168133503, 18.71832295064371], [74.26162224197293, 18.73594358782634], [74.27239738543108, 18.73707289439858], [74.28492268513389, 18.709609617190154], [74.31182248761775, 18.70686252018919], [74.31671576452095, 18.712512275321274], [74.31401904754108, 18.71552264525394], [74.32054662642571, 18.730175473819088], [74.32807783072735, 18.779006131128085], [74.34974419943529, 18.78145643296807], [74.3447554091349, 18.791435581087228], [74.34571303512854, 18.811377181411842], [74.35077879480559, 18.816865308587182], [74.34098247076446, 18.822175388883124], [74.34120194311527, 18.838370091606464], [74.34810681727583, 18.845094562663974], [74.37949936740193, 18.83119376967676], [74.38904005555418, 18.83266189493054]]]}}, {"type": "Feature", "properties": {"OBJECTID": 33, "ST_CODE": 27, "ST_NAME": "MAHARASHTRA", "DT_CODE": 25, "DIST_NAME": "PUNE", "AC_NO": 206, "AC_NAME": "Pimpri (SC)", "PC_NO": 33, "PC_NAME": "MAVAL", "PC_ID": 2733, "STATUS": "", "Shape_Leng": 0.41856823515, "Shape_Area": 0.00764374422, "office": "MLA", "representative": "Anna Bansode", "party": "NCP", "ac_name": "Pimpri (SC)"}, "geometry": {"type": "Polygon", "coordinates": [[[73.78751211219429, 18.72474472608826], [73.80184182963677, 18.702894479296845], [73.81325388106183, 18.704437561244504], [73.81696015628626, 18.687640329837393], [73.84375305545922, 18.687235431669876], [73.84130549115554, 18.669647805901548], [73.81287303256448, 18.667271829431456], [73.80965430949885, 18.64600423270923], [73.79897132766467, 18.64215779184866], [73.80078763264316, 18.63477925735691], [73.7829911896917, 18.641269012554915], [73.75416718876482, 18.631388143248273], [73.75551285693285, 18.640530458713727], [73.74155431847709, 18.647718001484634], [73.73399777757544, 18.64564994748713], [73.71727309177982, 18.65560297389817], [73.71069567966197, 18.663587950923272], [73.71351081037568, 18.68638282220951], [73.72477271279053, 18.70751964221779], [73.742826509336, 18.70254699115077], [73.75152834675583, 18.719292418910072], [73.76644537815173, 18.72048337940447], [73.76713774281262, 18.732930158400166], [73.77418188148869, 18.736990034462565], [73.78751211219429, 18.72474472608826]]]}}, {"type": "Feature", "properties": {"OBJECTID": 35, "ST_CODE": 27, "ST_NAME": "MAHARASHTRA", "DT_CODE": 25, "DIST_NAME": "PUNE", "AC_NO": 203, "AC_NAME": "Bhor", "PC_NO": 35, "PC_NAME": "BARAMATI", "PC_ID": 2735, "STATUS": "", "Shape_Leng": 4.15853793497, "Shape_Area": 0.20953909417, "office": "MLA", "representative": "Shankar Mandekar", "party": "NCP", "ac_name": "Bhor"}, "geometry": {"type": "Polygon", "coordinates": [[[73.38630198884579, 18.67837266236853], [73.42910506154942, 18.6739587088274], [73.42808462690408, 18.667290548819835], [73.42113335761843, 18.662134567356475], [73.43747545203053, 18.618385922272523], [73.44649851289608, 18.611887315047625], [73.45016509204544, 18.602605663120926], [73.49097638854954, 18.592272651561643], [73.52337129335058, 18.63802285477101], [73.53761039330504, 18.636358456077915], [73.55508602739832, 18.62523685149955], [73.60753376247322, 18.61729218838383], [73.62471849286419, 18.608683077362173], [73.62403345767797, 18.602826832492383], [73.66043707970749, 18.596627001634886], [73.66459258787768, 18.600013941090538], [73.66455741898977, 18.62276655862985], [73.67333943186935, 18.63751647170784], [73.7014074132216, 18.64321459687619], [73.71727309177982, 18.65560297389817], [73.73399777757544, 18.64564994748713], [73.74155431847709, 18.647718001484634], [73.75551285693285, 18.640530458713727], [73.75416718876482, 18.631388143248273], [73.76935377305824, 18.62612111529728], [73.77769170610742, 18.62785408279973], [73.7856809234359, 18.618282121622656], [73.7732063014297, 18.60778186044456], [73.77089964919952, 18.59003585507071], [73.76324982701794, 18.591301014130522], [73.76449807792403, 18.570805115763505], [73.74895200942774, 18.546734248586745], [73.7477182286134, 18.529978491214422], [73.78379122298662, 18.52810556581926], [73.7882019560555, 18.51568045868629], [73.78047349985218, 18.49299514910689], [73.77557772912894, 18.501625406787127], [73.76259967563459, 18.49324278282819], [73.77007293661677, 18.484241242739188], [73.75268530118575, 18.481117504269434], [73.74756689159881, 18.48527810979698], [73.72830474256989, 18.471574592993136], [73.69845513049995, 18.46941003454549], [73.68227966337582, 18.45494624257509], [73.6609876428655, 18.455654518940946], [73.63336352640567, 18.44301798928882], [73.64528818150444, 18.42790065908821], [73.66183292914644, 18.41692135783444], [73.6862106198243, 18.428928141720405], [73.666239436301, 18.40857127854173], [73.66879016183657, 18.399721269720885], [73.64119392346083, 18.407382680566286], [73.64106116194313, 18.387089927358318], [73.65480739924215, 18.384377948883298], [73.66950889911647, 18.365008137515588], [73.68162937979213, 18.384158076334188], [73.68147841689546, 18.392812770393107], [73.69253389882044, 18.38925634920122], [73.696063865555, 18.386791118615292], [73.69257866617255, 18.365189818555336], [73.70144303087125, 18.363888762156705], [73.70349560663698, 18.370223588447914], [73.70850525221567, 18.36887036057874], [73.71292734462133, 18.330010085696927], [73.73559929567102, 18.32944075188925], [73.79753660143308, 18.325919994212427], [73.80971976485534, 18.33507721504151], [73.81211868842678, 18.35064254701598], [73.8180575648048, 18.350898961717746], [73.82202918949554, 18.358348708126414], [73.82637788283307, 18.356918167339586], [73.8315583654263, 18.341011005753387], [73.8533207430579, 18.31538550753521], [73.85654303373406, 18.305533569418742], [73.86853042463946, 18.307187745518092], [73.88571907157797, 18.333716091124757], [73.90165532533308, 18.32910015255004], [73.88758567383985, 18.3118549319596], [73.89025795174314, 18.299540488203036], [73.8984922262353, 18.291966165006556], [73.90536084962355, 18.29184781692328], [73.93269555885303, 18.31108301956573], [73.9354446703353, 18.30837708003827], [73.9302468416185, 18.29484815222048], [73.90954380690124, 18.266278612667918], [73.92456267482765, 18.257542234986204], [73.95439252879225, 18.258944167439438], [73.98723820977563, 18.22526901205532], [74.02717379683332, 18.196949290677253], [74.05019890895255, 18.168902323783243], [74.04496898163325, 18.15277366996895], [74.05066890724436, 18.14018103082998], [74.04791055702663, 18.139282549649977], [74.0278077954934, 18.132800634741557], [74.01006413735013, 18.145809850644127], [74.00600658783384, 18.159062059766313], [73.98713253224065, 18.15234848309609], [73.97049343672279, 18.158506333600485], [73.94322482496574, 18.180650047161976], [73.93721144065552, 18.172747289755648], [73.92263101201166, 18.172013337745398], [73.9053991508502, 18.158948952032574], [73.89422627592194, 18.1823334575231], [73.88466086360802, 18.172862180845016], [73.87056604009075, 18.173729308960503], [73.85884350312523, 18.16458142759086], [73.85909310456316, 18.16851290294818], [73.85428873373814, 18.16762036179034], [73.85645525360712, 18.171761247883353], [73.8488222298621, 18.172266233400023], [73.84824228585285, 18.16842086273266], [73.85744868970534, 18.162649325905704], [73.8729819338692, 18.16836557241328], [73.90200924273245, 18.136095510599375], [73.90136376062912, 18.12829065069303], [73.89394507590458, 18.12528361904384], [73.88828048735468, 18.115923629871645], [73.86086222661055, 18.119684742157176], [73.87987064991063, 18.086213236451727], [73.86833189659978, 18.072611522903514], [73.86996795046059, 18.04745226740829], [73.8643174596831, 18.046774887251274], [73.8577124104994, 18.031552230251293], [73.84555809822768, 18.040487906691567], [73.84078602565461, 18.031854748697754], [73.82720025888489, 18.029925248751283], [73.81299572976917, 18.038156782109866], [73.79952371464776, 18.024821241806933], [73.79396856279897, 18.02641644396374], [73.79235449556359, 18.020504460012887], [73.77569158599795, 18.02791570374677], [73.76634599677038, 18.023123547513762], [73.75597047875465, 18.030245310272903], [73.75554821287977, 18.038277103305745], [73.72712074912334, 18.03664982413011], [73.72215774778186, 18.043984364686708], [73.70459884456108, 18.046503615749316], [73.66657663980016, 18.02529419527093], [73.65842558317416, 18.02960650203846], [73.64642078049468, 18.042267340365527], [73.63853012166783, 18.046782930787685], [73.62725897602098, 18.04637816122323], [73.61243491743755, 18.059264275226155], [73.62042947134307, 18.076815207755658], [73.6025390177615, 18.081555928163596], [73.60072783532138, 18.085019993477943], [73.60959804021746, 18.097845998593982], [73.59419738040486, 18.108871474638875], [73.6089557992708, 18.13270982210065], [73.60728502168644, 18.14084405960574], [73.61051172173865, 18.135213772997304], [73.60348822879877, 18.118339460697598], [73.61466287988804, 18.125610444366544], [73.62780835387247, 18.123454794603163], [73.61986715764328, 18.12784689192057], [73.63416456154533, 18.146922714012078], [73.64229581330119, 18.14110441243872], [73.65004579567699, 18.15732042549729], [73.66429458043058, 18.155205492539494], [73.66498829227595, 18.162924538236894], [73.65292222058406, 18.173704318599448], [73.63344108933484, 18.177710231741855], [73.63220063555093, 18.174869607946107], [73.59791095003038, 18.19058993987386], [73.59477269290551, 18.1781693662233], [73.58211294725476, 18.178915345766654], [73.56729960859013, 18.188070253539422], [73.55886610548646, 18.214010952443573], [73.55688520209048, 18.196634765382157], [73.54114218836133, 18.207923609686873], [73.53760344244495, 18.189419813973302], [73.5208834502111, 18.187286579811882], [73.53519106411636, 18.20492483651202], [73.53263774223808, 18.21189851960105], [73.52090444218629, 18.211075075154668], [73.53547183335849, 18.221668937771312], [73.53644067030075, 18.227063440125733], [73.52407100817055, 18.23193066546787], [73.53022051836228, 18.231948150087135], [73.53705436136971, 18.243562034560284], [73.5267706479471, 18.249762055174756], [73.5165111047038, 18.24625033838248], [73.51468197359424, 18.25364145528897], [73.5053372036491, 18.25539331844692], [73.50381965974958, 18.259629912190746], [73.51423977784356, 18.272281302240344], [73.50412413512078, 18.27223199421121], [73.500386923218, 18.282068072783375], [73.47867863710945, 18.269197897465062], [73.47654793453961, 18.275222302966938], [73.48087002413234, 18.27818227129484], [73.47453006181297, 18.287329925135964], [73.48013227968102, 18.291093206586254], [73.47392792973022, 18.28939412104188], [73.47611652525751, 18.300413474502307], [73.45567950820282, 18.297181883936844], [73.44604568356152, 18.308286147787555], [73.43415161620419, 18.307609854011616], [73.42807363988663, 18.30026753072201], [73.41896840706642, 18.3061025336051], [73.42482385243892, 18.317287375811816], [73.41992382612375, 18.320213999076827], [73.42218999717068, 18.329675343642236], [73.44381724447032, 18.359609698828592], [73.42556496575065, 18.374873753421014], [73.42736318446345, 18.389597276792927], [73.41795797018426, 18.40509901680622], [73.41342779815443, 18.405349680343534], [73.41059843477001, 18.398400528061984], [73.39952365249462, 18.400925672381902], [73.4002462973288, 18.420232234430102], [73.39432118687336, 18.44064916782486], [73.39784032397182, 18.445417943483335], [73.40241275424529, 18.444529210055066], [73.40064313127556, 18.462786552857153], [73.40457823449799, 18.465300658898343], [73.40072029220778, 18.476223253400462], [73.40811500460381, 18.500228520429914], [73.40227281973489, 18.50042329020272], [73.39640501138223, 18.490741059552306], [73.38880472835558, 18.491886020623383], [73.3899859878631, 18.483716683478235], [73.38319712085053, 18.484228688203473], [73.38359262200197, 18.47478334257727], [73.37678167933109, 18.47941284652569], [73.37308907200315, 18.46471339710564], [73.36444305460333, 18.47040189772946], [73.36069592137972, 18.484506332301464], [73.37007341855349, 18.47938447741177], [73.37918672278909, 18.481684275009343], [73.37467188959607, 18.49299092319262], [73.38118757134941, 18.49139732452693], [73.3972101105582, 18.505062832383885], [73.384334054573, 18.50397566624406], [73.3558715019683, 18.53307567899941], [73.34292656510894, 18.53129858176419], [73.34133266247244, 18.53929820694674], [73.34725175196684, 18.54423616126985], [73.34597029089628, 18.548270244776006], [73.35816460950917, 18.557876988132534], [73.33438229340817, 18.55034014957829], [73.32331413374033, 18.558224109355194], [73.32358859243965, 18.57139913506211], [73.33207811251492, 18.58271590961158], [73.32896679907856, 18.593277427211547], [73.33492409716939, 18.595844792003618], [73.33435189272575, 18.608827133465468], [73.34222328177907, 18.60385487270429], [73.36161511754369, 18.63676380930241], [73.38871120066142, 18.654540740562766], [73.38630198884579, 18.67837266236853]]]}}, {"type": "Feature", "properties": {"OBJECTID": 36, "ST_CODE": 27, "ST_NAME": "MAHARASHTRA", "DT_CODE": 25, "DIST_NAME": "PUNE", "AC_NO": 207, "AC_NAME": "Bhosari", "PC_NO": 36, "PC_NAME": "SHIRUR", "PC_ID": 2736, "STATUS": "", "Shape_Leng": 0.511396604, "Shape_Area": 0.00647681494, "office": "MLA", "representative": "Mahesh Landge", "party": "BJP", "ac_name": "Bhosari"}, "geometry": {"type": "Polygon", "coordinates": [[[73.85668821668793, 18.68348984258222], [73.86037651356531, 18.679839060923996], [73.87055160057594, 18.687604875864395], [73.89943181812396, 18.673743646751973], [73.91137493000906, 18.657176674164248], [73.92749176673169, 18.652421056486617], [73.93223492070507, 18.634668968098424], [73.92957089677952, 18.624892928266092], [73.91088902091167, 18.620668857581734], [73.90618073815062, 18.638861878173202], [73.89078205414853, 18.63964321546206], [73.89089282184631, 18.632169015587635], [73.87596051636478, 18.638848836204886], [73.86345892818701, 18.616354601084026], [73.81980676866749, 18.617513826302115], [73.81457354623222, 18.62502909371773], [73.80981344633352, 18.624765006000302], [73.80558455798104, 18.610220891980646], [73.79739630629456, 18.627002321400084], [73.7856809234359, 18.618282121622656], [73.77769170610742, 18.62785408279973], [73.76935377305824, 18.62612111529728], [73.75416718876482, 18.631388143248273], [73.7829911896917, 18.641269012554915], [73.80078763264316, 18.63477925735691], [73.79897132766467, 18.64215779184866], [73.80965430949885, 18.64600423270923], [73.81287303256448, 18.667271829431456], [73.84130549115554, 18.669647805901548], [73.84375305545922, 18.687235431669876], [73.85668821668793, 18.68348984258222]]]}}, {"type": "Feature", "properties": {"OBJECTID": 34, "ST_CODE": 27, "ST_NAME": "MAHARASHTRA", "DT_CODE": 25, "DIST_NAME": "PUNE", "AC_NO": 208, "AC_NAME": "Vadgaon Sheri", "PC_NO": 34, "PC_NAME": "PUNE", "PC_ID": 2734, "STATUS": "", "Shape_Leng": 0.41474774871, "Shape_Area": 0.00707386302, "office": "MLA", "representative": "Bapusaheb Pathare", "party": "NCP-Sharadchandra Pawar", "ac_name": "Vadgaon Sheri"}, "geometry": {"type": "Polygon", "coordinates": [[[73.96587543240531, 18.624903740815057], [73.9654570345146, 18.622353964064246], [73.96493756811435, 18.61030647866113], [73.96091174847845, 18.610181417138733], [73.95725866275711, 18.597567086352], [73.95636718639662, 18.573493747838256], [73.95140870324911, 18.56853495262601], [73.96254815127622, 18.54815175639851], [73.95050787483859, 18.547450476758172], [73.94373421626113, 18.5378467227481], [73.89409583105783, 18.544240906092966], [73.87940379205139, 18.54366944988527], [73.87754463527676, 18.547350392106978], [73.88135828775484, 18.549878092300162], [73.87324945879556, 18.553593969586075], [73.87261277026317, 18.57882652702267], [73.87782150955508, 18.572267727273868], [73.88296657864475, 18.583540650880366], [73.88209721751264, 18.59476649138054], [73.89684996255579, 18.62293232166934], [73.90532942011669, 18.618661716465112], [73.91088902091167, 18.620668857581734], [73.92957089677952, 18.624892928266092], [73.93223492070507, 18.634668968098424], [73.92749176673169, 18.652421056486617], [73.94262012621789, 18.66041092762225], [73.94867552055888, 18.642729820924558], [73.96953101734266, 18.63734153198618], [73.96587543240531, 18.624903740815057]]]}}, {"type": "Feature", "properties": {"OBJECTID": 35, "ST_CODE": 27, "ST_NAME": "MAHARASHTRA", "DT_CODE": 25, "DIST_NAME": "PUNE", "AC_NO": 199, "AC_NAME": "Daund", "PC_NO": 35, "PC_NAME": "BARAMATI", "PC_ID": 2735, "STATUS": "", "Shape_Leng": 2.30673275323, "Shape_Area": 0.11218472363, "office": "MLA", "representative": "Rahul Kul", "party": "BJP", "ac_name": "Daund"}, "geometry": {"type": "Polygon", "coordinates": [[[74.5471402723058, 18.50896754031976], [74.5577959390314, 18.49179405325299], [74.57930800835794, 18.4735907003506], [74.61466589781298, 18.467983383326555], [74.64207561769564, 18.450293548708373], [74.67454957830046, 18.462479106125897], [74.67321453742102, 18.467523881921636], [74.66302227066132, 18.46917091740397], [74.6559739519364, 18.475496096667598], [74.6607261926597, 18.49064970102296], [74.70060707845397, 18.50660563194441], [74.7085215513286, 18.50424161016224], [74.71962929285763, 18.492269238834353], [74.72792442357337, 18.482785586585578], [74.71614005911647, 18.4276369050192], [74.72768861054101, 18.411879775531247], [74.72869642140279, 18.403411918325446], [74.73878121108407, 18.39765635255867], [74.75448081184004, 18.396594483448723], [74.7784179714123, 18.409489011508697], [74.79402605266029, 18.40104549895068], [74.80938945086251, 18.382193679994373], [74.79392790604805, 18.353659086297853], [74.8077644622602, 18.343276087721335], [74.83139752327713, 18.343299296525345], [74.8341671078258, 18.334678934085616], [74.83434230115631, 18.323140101634408], [74.84493855956691, 18.306711429488928], [74.84375677575463, 18.29983794526504], [74.83178688835426, 18.29475258936054], [74.80328109364763, 18.301704327193022], [74.8033756762465, 18.323261923798782], [74.7788592507539, 18.327910319805483], [74.75978518593763, 18.328453846667742], [74.74802926613779, 18.303277283719694], [74.71458440824392, 18.306512083066252], [74.62178658138566, 18.309175715786694], [74.61641422303802, 18.344507425077666], [74.60459577067832, 18.349231708576554], [74.54898207935952, 18.337284074900197], [74.52914885813334, 18.327519362928285], [74.48110562472488, 18.32744486938526], [74.46747922748443, 18.337079969265233], [74.44614993637055, 18.342398089500307], [74.43509321967639, 18.357222493423365], [74.4259239551265, 18.360700521611818], [74.38311329574208, 18.3539297525561], [74.36747532282794, 18.365610773218634], [74.36012712966334, 18.381678832512137], [74.35340418295675, 18.390110431751054], [74.32250067516605, 18.37315689367574], [74.3071275669837, 18.374697271362038], [74.30587308287653, 18.385855162685687], [74.28790980669226, 18.400144541037776], [74.2938541203714, 18.40956677408741], [74.30004756424376, 18.4092842097985], [74.30150644086962, 18.426811885859877], [74.27107922842373, 18.445859342434744], [74.25907129880147, 18.43126754995751], [74.24832390122714, 18.43506591935676], [74.19283545039576, 18.427885081931038], [74.16589706699608, 18.432536934032328], [74.14277719151426, 18.418106772209796], [74.14076946224094, 18.468219200855458], [74.15024932114932, 18.46941312101876], [74.1517386946851, 18.487911109809943], [74.17738797727338, 18.489393277078136], [74.18351260862005, 18.534365588301284], [74.17023151507243, 18.54674381737334], [74.16789904600421, 18.58094459052046], [74.1899065572419, 18.595644675761207], [74.19472406986, 18.617518967726255], [74.20322227738626, 18.616222400743254], [74.21619635767581, 18.631461293204154], [74.22471070353618, 18.633389356034], [74.22089279276821, 18.64936896430629], [74.2387719634554, 18.653231989564745], [74.24454014940841, 18.663339315357177], [74.25680867827793, 18.66857760007622], [74.26716843567482, 18.667641209774047], [74.27889494134854, 18.673271913667918], [74.2807399886596, 18.651931677804725], [74.26686115172083, 18.636347871057467], [74.26821523664393, 18.62940827227402], [74.28065951912157, 18.625520730597316], [74.2947055400287, 18.636857600497933], [74.30881806310316, 18.629756248751903], [74.32067909836178, 18.581982929768458], [74.33234431343936, 18.572906300785178], [74.34126150431501, 18.57161468277144], [74.34733736452779, 18.56220096630159], [74.35332097408372, 18.560140987316743], [74.39715614114306, 18.575479014744758], [74.43221975803544, 18.56064440081849], [74.43869891742116, 18.537275781851918], [74.46611219502182, 18.523457024122422], [74.4744240009669, 18.52669216521133], [74.47518510530841, 18.54421201447292], [74.49128302209385, 18.540338088531996], [74.49990432432514, 18.533923878184453], [74.50414007720286, 18.49548596180773], [74.51243047388732, 18.490800020004997], [74.5372243240434, 18.509274521202258], [74.5471402723058, 18.50896754031976]]]}}, {"type": "Feature", "properties": {"OBJECTID": 33, "ST_CODE": 27, "ST_NAME": "MAHARASHTRA", "DT_CODE": 25, "DIST_NAME": "PUNE", "AC_NO": 205, "AC_NAME": "Chinchwad", "PC_NO": 33, "PC_NAME": "MAVAL", "PC_ID": 2733, "STATUS": "", "Shape_Leng": 0.4284066132, "Shape_Area": 0.00563556835, "office": "MLA", "representative": "Shankar Jagtap", "party": "BJP", "ac_name": "Chinchwad"}, "geometry": {"type": "Polygon", "coordinates": [[[73.7856809234359, 18.618282121622656], [73.79739630629456, 18.627002321400084], [73.80558455798104, 18.610220891980646], [73.80981344633352, 18.624765006000302], [73.81457354623222, 18.62502909371773], [73.81980676866749, 18.617513826302115], [73.86345892818701, 18.616354601084026], [73.87596051636478, 18.638848836204886], [73.89089282184631, 18.632169015587635], [73.89078205414853, 18.63964321546206], [73.90618073815062, 18.638861878173202], [73.91088902091167, 18.620668857581734], [73.90532942011669, 18.618661716465112], [73.89684996255579, 18.62293232166934], [73.88209721751264, 18.59476649138054], [73.88296657864475, 18.583540650880366], [73.87782150955508, 18.572267727273868], [73.87261277026317, 18.57882652702267], [73.8600258661009, 18.58504730309062], [73.85314856335555, 18.574523183797965], [73.83577102281453, 18.573810707598113], [73.83097275299019, 18.56921715045121], [73.80717551713644, 18.569999534550902], [73.78969582260419, 18.56555094182255], [73.77913172394994, 18.587010838779236], [73.77089964919952, 18.59003585507071], [73.7732063014297, 18.60778186044456], [73.7856809234359, 18.618282121622656]]]}}, {"type": "Feature", "properties": {"OBJECTID": 34, "ST_CODE": 27, "ST_NAME": "MAHARASHTRA", "DT_CODE": 25, "DIST_NAME": "PUNE", "AC_NO": 210, "AC_NAME": "Kothrud", "PC_NO": 34, "PC_NAME": "PUNE", "PC_ID": 2734, "STATUS": "", "Shape_Leng": 0.40733185667, "Shape_Area": 0.00426247932, "office": "MLA", "representative": "Chandrakant Patil", "party": "BJP", "ac_name": "Kothrud"}, "geometry": {"type": "Polygon", "coordinates": [[[73.80717551713644, 18.569999534550902], [73.8060632698041, 18.563341280575685], [73.81273722054635, 18.56364633780828], [73.82237126642087, 18.550494080237684], [73.82083131591253, 18.547446529633703], [73.81519351546842, 18.549436723925737], [73.81560113768239, 18.542751672851466], [73.80083032615869, 18.540729991495937], [73.80199684577786, 18.535174897203774], [73.82260717837863, 18.51772413026447], [73.82685700114973, 18.517210861991714], [73.8289945475604, 18.522383938667872], [73.83785274920507, 18.521938361466255], [73.84122309616902, 18.51491791722816], [73.83769996158401, 18.51154047371392], [73.83083768651011, 18.495162057483014], [73.80313017231964, 18.50060396849841], [73.8087442612387, 18.49177048292148], [73.78047349985218, 18.49299514910689], [73.7882019560555, 18.51568045868629], [73.78379122298662, 18.52810556581926], [73.7477182286134, 18.529978491214422], [73.74895200942774, 18.546734248586745], [73.76449807792403, 18.570805115763505], [73.76324982701794, 18.591301014130522], [73.77089964919952, 18.59003585507071], [73.77913172394994, 18.587010838779236], [73.78969582260419, 18.56555094182255], [73.80717551713644, 18.569999534550902]]]}}, {"type": "Feature", "properties": {"OBJECTID": 34, "ST_CODE": 27, "ST_NAME": "MAHARASHTRA", "DT_CODE": 25, "DIST_NAME": "PUNE", "AC_NO": 209, "AC_NAME": "Shivajinagar", "PC_NO": 34, "PC_NAME": "PUNE", "PC_ID": 2734, "STATUS": "", "Shape_Leng": 0.28783728374, "Shape_Area": 0.00310731288, "office": "MLA", "representative": "Siddharth Shirole", "party": "BJP", "ac_name": "Shivajinagar"}, "geometry": {"type": "Polygon", "coordinates": [[[73.87261277026317, 18.57882652702267], [73.87324945879556, 18.553593969586075], [73.88135828775484, 18.549878092300162], [73.87754463527676, 18.547350392106978], [73.87940379205139, 18.54366944988527], [73.86375402093137, 18.539748537065407], [73.85800714801155, 18.527732506350162], [73.84122309616902, 18.51491791722816], [73.83785274920507, 18.521938361466255], [73.8289945475604, 18.522383938667872], [73.82685700114973, 18.517210861991714], [73.82260717837863, 18.51772413026447], [73.80199684577786, 18.535174897203774], [73.80083032615869, 18.540729991495937], [73.81560113768239, 18.542751672851466], [73.81519351546842, 18.549436723925737], [73.82083131591253, 18.547446529633703], [73.82237126642087, 18.550494080237684], [73.81273722054635, 18.56364633780828], [73.8060632698041, 18.563341280575685], [73.80717551713644, 18.569999534550902], [73.83097275299019, 18.56921715045121], [73.83577102281453, 18.573810707598113], [73.85314856335555, 18.574523183797965], [73.8600258661009, 18.58504730309062], [73.87261277026317, 18.57882652702267]]]}}, {"type": "Feature", "properties": {"OBJECTID": 34, "ST_CODE": 27, "ST_NAME": "MAHARASHTRA", "DT_CODE": 25, "DIST_NAME": "PUNE", "AC_NO": 215, "AC_NAME": "Kasba Peth", "PC_NO": 34, "PC_NAME": "PUNE", "PC_ID": 2734, "STATUS": "", "Shape_Leng": 0.15964393538, "Shape_Area": 0.00091595894, "office": "MLA", "representative": "Hemant Rasane", "party": "BJP", "ac_name": "Kasba Peth"}, "geometry": {"type": "Polygon", "coordinates": [[[73.89409583105783, 18.544240906092966], [73.8874741255305, 18.532070061584136], [73.87631451110587, 18.531643085060352], [73.87593475708343, 18.507100592718245], [73.86449468188414, 18.511336100980316], [73.84802056429766, 18.50799393427269], [73.83769996158401, 18.51154047371392], [73.84122309616902, 18.51491791722816], [73.85800714801155, 18.527732506350162], [73.86375402093137, 18.539748537065407], [73.87940379205139, 18.54366944988527], [73.89409583105783, 18.544240906092966]]]}}, {"type": "Feature", "properties": {"OBJECTID": 34, "ST_CODE": 27, "ST_NAME": "MAHARASHTRA", "DT_CODE": 25, "DIST_NAME": "PUNE", "AC_NO": 214, "AC_NAME": "Pune Cantonment (SC)", "PC_NO": 34, "PC_NAME": "PUNE", "PC_ID": 2734, "STATUS": "", "Shape_Leng": 0.4377874403, "Shape_Area": 0.00637967935, "office": "MLA", "representative": "Sunil Kamble", "party": "BJP", "ac_name": "Pune Cantonment (SC)"}, "geometry": {"type": "Polygon", "coordinates": [[[73.96254815127622, 18.54815175639851], [73.9696636952234, 18.543356079319665], [73.97358372670766, 18.546183398545054], [73.9931211968858, 18.543626223971103], [73.99289457222676, 18.532790684742338], [74.00174365834323, 18.530772861478397], [73.99165797383648, 18.508371909436107], [73.9969303878272, 18.505202504292185], [73.98894218493393, 18.491426618143976], [73.95912948733604, 18.492092879083145], [73.9496946332008, 18.490980968996553], [73.94433887903608, 18.474382360057916], [73.93723336342902, 18.48328454394658], [73.938253615512, 18.504140572229687], [73.92531735171445, 18.506193745145254], [73.92499893865016, 18.48951134187496], [73.91466987511473, 18.48972287231277], [73.9130706970551, 18.483220096730122], [73.8992211618272, 18.48082457799194], [73.89807520520662, 18.47240921871054], [73.89124521669345, 18.47047883832778], [73.88879324840974, 18.478994973839008], [73.88397106291427, 18.476498260686242], [73.87959109115599, 18.482135910044235], [73.88172759345372, 18.49101268178987], [73.87745871045121, 18.493491399508514], [73.87593475708343, 18.507100592718245], [73.87631451110587, 18.531643085060352], [73.8874741255305, 18.532070061584136], [73.89409583105783, 18.544240906092966], [73.94373421626113, 18.5378467227481], [73.95050787483859, 18.547450476758172], [73.96254815127622, 18.54815175639851]]]}}, {"type": "Feature", "properties": {"OBJECTID": 34, "ST_CODE": 27, "ST_NAME": "MAHARASHTRA", "DT_CODE": 25, "DIST_NAME": "PUNE", "AC_NO": 212, "AC_NAME": "Parvati", "PC_NO": 34, "PC_NAME": "PUNE", "PC_ID": 2734, "STATUS": "", "Shape_Leng": 0.19070361656, "Shape_Area": 0.00171727061, "office": "MLA", "representative": "Madhuri Misal", "party": "BJP", "ac_name": "Parvati"}, "geometry": {"type": "Polygon", "coordinates": [[[73.83769996158401, 18.51154047371392], [73.84802056429766, 18.50799393427269], [73.86449468188414, 18.511336100980316], [73.87593475708343, 18.507100592718245], [73.87745871045121, 18.493491399508514], [73.88172759345372, 18.49101268178987], [73.87959109115599, 18.482135910044235], [73.8751334089797, 18.47679823674929], [73.86407453840928, 18.47478394782098], [73.86257923564324, 18.480035894141224], [73.83969726141953, 18.476165565488486], [73.8371465394813, 18.472331010967423], [73.82975988411141, 18.474319839189263], [73.81948789335166, 18.470186701654995], [73.81526449356159, 18.47597706578898], [73.81972685580979, 18.48475657225805], [73.83247096416375, 18.49243417000099], [73.83083768651011, 18.495162057483014], [73.83769996158401, 18.51154047371392]]]}}, {"type": "Feature", "properties": {"OBJECTID": 35, "ST_CODE": 27, "ST_NAME": "MAHARASHTRA", "DT_CODE": 25, "DIST_NAME": "PUNE", "AC_NO": 211, "AC_NAME": "Khadakwasala", "PC_NO": 35, "PC_NAME": "BARAMATI", "PC_ID": 2735, "STATUS": "", "Shape_Leng": 0.95887041968, "Shape_Area": 0.01974796895, "office": "MLA", "representative": "Bhimrao Tapkir", "party": "BJP", "ac_name": "Khadakwasala"}, "geometry": {"type": "Polygon", "coordinates": [[[73.83083768651011, 18.495162057483014], [73.83247096416375, 18.49243417000099], [73.81972685580979, 18.48475657225805], [73.81526449356159, 18.47597706578898], [73.81948789335166, 18.470186701654995], [73.82975988411141, 18.474319839189263], [73.8371465394813, 18.472331010967423], [73.8432274691724, 18.471922192655143], [73.84685618146767, 18.458202932319523], [73.85965588051454, 18.45799605317535], [73.86145729451857, 18.444314887222333], [73.85069486387692, 18.44464021607314], [73.85391161382995, 18.43764986494938], [73.84694608489394, 18.418882012994573], [73.84109506778321, 18.425171573709235], [73.82867067561125, 18.424696969989213], [73.82163981722385, 18.407465499133536], [73.80145562387798, 18.42613024201711], [73.789244630935, 18.423382371599246], [73.78662424841042, 18.41082951666891], [73.79889144538396, 18.37750413820544], [73.79068687280102, 18.372776856366897], [73.79312041577464, 18.365068573755707], [73.78041596392563, 18.36495640941081], [73.7503055871332, 18.354513573542647], [73.73748842505086, 18.344200532328728], [73.73559929567102, 18.32944075188925], [73.71292734462133, 18.330010085696927], [73.70850525221567, 18.36887036057874], [73.70349560663698, 18.370223588447914], [73.70144303087125, 18.363888762156705], [73.69257866617255, 18.365189818555336], [73.696063865555, 18.386791118615292], [73.69253389882044, 18.38925634920122], [73.68147841689546, 18.392812770393107], [73.68162937979213, 18.384158076334188], [73.66950889911647, 18.365008137515588], [73.65480739924215, 18.384377948883298], [73.64106116194313, 18.387089927358318], [73.64119392346083, 18.407382680566286], [73.66879016183657, 18.399721269720885], [73.666239436301, 18.40857127854173], [73.6862106198243, 18.428928141720405], [73.66183292914644, 18.41692135783444], [73.64528818150444, 18.42790065908821], [73.63336352640567, 18.44301798928882], [73.6609876428655, 18.455654518940946], [73.68227966337582, 18.45494624257509], [73.69845513049995, 18.46941003454549], [73.72830474256989, 18.471574592993136], [73.74756689159881, 18.48527810979698], [73.75268530118575, 18.481117504269434], [73.77007293661677, 18.484241242739188], [73.76259967563459, 18.49324278282819], [73.77557772912894, 18.501625406787127], [73.78047349985218, 18.49299514910689], [73.8087442612387, 18.49177048292148], [73.80313017231964, 18.50060396849841], [73.83083768651011, 18.495162057483014]]]}}, {"type": "Feature", "properties": {"OBJECTID": 36, "ST_CODE": 27, "ST_NAME": "MAHARASHTRA", "DT_CODE": 25, "DIST_NAME": "PUNE", "AC_NO": 213, "AC_NAME": "Hadapsar", "PC_NO": 36, "PC_NAME": "SHIRUR", "PC_ID": 2736, "STATUS": "", "Shape_Leng": 0.35672839709, "Shape_Area": 0.00333741706, "office": "MLA", "representative": "Chetan Tupe", "party": "NCP", "ac_name": "Hadapsar"}, "geometry": {"type": "Polygon", "coordinates": [[[73.87959109115599, 18.482135910044235], [73.88397106291427, 18.476498260686242], [73.88879324840974, 18.478994973839008], [73.89124521669345, 18.47047883832778], [73.89807520520662, 18.47240921871054], [73.8992211618272, 18.48082457799194], [73.9130706970551, 18.483220096730122], [73.91466987511473, 18.48972287231277], [73.92499893865016, 18.48951134187496], [73.92531735171445, 18.506193745145254], [73.938253615512, 18.504140572229687], [73.93723336342902, 18.48328454394658], [73.94433887903608, 18.474382360057916], [73.92547657398478, 18.460452056717088], [73.92535959736756, 18.450228675213225], [73.91086254037401, 18.44017829089546], [73.90340336547297, 18.440047869413718], [73.8984603587586, 18.44551807489927], [73.87364074032797, 18.437584618235576], [73.87129012473952, 18.4412756157771], [73.85069486387692, 18.44464021607314], [73.86145729451857, 18.444314887222333], [73.85965588051454, 18.45799605317535], [73.84685618146767, 18.458202932319523], [73.8432274691724, 18.471922192655143], [73.8371465394813, 18.472331010967423], [73.83969726141953, 18.476165565488486], [73.86257923564324, 18.480035894141224], [73.86407453840928, 18.47478394782098], [73.8751334089797, 18.47679823674929], [73.87959109115599, 18.482135910044235]]]}}, {"type": "Feature", "properties": {"OBJECTID": 35, "ST_CODE": 27, "ST_NAME": "MAHARASHTRA", "DT_CODE": 25, "DIST_NAME": "PUNE", "AC_NO": 202, "AC_NAME": "Purandar", "PC_NO": 35, "PC_NAME": "BARAMATI", "PC_ID": 2735, "STATUS": "", "Shape_Leng": 1.99636851376, "Shape_Area": 0.11219026155, "office": "MLA", "representative": "Vijay Shivtare", "party": "Shiv Sena", "ac_name": "Purandar"}, "geometry": {"type": "Polygon", "coordinates": [[[73.95912948733604, 18.492092879083145], [73.98894218493393, 18.491426618143976], [74.00447982678264, 18.48855250629316], [73.99623426220148, 18.454686877197673], [73.99973133982951, 18.436824085862895], [74.01273010830789, 18.42585320316283], [74.02054693729139, 18.426284560284273], [74.04284552759907, 18.41361904548262], [74.06454672974786, 18.409038601350403], [74.08575880322627, 18.417307122026102], [74.11689973383568, 18.41254577117047], [74.14277719151426, 18.418106772209796], [74.16589706699608, 18.432536934032328], [74.19283545039576, 18.427885081931038], [74.24832390122714, 18.43506591935676], [74.25907129880147, 18.43126754995751], [74.27107922842373, 18.445859342434744], [74.30150644086962, 18.426811885859877], [74.30004756424376, 18.4092842097985], [74.2938541203714, 18.40956677408741], [74.28790980669226, 18.400144541037776], [74.30587308287653, 18.385855162685687], [74.3071275669837, 18.374697271362038], [74.3079220532602, 18.341492276147676], [74.27607247396554, 18.331248480932686], [74.26434837307903, 18.30270591384692], [74.26153870574672, 18.272180186066805], [74.24297843530661, 18.241506545890445], [74.2468929395576, 18.226781916352422], [74.24482679122349, 18.198456214482746], [74.24948015868245, 18.191557714716794], [74.2460359198219, 18.183479987011822], [74.25517005595339, 18.174154782717096], [74.224249980852, 18.12979474343274], [74.2192768927145, 18.11848720132332], [74.21872658496397, 18.096474869719486], [74.20873888159417, 18.09757820207244], [74.18695872616433, 18.111990481775365], [74.1612672302985, 18.107892821596465], [74.14865675130807, 18.121116068052174], [74.13683332120087, 18.117068233012617], [74.11935694606626, 18.132997179776055], [74.10257426838785, 18.12337286636472], [74.07718609496237, 18.121841785869776], [74.06537782652555, 18.136478012050645], [74.05066890724436, 18.14018103082998], [74.04496898163325, 18.15277366996895], [74.05019890895255, 18.168902323783243], [74.02717379683332, 18.196949290677253], [73.98723820977563, 18.22526901205532], [73.95439252879225, 18.258944167439438], [73.92456267482765, 18.257542234986204], [73.90954380690124, 18.266278612667918], [73.9302468416185, 18.29484815222048], [73.9354446703353, 18.30837708003827], [73.93269555885303, 18.31108301956573], [73.90536084962355, 18.29184781692328], [73.8984922262353, 18.291966165006556], [73.89025795174314, 18.299540488203036], [73.88758567383985, 18.3118549319596], [73.90165532533308, 18.32910015255004], [73.88571907157797, 18.333716091124757], [73.86853042463946, 18.307187745518092], [73.85654303373406, 18.305533569418742], [73.8533207430579, 18.31538550753521], [73.8315583654263, 18.341011005753387], [73.82637788283307, 18.356918167339586], [73.82202918949554, 18.358348708126414], [73.8180575648048, 18.350898961717746], [73.81211868842678, 18.35064254701598], [73.80971976485534, 18.33507721504151], [73.79753660143308, 18.325919994212427], [73.73559929567102, 18.32944075188925], [73.73748842505086, 18.344200532328728], [73.7503055871332, 18.354513573542647], [73.78041596392563, 18.36495640941081], [73.79312041577464, 18.365068573755707], [73.79068687280102, 18.372776856366897], [73.79889144538396, 18.37750413820544], [73.78662424841042, 18.41082951666891], [73.789244630935, 18.423382371599246], [73.80145562387798, 18.42613024201711], [73.82163981722385, 18.407465499133536], [73.82867067561125, 18.424696969989213], [73.84109506778321, 18.425171573709235], [73.84694608489394, 18.418882012994573], [73.85391161382995, 18.43764986494938], [73.85069486387692, 18.44464021607314], [73.87129012473952, 18.4412756157771], [73.87364074032797, 18.437584618235576], [73.8984603587586, 18.44551807489927], [73.90340336547297, 18.440047869413718], [73.91086254037401, 18.44017829089546], [73.92535959736756, 18.450228675213225], [73.92547657398478, 18.460452056717088], [73.94433887903608, 18.474382360057916], [73.9496946332008, 18.490980968996553], [73.95912948733604, 18.492092879083145]]]}}, {"type": "Feature", "properties": {"OBJECTID": 35, "ST_CODE": 27, "ST_NAME": "MAHARASHTRA", "DT_CODE": 25, "DIST_NAME": "PUNE", "AC_NO": 201, "AC_NAME": "Baramati", "PC_NO": 35, "PC_NAME": "BARAMATI", "PC_ID": 2735, "STATUS": "", "Shape_Leng": 1.63468608859, "Shape_Area": 0.11781244678, "office": "MLA", "representative": "Ajit Pawar", "party": "NCP", "ac_name": "Baramati"}, "geometry": {"type": "Polygon", "coordinates": [[[74.36012712966334, 18.381678832512137], [74.36747532282794, 18.365610773218634], [74.38311329574208, 18.3539297525561], [74.4259239551265, 18.360700521611818], [74.43509321967639, 18.357222493423365], [74.44614993637055, 18.342398089500307], [74.46747922748443, 18.337079969265233], [74.48110562472488, 18.32744486938526], [74.52914885813334, 18.327519362928285], [74.54898207935952, 18.337284074900197], [74.60459577067832, 18.349231708576554], [74.61641422303802, 18.344507425077666], [74.62178658138566, 18.309175715786694], [74.71458440824392, 18.306512083066252], [74.70888872113761, 18.273984117273244], [74.6989200231406, 18.27809951657946], [74.67138787225258, 18.273977908353856], [74.6581707933475, 18.243388296332853], [74.65578112200126, 18.203919701133373], [74.66765972101939, 18.192182254307625], [74.65996438684704, 18.169151101442253], [74.66923220720065, 18.147636168674296], [74.67998584427136, 18.136522363016695], [74.68449883475347, 18.11054890360907], [74.66457558959183, 18.070107474880103], [74.65457365085337, 18.068285618386653], [74.65376518191766, 18.058854471256893], [74.64109441327662, 18.04408194742399], [74.62933893144657, 18.057179596361323], [74.62218244496393, 18.049814267514478], [74.61010728832076, 18.046554490397455], [74.59008319138621, 18.055984418046478], [74.58189742452657, 18.046571152137005], [74.57850297303384, 18.054322215497905], [74.56916618367251, 18.05561093050011], [74.55882949928201, 18.07003965430664], [74.54750107941135, 18.068492162083658], [74.53264024485145, 18.057513338369915], [74.50066335123273, 18.060434979390834], [74.46069901374852, 18.04611544856914], [74.43655131569074, 18.06453761102199], [74.39400187788442, 18.073108101557693], [74.38135162098058, 18.070152947300755], [74.37211183609242, 18.075063785265513], [74.35613143731604, 18.097103834874133], [74.33140589336733, 18.088087699687662], [74.32002614648951, 18.072868220891735], [74.30273559916861, 18.06733110404724], [74.29469897767575, 18.074100556495523], [74.26346213976598, 18.080324026932374], [74.23761923314117, 18.09877982402969], [74.21872658496397, 18.096474869719486], [74.2192768927145, 18.11848720132332], [74.224249980852, 18.12979474343274], [74.25517005595339, 18.174154782717096], [74.2460359198219, 18.183479987011822], [74.24948015868245, 18.191557714716794], [74.24482679122349, 18.198456214482746], [74.2468929395576, 18.226781916352422], [74.24297843530661, 18.241506545890445], [74.26153870574672, 18.272180186066805], [74.26434837307903, 18.30270591384692], [74.27607247396554, 18.331248480932686], [74.3079220532602, 18.341492276147676], [74.3071275669837, 18.374697271362038], [74.32250067516605, 18.37315689367574], [74.35340418295675, 18.390110431751054], [74.36012712966334, 18.381678832512137]]]}}, {"type": "Feature", "properties": {"OBJECTID": 35, "ST_CODE": 27, "ST_NAME": "MAHARASHTRA", "DT_CODE": 25, "DIST_NAME": "PUNE", "AC_NO": 200, "AC_NAME": "Indapur", "PC_NO": 35, "PC_NAME": "BARAMATI", "PC_ID": 2735, "STATUS": "", "Shape_Leng": 2.22949592974, "Shape_Area": 0.12522135996, "office": "MLA", "representative": "Dattatraya Bharane", "party": "NCP", "ac_name": "Indapur"}, "geometry": {"type": "Polygon", "coordinates": [[[74.7788592507539, 18.327910319805483], [74.8033756762465, 18.323261923798782], [74.80328109364763, 18.301704327193022], [74.7966050025189, 18.294241724975677], [74.7977646171434, 18.279142256210207], [74.8393777482845, 18.24491659072811], [74.87586483369518, 18.24799413552097], [74.8933261568767, 18.25959499691163], [74.92520545786567, 18.2589262142734], [74.94932547569022, 18.266313965017503], [74.96376641858541, 18.250530166134297], [74.99070268408167, 18.23976775887502], [75.04190357389086, 18.261950905909657], [75.04362066566125, 18.25253170267598], [75.02574007044797, 18.237546688828672], [75.00892538679722, 18.210120222670184], [75.01886127213004, 18.191621212249174], [75.02328223228926, 18.188572123804533], [75.03756365164128, 18.19581351977814], [75.0544360519823, 18.197149586784064], [75.08080652879835, 18.21843287757531], [75.10616603183695, 18.219322638928702], [75.11154442733351, 18.196261440613057], [75.09078656454835, 18.148814769785872], [75.0923004976699, 18.12305956414764], [75.11322923703972, 18.118223755721772], [75.14145540104596, 18.123090061057496], [75.15507165213512, 18.121185074831374], [75.16300400083401, 18.113354630112156], [75.16039022382984, 18.10531869570127], [75.1349322144502, 18.092128150393876], [75.12876421779447, 18.07435990388649], [75.09555723777635, 18.069744972552485], [75.08518900426918, 18.057130573417282], [75.08028839429403, 18.03893758250348], [75.04830994844542, 18.019795867984953], [75.02717500172503, 17.988699354891367], [75.02007133062745, 17.96742506541449], [75.03886099114186, 17.94981872025778], [75.05416781389357, 17.952242304139077], [75.06871045212574, 17.97903440471407], [75.07997663891081, 17.98251497258798], [75.10015984839833, 17.97595515300793], [75.10833613280636, 17.99943074723126], [75.1148665301663, 18.0012173583944], [75.12453253794632, 17.997212251044573], [75.13602129344798, 17.971185090419624], [75.1171094465438, 17.97196198505759], [75.11671184997198, 17.96618571689737], [75.12817138200376, 17.96157536221324], [75.12924377677894, 17.95586793535699], [75.11704590854191, 17.94777721874368], [75.11189747239047, 17.93860296925169], [75.10722494667402, 17.93756512912745], [75.0972222596996, 17.94653027635121], [75.08175705194645, 17.94142915982792], [75.07998102130716, 17.935345009664502], [75.08739276776208, 17.927078265149873], [75.07238412512731, 17.917620087996738], [75.05727875680924, 17.92791526597682], [75.05048730424573, 17.927322599258616], [75.04455119508162, 17.920001172616082], [75.05314694487566, 17.904572891026135], [75.03820600680183, 17.906464860465007], [75.02471227934825, 17.89503683348312], [75.01951343169958, 17.897285574769512], [75.01818974835828, 17.909102986613618], [74.96468018644151, 17.91676847318655], [74.94300080544286, 17.92472011683998], [74.9433045388734, 17.936766093180722], [74.93784441478795, 17.940808466637463], [74.91278805882189, 17.945463896241847], [74.89425117525161, 17.937147143126197], [74.87496065710872, 17.944166792363603], [74.86591303306011, 17.9524774390826], [74.84586373712182, 17.94654019497409], [74.84430468591256, 17.954166559239354], [74.85925809848254, 17.970434682614552], [74.8629577924682, 17.991797236952948], [74.84742830297387, 17.99727502822003], [74.83167456303073, 17.99340283886994], [74.81951630003726, 18.015489715278193], [74.81255720575052, 18.011875859783174], [74.81225249835416, 18.00084842501485], [74.80265025340651, 17.99709003587651], [74.76716923956883, 18.024243110830923], [74.74921237285275, 18.01812787200373], [74.74243737248679, 18.027080336088716], [74.72368679920646, 18.03158268219505], [74.71131072041345, 18.02911263124298], [74.70228939613878, 18.03854078812691], [74.69180791370434, 18.038454115964726], [74.6843694169151, 18.059836733278644], [74.66457558959183, 18.070107474880103], [74.68449883475347, 18.11054890360907], [74.67998584427136, 18.136522363016695], [74.66923220720065, 18.147636168674296], [74.65996438684704, 18.169151101442253], [74.66765972101939, 18.192182254307625], [74.65578112200126, 18.203919701133373], [74.6581707933475, 18.243388296332853], [74.67138787225258, 18.273977908353856], [74.6989200231406, 18.27809951657946], [74.70888872113761, 18.273984117273244], [74.71458440824392, 18.306512083066252], [74.74802926613779, 18.303277283719694], [74.75978518593763, 18.328453846667742], [74.7788592507539, 18.327910319805483]]]}}]}