{"type": "FeatureCollection", "crs": {"type": "name", "properties": {"name": "urn:ogc:def:crs:OGC:1.3:CRS84"}}, "features": [{"type": "Feature", "properties": {"pc_id": 2733, "st_code": 27, "st_name": "Maharashtra", "pc_no": 33, "pc_name": "Maval", "pc_name_hi": "मावल", "pc_category": "GEN", "wikidata_qid": "Q6794117", "status": null, "2019_election_phase": 4, "2019_election_date": "2019-04-29", "office": "MP", "representative": "Shrirang Barne", "party": "Shiv Sena"}, "geometry": {"type": "MultiPolygon", "coordinates": [[[[72.966, 18.95], [72.967, 18.941], [72.959, 18.924], [72.946, 18.942], [72.966, 18.95]]], [[[73.876, 18.639], [73.906, 18.639], [73.911, 18.621], [73.897, 18.623], [73.878, 18.572], [73.86, 18.585], [73.853, 18.575], [73.79, 18.566], [73.771, 18.59], [73.773, 18.608], [73.793, 18.627], [73.806, 18.61], [73.81, 18.625], [73.863, 18.616], [73.876, 18.639]]], [[[72.905, 18.961], [72.904, 18.958], [72.9, 18.962], [72.901, 18.964], [72.905, 18.961]]], [[[73.144, 19.125], [73.176, 19.109], [73.196, 19.127], [73.251, 19.061], [73.28, 19.086], [73.298, 19.083], [73.297, 19.072], [73.319, 19.08], [73.307, 19.106], [73.354, 19.131], [73.526, 19.13], [73.512, 19.095], [73.515, 19.083], [73.528, 19.084], [73.526, 19.055], [73.518, 19.058], [73.515, 19.046], [73.54, 19.048], [73.539, 19.016], [73.554, 19.013], [73.522, 18.982], [73.537, 18.956], [73.579, 18.925], [73.6, 18.893], [73.638, 18.874], [73.674, 18.83], [73.705, 18.829], [73.743, 18.809], [73.734, 18.778], [73.742, 18.767], [73.768, 18.773], [73.77, 18.742], [73.738, 18.742], [73.725, 18.708], [73.743, 18.703], [73.774, 18.737], [73.802, 18.703], [73.813, 18.704], [73.817, 18.688], [73.844, 18.687], [73.841, 18.67], [73.813, 18.667], [73.801, 18.635], [73.783, 18.641], [73.754, 18.631], [73.756, 18.641], [73.715, 18.656], [73.673, 18.638], [73.655, 18.596], [73.52, 18.637], [73.491, 18.592], [73.482, 18.593], [73.45, 18.603], [73.423, 18.654], [73.429, 18.674], [73.386, 18.678], [73.375, 18.709], [73.361, 18.701], [73.362, 18.711], [73.353, 18.709], [73.336, 18.695], [73.323, 18.707], [73.302, 18.69], [73.284, 18.701], [73.283, 18.718], [73.259, 18.718], [73.26, 18.71], [73.254, 18.747], [73.237, 18.726], [73.211, 18.77], [73.219, 18.815], [73.187, 18.808], [73.174, 18.826], [73.131, 18.827], [73.121, 18.843], [73.1, 18.843], [73.081, 18.82], [73.059, 18.829], [73.048, 18.81], [72.999, 18.808], [72.989, 18.829], [72.988, 18.847], [72.997, 18.848], [72.983, 18.851], [72.995, 18.883], [72.968, 18.864], [72.954, 18.869], [72.96, 18.852], [72.95, 18.847], [72.926, 18.852], [72.91, 18.903], [72.927, 18.911], [72.937, 18.884], [72.957, 18.88], [72.977, 18.912], [72.997, 18.92], [73.011, 18.962], [73.005, 18.974], [73.022, 18.969], [73.021, 18.987], [73.038, 18.982], [73.03, 18.99], [73.049, 19.027], [73.048, 19.098], [73.078, 19.114], [73.13, 19.109], [73.144, 19.125]]], [[[72.942, 18.969], [72.935, 18.953], [72.925, 18.961], [72.938, 18.971], [72.942, 18.969]]], [[[72.967, 18.966], [72.969, 18.961], [72.954, 18.964], [72.957, 18.972], [72.967, 18.966]]]]}}, {"type": "Feature", "properties": {"pc_id": 2734, "st_code": 27, "st_name": "Maharashtra", "pc_no": 34, "pc_name": "Pune", "pc_name_hi": "पुणे", "pc_category": "GEN", "wikidata_qid": "Q7260097", "status": null, "2019_election_phase": 3, "2019_election_date": "2019-04-23", "office": "MP", "representative": "Murlidhar Mohol", "party": "BJP"}, "geometry": {"type": "MultiPolygon", "coordinates": [[[[73.966, 18.625], [73.951, 18.569], [73.965, 18.545], [73.993, 18.544], [74.002, 18.531], [73.989, 18.491], [73.953, 18.493], [73.944, 18.474], [73.938, 18.504], [73.925, 18.506], [73.925, 18.49], [73.898, 18.472], [73.88, 18.482], [73.819, 18.47], [73.831, 18.495], [73.803, 18.501], [73.809, 18.492], [73.783, 18.491], [73.784, 18.528], [73.748, 18.53], [73.763, 18.591], [73.779, 18.587], [73.79, 18.566], [73.853, 18.575], [73.86, 18.585], [73.878, 18.572], [73.897, 18.623], [73.93, 18.625], [73.927, 18.652], [73.937, 18.66], [73.949, 18.643], [73.97, 18.637], [73.966, 18.625]]]]}}, {"type": "Feature", "properties": {"pc_id": 2735, "st_code": 27, "st_name": "Maharashtra", "pc_no": 35, "pc_name": "Baramati", "pc_name_hi": "बारामती", "pc_category": "GEN", "wikidata_qid": "Q3764398", "status": null, "2019_election_phase": 3, "2019_election_date": "2019-04-23", "office": "MP", "representative": "Supriya Sule", "party": "NCP-Sharadchandra Pawar"}, "geometry": {"type": "MultiPolygon", "coordinates": [[[[73.412, 18.673], [73.429, 18.674], [73.423, 18.654], [73.45, 18.603], [73.491, 18.592], [73.52, 18.637], [73.655, 18.596], [73.673, 18.638], [73.715, 18.656], [73.742, 18.648], [73.756, 18.641], [73.754, 18.63], [73.786, 18.618], [73.772, 18.59], [73.763, 18.591], [73.764, 18.571], [73.748, 18.544], [73.748, 18.53], [73.784, 18.528], [73.78, 18.493], [73.831, 18.495], [73.819, 18.47], [73.843, 18.472], [73.862, 18.452], [73.851, 18.445], [73.874, 18.438], [73.925, 18.45], [73.953, 18.493], [73.993, 18.492], [74.005, 18.487], [74.0, 18.437], [74.059, 18.41], [74.143, 18.418], [74.141, 18.468], [74.15, 18.469], [74.152, 18.488], [74.177, 18.489], [74.184, 18.534], [74.17, 18.547], [74.168, 18.581], [74.19, 18.596], [74.195, 18.618], [74.225, 18.633], [74.221, 18.649], [74.279, 18.673], [74.268, 18.629], [74.281, 18.626], [74.295, 18.637], [74.309, 18.63], [74.326, 18.576], [74.353, 18.56], [74.407, 18.573], [74.432, 18.561], [74.439, 18.537], [74.466, 18.523], [74.475, 18.544], [74.491, 18.54], [74.506, 18.493], [74.542, 18.511], [74.579, 18.474], [74.646, 18.45], [74.675, 18.463], [74.656, 18.475], [74.66, 18.49], [74.705, 18.506], [74.728, 18.484], [74.716, 18.428], [74.729, 18.403], [74.754, 18.397], [74.778, 18.409], [74.794, 18.401], [74.809, 18.382], [74.794, 18.354], [74.834, 18.341], [74.844, 18.3], [74.802, 18.302], [74.796, 18.288], [74.834, 18.247], [74.949, 18.266], [74.991, 18.24], [75.041, 18.262], [75.008, 18.209], [75.023, 18.189], [75.081, 18.218], [75.107, 18.218], [75.112, 18.196], [75.091, 18.149], [75.092, 18.123], [75.148, 18.123], [75.163, 18.111], [75.135, 18.092], [75.13, 18.075], [75.092, 18.066], [75.08, 18.039], [75.048, 18.02], [75.02, 17.966], [75.039, 17.95], [75.054, 17.952], [75.069, 17.979], [75.1, 17.976], [75.115, 18.001], [75.137, 17.972], [75.117, 17.972], [75.129, 17.956], [75.112, 17.939], [75.082, 17.941], [75.087, 17.927], [75.072, 17.918], [75.05, 17.927], [75.053, 17.905], [75.023, 17.895], [75.018, 17.909], [74.943, 17.925], [74.938, 17.941], [74.894, 17.937], [74.866, 17.952], [74.846, 17.947], [74.862, 17.993], [74.832, 17.993], [74.82, 18.015], [74.802, 17.997], [74.767, 18.024], [74.749, 18.018], [74.707, 18.031], [74.665, 18.07], [74.641, 18.044], [74.629, 18.057], [74.61, 18.047], [74.59, 18.056], [74.582, 18.047], [74.559, 18.07], [74.46, 18.046], [74.437, 18.065], [74.381, 18.07], [74.355, 18.097], [74.3, 18.068], [74.235, 18.1], [74.161, 18.108], [74.119, 18.133], [74.078, 18.122], [74.055, 18.14], [74.028, 18.133], [74.006, 18.159], [73.987, 18.152], [73.943, 18.181], [73.905, 18.159], [73.894, 18.182], [73.859, 18.165], [73.848, 18.172], [73.857, 18.163], [73.873, 18.168], [73.902, 18.136], [73.888, 18.116], [73.861, 18.12], [73.88, 18.086], [73.858, 18.032], [73.846, 18.04], [73.827, 18.03], [73.813, 18.038], [73.792, 18.021], [73.705, 18.047], [73.665, 18.025], [73.612, 18.059], [73.62, 18.077], [73.603, 18.082], [73.61, 18.098], [73.594, 18.109], [73.607, 18.141], [73.603, 18.118], [73.628, 18.124], [73.62, 18.128], [73.634, 18.147], [73.642, 18.141], [73.65, 18.157], [73.666, 18.157], [73.661, 18.169], [73.598, 18.191], [73.595, 18.178], [73.582, 18.179], [73.567, 18.188], [73.559, 18.214], [73.557, 18.197], [73.541, 18.208], [73.538, 18.189], [73.521, 18.187], [73.535, 18.205], [73.521, 18.211], [73.536, 18.227], [73.524, 18.232], [73.537, 18.244], [73.505, 18.255], [73.514, 18.272], [73.5, 18.282], [73.479, 18.269], [73.476, 18.3], [73.419, 18.306], [73.422, 18.33], [73.444, 18.36], [73.426, 18.375], [73.418, 18.405], [73.4, 18.401], [73.394, 18.441], [73.408, 18.5], [73.389, 18.492], [73.373, 18.465], [73.364, 18.471], [73.361, 18.485], [73.379, 18.482], [73.375, 18.493], [73.397, 18.505], [73.384, 18.504], [73.356, 18.533], [73.343, 18.531], [73.358, 18.558], [73.334, 18.55], [73.323, 18.558], [73.334, 18.609], [73.342, 18.604], [73.362, 18.637], [73.389, 18.655], [73.386, 18.678], [73.412, 18.673]]]]}}, {"type": "Feature", "properties": {"pc_id": 2736, "st_code": 27, "st_name": "Maharashtra", "pc_no": 36, "pc_name": "Shirur", "pc_name_hi": "शिरूर", "pc_category": "GEN", "wikidata_qid": "Q7499000", "status": null, "2019_election_phase": 4, "2019_election_date": "2019-04-29", "office": "MP", "representative": "Amol Kolhe", "party": "NCP-Sharadchandra Pawar"}, "geometry": {"type": "MultiPolygon", "coordinates": [[[[73.94, 18.496], [73.944, 18.473], [73.911, 18.44], [73.856, 18.442], [73.86, 18.458], [73.837, 18.472], [73.88, 18.482], [73.891, 18.47], [73.925, 18.49], [73.925, 18.506], [73.94, 18.496]]], [[[73.811, 19.392], [73.854, 19.356], [73.891, 19.373], [73.913, 19.363], [73.927, 19.339], [73.999, 19.36], [74.002, 19.341], [74.026, 19.314], [74.026, 19.298], [74.012, 19.299], [74.02, 19.282], [74.031, 19.283], [74.023, 19.267], [74.032, 19.251], [74.045, 19.262], [74.051, 19.244], [74.09, 19.228], [74.084, 19.239], [74.126, 19.222], [74.152, 19.226], [74.157, 19.203], [74.168, 19.223], [74.22, 19.203], [74.26, 19.227], [74.317, 19.208], [74.295, 19.186], [74.267, 19.182], [74.266, 19.162], [74.234, 19.123], [74.21, 19.128], [74.174, 19.032], [74.201, 19.006], [74.213, 19.009], [74.211, 18.995], [74.226, 18.986], [74.222, 18.971], [74.237, 18.968], [74.237, 18.953], [74.249, 18.955], [74.271, 18.919], [74.296, 18.903], [74.307, 18.854], [74.326, 18.838], [74.349, 18.845], [74.397, 18.828], [74.384, 18.804], [74.401, 18.777], [74.399, 18.743], [74.427, 18.749], [74.444, 18.722], [74.478, 18.718], [74.475, 18.687], [74.51, 18.667], [74.472, 18.642], [74.509, 18.613], [74.55, 18.611], [74.542, 18.58], [74.578, 18.548], [74.559, 18.518], [74.512, 18.491], [74.491, 18.54], [74.475, 18.544], [74.466, 18.523], [74.439, 18.537], [74.432, 18.561], [74.397, 18.575], [74.347, 18.562], [74.321, 18.582], [74.309, 18.63], [74.295, 18.637], [74.281, 18.626], [74.268, 18.629], [74.279, 18.673], [74.257, 18.669], [74.221, 18.649], [74.225, 18.633], [74.195, 18.618], [74.19, 18.596], [74.168, 18.581], [74.17, 18.547], [74.184, 18.534], [74.177, 18.489], [74.152, 18.488], [74.15, 18.469], [74.141, 18.468], [74.143, 18.418], [74.059, 18.41], [74.0, 18.437], [74.005, 18.487], [73.989, 18.491], [74.002, 18.531], [73.993, 18.544], [73.965, 18.545], [73.952, 18.566], [73.97, 18.635], [73.945, 18.646], [73.943, 18.66], [73.927, 18.652], [73.928, 18.623], [73.911, 18.621], [73.906, 18.639], [73.876, 18.639], [73.863, 18.616], [73.81, 18.625], [73.806, 18.61], [73.797, 18.627], [73.785, 18.618], [73.754, 18.63], [73.783, 18.641], [73.801, 18.635], [73.813, 18.667], [73.841, 18.67], [73.844, 18.687], [73.817, 18.688], [73.813, 18.704], [73.802, 18.703], [73.774, 18.737], [73.743, 18.703], [73.725, 18.708], [73.738, 18.742], [73.768, 18.739], [73.768, 18.773], [73.742, 18.767], [73.734, 18.778], [73.743, 18.809], [73.705, 18.829], [73.674, 18.83], [73.638, 18.874], [73.6, 18.893], [73.579, 18.925], [73.537, 18.956], [73.522, 18.982], [73.554, 19.013], [73.539, 19.016], [73.54, 19.048], [73.515, 19.046], [73.518, 19.058], [73.526, 19.055], [73.528, 19.084], [73.515, 19.083], [73.512, 19.095], [73.526, 19.13], [73.542, 19.118], [73.546, 19.141], [73.53, 19.157], [73.542, 19.159], [73.535, 19.178], [73.609, 19.193], [73.612, 19.211], [73.623, 19.216], [73.631, 19.205], [73.662, 19.241], [73.686, 19.243], [73.695, 19.259], [73.668, 19.291], [73.672, 19.302], [73.742, 19.335], [73.743, 19.323], [73.774, 19.331], [73.773, 19.342], [73.795, 19.331], [73.779, 19.387], [73.811, 19.392]]]]}}]}