{"type": "FeatureCollection", "crs": {"type": "name", "properties": {"name": "urn:ogc:def:crs:OGC:1.3:CRS84"}}, "features": [{"type": "Feature", "properties": {"amenity": "police", "created_by": "Potlatch 0.10", "osm_id": "node/280430828"}, "geometry": {"type": "Point", "coordinates": [73.9173998, 18.5075612]}}, {"type": "Feature", "properties": {"amenity": "police", "check_date": "2026-03-12", "osm_id": "node/674930856"}, "geometry": {"type": "Point", "coordinates": [73.8788901, 18.5243076]}}, {"type": "Feature", "properties": {"amenity": "police", "name": "Sambhaji Police Chowki", "name:mr": "संभाजी पोलीस चौकी", "osm_id": "node/678444711"}, "geometry": {"type": "Point", "coordinates": [73.8438921, 18.5131785]}}, {"type": "Feature", "properties": {"amenity": "police", "name": "Deccan Gymkhana Police Chowki", "name:mr": "डेक्कन जिमखाना पोलीस चौकी", "source": "local", "osm_id": "node/1534465625"}, "geometry": {"type": "Point", "coordinates": [73.8403808, 18.5141406]}}, {"type": "Feature", "properties": {"amenity": "police", "check_date": "2026-03-09", "name": "Pimple Saudagar Police Statiom", "osm_id": "node/1703723978"}, "geometry": {"type": "Point", "coordinates": [73.7993609, 18.6015562]}}, {"type": "Feature", "properties": {"amenity": "police", "check_date": "2026-03-13", "name": "Ganesh Peth Police station", "source": "Personal Knowledge", "osm_id": "node/1909536882"}, "geometry": {"type": "Point", "coordinates": [73.8621906, 18.5161748]}}, {"type": "Feature", "properties": {"addr:city": "Pune", "addr:postcode": "411009", "addr:street": "Golwalkar Guruji Path", "amenity": "police", "name": "Laxminagar Police chowky", "opening_hours": "24/7", "osm_id": "node/2027713730"}, "geometry": {"type": "Point", "coordinates": [73.8497008, 18.4896021]}}, {"type": "Feature", "properties": {"addr:housenumber": "HPRQ+JGH, Hinjawadi Phase 2 Rd, Hinjawadi Village, Hinjawadi, Pimpri-Chinchwad, Maharashtra 411057", "addr:street": "Hinjawadi Phase 2 Road", "amenity": "police", "name": "Hinjawadi Police Chowki", "name:mr": "हिंजवडी पोलीस चौकी", "osm_id": "node/2146313490"}, "geometry": {"type": "Point", "coordinates": [73.7387073, 18.5917477]}}, {"type": "Feature", "properties": {"amenity": "police", "check_date": "2026-03-09", "name": "Yerawada Police Station", "osm_id": "node/2183543117"}, "geometry": {"type": "Point", "coordinates": [73.8957965, 18.5527989]}}, {"type": "Feature", "properties": {"amenity": "police", "name": "Balagandharva Police Station", "name:mr": "बालगंधर्व पोलीस स्थानक", "osm_id": "node/2289023583"}, "geometry": {"type": "Point", "coordinates": [73.8478417, 18.5222358]}}, {"type": "Feature", "properties": {"amenity": "police", "check_date": "2026-03-12", "name": "Sant Kabir Police Station", "osm_id": "node/2289023585"}, "geometry": {"type": "Point", "coordinates": [73.8688574, 18.5148758]}}, {"type": "Feature", "properties": {"addr:city": "Pune", "addr:housenumber": "1224", "addr:postcode": "411030", "addr:street": "Tatyasaheb Karandikar Path", "amenity": "police", "name": "Perugate Police Chowki", "name:mr": "पेरूगेट पोलीस चौकी", "osm_id": "node/2410718625"}, "geometry": {"type": "Point", "coordinates": [73.8487755, 18.5113926]}}, {"type": "Feature", "properties": {"amenity": "police", "name": "Bavdhan Police Chowki", "name:mr": "बावधन पोलीस चौकी", "osm_id": "node/2420756045"}, "geometry": {"type": "Point", "coordinates": [73.7795837, 18.5224956]}}, {"type": "Feature", "properties": {"amenity": "police", "name": "Alankar Police Chowki", "name:mr": "अलंकार पोलिस चौकी", "source": "Bing", "osm_id": "node/2509520919"}, "geometry": {"type": "Point", "coordinates": [73.8262153, 18.4984329]}}, {"type": "Feature", "properties": {"amenity": "police", "name": "Senadatta Police Chowki", "name:mr": "सेनादत्त पोलीस चौकी", "osm_id": "node/2517303173"}, "geometry": {"type": "Point", "coordinates": [73.8446033, 18.5052065]}}, {"type": "Feature", "properties": {"amenity": "police", "check_date": "2026-03-12", "name": "Narayan Peth Police Chowki", "name:mr": "नारायण पेठ पोलीस चौकी", "osm_id": "node/2550695929"}, "geometry": {"type": "Point", "coordinates": [73.8478649, 18.5162004]}}, {"type": "Feature", "properties": {"addr:city": "Pune", "addr:district": "Pune", "addr:postcode": "411020", "amenity": "police", "name": "Khadki Police Station", "name:mr": "खडकी पोलीस ठाणे", "osm_id": "node/2694489803"}, "geometry": {"type": "Point", "coordinates": [73.8454253, 18.5571921]}}, {"type": "Feature", "properties": {"amenity": "police", "check_date": "2026-03-12", "name": "Kasba Peth Police Chowki", "name:mr": "कसबा पेठ पोलीस चौकी", "osm_id": "node/2868930213"}, "geometry": {"type": "Point", "coordinates": [73.8560378, 18.5204757]}}, {"type": "Feature", "properties": {"amenity": "police", "name": "Paud Phata Police Chowki", "name:mr": "पौड फाटा पोलीस चौकी", "osm_id": "node/2868930215"}, "geometry": {"type": "Point", "coordinates": [73.8245986, 18.5064508]}}, {"type": "Feature", "properties": {"amenity": "police", "check_date": "2026-03-15", "name": "Swargate Police Station", "name:mr": "स्वारगेट पोलीस ठाणे", "osm_id": "node/2935676185"}, "geometry": {"type": "Point", "coordinates": [73.8591594, 18.5007921]}}, {"type": "Feature", "properties": {"amenity": "police", "check_date": "2026-03-15", "name": "Samarth Police Station", "name:mr": "समर्थ पोलीस ठाणे", "osm_id": "node/3337848240"}, "geometry": {"type": "Point", "coordinates": [73.8696893, 18.5203179]}}, {"type": "Feature", "properties": {"amenity": "police", "check_date": "2026-03-12", "name": "Shaniwar Peth Police Chowki", "name:mr": "शनिवार पेठ पोलीस चौकी", "osm_id": "node/3337848241"}, "geometry": {"type": "Point", "coordinates": [73.8500242, 18.5200094]}}, {"type": "Feature", "properties": {"amenity": "police", "name": "Prabhat Police Chowki", "name:mr": "प्रभात पोलीस चौकी", "osm_id": "node/3386030401"}, "geometry": {"type": "Point", "coordinates": [73.8333062, 18.5145218]}}, {"type": "Feature", "properties": {"amenity": "police", "name:en": "Singhgarh Police Chauki", "osm_id": "node/4405664297"}, "geometry": {"type": "Point", "coordinates": [73.8154722, 18.4637816]}}, {"type": "Feature", "properties": {"amenity": "police", "name:en": "Crime branch", "osm_id": "node/4547351989"}, "geometry": {"type": "Point", "coordinates": [73.8448569, 18.5449382]}}, {"type": "Feature", "properties": {"amenity": "police", "name": "Dattawadi Police Chowki", "phone": "+91-100", "osm_id": "node/5253713305"}, "geometry": {"type": "Point", "coordinates": [73.840267, 18.5010017]}}, {"type": "Feature", "properties": {"amenity": "police", "name:en": "Kondhwa police station", "osm_id": "node/5302827826"}, "geometry": {"type": "Point", "coordinates": [73.8904599, 18.4659808]}}, {"type": "Feature", "properties": {"amenity": "police", "check_date": "2026-03-10", "name": "Mangaldas Police Chowki", "name:mr": "मंगलदास पोलीस चौकी", "osm_id": "node/6116290226"}, "geometry": {"type": "Point", "coordinates": [73.8789046, 18.5339866]}}, {"type": "Feature", "properties": {"amenity": "police", "osm_id": "node/7011007177"}, "geometry": {"type": "Point", "coordinates": [73.8425166, 18.6478898]}}, {"type": "Feature", "properties": {"amenity": "police", "name": "PCMC Police Station", "osm_id": "node/7083553571"}, "geometry": {"type": "Point", "coordinates": [73.7950186, 18.639873]}}, {"type": "Feature", "properties": {"amenity": "police", "name": "Centre for Police Research - CPR,", "osm_id": "node/10172966014"}, "geometry": {"type": "Point", "coordinates": [73.8224604, 18.540655]}}, {"type": "Feature", "properties": {"addr:street": "Pashan-Bavdhan Road", "amenity": "police", "name": "bavdhandhan  Police Station", "opening_hours": "24/7", "osm_id": "node/10219138027"}, "geometry": {"type": "Point", "coordinates": [73.7796133, 18.5225916]}}, {"type": "Feature", "properties": {"amenity": "police", "name": "police station Wagoli;Wagoli police station", "osm_id": "node/10219198246"}, "geometry": {"type": "Point", "coordinates": [73.9868542, 18.5818249]}}, {"type": "Feature", "properties": {"amenity": "police", "name": "Unit 6 Police Station", "osm_id": "node/10219198248"}, "geometry": {"type": "Point", "coordinates": [73.9782357, 18.572673]}}, {"type": "Feature", "properties": {"amenity": "police", "name": "wagoli police station", "osm_id": "node/10219230643"}, "geometry": {"type": "Point", "coordinates": [73.9865263, 18.581217]}}, {"type": "Feature", "properties": {"amenity": "police", "name": "Police Station", "osm_id": "node/10219230644"}, "geometry": {"type": "Point", "coordinates": [73.9790844, 18.5713171]}}, {"type": "Feature", "properties": {"amenity": "police", "check_date": "2026-03-09", "name": "Chandan nagar police", "osm_id": "node/10219230645"}, "geometry": {"type": "Point", "coordinates": [73.9280864, 18.5570956]}}, {"type": "Feature", "properties": {"amenity": "police", "check_date": "2023-01-03", "internet_access": "no", "name": "Wakad Police Station", "name:en": "Wakad Police Station", "name:mr": "वाकड पोलिस स्टेशन", "phone": "02027261120", "source": "local knowledge;survey;aerial imagery", "osm_id": "node/10302381890"}, "geometry": {"type": "Point", "coordinates": [73.7653112, 18.607337]}}, {"type": "Feature", "properties": {"amenity": "police", "check_date": "2024-08-14", "internet_access": "no", "name": "Chinchwad Police Station", "name:en": "Chinchwad Police Station", "name:mr": "चिंचवड पोलिस ठाणे", "osm_id": "node/10304957656"}, "geometry": {"type": "Point", "coordinates": [73.7799961, 18.6293245]}}, {"type": "Feature", "properties": {"amenity": "police", "check_date": "2026-03-12", "name": "Vishrantwadi Police Station", "osm_id": "node/10610500277"}, "geometry": {"type": "Point", "coordinates": [73.8775269, 18.5646718]}}, {"type": "Feature", "properties": {"amenity": "police", "name": "Police Station Ravet", "osm_id": "node/10657354394"}, "geometry": {"type": "Point", "coordinates": [73.7554515, 18.6418999]}}, {"type": "Feature", "properties": {"amenity": "police", "name": "Wakad Police Chowky", "name:mr": "वाकड पोलीस चौकी", "osm_id": "node/10725513809"}, "geometry": {"type": "Point", "coordinates": [73.75756, 18.5920496]}}, {"type": "Feature", "properties": {"addr:city": "Pune", "addr:postcode": "411027", "addr:street": "Pimple Gurav-Navi Sangvi Road", "amenity": "police", "name": "Sangvi Police Station", "opening_hours": "24/7", "osm_id": "node/10807210956"}, "geometry": {"type": "Point", "coordinates": [73.8156391, 18.5785932]}}, {"type": "Feature", "properties": {"addr:city": "pune", "addr:district": "Pune", "addr:postcode": "411051", "amenity": "police", "name": "Vadgaon Budruk Police Chowki", "osm_id": "node/11330878781"}, "geometry": {"type": "Point", "coordinates": [73.8327946, 18.4689831]}}, {"type": "Feature", "properties": {"amenity": "police", "name": "Kothrud Police Station", "osm_id": "node/11786140865"}, "geometry": {"type": "Point", "coordinates": [73.8024748, 18.506629]}}, {"type": "Feature", "properties": {"amenity": "police", "check_date": "2026-03-04", "name": "ShivajiNagar Police Station", "osm_id": "node/13616220311"}, "geometry": {"type": "Point", "coordinates": [73.8500128, 18.529982]}}, {"type": "Feature", "properties": {"amenity": "police", "check_date": "2026-03-09", "name": "Ramwadi Police Station", "osm_id": "node/13629443264"}, "geometry": {"type": "Point", "coordinates": [73.9056355, 18.5545552]}}, {"type": "Feature", "properties": {"amenity": "police", "check_date": "2026-03-09", "name": "Police Station Pimple Saudagar", "osm_id": "node/13638581251"}, "geometry": {"type": "Point", "coordinates": [73.7990918, 18.6018193]}}, {"type": "Feature", "properties": {"amenity": "police", "osm_id": "node/13851770436"}, "geometry": {"type": "Point", "coordinates": [73.8436593, 18.4574226]}}, {"type": "Feature", "properties": {"amenity": "police", "name": "Sahakarnagar Police Station", "osm_id": "way/192206270"}, "geometry": {"type": "Polygon", "coordinates": [[[73.8496895, 18.4895508], [73.8497217, 18.4893981], [73.8496144, 18.4893778], [73.8495822, 18.4895406], [73.8496895, 18.4895508]]]}}, {"type": "Feature", "properties": {"amenity": "police", "name": "Chavan Nagar - Pune Rural Police Headquarters", "name:mr": "पुणे ग्रामीण पोलीस मुख्यालय", "osm_id": "way/218691368"}, "geometry": {"type": "Polygon", "coordinates": [[[73.8193134, 18.5403559], [73.8198719, 18.540434], [73.820347, 18.5405652], [73.8217089, 18.5410441], [73.8225021, 18.5412676], [73.8234486, 18.5414733], [73.8239612, 18.5416081], [73.8243503, 18.5416861], [73.8248741, 18.5417393], [73.8255028, 18.5417403], [73.8260266, 18.5418006], [73.8274782, 18.5419851], [73.827699, 18.5421305], [73.8263109, 18.5423894], [73.8258133, 18.5425739], [73.8255177, 18.5428328], [73.8250538, 18.5433756], [73.824732, 18.5436593], [73.8227903, 18.5450853], [73.8222926, 18.545291], [73.8206794, 18.5458742], [73.8191956, 18.5464586], [73.817971, 18.5469133], [73.8179658, 18.5456626], [73.8192151, 18.5457509], [73.8193134, 18.5403559]]]}}, {"type": "Feature", "properties": {"amenity": "police", "building": "yes", "name": "Faraskhana Police Station", "name:mr": "फरासखाना पोलीस ठाणे", "osm_id": "way/264444880"}, "geometry": {"type": "Polygon", "coordinates": [[[73.8560255, 18.516496], [73.8560246, 18.5163869], [73.8556584, 18.5163897], [73.8556593, 18.5164988], [73.8560255, 18.516496]]]}}, {"type": "Feature", "properties": {"addr:city": "Pune", "addr:postcode": "411009", "amenity": "police", "building": "yes", "name": "Dattawadi Police Station", "osm_id": "way/360474279"}, "geometry": {"type": "Polygon", "coordinates": [[[73.8480475, 18.4928448], [73.8481449, 18.4930516], [73.8482988, 18.4929864], [73.8482014, 18.4927797], [73.8480475, 18.4928448]]]}}, {"type": "Feature", "properties": {"amenity": "police", "building": "yes", "name": "Sinhagad Road Police Station", "osm_id": "way/365655187"}, "geometry": {"type": "Polygon", "coordinates": [[[73.8137104, 18.4731323], [73.8140179, 18.4731073], [73.8140167, 18.4730091], [73.8137011, 18.4730303], [73.8137104, 18.4731323]]]}}, {"type": "Feature", "properties": {"addr:city": "Pune", "addr:housenumber": "Vidhyapeeth Road, Ganeshkhind Road, Near Pune University, Ganeshkhind", "addr:postcode": "411007", "addr:street": "विद्यापीठ रस्ता", "amenity": "police", "building": "yes", "name": "Chaturshringi Police Station", "name:mr": "चतुशृंगी पोलीस ठाणे", "opening_hours": "24/7", "phone": "020 2565 5335", "website": "https://punepolice.gov.in", "osm_id": "way/641670813"}, "geometry": {"type": "Polygon", "coordinates": [[[73.8256119, 18.5461759], [73.8256919, 18.5462284], [73.825716, 18.5461955], [73.8257984, 18.5462495], [73.8258947, 18.5461175], [73.8257323, 18.5460109], [73.8256119, 18.5461759]]]}}, {"type": "Feature", "properties": {"amenity": "police", "building": "yes", "name": "Baner Police Station", "name:en": "Baner Police Station", "name:mr": "बाणेर पोलीस स्टेशन", "osm_id": "way/652054928"}, "geometry": {"type": "Polygon", "coordinates": [[[73.7748474, 18.5687128], [73.7748492, 18.5686028], [73.7749458, 18.5686042], [73.7749439, 18.5687142], [73.7748474, 18.5687128]]]}}, {"type": "Feature", "properties": {"amenity": "police", "building": "yes", "check_date": "2026-03-15", "name": "Somwar Peth Police Station सोमवार पेठ पोलिस स्टेशन", "osm_id": "way/706927370"}, "geometry": {"type": "Polygon", "coordinates": [[[73.8624461, 18.5195682], [73.8624193, 18.5195439], [73.862529, 18.5193413], [73.8626703, 18.5194481], [73.8627088, 18.5195837], [73.8625968, 18.5195804], [73.862529, 18.5195771], [73.8624461, 18.5195682]]]}}, {"type": "Feature", "properties": {"addr:city": "Pune", "addr:district": "Pune", "addr:postcode": "411021", "addr:street": "Lane 2", "amenity": "police", "building": "yes", "name": "Bavdhan Police Station", "name:mr": "बावधन पोलीस ठाणे", "phone": "+91-8856-062100", "osm_id": "way/1028611648"}, "geometry": {"type": "Polygon", "coordinates": [[[73.777522, 18.5114337], [73.7775304, 18.5113747], [73.7775476, 18.5113769], [73.7775608, 18.5112841], [73.7775822, 18.5112868], [73.7775948, 18.5111984], [73.777445, 18.5111792], [73.7774252, 18.5113175], [73.777399, 18.5113141], [73.7773812, 18.5114385], [73.7774415, 18.5114462], [73.7774447, 18.5114237], [73.777522, 18.5114337]]]}}, {"type": "Feature", "properties": {"addr:city": "Pune", "addr:street": "Dr. Homi Bhabha Marg", "amenity": "police", "building": "yes", "name": "Pashan Police station", "osm_id": "way/1032594150"}, "geometry": {"type": "Polygon", "coordinates": [[[73.7980177, 18.5382779], [73.798192, 18.5382855], [73.7981947, 18.5381482], [73.7980257, 18.5381457], [73.7980177, 18.5382779]]]}}, {"type": "Feature", "properties": {"addr:city": "Pune", "addr:postcode": "411048", "addr:street": "Kondhwa Road", "amenity": "police", "building": "yes", "name": "Kondhwa traffic police chowky", "operator": "Pune Traffic Police", "osm_id": "way/1041721250"}, "geometry": {"type": "Polygon", "coordinates": [[[73.8894055, 18.4648269], [73.8895879, 18.4648561], [73.8896335, 18.4646819], [73.8894336, 18.4646399], [73.8894055, 18.4648269]]]}}, {"type": "Feature", "properties": {"addr:city": "Pune", "addr:postcode": "411057", "addr:street": "Hinjawadi Phase 1 road", "amenity": "police", "building": "yes", "name": "Hinjawadi police station", "name:mr": "हिंजवडी पोलीस स्थानक", "opening_hours": "24/7", "operator": "Maharashtra Police", "osm_id": "way/1098988707"}, "geometry": {"type": "Polygon", "coordinates": [[[73.7355487, 18.5861326], [73.7355863, 18.5861326], [73.7356239, 18.5861415], [73.7356587, 18.5861529], [73.7356922, 18.5861732], [73.7357124, 18.5861872], [73.7357311, 18.5862037], [73.7357419, 18.5862177], [73.7358384, 18.5861567], [73.7357244, 18.5860156], [73.7355487, 18.5861326]]]}}, {"type": "Feature", "properties": {"amenity": "police", "building": "yes", "osm_id": "way/1222440025"}, "geometry": {"type": "Polygon", "coordinates": [[[73.7368624, 18.5866014], [73.7369142, 18.5866672], [73.7370121, 18.586598], [73.7369603, 18.5865323], [73.7368624, 18.5866014]]]}}, {"type": "Feature", "properties": {"amenity": "police", "building": "yes", "name": "Bharati Vidyapeeth Police Station", "osm_id": "way/1286673858"}, "geometry": {"type": "Polygon", "coordinates": [[[73.8575227, 18.4590955], [73.8576558, 18.4591761], [73.8577347, 18.4592533], [73.8577445, 18.4589295], [73.857519, 18.4589482], [73.8575227, 18.4590955]]]}}, {"type": "Feature", "properties": {"addr:city": "Kharadi Pune", "addr:district": "Pune", "addr:postcode": "411014", "amenity": "police", "building": "yes", "name": "Kharadi Police Station", "operator": "Police", "osm_id": "way/1430470190"}, "geometry": {"type": "Polygon", "coordinates": [[[73.9474225, 18.5491922], [73.9476058, 18.5491849], [73.9475766, 18.5488636], [73.9473732, 18.5488753], [73.9474225, 18.5491922]]]}}, {"type": "Feature", "properties": {"addr:city": "PUNE", "addr:postcode": "411037", "addr:street": "Irawati Karve Marg", "amenity": "police", "building": "yes", "name": "Maharshi Nagar Police Chowki", "phone": "+91 20 24261871", "osm_id": "way/1466751926"}, "geometry": {"type": "Polygon", "coordinates": [[[73.8709746, 18.493406], [73.8710368, 18.4932106], [73.8712428, 18.4932574], [73.8711892, 18.4934528], [73.8709746, 18.493406]]]}}]}