{"type": "FeatureCollection", "crs": {"type": "name", "properties": {"name": "urn:ogc:def:crs:OGC:1.3:CRS84"}}, "features": [{"type": "Feature", "properties": {"osm_id": 1803979863, "osm_type": "node", "amenity": "library", "name:en": "Tilak Mandir, Lok Manya Seva Sangh"}, "geometry": {"type": "Point", "coordinates": [72.8475076, 19.1009597]}}, {"type": "Feature", "properties": {"osm_id": 3574713393, "osm_type": "node", "amenity": "library", "name": "books plaza"}, "geometry": {"type": "Point", "coordinates": [72.8528059, 19.2301701]}}, {"type": "Feature", "properties": {"osm_id": 4403596896, "osm_type": "node", "addr:housenumber": "2nd floor", "addr:street": "Pokhran Road 2", "amenity": "library", "name": "Indian Library", "name:en": "Indian Library"}, "geometry": {"type": "Point", "coordinates": [72.9770482, 19.2104199]}}, {"type": "Feature", "properties": {"osm_id": 4569910366, "osm_type": "node", "addr:city": "cheedanagar, chembur,mumbai", "addr:housenumber": "Paras Niketan", "addr:postcode": "400089", "addr:street": "Road No 4", "amenity": "library", "internet_access": "no", "name": "Anukool Circulating Library"}, "geometry": {"type": "Point", "coordinates": [72.9050579, 19.0663452]}}, {"type": "Feature", "properties": {"osm_id": 5729535561, "osm_type": "node", "amenity": "library", "name": "Cht.Sahu Maharaj Vachnalaya"}, "geometry": {"type": "Point", "coordinates": [72.9946011, 19.0756974]}}, {"type": "Feature", "properties": {"osm_id": 5874674526, "osm_type": "node", "amenity": "library", "name": "Sir David Sassoon Library", "name:etymology:wikidata": "Q1176501", "wikidata": "Q4120540", "wikimedia_commons": "Category:David_Sassoon_Library", "wikipedia": "en:David Sassoon Library"}, "geometry": {"type": "Point", "coordinates": [72.8311551, 18.9276912]}}, {"type": "Feature", "properties": {"osm_id": 5878275162, "osm_type": "node", "amenity": "library", "name": "ET Library"}, "geometry": {"type": "Point", "coordinates": [72.9158102, 19.1339618]}}, {"type": "Feature", "properties": {"osm_id": 5878275163, "osm_type": "node", "amenity": "library", "name": "Physics Library"}, "geometry": {"type": "Point", "coordinates": [72.9166162, 19.1302491]}}, {"type": "Feature", "properties": {"osm_id": 5878275164, "osm_type": "node", "amenity": "library", "name": "IEOR Library"}, "geometry": {"type": "Point", "coordinates": [72.9180042, 19.1310527]}}, {"type": "Feature", "properties": {"osm_id": 5878275165, "osm_type": "node", "amenity": "library", "name": "Biosciences Library"}, "geometry": {"type": "Point", "coordinates": [72.9178986, 19.1307749]}}, {"type": "Feature", "properties": {"osm_id": 5878275166, "osm_type": "node", "amenity": "library", "name": "Aerospace Library"}, "geometry": {"type": "Point", "coordinates": [72.9185386, 19.1308522]}}, {"type": "Feature", "properties": {"osm_id": 5878275167, "osm_type": "node", "amenity": "library", "name": "Chemical Library"}, "geometry": {"type": "Point", "coordinates": [72.9175318, 19.1303457]}}, {"type": "Feature", "properties": {"osm_id": 5878275168, "osm_type": "node", "amenity": "library", "name": "CSRE library"}, "geometry": {"type": "Point", "coordinates": [72.9177444, 19.1320473]}}, {"type": "Feature", "properties": {"osm_id": 5878275169, "osm_type": "node", "amenity": "library", "name": "Earth Science Dept Library"}, "geometry": {"type": "Point", "coordinates": [72.9180023, 19.1317209]}}, {"type": "Feature", "properties": {"osm_id": 5878275170, "osm_type": "node", "amenity": "library", "name": "CSE library"}, "geometry": {"type": "Point", "coordinates": [72.9157917, 19.1305443]}}, {"type": "Feature", "properties": {"osm_id": 5878275171, "osm_type": "node", "amenity": "library", "name": "Metallurgy Library"}, "geometry": {"type": "Point", "coordinates": [72.9164267, 19.1312875]}}, {"type": "Feature", "properties": {"osm_id": 5878275172, "osm_type": "node", "amenity": "library", "name": "SOM Library"}, "geometry": {"type": "Point", "coordinates": [72.9157582, 19.1317572]}}, {"type": "Feature", "properties": {"osm_id": 5878275173, "osm_type": "node", "amenity": "library", "name": "IDC Library"}, "geometry": {"type": "Point", "coordinates": [72.9172948, 19.1332856]}}, {"type": "Feature", "properties": {"osm_id": 6335029685, "osm_type": "node", "amenity": "library", "name": "The People's Free Reading Room & Library", "name:en": "The People's Free Reading Room & Library", "opening_hours": "Mo-Sa 09:00-19:00; Su 09:00-13:00"}, "geometry": {"type": "Point", "coordinates": [72.8285931, 18.9436588]}}, {"type": "Feature", "properties": {"osm_id": 6383679532, "osm_type": "node", "amenity": "library", "name": "Marathi Grant Sangrahalay"}, "geometry": {"type": "Point", "coordinates": [72.9771255, 19.1909634]}}, {"type": "Feature", "properties": {"osm_id": 6441956357, "osm_type": "node", "amenity": "library", "name": "MCGM Study Center and Toy Library"}, "geometry": {"type": "Point", "coordinates": [72.8633535, 19.0212124]}}, {"type": "Feature", "properties": {"osm_id": 7902294385, "osm_type": "node", "addr:city": "Thane", "addr:district": "Thane", "addr:housenumber": "123", "addr:postcode": "400605", "addr:street": "Jijamata Marg", "amenity": "library", "grades": "1-10", "opening_hours": "Mo-Sa 00:00-24:00", "phone": "+91 8796045879", "religion": "hindu"}, "geometry": {"type": "Point", "coordinates": [72.979347, 19.1806824]}}, {"type": "Feature", "properties": {"osm_id": 8456530689, "osm_type": "node", "addr:city": "Mumbai", "addr:postcode": "400053", "addr:street": "Shastri Nagar Lane 1", "air_conditioning": "yes", "amenity": "library", "internet_access": "yes", "internet_access:fee": "customers", "name": "Just Books", "payment:cash": "yes", "payment:credit_cards": "yes"}, "geometry": {"type": "Point", "coordinates": [72.8278569, 19.1395878]}}, {"type": "Feature", "properties": {"osm_id": 9250337492, "osm_type": "node", "addr:city": "THANE", "addr:postcode": "400606", "amenity": "library", "internet_access": "no", "name": "Choankar Library", "opening_hours": "Mo-Sa 08:00-20:00"}, "geometry": {"type": "Point", "coordinates": [72.9567658, 19.218645]}}, {"type": "Feature", "properties": {"osm_id": 11617834880, "osm_type": "node", "addr:city": "Mumbai", "addr:district": "thane", "addr:postcode": "400076", "addr:street": "Orchard Avenue", "air_conditioning": "yes", "amenity": "library", "internet_access": "yes", "internet_access:fee": "yes", "name": "heritage library", "opening_hours": "Mo-Su 09:00-21:00", "operator": "heritage"}, "geometry": {"type": "Point", "coordinates": [72.9115225, 19.1186118]}}, {"type": "Feature", "properties": {"osm_id": 11684728762, "osm_type": "node", "amenity": "library", "name": "Marathi Granth Sangrahalaya"}, "geometry": {"type": "Point", "coordinates": [72.9707183, 19.1872838]}}, {"type": "Feature", "properties": {"osm_id": 12845376175, "osm_type": "node", "amenity": "library", "name": "Arya Samaj Mulund Pusthakalay"}, "geometry": {"type": "Point", "coordinates": [72.9389305, 19.1757229]}}, {"type": "Feature", "properties": {"osm_id": 13479418105, "osm_type": "node", "amenity": "library", "internet_access": "yes", "internet_access:fee": "no", "opening_hours": "Mo-Sa 08:00-18:00"}, "geometry": {"type": "Point", "coordinates": [72.8747626, 19.0472095]}}, {"type": "Feature", "properties": {"osm_id": 13483136301, "osm_type": "node", "addr:postcode": "400043", "addr:street": "P.L. Lokhande Marg", "amenity": "library", "internet_access": "wlan", "name": "Niyaz Ahamed Library", "name:en": "Niyaz Ahamed Library", "opening_hours": "Su-Fr 09:00-23:00; Sa 09:00-14:00"}, "geometry": {"type": "Point", "coordinates": [72.9188845, 19.0625375]}}, {"type": "Feature", "properties": {"osm_id": 13722623701, "osm_type": "node", "addr:postcode": "400043", "amenity": "library", "internet_access": "wlan", "name": "M-Power Library", "opening_hours": "Tu-Su 09:00-20:00"}, "geometry": {"type": "Point", "coordinates": [72.9218981, 19.0523364]}}, {"type": "Feature", "properties": {"osm_id": 13900288560, "osm_type": "node", "amenity": "library"}, "geometry": {"type": "Point", "coordinates": [72.9193551, 19.1291579]}}, {"type": "Feature", "properties": {"osm_id": 50880513, "osm_type": "way", "addr:city": "Mumbai", "addr:district": "MUMBAI", "addr:housenumber": "NEAR  RBI BANK", "addr:postcode": "400001", "addr:street": "Shahid Bhagat Singh Marg", "amenity": "library", "building": "yes", "check_date": "2023-10-17", "historic": "yes", "internet_access": "yes", "internet_access:fee": "no", "name": "Asiatic Society Town Hall;Asiatic Society Municipal Library", "opening_hours": "Mo-Su 09:00-21:00", "operator:type": "public", "ref:isil": "UNKNOWN", "wikidata": "Q71209843", "wikipedia": "en:Asiatic Society of Mumbai Town Hall"}, "geometry": {"type": "Point", "coordinates": [72.8361416, 18.9318316]}}, {"type": "Feature", "properties": {"osm_id": 56076938, "osm_type": "way", "amenity": "library", "name": "Bhavan's library"}, "geometry": {"type": "Point", "coordinates": [72.8360835, 19.1252912]}}, {"type": "Feature", "properties": {"osm_id": 120169293, "osm_type": "way", "amenity": "library", "building": "yes", "name": "Mahim Sarvajanik Vachnalaya"}, "geometry": {"type": "Point", "coordinates": [72.8399217, 19.0314533]}}, {"type": "Feature", "properties": {"osm_id": 207353030, "osm_type": "way", "amenity": "library", "name": "The Asiatic Society of Mumbai", "opening_hours": "Mo-Fr 08:00-17:00", "wikidata": "Q4058307", "wikimedia_commons": "Category:Asiatic Society of Mumbai", "wikipedia": "en:The Asiatic Society of Mumbai"}, "geometry": {"type": "Point", "coordinates": [72.8361981, 18.9321852]}}, {"type": "Feature", "properties": {"osm_id": 250266159, "osm_type": "way", "access": "private", "addr:city": "Mumbai", "addr:housename": "Old Campus, TISS", "addr:postcode": "400088", "addr:street": "Sion Panvel Highway (Yashwantrao Chavan Marg)", "amenity": "library", "building": "college", "name": "Tiss Library", "note": "TISS Library established along with the institute way back in 1936 is one of the leading social science libraries in the country. The library was named as \"Sir Dorabji Tata Memorial Library\" on 3rd May, 2002 in the memory of late Sir Dorabjii Tata"}, "geometry": {"type": "Point", "coordinates": [72.9123043, 19.0441672]}}, {"type": "Feature", "properties": {"osm_id": 353758055, "osm_type": "way", "addr:city": "Mulund (East)", "addr:district": "Mumbai", "addr:housenumber": "103, 1st floor Shagun Sadan CHSL", "addr:postcode": "400081", "addr:street": "GV Scheme Road 4", "air_conditioning": "yes", "amenity": "library", "building": "yes", "building:levels": "6", "internet_access": "wlan", "internet_access:fee": "no", "name": "Mulund Abhyasika"}, "geometry": {"type": "Point", "coordinates": [72.960348, 19.1693888]}}, {"type": "Feature", "properties": {"osm_id": 355416251, "osm_type": "way", "addr:city": "Thane", "addr:district": "Thane", "addr:housenumber": "A2", "addr:postcode": "400601", "addr:street": "Lal Bahadur Shastri Marg", "amenity": "library", "building": "apartments", "building:levels": "7", "name": "The Indian Library", "smoking": "no"}, "geometry": {"type": "Point", "coordinates": [72.9767383, 19.2109879]}}, {"type": "Feature", "properties": {"osm_id": 356450752, "osm_type": "way", "addr:postcode": "400050", "addr:street": "Swami Vivekanand Road", "amenity": "library", "building": "yes", "name": "National Library", "name:en": "National Library"}, "geometry": {"type": "Point", "coordinates": [72.8370991, 19.0555574]}}, {"type": "Feature", "properties": {"osm_id": 665946586, "osm_type": "way", "amenity": "library", "name": "District Library Mulund"}, "geometry": {"type": "Point", "coordinates": [72.9502944, 19.1743164]}}, {"type": "Feature", "properties": {"osm_id": 678334168, "osm_type": "way", "amenity": "library", "building": "yes", "name": "Dr. Anandibai Gopalrao Joshi Abhyasika"}, "geometry": {"type": "Point", "coordinates": [72.9781344, 19.1819963]}}, {"type": "Feature", "properties": {"osm_id": 723512524, "osm_type": "way", "amenity": "library", "building": "university", "name": "Central Library", "opening_hours": "Mo-Fr 09:15-23:00; Sa,Su,PH 09:15-17:45"}, "geometry": {"type": "Point", "coordinates": [72.9151075, 19.1340699]}}, {"type": "Feature", "properties": {"osm_id": 1069815763, "osm_type": "way", "amenity": "library", "building": "yes"}, "geometry": {"type": "Point", "coordinates": [72.9945794, 19.0757101]}}, {"type": "Feature", "properties": {"osm_id": 1215014605, "osm_type": "way", "access": "yes", "addr:city": "Mumbai", "addr:district": "Mumbai", "addr:housenumber": "Near Nahur Station", "addr:postcode": "400078", "addr:street": "Bhandup Village Road", "amenity": "library", "building": "yes", "internet_access": "no", "name": "Read And Share Library", "opening_hours": "Mo-Sa 08:00-20:00"}, "geometry": {"type": "Point", "coordinates": [72.9448171, 19.1537054]}}, {"type": "Feature", "properties": {"osm_id": 1327051193, "osm_type": "way", "amenity": "library", "building": "yes", "name": "New Library Building", "operator": "University of Mumbai"}, "geometry": {"type": "Point", "coordinates": [72.8559679, 19.0721792]}}, {"type": "Feature", "properties": {"osm_id": 1389902912, "osm_type": "way", "access": "customers", "air_conditioning": "no", "amenity": "library", "building": "yes", "internet_access": "no", "name": "Samaj Kalyan Mandir Reading Room"}, "geometry": {"type": "Point", "coordinates": [72.8533941, 19.2500963]}}, {"type": "Feature", "properties": {"osm_id": 1392543387, "osm_type": "way", "amenity": "library", "building": "yes", "name": "Santa Cruz Library", "start_date": "1966"}, "geometry": {"type": "Point", "coordinates": [72.8401013, 19.0841653]}}]}