{"type": "FeatureCollection", "crs": {"type": "name", "properties": {"name": "urn:ogc:def:crs:OGC:1.3:CRS84"}}, "features": [{"type": "Feature", "properties": {"osm_id": 347152618, "osm_type": "node", "amenity": "police", "name": "Khar Police Station"}, "geometry": {"type": "Point", "coordinates": [72.8371137, 19.064037]}}, {"type": "Feature", "properties": {"osm_id": 605221901, "osm_type": "node", "amenity": "police", "name": "Lokmanya Tilak Road Police Station"}, "geometry": {"type": "Point", "coordinates": [72.8303315, 18.9453708]}}, {"type": "Feature", "properties": {"osm_id": 858544370, "osm_type": "node", "amenity": "police", "name": "Null Bazaar Police Chowkie"}, "geometry": {"type": "Point", "coordinates": [72.8290329, 18.9570075]}}, {"type": "Feature", "properties": {"osm_id": 858544419, "osm_type": "node", "amenity": "police", "name": "Pydhoni Police Station"}, "geometry": {"type": "Point", "coordinates": [72.832021, 18.9541719]}}, {"type": "Feature", "properties": {"osm_id": 860348747, "osm_type": "node", "amenity": "police", "name": "Dongri Police Station", "postal_code": "400009"}, "geometry": {"type": "Point", "coordinates": [72.8390488, 18.9621396]}}, {"type": "Feature", "properties": {"osm_id": 861239805, "osm_type": "node", "amenity": "police", "name": "Sir JJ Marg Police Station"}, "geometry": {"type": "Point", "coordinates": [72.832291, 18.963006]}}, {"type": "Feature", "properties": {"osm_id": 985121037, "osm_type": "node", "amenity": "police", "name": "Aarey Police Station"}, "geometry": {"type": "Point", "coordinates": [72.8543819, 19.1664849]}}, {"type": "Feature", "properties": {"osm_id": 985121043, "osm_type": "node", "amenity": "police", "name": "Goregaon (E) Police Station"}, "geometry": {"type": "Point", "coordinates": [72.8576756, 19.1558742]}}, {"type": "Feature", "properties": {"osm_id": 1034965532, "osm_type": "node", "amenity": "police", "name": "Lokmanya Tilak Police Chowkie Beat No 4", "wpt_symbol": "Police Station"}, "geometry": {"type": "Point", "coordinates": [72.833389, 18.9474438]}}, {"type": "Feature", "properties": {"osm_id": 1034965537, "osm_type": "node", "amenity": "police", "name": "Lokmanya Tilak Police Station"}, "geometry": {"type": "Point", "coordinates": [72.8331294, 18.9463293]}}, {"type": "Feature", "properties": {"osm_id": 1241711502, "osm_type": "node", "amenity": "police", "description": "Police commissioner", "ele": "11.901855", "sym": "Police Station"}, "geometry": {"type": "Point", "coordinates": [72.8328893, 18.9444479]}}, {"type": "Feature", "properties": {"osm_id": 1301593213, "osm_type": "node", "amenity": "police"}, "geometry": {"type": "Point", "coordinates": [72.8323654, 18.9675282]}}, {"type": "Feature", "properties": {"osm_id": 1332582403, "osm_type": "node", "amenity": "police", "name:en": "Marine Drive Police Station"}, "geometry": {"type": "Point", "coordinates": [72.8243459, 18.9302617]}}, {"type": "Feature", "properties": {"osm_id": 1697431324, "osm_type": "node", "amenity": "police", "check_date": "2024-09-25", "name": "D.N. Nagar Police Station"}, "geometry": {"type": "Point", "coordinates": [72.8299999, 19.1225849]}}, {"type": "Feature", "properties": {"osm_id": 1905389024, "osm_type": "node", "amenity": "police", "name": "Versova Police Station"}, "geometry": {"type": "Point", "coordinates": [72.8303704, 19.1241245]}}, {"type": "Feature", "properties": {"osm_id": 1960732105, "osm_type": "node", "amenity": "police", "name": "Police Commissioner Office"}, "geometry": {"type": "Point", "coordinates": [72.9811271, 19.1960801]}}, {"type": "Feature", "properties": {"osm_id": 1960732177, "osm_type": "node", "amenity": "police", "name": "Vartak Nagar Police Station"}, "geometry": {"type": "Point", "coordinates": [72.9627611, 19.2131355]}}, {"type": "Feature", "properties": {"osm_id": 1990647113, "osm_type": "node", "addr:housenumber": "Sector 10", "addr:postcode": "400709", "addr:street": "Atmaram Bhoir Marg", "amenity": "police", "name": "KK POLICE STATION", "name:en": "D Mart Police Station"}, "geometry": {"type": "Point", "coordinates": [73.0051825, 19.0990752]}}, {"type": "Feature", "properties": {"osm_id": 2097757614, "osm_type": "node", "amenity": "police"}, "geometry": {"type": "Point", "coordinates": [72.8582168, 19.2282071]}}, {"type": "Feature", "properties": {"osm_id": 2171447204, "osm_type": "node", "amenity": "police", "name": "Police Chowki"}, "geometry": {"type": "Point", "coordinates": [72.8292193, 19.0628319]}}, {"type": "Feature", "properties": {"osm_id": 2298079810, "osm_type": "node", "amenity": "police", "name": "Police Station, Thakur Village"}, "geometry": {"type": "Point", "coordinates": [72.8729038, 19.2059514]}}, {"type": "Feature", "properties": {"osm_id": 2308138695, "osm_type": "node", "amenity": "police", "check_date": "2026-05-03", "name": "Dindoshi Police station"}, "geometry": {"type": "Point", "coordinates": [72.8577333, 19.1789489]}}, {"type": "Feature", "properties": {"osm_id": 2449734722, "osm_type": "node", "amenity": "police", "check_date": "2026-03-20", "name": "Badhamkar Mark Police Station"}, "geometry": {"type": "Point", "coordinates": [72.8170666, 18.9608206]}}, {"type": "Feature", "properties": {"osm_id": 2562631232, "osm_type": "node", "amenity": "police", "name": "Gokuldham Police Station"}, "geometry": {"type": "Point", "coordinates": [72.8676526, 19.1755909]}}, {"type": "Feature", "properties": {"osm_id": 2680678193, "osm_type": "node", "amenity": "police", "name": "Police Chowk"}, "geometry": {"type": "Point", "coordinates": [72.8294847, 19.0738897]}}, {"type": "Feature", "properties": {"osm_id": 2930732807, "osm_type": "node", "amenity": "police", "name": "Tilak Nagar Police Station"}, "geometry": {"type": "Point", "coordinates": [72.8959976, 19.0652856]}}, {"type": "Feature", "properties": {"osm_id": 2933183452, "osm_type": "node", "addr:city": "Kurla West, Mumbai", "addr:postcode": "400070", "amenity": "police", "name": "VB Nagar Police Station"}, "geometry": {"type": "Point", "coordinates": [72.8842275, 19.0717172]}}, {"type": "Feature", "properties": {"osm_id": 3008501715, "osm_type": "node", "amenity": "police", "name": "Police Commissioner's Office"}, "geometry": {"type": "Point", "coordinates": [72.833307, 18.9462953]}}, {"type": "Feature", "properties": {"osm_id": 3186544582, "osm_type": "node", "amenity": "police"}, "geometry": {"type": "Point", "coordinates": [72.8559481, 19.2294953]}}, {"type": "Feature", "properties": {"osm_id": 3204171992, "osm_type": "node", "amenity": "police", "name": "POLICE STATION"}, "geometry": {"type": "Point", "coordinates": [72.9357, 19.0537]}}, {"type": "Feature", "properties": {"osm_id": 3205945190, "osm_type": "node", "addr:city": "mumbai", "amenity": "police", "name": "trombay police station"}, "geometry": {"type": "Point", "coordinates": [72.9499458, 19.0361453]}}, {"type": "Feature", "properties": {"osm_id": 3205950901, "osm_type": "node", "addr:postcode": "400 078", "addr:street": "Tembhipada Road", "amenity": "police", "name": "Tembhipada Police Chowki"}, "geometry": {"type": "Point", "coordinates": [72.9291114, 19.1548902]}}, {"type": "Feature", "properties": {"osm_id": 3205956099, "osm_type": "node", "addr:city": "mumbai", "addr:housenumber": "near Handore office", "addr:postcode": "400089", "addr:street": "P.L. Lokhande Marg", "amenity": "police", "name": "chembur police station"}, "geometry": {"type": "Point", "coordinates": [72.9008254, 19.0639495]}}, {"type": "Feature", "properties": {"osm_id": 3215545236, "osm_type": "node", "amenity": "police", "name": "Maharashtra Nagar Police Station"}, "geometry": {"type": "Point", "coordinates": [72.9378622, 19.0502474]}}, {"type": "Feature", "properties": {"osm_id": 3215577539, "osm_type": "node", "amenity": "police", "name": "Govandi Police station"}, "geometry": {"type": "Point", "coordinates": [72.9116651, 19.0595211]}}, {"type": "Feature", "properties": {"osm_id": 3215584200, "osm_type": "node", "amenity": "police", "name": "Lallubhai Police Station"}, "geometry": {"type": "Point", "coordinates": [72.9270997, 19.0528478]}}, {"type": "Feature", "properties": {"osm_id": 3215621243, "osm_type": "node", "addr:city": "mumbai", "addr:postcode": "400089", "addr:street": "P.L. Lokhande Marg", "amenity": "police", "name": "gaikwaad nagar police station"}, "geometry": {"type": "Point", "coordinates": [72.9104397, 19.0603518]}}, {"type": "Feature", "properties": {"osm_id": 3263043837, "osm_type": "node", "addr:city": "Thane (West)", "amenity": "police", "name": "WAGLE POLICE STATION"}, "geometry": {"type": "Point", "coordinates": [72.9550994, 19.2031874]}}, {"type": "Feature", "properties": {"osm_id": 3532121099, "osm_type": "node", "amenity": "police", "name": "Nehru Nagar Kurla E Police Chowky"}, "geometry": {"type": "Point", "coordinates": [72.8808749, 19.0650661]}}, {"type": "Feature", "properties": {"osm_id": 3547889593, "osm_type": "node", "amenity": "police", "name": "Khardev Nagar Police Station"}, "geometry": {"type": "Point", "coordinates": [72.9088297, 19.0557429]}}, {"type": "Feature", "properties": {"osm_id": 3602876220, "osm_type": "node", "amenity": "police", "name": "Vikhroli Police Station"}, "geometry": {"type": "Point", "coordinates": [72.9373252, 19.1187189]}}, {"type": "Feature", "properties": {"osm_id": 4402150675, "osm_type": "node", "addr:city": "cheedanagar, chembur,mumbai", "addr:postcode": "400089", "addr:street": "Road No 1", "amenity": "police", "name": "Chheda Nagar Police Station", "operator": "Mumbai Police", "phone": "+912225259663"}, "geometry": {"type": "Point", "coordinates": [72.9031566, 19.0672141]}}, {"type": "Feature", "properties": {"osm_id": 4621598794, "osm_type": "node", "addr:street": "C S Link Road", "amenity": "police", "name:en": "Police Station"}, "geometry": {"type": "Point", "coordinates": [72.8650937, 19.2573838]}}, {"type": "Feature", "properties": {"osm_id": 4658680890, "osm_type": "node", "addr:postcode": "400081", "addr:street": "Navghar Marg", "amenity": "police"}, "geometry": {"type": "Point", "coordinates": [72.9591762, 19.1695498]}}, {"type": "Feature", "properties": {"osm_id": 4791178925, "osm_type": "node", "addr:postcode": "400081", "addr:street": "Lokmanya Tilak Road", "amenity": "police"}, "geometry": {"type": "Point", "coordinates": [72.956655, 19.1715844]}}, {"type": "Feature", "properties": {"osm_id": 4848773734, "osm_type": "node", "amenity": "police", "check_date": "2026-03-20", "name": "Sion (E) Police Station"}, "geometry": {"type": "Point", "coordinates": [72.8575876, 19.0313226]}}, {"type": "Feature", "properties": {"osm_id": 5057817507, "osm_type": "node", "amenity": "police", "name": "Matunga Police Station"}, "geometry": {"type": "Point", "coordinates": [72.8578787, 19.0311163]}}, {"type": "Feature", "properties": {"osm_id": 5073191992, "osm_type": "node", "amenity": "police", "name": "Shil Mhape Police Chouki"}, "geometry": {"type": "Point", "coordinates": [73.0343208, 19.1147228]}}, {"type": "Feature", "properties": {"osm_id": 5077468322, "osm_type": "node", "amenity": "police", "name:en": "Shil Daighar Police Station"}, "geometry": {"type": "Point", "coordinates": [73.046117, 19.1428227]}}, {"type": "Feature", "properties": {"osm_id": 5077468323, "osm_type": "node", "amenity": "police", "name:en": "Rabale Police Station"}, "geometry": {"type": "Point", "coordinates": [73.0009279, 19.1463017]}}, {"type": "Feature", "properties": {"osm_id": 5116459526, "osm_type": "node", "amenity": "police", "name": "Kandivali Police Station"}, "geometry": {"type": "Point", "coordinates": [72.8501404, 19.209583]}}, {"type": "Feature", "properties": {"osm_id": 5258276335, "osm_type": "node", "amenity": "police", "name": "Mount Mary Police Chouki"}, "geometry": {"type": "Point", "coordinates": [72.8232806, 19.051928]}}, {"type": "Feature", "properties": {"osm_id": 5448387024, "osm_type": "node", "amenity": "police"}, "geometry": {"type": "Point", "coordinates": [72.837489, 18.9978829]}}, {"type": "Feature", "properties": {"osm_id": 5506320530, "osm_type": "node", "amenity": "police", "name": "BKC Police Station"}, "geometry": {"type": "Point", "coordinates": [72.8603409, 19.0645147]}}, {"type": "Feature", "properties": {"osm_id": 5614984680, "osm_type": "node", "amenity": "police", "name": "Versova Police Station"}, "geometry": {"type": "Point", "coordinates": [72.8044882, 19.1429738]}}, {"type": "Feature", "properties": {"osm_id": 5667043327, "osm_type": "node", "amenity": "police", "name": "Samatanagar Police Station"}, "geometry": {"type": "Point", "coordinates": [72.8614152, 19.1998393]}}, {"type": "Feature", "properties": {"osm_id": 5668284373, "osm_type": "node", "addr:city": "Mumbai", "addr:postcode": "400013", "addr:street": "Sakubai Mohite Marg", "amenity": "police", "check_date": "2026-03-20", "name": "NM Joshi Marg Police Station"}, "geometry": {"type": "Point", "coordinates": [72.8309771, 18.9914132]}}, {"type": "Feature", "properties": {"osm_id": 6052581621, "osm_type": "node", "amenity": "police", "name": "Traffic Police Chowky"}, "geometry": {"type": "Point", "coordinates": [72.9374814, 19.163976]}}, {"type": "Feature", "properties": {"osm_id": 7499053623, "osm_type": "node", "addr:city": "Mumbai", "addr:postcode": "400008", "addr:street": "Undria Street", "amenity": "police", "name": "Chowki Mohalla Police Chowki", "operator": "Mumbai Police"}, "geometry": {"type": "Point", "coordinates": [72.8301422, 18.9618784]}}, {"type": "Feature", "properties": {"osm_id": 7506854141, "osm_type": "node", "amenity": "police", "name": "Do Taki Police Chowki", "operator": "Mumbai Police"}, "geometry": {"type": "Point", "coordinates": [72.8286697, 18.9616064]}}, {"type": "Feature", "properties": {"osm_id": 8170852418, "osm_type": "node", "amenity": "police", "name:en": "Malad Police Station"}, "geometry": {"type": "Point", "coordinates": [72.8445059, 19.1834974]}}, {"type": "Feature", "properties": {"osm_id": 9081860659, "osm_type": "node", "amenity": "police", "name": "Elphinstone Road Traffic Police Chowki"}, "geometry": {"type": "Point", "coordinates": [72.8325587, 19.0085419]}}, {"type": "Feature", "properties": {"osm_id": 9139914820, "osm_type": "node", "amenity": "police"}, "geometry": {"type": "Point", "coordinates": [72.8266433, 19.0981885]}}, {"type": "Feature", "properties": {"osm_id": 9215039104, "osm_type": "node", "amenity": "police", "name": "Chitalsar Police Station"}, "geometry": {"type": "Point", "coordinates": [72.9762793, 19.2313943]}}, {"type": "Feature", "properties": {"osm_id": 9730701801, "osm_type": "node", "amenity": "police", "name": "Khar Police Station"}, "geometry": {"type": "Point", "coordinates": [72.8376531, 19.072887]}}, {"type": "Feature", "properties": {"osm_id": 10196823118, "osm_type": "node", "addr:postcode": "400607", "addr:street": "Ghodbunder Service Road", "amenity": "police", "name:en": "Kasarvadavali Police Station"}, "geometry": {"type": "Point", "coordinates": [72.9669954, 19.2590592]}}, {"type": "Feature", "properties": {"osm_id": 10296626442, "osm_type": "node", "amenity": "police", "name": "Juhu Police Station"}, "geometry": {"type": "Point", "coordinates": [72.8327116, 19.1031659]}}, {"type": "Feature", "properties": {"osm_id": 10705115166, "osm_type": "node", "amenity": "police"}, "geometry": {"type": "Point", "coordinates": [72.9759036, 19.1871851]}}, {"type": "Feature", "properties": {"osm_id": 11452014435, "osm_type": "node", "amenity": "police", "name": "Chaitya Bhumi Police Chowk"}, "geometry": {"type": "Point", "coordinates": [72.8345223, 19.0260237]}}, {"type": "Feature", "properties": {"osm_id": 11615592630, "osm_type": "node", "amenity": "police", "name": "Anti Corruption Bureau Thane"}, "geometry": {"type": "Point", "coordinates": [72.9826331, 19.2059644]}}, {"type": "Feature", "properties": {"osm_id": 12026381269, "osm_type": "node", "amenity": "police", "name": "Shivaji Nagar Police Station"}, "geometry": {"type": "Point", "coordinates": [72.8433693, 19.0610978]}}, {"type": "Feature", "properties": {"osm_id": 12878867195, "osm_type": "node", "amenity": "police", "name": "Office Of The Inspector Incharge, Mulund East", "operator": "Indian Railways", "operator:wikidata": "Q3523040"}, "geometry": {"type": "Point", "coordinates": [72.9575152, 19.1721599]}}, {"type": "Feature", "properties": {"osm_id": 13514237453, "osm_type": "node", "amenity": "police", "name": "Mata Ramabai Ambedkar Marg Police Thaane", "name:mr": "माता रामबाई आंबेडकर मार्ग पोलीस ठाणे", "wheelchair": "limited"}, "geometry": {"type": "Point", "coordinates": [72.8318499, 18.9325312]}}, {"type": "Feature", "properties": {"osm_id": 39834520, "osm_type": "way", "amenity": "police", "building": "apartments", "name": "Gamdevi Police Station"}, "geometry": {"type": "Point", "coordinates": [72.8123593, 18.9605234]}}, {"type": "Feature", "properties": {"osm_id": 39839519, "osm_type": "way", "amenity": "police", "building": "apartments", "layer": "1", "name": "Traffic Police"}, "geometry": {"type": "Point", "coordinates": [72.8128372, 18.9615551]}}, {"type": "Feature", "properties": {"osm_id": 48754898, "osm_type": "way", "addr:city": "Mumbai", "addr:postcode": "400034", "addr:street": "Tardeo Police Lane", "amenity": "police", "building": "yes", "name": "Tardeo Police Station", "name:mr": "ताडदेव पोलीस स्टेशन"}, "geometry": {"type": "Point", "coordinates": [72.8141846, 18.969526]}}, {"type": "Feature", "properties": {"osm_id": 118898002, "osm_type": "way", "amenity": "police", "name": "Versova Police station (D.N.Nagar)"}, "geometry": {"type": "Point", "coordinates": [72.8302511, 19.1245725]}}, {"type": "Feature", "properties": {"osm_id": 135732933, "osm_type": "way", "amenity": "police", "building": "yes", "name": "Shivaji Park Police Station"}, "geometry": {"type": "Point", "coordinates": [72.8409178, 19.0232623]}}, {"type": "Feature", "properties": {"osm_id": 179915833, "osm_type": "way", "amenity": "police", "name": "Govandi Police station"}, "geometry": {"type": "Point", "coordinates": [72.9175446, 19.0486817]}}, {"type": "Feature", "properties": {"osm_id": 196092411, "osm_type": "way", "amenity": "police", "name": "Santacruz Police Station", "name:en": "Santacruz Police Station", "name:mr": "सांताक्रुझ पोलीस ठाणे"}, "geometry": {"type": "Point", "coordinates": [72.8350658, 19.0841421]}}, {"type": "Feature", "properties": {"osm_id": 196620996, "osm_type": "way", "amenity": "police", "name": "Versova Police Chowki"}, "geometry": {"type": "Point", "coordinates": [72.8106349, 19.1367566]}}, {"type": "Feature", "properties": {"osm_id": 207376649, "osm_type": "way", "amenity": "police", "check_date": "2026-03-12", "landuse": "commercial", "name": "Azad Maidan Police Station"}, "geometry": {"type": "Point", "coordinates": [72.832942, 18.9415557]}}, {"type": "Feature", "properties": {"osm_id": 207376650, "osm_type": "way", "amenity": "police", "check_date": "2026-03-12"}, "geometry": {"type": "Point", "coordinates": [72.8332649, 18.9420194]}}, {"type": "Feature", "properties": {"osm_id": 207380908, "osm_type": "way", "amenity": "police"}, "geometry": {"type": "Point", "coordinates": [72.8329469, 18.9447895]}}, {"type": "Feature", "properties": {"osm_id": 207417322, "osm_type": "way", "amenity": "police", "check_date": "2026-03-12", "name": "Colaba Police Station"}, "geometry": {"type": "Point", "coordinates": [72.8309833, 18.9224367]}}, {"type": "Feature", "properties": {"osm_id": 207538317, "osm_type": "way", "amenity": "police"}, "geometry": {"type": "Point", "coordinates": [72.8319773, 18.9541543]}}, {"type": "Feature", "properties": {"osm_id": 235939616, "osm_type": "way", "amenity": "police", "name": "RPF Reserve Line - Mulund", "operator": "Indian Railways", "operator:wikidata": "Q3523040", "police": "barracks"}, "geometry": {"type": "Point", "coordinates": [72.9595462, 19.174276]}}, {"type": "Feature", "properties": {"osm_id": 237025775, "osm_type": "way", "amenity": "police", "check_date": "2026-03-20"}, "geometry": {"type": "Point", "coordinates": [72.8167794, 18.9609597]}}, {"type": "Feature", "properties": {"osm_id": 308016832, "osm_type": "way", "amenity": "police", "name": "Dharavi Police Station"}, "geometry": {"type": "Point", "coordinates": [72.8575004, 19.0432664]}}, {"type": "Feature", "properties": {"osm_id": 312763210, "osm_type": "way", "amenity": "police", "building": "yes", "name": "Borivali Police Station"}, "geometry": {"type": "Point", "coordinates": [72.8559326, 19.2295552]}}, {"type": "Feature", "properties": {"osm_id": 317222141, "osm_type": "way", "addr:city": "Mulund (West)", "addr:street": "Subhash Chandra Bose Road", "amenity": "police", "name": "Mulund Police Station"}, "geometry": {"type": "Point", "coordinates": [72.9516944, 19.1772976]}}, {"type": "Feature", "properties": {"osm_id": 347008831, "osm_type": "way", "amenity": "police", "building": "yes", "name": "beat no 2"}, "geometry": {"type": "Point", "coordinates": [72.8908674, 19.0618101]}}, {"type": "Feature", "properties": {"osm_id": 353192704, "osm_type": "way", "amenity": "police", "building": "yes", "name": "Bail Bazar Police Station"}, "geometry": {"type": "Point", "coordinates": [72.8810643, 19.0852939]}}, {"type": "Feature", "properties": {"osm_id": 353758584, "osm_type": "way", "addr:city": "Mumbai", "addr:district": "Mumbai City", "addr:postcode": "400005", "addr:street": "Sadhu Vaswani Marg,Ganesh Murti Nagar, Cuffe Parade", "amenity": "police", "building": "yes", "name": "Cuffe Parade Police Station"}, "geometry": {"type": "Point", "coordinates": [72.8187464, 18.9119152]}}, {"type": "Feature", "properties": {"osm_id": 353810415, "osm_type": "way", "amenity": "police", "building": "yes", "name": "Worli Police Station", "name:en": "Worli Police Station", "name:mr": "वरळी पोलीस ठाणे"}, "geometry": {"type": "Point", "coordinates": [72.817387, 19.0051624]}}, {"type": "Feature", "properties": {"osm_id": 354016607, "osm_type": "way", "addr:city": "Navi Mumbai", "addr:postcode": "400706", "addr:street": "Adi Shankaracharya Marg", "amenity": "police", "building": "yes", "name": "Nerul Police Station"}, "geometry": {"type": "Point", "coordinates": [73.0193851, 19.0289022]}}, {"type": "Feature", "properties": {"osm_id": 354063829, "osm_type": "way", "amenity": "police", "building": "yes", "name": "Kopri Police Station"}, "geometry": {"type": "Point", "coordinates": [72.9692584, 19.1782831]}}, {"type": "Feature", "properties": {"osm_id": 354066127, "osm_type": "way", "amenity": "police", "building": "yes", "name": "Dadar Police Station", "wikidata": "Q6935316", "wikipedia": "en:Mumbai Police"}, "geometry": {"type": "Point", "coordinates": [72.835454, 19.0150223]}}, {"type": "Feature", "properties": {"osm_id": 356258967, "osm_type": "way", "amenity": "police", "building": "yes", "name": "Bandra Railway Police Station", "name:en": "Bandra Railway Police Station"}, "geometry": {"type": "Point", "coordinates": [72.8398177, 19.0556344]}}, {"type": "Feature", "properties": {"osm_id": 357472397, "osm_type": "way", "addr:city": "Mumbai", "addr:housenumber": "105", "addr:postcode": "400050", "addr:street": "Govind Patel Road (Carter Road)", "amenity": "police", "building": "yes", "description": "Dr. Chhering Dorje, Addl. C.P. ( W.R. ) \nBandra West", "email": "cp.mum.addcp.west@mahapolice.gov.in", "fax": "26408688", "name": "Additional Commisioner of Police, Mumbai, West Region", "operator": "Mumbai Police", "phone": "+91 22 26402122"}, "geometry": {"type": "Point", "coordinates": [72.8226873, 19.062812]}}, {"type": "Feature", "properties": {"osm_id": 417320262, "osm_type": "way", "amenity": "police", "building": "yes", "check_date": "2024-09-25", "name": "Oshiwara Police Station"}, "geometry": {"type": "Point", "coordinates": [72.8316626, 19.1476029]}}, {"type": "Feature", "properties": {"osm_id": 427979103, "osm_type": "way", "amenity": "police", "building": "yes"}, "geometry": {"type": "Point", "coordinates": [72.8047155, 19.2286965]}}, {"type": "Feature", "properties": {"osm_id": 558708648, "osm_type": "way", "addr:city": "Navi Mumbai", "addr:postcode": "400706", "addr:street": "Gaimukh Chowk", "amenity": "police", "building": "yes", "level": "1", "name": "Gaimukh Chowk Police Station", "operator": "Navi Mumbai Police"}, "geometry": {"type": "Point", "coordinates": [73.0159441, 19.0150691]}}, {"type": "Feature", "properties": {"osm_id": 571433508, "osm_type": "way", "amenity": "police", "building": "yes", "name": "N.R.I Coastal Police Station"}, "geometry": {"type": "Point", "coordinates": [73.0286809, 19.0080211]}}, {"type": "Feature", "properties": {"osm_id": 621696888, "osm_type": "way", "amenity": "police", "building": "yes", "name": "Goregaon Police Station"}, "geometry": {"type": "Point", "coordinates": [72.8454704, 19.1573154]}}, {"type": "Feature", "properties": {"osm_id": 627802514, "osm_type": "way", "addr:city": "Mumbai", "addr:postcode": "400024", "amenity": "police", "building": "yes", "name": "Nehru Nagar Kurla Police Station", "opening_hours": "24/7"}, "geometry": {"type": "Point", "coordinates": [72.8805426, 19.0587962]}}, {"type": "Feature", "properties": {"osm_id": 628861218, "osm_type": "way", "addr:city": "Mumbai", "addr:postcode": "400059", "addr:street": "Marol Maroshi Village Road", "amenity": "police", "name": "Marol Police Camp", "police": "barracks"}, "geometry": {"type": "Point", "coordinates": [72.8833544, 19.1249113]}}, {"type": "Feature", "properties": {"osm_id": 816431603, "osm_type": "way", "amenity": "police", "building": "yes", "name": "Trombay Police Station", "operator": "Maharashtra Police"}, "geometry": {"type": "Point", "coordinates": [72.9452555, 19.0380156]}}, {"type": "Feature", "properties": {"osm_id": 825118101, "osm_type": "way", "amenity": "police", "building": "yes", "name": "Turbhe Police Station"}, "geometry": {"type": "Point", "coordinates": [73.0196546, 19.0666157]}}, {"type": "Feature", "properties": {"osm_id": 829610657, "osm_type": "way", "addr:city": "Mumbai", "addr:postcode": "400010", "addr:street": "Seth Moti Shah Road (Love Lane)", "amenity": "police", "name": "Byculla Police Station", "operator": "Mumbai Police"}, "geometry": {"type": "Point", "coordinates": [72.8339943, 18.9732779]}}, {"type": "Feature", "properties": {"osm_id": 1009581717, "osm_type": "way", "amenity": "police", "name": "Cuffe Parade Police Station"}, "geometry": {"type": "Point", "coordinates": [72.8187658, 18.9119181]}}, {"type": "Feature", "properties": {"osm_id": 1068842996, "osm_type": "way", "amenity": "police", "building": "yes", "name": "Rabale Traffic Police Station"}, "geometry": {"type": "Point", "coordinates": [72.9931274, 19.1484859]}}, {"type": "Feature", "properties": {"osm_id": 1071173544, "osm_type": "way", "amenity": "police", "building": "yes", "layer": "1", "name": "Rabale Police Station"}, "geometry": {"type": "Point", "coordinates": [73.0011119, 19.1462779]}}, {"type": "Feature", "properties": {"osm_id": 1120071108, "osm_type": "way", "amenity": "police"}, "geometry": {"type": "Point", "coordinates": [72.9684652, 19.1690865]}}, {"type": "Feature", "properties": {"osm_id": 1122104211, "osm_type": "way", "amenity": "police", "building": "office", "name": "Mulund Police Chowky", "phone": "+91 22 25684535", "police": "checkpoint"}, "geometry": {"type": "Point", "coordinates": [72.9562759, 19.1723689]}}, {"type": "Feature", "properties": {"osm_id": 1147920085, "osm_type": "way", "addr:postcode": "400614", "addr:street": "Sakharam Patil Marg", "amenity": "police", "check_date": "2025-12-19", "name": "CBD Belapur Police Station", "name:en": "CBD Belapur Police Station", "phone": "02227580255", "source": "Survey", "website": "http://www.mahapolice.gov.in/mahapolice/jsp/temp/newmumbai.jsp"}, "geometry": {"type": "Point", "coordinates": [73.0412484, 19.0253765]}}, {"type": "Feature", "properties": {"osm_id": 1149824750, "osm_type": "way", "amenity": "police", "name": "Kherwadi Police Station"}, "geometry": {"type": "Point", "coordinates": [72.8501835, 19.0659446]}}, {"type": "Feature", "properties": {"osm_id": 1150984455, "osm_type": "way", "addr:city": "Thane", "addr:postcode": "400602", "addr:street": "Prashant Nagar Road", "amenity": "police", "building": "yes", "layer": "1", "name": "Naupada Police Station", "opening_hours": "24/7", "operator": "Thane Police"}, "geometry": {"type": "Point", "coordinates": [72.9672205, 19.1887149]}}, {"type": "Feature", "properties": {"osm_id": 1226336527, "osm_type": "way", "amenity": "police", "building": "yes", "name": "Juhu Tara Road Police Station", "name:en": "Juhu Tara Road Police Station"}, "geometry": {"type": "Point", "coordinates": [72.8269152, 19.0964802]}}, {"type": "Feature", "properties": {"osm_id": 1249585544, "osm_type": "way", "amenity": "police", "building": "yes", "name": "Rabodi Police Station"}, "geometry": {"type": "Point", "coordinates": [72.9822765, 19.2102463]}}, {"type": "Feature", "properties": {"osm_id": 1311209831, "osm_type": "way", "amenity": "police", "building": "yes", "level": "0", "name": "Seawoods Traffic Police Station", "operator": "Maharashtra Police"}, "geometry": {"type": "Point", "coordinates": [73.019855, 19.0194324]}}, {"type": "Feature", "properties": {"osm_id": 1334676842, "osm_type": "way", "amenity": "police", "building": "yes", "name": "Bandra Police Station", "name:en": "Bandra Police Station", "operator": "Mumbai Police"}, "geometry": {"type": "Point", "coordinates": [72.83574, 19.0559096]}}, {"type": "Feature", "properties": {"osm_id": 1381366790, "osm_type": "way", "amenity": "police", "building": "yes", "name": "Mahim Traffic Division", "name:en": "Mahim Traffic Division", "name:mr": "माहीम वाहतुक विभाग"}, "geometry": {"type": "Point", "coordinates": [72.8401727, 19.0421503]}}, {"type": "Feature", "properties": {"osm_id": 1385281128, "osm_type": "way", "amenity": "police", "name": "Golden Nest Police Chowki"}, "geometry": {"type": "Point", "coordinates": [72.8587022, 19.2955748]}}, {"type": "Feature", "properties": {"osm_id": 1411467112, "osm_type": "way", "amenity": "police", "name": "Homeguard Central Training Institute", "police": "academy"}, "geometry": {"type": "Point", "coordinates": [72.8919053, 19.0904101]}}, {"type": "Feature", "properties": {"osm_id": 1424156817, "osm_type": "way", "amenity": "police", "building": "yes"}, "geometry": {"type": "Point", "coordinates": [72.835323, 19.0841356]}}, {"type": "Feature", "properties": {"osm_id": 1428230096, "osm_type": "way", "amenity": "police", "building": "yes", "name": "Bandra Reclamation Police Station", "name:en": "Bandra Reclamation Police Station", "name:mr": "वांद्रे रिक्लेमेशन पोलीस चौकी"}, "geometry": {"type": "Point", "coordinates": [72.8299243, 19.0507687]}}, {"type": "Feature", "properties": {"osm_id": 1442619090, "osm_type": "way", "amenity": "police", "building": "yes", "name": "Nagpada Police Station", "name:en": "Nagpada Police Station"}, "geometry": {"type": "Point", "coordinates": [72.829239, 18.9670301]}}, {"type": "Feature", "properties": {"osm_id": 1457063703, "osm_type": "way", "amenity": "police", "building": "yes", "name": "Chhota Sonapur Police Chowki"}, "geometry": {"type": "Point", "coordinates": [72.8245923, 18.9619923]}}, {"type": "Feature", "properties": {"osm_id": 1457969605, "osm_type": "way", "amenity": "police", "name": "Shivajinagar Police Station"}, "geometry": {"type": "Point", "coordinates": [72.9168084, 19.063471]}}, {"type": "Feature", "properties": {"osm_id": 1468852699, "osm_type": "way", "amenity": "police", "building": "yes", "name": "Colaba Traffic Police Division", "name:en": "Colaba Traffic Police Division"}, "geometry": {"type": "Point", "coordinates": [72.830347, 18.9350835]}}, {"type": "Feature", "properties": {"osm_id": 1523903435, "osm_type": "way", "amenity": "police", "building": "yes", "name": "Bangur Nagar Link Road Police Station", "operator": "Maharashtra Police"}, "geometry": {"type": "Point", "coordinates": [72.8319317, 19.1752423]}}]}