{"type": "FeatureCollection", "crs": {"type": "name", "properties": {"name": "urn:ogc:def:crs:OGC:1.3:CRS84"}}, "features": [{"type": "Feature", "properties": {"osm_id": 348129744, "osm_type": "node", "amenity": "toilets"}, "geometry": {"type": "Point", "coordinates": [72.8246707, 19.0519827]}}, {"type": "Feature", "properties": {"osm_id": 459626234, "osm_type": "node", "amenity": "toilets"}, "geometry": {"type": "Point", "coordinates": [72.8003383, 18.9585796]}}, {"type": "Feature", "properties": {"osm_id": 469125308, "osm_type": "node", "amenity": "toilets"}, "geometry": {"type": "Point", "coordinates": [72.8025957, 18.9579302]}}, {"type": "Feature", "properties": {"osm_id": 477616673, "osm_type": "node", "amenity": "toilets"}, "geometry": {"type": "Point", "coordinates": [72.8129144, 18.96143]}}, {"type": "Feature", "properties": {"osm_id": 619218674, "osm_type": "node", "amenity": "toilets"}, "geometry": {"type": "Point", "coordinates": [72.8131528, 18.9642231]}}, {"type": "Feature", "properties": {"osm_id": 619263306, "osm_type": "node", "access": "yes", "amenity": "toilets", "toilets:disposal": "flush"}, "geometry": {"type": "Point", "coordinates": [72.8227477, 18.9654477]}}, {"type": "Feature", "properties": {"osm_id": 619302834, "osm_type": "node", "amenity": "toilets", "wheelchair": "no"}, "geometry": {"type": "Point", "coordinates": [72.8262418, 18.9618929]}}, {"type": "Feature", "properties": {"osm_id": 619306065, "osm_type": "node", "amenity": "toilets"}, "geometry": {"type": "Point", "coordinates": [72.8280227, 18.9631612]}}, {"type": "Feature", "properties": {"osm_id": 619313252, "osm_type": "node", "amenity": "toilets", "source": "GPS"}, "geometry": {"type": "Point", "coordinates": [72.8287094, 18.9653123]}}, {"type": "Feature", "properties": {"osm_id": 619325927, "osm_type": "node", "amenity": "toilets"}, "geometry": {"type": "Point", "coordinates": [72.8249221, 18.9644701]}}, {"type": "Feature", "properties": {"osm_id": 619357320, "osm_type": "node", "amenity": "toilets"}, "geometry": {"type": "Point", "coordinates": [72.8273658, 18.9611803]}}, {"type": "Feature", "properties": {"osm_id": 858509797, "osm_type": "node", "amenity": "toilets", "source": "GPS"}, "geometry": {"type": "Point", "coordinates": [72.831428, 18.9529397]}}, {"type": "Feature", "properties": {"osm_id": 858582359, "osm_type": "node", "amenity": "toilets", "source": "GPS"}, "geometry": {"type": "Point", "coordinates": [72.8344964, 18.9568564]}}, {"type": "Feature", "properties": {"osm_id": 858714691, "osm_type": "node", "amenity": "toilets", "source": "GPS"}, "geometry": {"type": "Point", "coordinates": [72.838627, 18.9533405]}}, {"type": "Feature", "properties": {"osm_id": 858714694, "osm_type": "node", "amenity": "toilets", "source": "GPS"}, "geometry": {"type": "Point", "coordinates": [72.8405529, 18.954203]}}, {"type": "Feature", "properties": {"osm_id": 858938536, "osm_type": "node", "amenity": "toilets", "source": "Yahoo"}, "geometry": {"type": "Point", "coordinates": [72.8317649, 18.9261251]}}, {"type": "Feature", "properties": {"osm_id": 1033584510, "osm_type": "node", "amenity": "toilets"}, "geometry": {"type": "Point", "coordinates": [72.8362855, 18.9497492]}}, {"type": "Feature", "properties": {"osm_id": 1033641246, "osm_type": "node", "amenity": "toilets", "source": "GPS"}, "geometry": {"type": "Point", "coordinates": [72.8345993, 18.9525497]}}, {"type": "Feature", "properties": {"osm_id": 1033722178, "osm_type": "node", "amenity": "toilets", "name": "Toilet gents", "source": "GPS"}, "geometry": {"type": "Point", "coordinates": [72.8365589, 18.9513821]}}, {"type": "Feature", "properties": {"osm_id": 1033801731, "osm_type": "node", "amenity": "toilets", "source": "GPS"}, "geometry": {"type": "Point", "coordinates": [72.8378233, 18.9503579]}}, {"type": "Feature", "properties": {"osm_id": 1033816128, "osm_type": "node", "amenity": "toilets", "source": "GPS"}, "geometry": {"type": "Point", "coordinates": [72.837808, 18.9524398]}}, {"type": "Feature", "properties": {"osm_id": 1034933331, "osm_type": "node", "amenity": "toilets"}, "geometry": {"type": "Point", "coordinates": [72.8385962, 18.9490597]}}, {"type": "Feature", "properties": {"osm_id": 1070180329, "osm_type": "node", "addr:street": "Essel World", "amenity": "toilets", "fee": "no", "operator": "Essel World", "wheelchair": "no"}, "geometry": {"type": "Point", "coordinates": [72.8034607, 19.2357242]}}, {"type": "Feature", "properties": {"osm_id": 1070186380, "osm_type": "node", "addr:street": "Essel World", "amenity": "toilets", "operator": "Essel World"}, "geometry": {"type": "Point", "coordinates": [72.8049062, 19.2328758]}}, {"type": "Feature", "properties": {"osm_id": 1398699938, "osm_type": "node", "access": "yes", "addr:postcode": "400071", "amenity": "toilets", "female": "yes", "male": "yes", "operator": "Brihanmumbai Municipal Corporation", "toilets:disposal": "pitlatrine"}, "geometry": {"type": "Point", "coordinates": [72.8994545, 19.0616398]}}, {"type": "Feature", "properties": {"osm_id": 1905387574, "osm_type": "node", "amenity": "toilets", "check_date": "2024-09-24"}, "geometry": {"type": "Point", "coordinates": [72.8309015, 19.1264863]}}, {"type": "Feature", "properties": {"osm_id": 2127366897, "osm_type": "node", "amenity": "toilets", "charge": "0"}, "geometry": {"type": "Point", "coordinates": [72.9300515, 18.9668082]}}, {"type": "Feature", "properties": {"osm_id": 2238542022, "osm_type": "node", "amenity": "toilets"}, "geometry": {"type": "Point", "coordinates": [72.8987564, 19.0644819]}}, {"type": "Feature", "properties": {"osm_id": 2238542662, "osm_type": "node", "amenity": "toilets"}, "geometry": {"type": "Point", "coordinates": [72.8956761, 19.0576923]}}, {"type": "Feature", "properties": {"osm_id": 2319177853, "osm_type": "node", "amenity": "toilets"}, "geometry": {"type": "Point", "coordinates": [72.8972911, 19.1310324]}}, {"type": "Feature", "properties": {"osm_id": 2319432353, "osm_type": "node", "amenity": "toilets"}, "geometry": {"type": "Point", "coordinates": [72.9013532, 19.0711821]}}, {"type": "Feature", "properties": {"osm_id": 2568650312, "osm_type": "node", "amenity": "toilets", "check_date": "2022-05-10", "fee": "no", "wheelchair": "limited"}, "geometry": {"type": "Point", "coordinates": [72.9285249, 19.0420069]}}, {"type": "Feature", "properties": {"osm_id": 2568650316, "osm_type": "node", "amenity": "toilets"}, "geometry": {"type": "Point", "coordinates": [72.9273617, 19.0424736]}}, {"type": "Feature", "properties": {"osm_id": 2841826816, "osm_type": "node", "amenity": "toilets"}, "geometry": {"type": "Point", "coordinates": [72.9315447, 18.9617448]}}, {"type": "Feature", "properties": {"osm_id": 2947798356, "osm_type": "node", "amenity": "toilets", "check_date": "2025-06-13", "fee": "yes"}, "geometry": {"type": "Point", "coordinates": [72.8451834, 19.0623664]}}, {"type": "Feature", "properties": {"osm_id": 3204219599, "osm_type": "node", "access": "yes", "amenity": "toilets", "name": "alex toilet", "toilets:disposal": "pitlatrine"}, "geometry": {"type": "Point", "coordinates": [72.9074736, 19.0602325]}}, {"type": "Feature", "properties": {"osm_id": 3204452467, "osm_type": "node", "amenity": "toilets", "name": "shulab swachalaya"}, "geometry": {"type": "Point", "coordinates": [72.9506617, 19.0353264]}}, {"type": "Feature", "properties": {"osm_id": 3207680966, "osm_type": "node", "amenity": "toilets", "check_date": "2025-06-13", "fee": "yes"}, "geometry": {"type": "Point", "coordinates": [72.8439445, 19.061542]}}, {"type": "Feature", "properties": {"osm_id": 3215563889, "osm_type": "node", "access": "yes", "amenity": "toilets", "name": "public toilet"}, "geometry": {"type": "Point", "coordinates": [72.9244829, 19.0596074]}}, {"type": "Feature", "properties": {"osm_id": 3226211963, "osm_type": "node", "access": "private", "amenity": "toilets", "name": "private  toilet", "note": "simple:is toilet to general public the use cost amaunt 2 rupee only and baath  other prioce different as per the need choice", "toilets:disposal": "bucket"}, "geometry": {"type": "Point", "coordinates": [72.9217934, 19.0690356]}}, {"type": "Feature", "properties": {"osm_id": 3226215930, "osm_type": "node", "access": "private", "amenity": "toilets", "note": "ladis toilet and gens toilet are different way to enter it is for general public and and other people can use it used cost 2 rupee only", "toilets:disposal": "bucket"}, "geometry": {"type": "Point", "coordinates": [72.9216115, 19.0700214]}}, {"type": "Feature", "properties": {"osm_id": 3276626961, "osm_type": "node", "amenity": "toilets"}, "geometry": {"type": "Point", "coordinates": [72.838449, 18.9410755]}}, {"type": "Feature", "properties": {"osm_id": 3278351288, "osm_type": "node", "amenity": "toilets"}, "geometry": {"type": "Point", "coordinates": [72.8249972, 18.9820773]}}, {"type": "Feature", "properties": {"osm_id": 3278351837, "osm_type": "node", "amenity": "toilets"}, "geometry": {"type": "Point", "coordinates": [72.8306803, 18.9449701]}}, {"type": "Feature", "properties": {"osm_id": 3278351839, "osm_type": "node", "amenity": "toilets"}, "geometry": {"type": "Point", "coordinates": [72.8347361, 18.9323109]}}, {"type": "Feature", "properties": {"osm_id": 3289553041, "osm_type": "node", "access": "yes", "amenity": "toilets", "name": "AC Toilet", "operator": "Sulabh", "toilets:disposal": "pitlatrine"}, "geometry": {"type": "Point", "coordinates": [72.8773186, 19.0761876]}}, {"type": "Feature", "properties": {"osm_id": 3289557362, "osm_type": "node", "access": "yes", "amenity": "toilets", "toilets:disposal": "pitlatrine"}, "geometry": {"type": "Point", "coordinates": [72.8793873, 19.0766928]}}, {"type": "Feature", "properties": {"osm_id": 3306535089, "osm_type": "node", "amenity": "toilets", "check_date": "2025-12-06", "check_date:wheelchair": "2025-12-06", "fee": "yes", "wheelchair": "limited"}, "geometry": {"type": "Point", "coordinates": [72.8045932, 18.9557504]}}, {"type": "Feature", "properties": {"osm_id": 3816244650, "osm_type": "node", "amenity": "toilets"}, "geometry": {"type": "Point", "coordinates": [72.8734151, 19.099185]}}, {"type": "Feature", "properties": {"osm_id": 3816244651, "osm_type": "node", "amenity": "toilets"}, "geometry": {"type": "Point", "coordinates": [72.8756789, 19.0991647]}}, {"type": "Feature", "properties": {"osm_id": 3816244885, "osm_type": "node", "amenity": "toilets", "check_date": "2024-09-25"}, "geometry": {"type": "Point", "coordinates": [72.875062, 19.0984601]}}, {"type": "Feature", "properties": {"osm_id": 3816244889, "osm_type": "node", "amenity": "toilets", "check_date": "2024-09-25"}, "geometry": {"type": "Point", "coordinates": [72.8740857, 19.0984905]}}, {"type": "Feature", "properties": {"osm_id": 3816268387, "osm_type": "node", "amenity": "toilets", "fee": "no"}, "geometry": {"type": "Point", "coordinates": [72.8748491, 19.0993953]}}, {"type": "Feature", "properties": {"osm_id": 3816268392, "osm_type": "node", "amenity": "toilets", "check_date": "2024-09-25"}, "geometry": {"type": "Point", "coordinates": [72.8740589, 19.0964527]}}, {"type": "Feature", "properties": {"osm_id": 3816268393, "osm_type": "node", "amenity": "toilets"}, "geometry": {"type": "Point", "coordinates": [72.8724168, 19.0950611]}}, {"type": "Feature", "properties": {"osm_id": 3816268394, "osm_type": "node", "amenity": "toilets"}, "geometry": {"type": "Point", "coordinates": [72.8721186, 19.0944883]}}, {"type": "Feature", "properties": {"osm_id": 3816268395, "osm_type": "node", "amenity": "toilets"}, "geometry": {"type": "Point", "coordinates": [72.8714687, 19.0943297]}}, {"type": "Feature", "properties": {"osm_id": 4233762762, "osm_type": "node", "amenity": "toilets"}, "geometry": {"type": "Point", "coordinates": [72.8050166, 19.2281987]}}, {"type": "Feature", "properties": {"osm_id": 4246251912, "osm_type": "node", "amenity": "toilets"}, "geometry": {"type": "Point", "coordinates": [72.9563282, 19.1747998]}}, {"type": "Feature", "properties": {"osm_id": 4258768094, "osm_type": "node", "amenity": "toilets", "opening_hours": "24/7"}, "geometry": {"type": "Point", "coordinates": [72.8168296, 19.0151322]}}, {"type": "Feature", "properties": {"osm_id": 4294254222, "osm_type": "node", "amenity": "toilets"}, "geometry": {"type": "Point", "coordinates": [72.9557829, 19.1719235]}}, {"type": "Feature", "properties": {"osm_id": 4294263538, "osm_type": "node", "amenity": "toilets"}, "geometry": {"type": "Point", "coordinates": [72.9593478, 19.1722847]}}, {"type": "Feature", "properties": {"osm_id": 4294265880, "osm_type": "node", "amenity": "toilets"}, "geometry": {"type": "Point", "coordinates": [72.9537431, 19.1747444]}}, {"type": "Feature", "properties": {"osm_id": 4308851595, "osm_type": "node", "amenity": "toilets"}, "geometry": {"type": "Point", "coordinates": [72.9457992, 19.1874609]}}, {"type": "Feature", "properties": {"osm_id": 4308851596, "osm_type": "node", "amenity": "toilets"}, "geometry": {"type": "Point", "coordinates": [72.946253, 19.186588]}}, {"type": "Feature", "properties": {"osm_id": 4308851597, "osm_type": "node", "amenity": "toilets"}, "geometry": {"type": "Point", "coordinates": [72.9463298, 19.1867762]}}, {"type": "Feature", "properties": {"osm_id": 4321005547, "osm_type": "node", "amenity": "toilets"}, "geometry": {"type": "Point", "coordinates": [72.9621878, 19.1731817]}}, {"type": "Feature", "properties": {"osm_id": 4326460090, "osm_type": "node", "amenity": "toilets", "operator": "BMMC"}, "geometry": {"type": "Point", "coordinates": [72.8879348, 19.0975731]}}, {"type": "Feature", "properties": {"osm_id": 4327969292, "osm_type": "node", "amenity": "toilets", "check_date": "2026-05-16"}, "geometry": {"type": "Point", "coordinates": [72.8221005, 18.9302836]}}, {"type": "Feature", "properties": {"osm_id": 4328014989, "osm_type": "node", "amenity": "toilets"}, "geometry": {"type": "Point", "coordinates": [72.830338, 18.9349586]}}, {"type": "Feature", "properties": {"osm_id": 4400730193, "osm_type": "node", "amenity": "toilets", "operator": "BMC"}, "geometry": {"type": "Point", "coordinates": [72.8725423, 19.0599814]}}, {"type": "Feature", "properties": {"osm_id": 4400750193, "osm_type": "node", "amenity": "toilets", "operator": "Sarvajanik Toilet"}, "geometry": {"type": "Point", "coordinates": [72.9000753, 19.0888428]}}, {"type": "Feature", "properties": {"osm_id": 4400782389, "osm_type": "node", "amenity": "toilets", "operator": "Public  Toilet"}, "geometry": {"type": "Point", "coordinates": [72.900178, 19.0905138]}}, {"type": "Feature", "properties": {"osm_id": 4585345193, "osm_type": "node", "amenity": "toilets"}, "geometry": {"type": "Point", "coordinates": [72.954444, 19.2039592]}}, {"type": "Feature", "properties": {"osm_id": 4585359395, "osm_type": "node", "amenity": "toilets", "operator": "TMC"}, "geometry": {"type": "Point", "coordinates": [72.9539218, 19.2032951]}}, {"type": "Feature", "properties": {"osm_id": 4585363490, "osm_type": "node", "amenity": "toilets", "fee": "yes", "operator": "BMC"}, "geometry": {"type": "Point", "coordinates": [72.9527832, 19.1836322]}}, {"type": "Feature", "properties": {"osm_id": 4585364194, "osm_type": "node", "amenity": "toilets", "operator": "TMC"}, "geometry": {"type": "Point", "coordinates": [72.9542105, 19.2042231]}}, {"type": "Feature", "properties": {"osm_id": 4585364195, "osm_type": "node", "amenity": "toilets", "fee": "yes", "operator": "BMC"}, "geometry": {"type": "Point", "coordinates": [72.9552155, 19.1831246]}}, {"type": "Feature", "properties": {"osm_id": 4585386791, "osm_type": "node", "amenity": "toilets", "operator": "TMC"}, "geometry": {"type": "Point", "coordinates": [72.9573694, 19.2022524]}}, {"type": "Feature", "properties": {"osm_id": 4690189689, "osm_type": "node", "amenity": "toilets", "check_date": "2026-03-12", "operator": "BMC"}, "geometry": {"type": "Point", "coordinates": [72.8336738, 18.9263954]}}, {"type": "Feature", "properties": {"osm_id": 4691693190, "osm_type": "node", "amenity": "toilets", "operator": "Public Toilet (2 rupees)"}, "geometry": {"type": "Point", "coordinates": [72.8059824, 18.9562188]}}, {"type": "Feature", "properties": {"osm_id": 4761368324, "osm_type": "node", "amenity": "toilets", "check_date": "2025-12-31", "fee": "yes"}, "geometry": {"type": "Point", "coordinates": [72.9249219, 19.1252645]}}, {"type": "Feature", "properties": {"osm_id": 4776531723, "osm_type": "node", "amenity": "toilets", "operator": "TMC"}, "geometry": {"type": "Point", "coordinates": [72.9599828, 19.2013154]}}, {"type": "Feature", "properties": {"osm_id": 4784894322, "osm_type": "node", "amenity": "toilets", "operator": "BMC"}, "geometry": {"type": "Point", "coordinates": [72.959276, 19.1748812]}}, {"type": "Feature", "properties": {"osm_id": 4809609628, "osm_type": "node", "amenity": "toilets", "operator": "BMC"}, "geometry": {"type": "Point", "coordinates": [72.9470179, 19.1759212]}}, {"type": "Feature", "properties": {"osm_id": 4849606521, "osm_type": "node", "amenity": "toilets"}, "geometry": {"type": "Point", "coordinates": [72.8930981, 19.1250159]}}, {"type": "Feature", "properties": {"osm_id": 5062717222, "osm_type": "node", "amenity": "toilets", "opening_hours": "24/7"}, "geometry": {"type": "Point", "coordinates": [72.8133731, 18.9623159]}}, {"type": "Feature", "properties": {"osm_id": 5078179353, "osm_type": "node", "access": "customers", "amenity": "toilets", "female": "yes", "level": "1", "name": "Ladies Restroom", "repeat_on": "2-10"}, "geometry": {"type": "Point", "coordinates": [72.9143963, 19.1377527]}}, {"type": "Feature", "properties": {"osm_id": 5078179354, "osm_type": "node", "access": "customers", "amenity": "toilets", "female": "yes", "level": "1", "name": "Ladies Restroom", "repeat_on": "2-10"}, "geometry": {"type": "Point", "coordinates": [72.9142964, 19.1376824]}}, {"type": "Feature", "properties": {"osm_id": 5078179355, "osm_type": "node", "access": "customers", "amenity": "toilets", "female": "yes", "level": "1", "name": "Ladies Restroom", "repeat_on": "2-10"}, "geometry": {"type": "Point", "coordinates": [72.9142139, 19.1378496]}}, {"type": "Feature", "properties": {"osm_id": 5078179356, "osm_type": "node", "access": "customers", "amenity": "toilets", "female": "yes", "level": "1", "name": "Ladies Restroom", "repeat_on": "2-10"}, "geometry": {"type": "Point", "coordinates": [72.9142213, 19.1377419]}}, {"type": "Feature", "properties": {"osm_id": 5078179357, "osm_type": "node", "access": "customers", "amenity": "toilets", "female": "yes", "level": "1", "name": "Ladies Restroom", "repeat_on": "2-10"}, "geometry": {"type": "Point", "coordinates": [72.914401, 19.1378255]}}, {"type": "Feature", "properties": {"osm_id": 5078179358, "osm_type": "node", "access": "customers", "amenity": "toilets", "female": "yes", "level": "1", "name": "Ladies Restroom", "repeat_on": "2-10"}, "geometry": {"type": "Point", "coordinates": [72.9143205, 19.1379212]}}, {"type": "Feature", "properties": {"osm_id": 5078179359, "osm_type": "node", "access": "customers", "amenity": "toilets", "female": "yes", "level": "0", "name": "Ladies Restroom"}, "geometry": {"type": "Point", "coordinates": [72.9143044, 19.1378877]}}, {"type": "Feature", "properties": {"osm_id": 5078179360, "osm_type": "node", "access": "customers", "amenity": "toilets", "female": "yes", "level": "1", "name": "Ladies Restroom", "repeat_on": "2-10"}, "geometry": {"type": "Point", "coordinates": [72.9159379, 19.1289405]}}, {"type": "Feature", "properties": {"osm_id": 5078179361, "osm_type": "node", "access": "customers", "amenity": "toilets", "female": "yes", "level": "1", "name": "Ladies Restroom", "repeat_on": "2-10"}, "geometry": {"type": "Point", "coordinates": [72.9158661, 19.1293251]}}, {"type": "Feature", "properties": {"osm_id": 5078179362, "osm_type": "node", "access": "customers", "amenity": "toilets", "female": "yes", "level": "1", "name": "Ladies Restroom", "repeat_on": "2-10"}, "geometry": {"type": "Point", "coordinates": [72.9157314, 19.1293308]}}, {"type": "Feature", "properties": {"osm_id": 5078179363, "osm_type": "node", "access": "customers", "amenity": "toilets", "female": "yes", "level": "1", "name": "Ladies Restroom", "repeat_on": "2-10"}, "geometry": {"type": "Point", "coordinates": [72.915657, 19.1289507]}}, {"type": "Feature", "properties": {"osm_id": 5078179364, "osm_type": "node", "access": "customers", "amenity": "toilets", "female": "yes", "level": "0", "name": "Ladies Restroom", "repeat_on": "1-7"}, "geometry": {"type": "Point", "coordinates": [72.9155758, 19.1284109]}}, {"type": "Feature", "properties": {"osm_id": 5078179365, "osm_type": "node", "access": "customers", "amenity": "toilets", "female": "yes", "level": "0", "name": "Ladies Restroom", "repeat_on": "1-7"}, "geometry": {"type": "Point", "coordinates": [72.9159889, 19.1284122]}}, {"type": "Feature", "properties": {"osm_id": 5078179366, "osm_type": "node", "access": "customers", "amenity": "toilets", "female": "yes", "level": "0", "name": "Ladies Restroom"}, "geometry": {"type": "Point", "coordinates": [72.9157532, 19.1293289]}}, {"type": "Feature", "properties": {"osm_id": 5078179367, "osm_type": "node", "access": "customers", "amenity": "toilets", "female": "yes", "level": "0", "name": "Ladies Restroom"}, "geometry": {"type": "Point", "coordinates": [72.9157528, 19.1291091]}}, {"type": "Feature", "properties": {"osm_id": 5078179368, "osm_type": "node", "access": "customers", "amenity": "toilets", "female": "yes", "level": "1", "name": "Ladies Restroom"}, "geometry": {"type": "Point", "coordinates": [72.9158306, 19.1315912]}}, {"type": "Feature", "properties": {"osm_id": 5078179369, "osm_type": "node", "access": "customers", "amenity": "toilets", "female": "yes", "level": "0", "name": "Ladies Restroom", "repeat_on": "1-4"}, "geometry": {"type": "Point", "coordinates": [72.9159728, 19.1308069]}}, {"type": "Feature", "properties": {"osm_id": 5078179370, "osm_type": "node", "access": "customers", "amenity": "toilets", "female": "yes", "level": "0", "name": "Ladies Restroom"}, "geometry": {"type": "Point", "coordinates": [72.9157642, 19.1304598]}}, {"type": "Feature", "properties": {"osm_id": 5078179371, "osm_type": "node", "access": "customers", "amenity": "toilets", "female": "yes", "level": "1", "name": "Ladies Restroom", "repeat_on": "2-4"}, "geometry": {"type": "Point", "coordinates": [72.915901, 19.1307132]}}, {"type": "Feature", "properties": {"osm_id": 5078179372, "osm_type": "node", "access": "customers", "amenity": "toilets", "female": "yes", "level": "0", "name": "Ladies Restroom", "repeat_on": "1;3"}, "geometry": {"type": "Point", "coordinates": [72.9170496, 19.1305497]}}, {"type": "Feature", "properties": {"osm_id": 5078179373, "osm_type": "node", "access": "customers", "amenity": "toilets", "female": "yes", "level": "0", "name": "Ladies Restroom", "repeat_on": "2", "wheelchair": "no"}, "geometry": {"type": "Point", "coordinates": [72.916856, 19.1318787]}}, {"type": "Feature", "properties": {"osm_id": 5078179374, "osm_type": "node", "access": "customers", "amenity": "toilets", "female": "yes", "level": "1", "name": "Ladies Restroom", "repeat_on": "2;6;7"}, "geometry": {"type": "Point", "coordinates": [72.9176672, 19.131939]}}, {"type": "Feature", "properties": {"osm_id": 5078179375, "osm_type": "node", "access": "customers", "amenity": "toilets", "female": "yes", "level": "0", "name": "Ladies Restroom", "repeat_on": "1-3"}, "geometry": {"type": "Point", "coordinates": [72.919068, 19.1328684]}}, {"type": "Feature", "properties": {"osm_id": 5078179376, "osm_type": "node", "access": "customers", "amenity": "toilets", "female": "yes", "level": "0", "name": "Ladies Restroom", "repeat_on": "1"}, "geometry": {"type": "Point", "coordinates": [72.9182969, 19.1324756]}}, {"type": "Feature", "properties": {"osm_id": 5078179377, "osm_type": "node", "access": "customers", "amenity": "toilets", "female": "yes", "level": "0", "name": "Ladies Restroom", "repeat_on": "1;2"}, "geometry": {"type": "Point", "coordinates": [72.9176003, 19.1320072]}}, {"type": "Feature", "properties": {"osm_id": 5078179378, "osm_type": "node", "access": "customers", "amenity": "toilets", "female": "yes", "level": "1", "name": "Ladies Restroom", "repeat_on": "2"}, "geometry": {"type": "Point", "coordinates": [72.9173487, 19.1320068]}}, {"type": "Feature", "properties": {"osm_id": 5078179379, "osm_type": "node", "access": "customers", "amenity": "toilets", "female": "yes", "level": "0", "name": "Ladies Restroom", "repeat_on": "1"}, "geometry": {"type": "Point", "coordinates": [72.9176445, 19.1315355]}}, {"type": "Feature", "properties": {"osm_id": 5078179380, "osm_type": "node", "access": "customers", "amenity": "toilets", "female": "yes", "level": "0", "name": "Ladies Restroom", "repeat_on": "1"}, "geometry": {"type": "Point", "coordinates": [72.9179603, 19.1311984]}}, {"type": "Feature", "properties": {"osm_id": 5078179381, "osm_type": "node", "access": "customers", "amenity": "toilets", "female": "yes", "level": "0", "name": "Ladies Restroom", "repeat_on": "1-6"}, "geometry": {"type": "Point", "coordinates": [72.9181119, 19.1307196]}}, {"type": "Feature", "properties": {"osm_id": 5078179382, "osm_type": "node", "access": "customers", "amenity": "toilets", "female": "yes", "level": "0", "name": "Ladies Restroom", "repeat_on": "1"}, "geometry": {"type": "Point", "coordinates": [72.9186201, 19.131206]}}, {"type": "Feature", "properties": {"osm_id": 5078179383, "osm_type": "node", "access": "customers", "amenity": "toilets", "female": "yes", "level": "0", "name": "Ladies Restroom", "repeat_on": "1-3"}, "geometry": {"type": "Point", "coordinates": [72.9179053, 19.1309153]}}, {"type": "Feature", "properties": {"osm_id": 5078179384, "osm_type": "node", "access": "customers", "amenity": "toilets", "female": "yes", "level": "0", "name": "Ladies Restroom", "repeat_on": "1-3"}, "geometry": {"type": "Point", "coordinates": [72.9173571, 19.1305447]}}, {"type": "Feature", "properties": {"osm_id": 5078179385, "osm_type": "node", "access": "customers", "amenity": "toilets", "female": "yes", "level": "1", "name": "Ladies Restroom"}, "geometry": {"type": "Point", "coordinates": [72.9183519, 19.1307182]}}, {"type": "Feature", "properties": {"osm_id": 5078179386, "osm_type": "node", "access": "customers", "amenity": "toilets", "female": "yes", "level": "0", "name": "Ladies Restroom"}, "geometry": {"type": "Point", "coordinates": [72.9183586, 19.1300138]}}, {"type": "Feature", "properties": {"osm_id": 5078179387, "osm_type": "node", "access": "customers", "amenity": "toilets", "female": "yes", "level": "0", "name": "Ladies Restroom", "repeat_on": "2"}, "geometry": {"type": "Point", "coordinates": [72.9175191, 19.1302304]}}, {"type": "Feature", "properties": {"osm_id": 5078179388, "osm_type": "node", "access": "customers", "amenity": "toilets", "female": "yes", "level": "0", "name": "Ladies Restroom", "repeat_on": "1;2"}, "geometry": {"type": "Point", "coordinates": [72.9165287, 19.1301684]}}, {"type": "Feature", "properties": {"osm_id": 5078179389, "osm_type": "node", "access": "customers", "amenity": "toilets", "female": "yes", "level": "0", "name": "Ladies Restroom", "repeat_on": "1-3"}, "geometry": {"type": "Point", "coordinates": [72.9163579, 19.1304985]}}, {"type": "Feature", "properties": {"osm_id": 5078179390, "osm_type": "node", "access": "customers", "amenity": "toilets", "female": "yes", "level": "0", "name": "Ladies Restroom", "repeat_on": "2"}, "geometry": {"type": "Point", "coordinates": [72.9163972, 19.1310977]}}, {"type": "Feature", "properties": {"osm_id": 5078179391, "osm_type": "node", "access": "customers", "amenity": "toilets", "female": "yes", "level": "0", "name": "Ladies Restroom", "repeat_on": "1-5"}, "geometry": {"type": "Point", "coordinates": [72.91664, 19.1316945]}}, {"type": "Feature", "properties": {"osm_id": 5078179392, "osm_type": "node", "access": "customers", "amenity": "toilets", "female": "yes", "level": "1", "name": "Ladies Restroom", "repeat_on": "2"}, "geometry": {"type": "Point", "coordinates": [72.9172039, 19.1333296]}}, {"type": "Feature", "properties": {"osm_id": 5078179393, "osm_type": "node", "access": "customers", "amenity": "toilets", "check_date": "2025-12-31", "female": "yes", "level": "0", "name": "Ladies Restroom", "repeat_on": "1-5"}, "geometry": {"type": "Point", "coordinates": [72.9172602, 19.1322754]}}, {"type": "Feature", "properties": {"osm_id": 5078179394, "osm_type": "node", "access": "customers", "amenity": "toilets", "female": "yes", "level": "1"}, "geometry": {"type": "Point", "coordinates": [72.9168028, 19.1325977]}}, {"type": "Feature", "properties": {"osm_id": 5078179395, "osm_type": "node", "access": "customers", "amenity": "toilets", "female": "yes", "level": "1", "repeat_on": "2"}, "geometry": {"type": "Point", "coordinates": [72.9168647, 19.1326016]}}, {"type": "Feature", "properties": {"osm_id": 5078179396, "osm_type": "node", "access": "customers", "amenity": "toilets", "check_date": "2026-05-06", "female": "yes", "level": "0", "name": "Ladies Restroom"}, "geometry": {"type": "Point", "coordinates": [72.9153612, 19.1330103]}}, {"type": "Feature", "properties": {"osm_id": 5078179397, "osm_type": "node", "access": "customers", "amenity": "toilets", "check_date": "2026-05-19", "female": "yes", "level": "0", "name": "Ladies Restroom", "repeat_on": "1-3"}, "geometry": {"type": "Point", "coordinates": [72.9154148, 19.1324591]}}, {"type": "Feature", "properties": {"osm_id": 5448316834, "osm_type": "node", "amenity": "toilets"}, "geometry": {"type": "Point", "coordinates": [72.9130431, 19.0914667]}}, {"type": "Feature", "properties": {"osm_id": 5459051285, "osm_type": "node", "amenity": "toilets", "name": "Swachh Public Toilet"}, "geometry": {"type": "Point", "coordinates": [73.0146832, 19.0153689]}}, {"type": "Feature", "properties": {"osm_id": 5471970026, "osm_type": "node", "amenity": "toilets"}, "geometry": {"type": "Point", "coordinates": [72.9030452, 19.0874324]}}, {"type": "Feature", "properties": {"osm_id": 5472015521, "osm_type": "node", "amenity": "toilets"}, "geometry": {"type": "Point", "coordinates": [72.8445071, 19.0874302]}}, {"type": "Feature", "properties": {"osm_id": 5506320778, "osm_type": "node", "amenity": "toilets"}, "geometry": {"type": "Point", "coordinates": [72.8616504, 19.0650787]}}, {"type": "Feature", "properties": {"osm_id": 5590242322, "osm_type": "node", "amenity": "toilets"}, "geometry": {"type": "Point", "coordinates": [72.9522172, 19.1708774]}}, {"type": "Feature", "properties": {"osm_id": 5839245285, "osm_type": "node", "amenity": "toilets"}, "geometry": {"type": "Point", "coordinates": [72.9314478, 19.16735]}}, {"type": "Feature", "properties": {"osm_id": 5839250185, "osm_type": "node", "amenity": "toilets"}, "geometry": {"type": "Point", "coordinates": [72.9291437, 19.1646741]}}, {"type": "Feature", "properties": {"osm_id": 5841673351, "osm_type": "node", "amenity": "toilets"}, "geometry": {"type": "Point", "coordinates": [72.9338415, 19.1435276]}}, {"type": "Feature", "properties": {"osm_id": 5859107296, "osm_type": "node", "amenity": "toilets"}, "geometry": {"type": "Point", "coordinates": [72.9328495, 19.1633886]}}, {"type": "Feature", "properties": {"osm_id": 6044054250, "osm_type": "node", "amenity": "toilets", "fee": "no"}, "geometry": {"type": "Point", "coordinates": [72.8297855, 18.9318356]}}, {"type": "Feature", "properties": {"osm_id": 6052581658, "osm_type": "node", "amenity": "toilets"}, "geometry": {"type": "Point", "coordinates": [72.9356723, 19.165814]}}, {"type": "Feature", "properties": {"osm_id": 6212726037, "osm_type": "node", "access": "customers", "amenity": "toilets", "level": "0", "male": "yes", "name": "Washroom", "repeat_on": "1-3"}, "geometry": {"type": "Point", "coordinates": [72.9163747, 19.1305001]}}, {"type": "Feature", "properties": {"osm_id": 6212726038, "osm_type": "node", "access": "customers", "amenity": "toilets", "level": "0", "male": "yes", "name": "Washroom", "repeat_on": "1-3"}, "geometry": {"type": "Point", "coordinates": [72.9163532, 19.1309174]}}, {"type": "Feature", "properties": {"osm_id": 6212726039, "osm_type": "node", "access": "customers", "amenity": "toilets", "female": "yes", "level": "0", "name": "Ladies Restroom", "repeat_on": "1-3"}, "geometry": {"type": "Point", "coordinates": [72.9163365, 19.1309158]}}, {"type": "Feature", "properties": {"osm_id": 6212731250, "osm_type": "node", "access": "yes", "amenity": "toilets", "female": "yes"}, "geometry": {"type": "Point", "coordinates": [72.9062718, 19.134564]}}, {"type": "Feature", "properties": {"osm_id": 6212731251, "osm_type": "node", "access": "yes", "amenity": "toilets", "level": "1-7", "unisex": "yes"}, "geometry": {"type": "Point", "coordinates": [72.9061432, 19.1346227]}}, {"type": "Feature", "properties": {"osm_id": 6212731252, "osm_type": "node", "access": "yes", "amenity": "toilets", "level": "1-7", "unisex": "yes"}, "geometry": {"type": "Point", "coordinates": [72.9058997, 19.134731]}}, {"type": "Feature", "properties": {"osm_id": 6245422924, "osm_type": "node", "amenity": "toilets"}, "geometry": {"type": "Point", "coordinates": [72.9372642, 19.1721769]}}, {"type": "Feature", "properties": {"osm_id": 6245422925, "osm_type": "node", "amenity": "toilets"}, "geometry": {"type": "Point", "coordinates": [72.9385678, 19.1713206]}}, {"type": "Feature", "properties": {"osm_id": 6295034504, "osm_type": "node", "access": "permissive", "amenity": "toilets", "fee": "yes", "name": "Swachh Public Toilet", "operator": "NMMC", "unisex": "yes", "wheelchair": "yes"}, "geometry": {"type": "Point", "coordinates": [73.0266977, 19.0093968]}}, {"type": "Feature", "properties": {"osm_id": 6786448145, "osm_type": "node", "amenity": "toilets"}, "geometry": {"type": "Point", "coordinates": [72.9383464, 19.1802774]}}, {"type": "Feature", "properties": {"osm_id": 6805063789, "osm_type": "node", "amenity": "toilets", "check_date": "2025-12-27", "check_date:wheelchair": "2025-12-27", "fee": "no", "wheelchair": "yes"}, "geometry": {"type": "Point", "coordinates": [72.9174593, 19.132408]}}, {"type": "Feature", "properties": {"osm_id": 6805067991, "osm_type": "node", "amenity": "toilets"}, "geometry": {"type": "Point", "coordinates": [72.9159837, 19.1342237]}}, {"type": "Feature", "properties": {"osm_id": 6824541042, "osm_type": "node", "amenity": "toilets", "unisex": "yes", "wheelchair": "no"}, "geometry": {"type": "Point", "coordinates": [72.8643637, 19.2251269]}}, {"type": "Feature", "properties": {"osm_id": 7565221201, "osm_type": "node", "access": "yes", "amenity": "toilets", "changing_table": "no", "toilets:disposal": "bucket", "unisex": "yes", "wheelchair": "no"}, "geometry": {"type": "Point", "coordinates": [72.8332554, 18.9620125]}}, {"type": "Feature", "properties": {"osm_id": 7565221202, "osm_type": "node", "access": "yes", "amenity": "toilets", "changing_table": "no", "toilets:disposal": "bucket", "unisex": "yes", "wheelchair": "no"}, "geometry": {"type": "Point", "coordinates": [72.8333867, 18.9621913]}}, {"type": "Feature", "properties": {"osm_id": 8481940507, "osm_type": "node", "amenity": "toilets"}, "geometry": {"type": "Point", "coordinates": [72.9708013, 19.243093]}}, {"type": "Feature", "properties": {"osm_id": 9034182896, "osm_type": "node", "access": "yes", "amenity": "toilets", "changing_table": "no", "toilets:disposal": "flush", "wheelchair": "no"}, "geometry": {"type": "Point", "coordinates": [72.8215315, 18.9617347]}}, {"type": "Feature", "properties": {"osm_id": 9115710876, "osm_type": "node", "amenity": "toilets", "fee": "yes", "female": "yes", "male": "yes"}, "geometry": {"type": "Point", "coordinates": [72.8563596, 19.2290743]}}, {"type": "Feature", "properties": {"osm_id": 9122432402, "osm_type": "node", "access": "private", "amenity": "toilets", "toilets:position": "squat", "unisex": "yes"}, "geometry": {"type": "Point", "coordinates": [72.817564, 19.1292078]}}, {"type": "Feature", "properties": {"osm_id": 9139971144, "osm_type": "node", "access": "yes", "amenity": "toilets", "fee": "yes", "female": "yes", "male": "yes", "wheelchair": "no"}, "geometry": {"type": "Point", "coordinates": [72.8266508, 19.0976776]}}, {"type": "Feature", "properties": {"osm_id": 9140907846, "osm_type": "node", "access": "yes", "amenity": "toilets"}, "geometry": {"type": "Point", "coordinates": [72.8267907, 19.1092443]}}, {"type": "Feature", "properties": {"osm_id": 9141087953, "osm_type": "node", "access": "yes", "amenity": "toilets", "fee": "yes", "female": "yes", "male": "yes"}, "geometry": {"type": "Point", "coordinates": [72.8019407, 19.144453]}}, {"type": "Feature", "properties": {"osm_id": 9141459225, "osm_type": "node", "access": "customers", "amenity": "toilets", "fee": "no", "female": "yes", "level": "1", "male": "yes", "wheelchair": "no"}, "geometry": {"type": "Point", "coordinates": [72.8295841, 19.129034]}}, {"type": "Feature", "properties": {"osm_id": 9300003141, "osm_type": "node", "access": "yes", "amenity": "toilets", "male": "yes", "toilets:disposal": "bucket"}, "geometry": {"type": "Point", "coordinates": [72.8335136, 19.1509768]}}, {"type": "Feature", "properties": {"osm_id": 9300003142, "osm_type": "node", "access": "yes", "amenity": "toilets", "unisex": "yes"}, "geometry": {"type": "Point", "coordinates": [72.833549, 19.1507154]}}, {"type": "Feature", "properties": {"osm_id": 9300003143, "osm_type": "node", "access": "yes", "amenity": "toilets", "unisex": "yes"}, "geometry": {"type": "Point", "coordinates": [72.8336089, 19.1505729]}}, {"type": "Feature", "properties": {"osm_id": 9300003144, "osm_type": "node", "access": "yes", "amenity": "toilets", "unisex": "yes"}, "geometry": {"type": "Point", "coordinates": [72.8332852, 19.1430752]}}, {"type": "Feature", "properties": {"osm_id": 9350865305, "osm_type": "node", "access": "yes", "amenity": "toilets"}, "geometry": {"type": "Point", "coordinates": [72.9798362, 19.2303649]}}, {"type": "Feature", "properties": {"osm_id": 9592416835, "osm_type": "node", "amenity": "toilets"}, "geometry": {"type": "Point", "coordinates": [72.9268772, 19.0610299]}}, {"type": "Feature", "properties": {"osm_id": 9750211153, "osm_type": "node", "amenity": "toilets"}, "geometry": {"type": "Point", "coordinates": [73.0295533, 19.0167827]}}, {"type": "Feature", "properties": {"osm_id": 9750317774, "osm_type": "node", "amenity": "toilets"}, "geometry": {"type": "Point", "coordinates": [73.0241064, 19.0267778]}}, {"type": "Feature", "properties": {"osm_id": 9750317778, "osm_type": "node", "amenity": "toilets"}, "geometry": {"type": "Point", "coordinates": [73.0285841, 19.0388024]}}, {"type": "Feature", "properties": {"osm_id": 9750317779, "osm_type": "node", "amenity": "toilets"}, "geometry": {"type": "Point", "coordinates": [73.028041, 19.0423595]}}, {"type": "Feature", "properties": {"osm_id": 9779466639, "osm_type": "node", "access": "yes", "amenity": "toilets", "changing_table": "no", "toilets:disposal": "flush", "unisex": "yes", "wheelchair": "yes"}, "geometry": {"type": "Point", "coordinates": [73.0291142, 19.0118992]}}, {"type": "Feature", "properties": {"osm_id": 9805690762, "osm_type": "node", "amenity": "toilets"}, "geometry": {"type": "Point", "coordinates": [72.9869448, 19.1480243]}}, {"type": "Feature", "properties": {"osm_id": 9810985600, "osm_type": "node", "amenity": "toilets", "portable": "yes"}, "geometry": {"type": "Point", "coordinates": [72.9881051, 19.1448261]}}, {"type": "Feature", "properties": {"osm_id": 10102940254, "osm_type": "node", "amenity": "toilets"}, "geometry": {"type": "Point", "coordinates": [72.8371866, 18.9773729]}}, {"type": "Feature", "properties": {"osm_id": 10108062038, "osm_type": "node", "amenity": "toilets"}, "geometry": {"type": "Point", "coordinates": [72.8362892, 18.9802087]}}, {"type": "Feature", "properties": {"osm_id": 10137458914, "osm_type": "node", "amenity": "toilets"}, "geometry": {"type": "Point", "coordinates": [72.8325133, 18.9768941]}}, {"type": "Feature", "properties": {"osm_id": 10245266010, "osm_type": "node", "amenity": "toilets"}, "geometry": {"type": "Point", "coordinates": [72.9420023, 19.1695434]}}, {"type": "Feature", "properties": {"osm_id": 10249204981, "osm_type": "node", "amenity": "toilets"}, "geometry": {"type": "Point", "coordinates": [72.9431489, 19.1776212]}}, {"type": "Feature", "properties": {"osm_id": 10268069006, "osm_type": "node", "amenity": "toilets"}, "geometry": {"type": "Point", "coordinates": [72.9173637, 19.0805524]}}, {"type": "Feature", "properties": {"osm_id": 10271314360, "osm_type": "node", "amenity": "toilets", "check_date": "2026-03-20"}, "geometry": {"type": "Point", "coordinates": [72.8207099, 18.9925388]}}, {"type": "Feature", "properties": {"osm_id": 10275731801, "osm_type": "node", "amenity": "toilets"}, "geometry": {"type": "Point", "coordinates": [72.9469616, 19.1794509]}}, {"type": "Feature", "properties": {"osm_id": 10296439229, "osm_type": "node", "amenity": "toilets"}, "geometry": {"type": "Point", "coordinates": [72.8976616, 19.1234497]}}, {"type": "Feature", "properties": {"osm_id": 10297892903, "osm_type": "node", "amenity": "toilets"}, "geometry": {"type": "Point", "coordinates": [72.8313702, 19.1042745]}}, {"type": "Feature", "properties": {"osm_id": 10301015929, "osm_type": "node", "amenity": "toilets"}, "geometry": {"type": "Point", "coordinates": [72.9490605, 19.1654378]}}, {"type": "Feature", "properties": {"osm_id": 10665633824, "osm_type": "node", "access": "yes", "amenity": "toilets", "changing_table": "yes", "toilets:disposal": "flush", "unisex": "yes", "wheelchair": "yes"}, "geometry": {"type": "Point", "coordinates": [73.0380489, 19.0221529]}}, {"type": "Feature", "properties": {"osm_id": 10695162622, "osm_type": "node", "amenity": "toilets"}, "geometry": {"type": "Point", "coordinates": [72.8402169, 18.9480183]}}, {"type": "Feature", "properties": {"osm_id": 10708222578, "osm_type": "node", "access": "yes", "amenity": "toilets", "changing_table": "no", "unisex": "yes", "wheelchair": "no"}, "geometry": {"type": "Point", "coordinates": [73.0336254, 19.0319151]}}, {"type": "Feature", "properties": {"osm_id": 10713239208, "osm_type": "node", "access": "yes", "amenity": "toilets", "changing_table": "no", "unisex": "yes", "wheelchair": "yes"}, "geometry": {"type": "Point", "coordinates": [73.0402052, 19.0242829]}}, {"type": "Feature", "properties": {"osm_id": 10767848893, "osm_type": "node", "amenity": "toilets"}, "geometry": {"type": "Point", "coordinates": [72.8930071, 19.1250337]}}, {"type": "Feature", "properties": {"osm_id": 10775838855, "osm_type": "node", "amenity": "toilets"}, "geometry": {"type": "Point", "coordinates": [72.9322466, 19.1696216]}}, {"type": "Feature", "properties": {"osm_id": 10804608600, "osm_type": "node", "amenity": "toilets"}, "geometry": {"type": "Point", "coordinates": [72.9360457, 19.1720897]}}, {"type": "Feature", "properties": {"osm_id": 10810529517, "osm_type": "node", "amenity": "toilets", "description": "No running water. BYOB", "fee": "no", "toilets:handwashing": "no", "toilets:position": "squat"}, "geometry": {"type": "Point", "coordinates": [72.9366615, 19.1788051]}}, {"type": "Feature", "properties": {"osm_id": 10845482739, "osm_type": "node", "amenity": "toilets"}, "geometry": {"type": "Point", "coordinates": [72.9350769, 19.1752085]}}, {"type": "Feature", "properties": {"osm_id": 10872822526, "osm_type": "node", "amenity": "toilets"}, "geometry": {"type": "Point", "coordinates": [72.9333889, 19.1748855]}}, {"type": "Feature", "properties": {"osm_id": 10951466405, "osm_type": "node", "amenity": "toilets", "opening_hours": "24/7"}, "geometry": {"type": "Point", "coordinates": [73.009627, 19.1727593]}}, {"type": "Feature", "properties": {"osm_id": 10967504405, "osm_type": "node", "amenity": "toilets", "opening_hours": "24/7", "operator": "NMMC"}, "geometry": {"type": "Point", "coordinates": [73.0087024, 19.172292]}}, {"type": "Feature", "properties": {"osm_id": 11069678657, "osm_type": "node", "amenity": "toilets"}, "geometry": {"type": "Point", "coordinates": [72.8570017, 19.0922262]}}, {"type": "Feature", "properties": {"osm_id": 11271586474, "osm_type": "node", "amenity": "toilets"}, "geometry": {"type": "Point", "coordinates": [72.9532676, 19.1696973]}}, {"type": "Feature", "properties": {"osm_id": 11271609127, "osm_type": "node", "amenity": "toilets"}, "geometry": {"type": "Point", "coordinates": [72.9506304, 19.1672955]}}, {"type": "Feature", "properties": {"osm_id": 11449433248, "osm_type": "node", "amenity": "toilets", "name": "Jan Jagruti"}, "geometry": {"type": "Point", "coordinates": [72.8570661, 19.0422183]}}, {"type": "Feature", "properties": {"osm_id": 11452113461, "osm_type": "node", "amenity": "toilets"}, "geometry": {"type": "Point", "coordinates": [72.8343034, 19.0256379]}}, {"type": "Feature", "properties": {"osm_id": 11563437816, "osm_type": "node", "amenity": "toilets", "name": "Wooloo Powder Room"}, "geometry": {"type": "Point", "coordinates": [72.9568954, 19.1729002]}}, {"type": "Feature", "properties": {"osm_id": 11611005443, "osm_type": "node", "amenity": "toilets"}, "geometry": {"type": "Point", "coordinates": [72.9904993, 19.2288048]}}, {"type": "Feature", "properties": {"osm_id": 11611013837, "osm_type": "node", "access": "yes", "amenity": "toilets", "toilets:disposal": "chemical", "unisex": "yes"}, "geometry": {"type": "Point", "coordinates": [72.9895686, 19.2276778]}}, {"type": "Feature", "properties": {"osm_id": 11611029150, "osm_type": "node", "amenity": "toilets"}, "geometry": {"type": "Point", "coordinates": [72.9890428, 19.2289821]}}, {"type": "Feature", "properties": {"osm_id": 11667092914, "osm_type": "node", "access": "private", "amenity": "toilets", "charge": "5 INR", "fee": "yes", "female": "yes", "male": "yes", "unisex": "yes", "wheelchair": "yes"}, "geometry": {"type": "Point", "coordinates": [72.8632116, 19.0471459]}}, {"type": "Feature", "properties": {"osm_id": 11716428183, "osm_type": "node", "amenity": "toilets", "fee": "no", "wheelchair": "yes"}, "geometry": {"type": "Point", "coordinates": [72.9326646, 19.040356]}}, {"type": "Feature", "properties": {"osm_id": 11716428208, "osm_type": "node", "amenity": "toilets", "fee": "no", "wheelchair": "yes"}, "geometry": {"type": "Point", "coordinates": [72.9255725, 19.0295857]}}, {"type": "Feature", "properties": {"osm_id": 11716428216, "osm_type": "node", "amenity": "toilets", "fee": "no", "wheelchair": "yes"}, "geometry": {"type": "Point", "coordinates": [72.9195548, 19.0382635]}}, {"type": "Feature", "properties": {"osm_id": 11942325462, "osm_type": "node", "amenity": "toilets"}, "geometry": {"type": "Point", "coordinates": [72.9258933, 19.1528605]}}, {"type": "Feature", "properties": {"osm_id": 11942325602, "osm_type": "node", "amenity": "toilets"}, "geometry": {"type": "Point", "coordinates": [72.9263801, 19.1530813]}}, {"type": "Feature", "properties": {"osm_id": 11955767428, "osm_type": "node", "amenity": "toilets"}, "geometry": {"type": "Point", "coordinates": [72.9307452, 19.1692132]}}, {"type": "Feature", "properties": {"osm_id": 11955775690, "osm_type": "node", "amenity": "toilets"}, "geometry": {"type": "Point", "coordinates": [72.9315108, 19.1722605]}}, {"type": "Feature", "properties": {"osm_id": 12042264620, "osm_type": "node", "access": "yes", "amenity": "toilets", "changing_table": "yes", "female": "yes", "male": "yes", "toilets:disposal": "flush", "wheelchair": "yes"}, "geometry": {"type": "Point", "coordinates": [73.030158, 19.0224655]}}, {"type": "Feature", "properties": {"osm_id": 12289844963, "osm_type": "node", "access": "yes", "amenity": "toilets", "check_date": "2024-10-26", "fee": "yes", "female": "yes", "level": "0", "male": "yes", "toilets:handwashing": "yes", "toilets:position": "squat"}, "geometry": {"type": "Point", "coordinates": [72.8455212, 19.1465088]}}, {"type": "Feature", "properties": {"osm_id": 12290837437, "osm_type": "node", "amenity": "toilets"}, "geometry": {"type": "Point", "coordinates": [72.846341, 19.1192893]}}, {"type": "Feature", "properties": {"osm_id": 12293008897, "osm_type": "node", "access": "yes", "amenity": "toilets", "check_date": "2026-03-12", "fee": "no", "level": "0", "male": "yes", "operator": "DMart Foundation"}, "geometry": {"type": "Point", "coordinates": [72.8355701, 18.9403723]}}, {"type": "Feature", "properties": {"osm_id": 12293008899, "osm_type": "node", "access": "yes", "amenity": "toilets", "check_date": "2026-03-12", "fee": "no", "female": "yes", "level": "0", "operator": "DMart Foundation"}, "geometry": {"type": "Point", "coordinates": [72.8356619, 18.9403809]}}, {"type": "Feature", "properties": {"osm_id": 12299107695, "osm_type": "node", "amenity": "toilets", "check_date": "2026-03-12"}, "geometry": {"type": "Point", "coordinates": [72.8331811, 18.926023]}}, {"type": "Feature", "properties": {"osm_id": 12299724443, "osm_type": "node", "amenity": "toilets", "check_date": "2026-03-12"}, "geometry": {"type": "Point", "coordinates": [72.8260101, 18.920402]}}, {"type": "Feature", "properties": {"osm_id": 12311779297, "osm_type": "node", "amenity": "toilets"}, "geometry": {"type": "Point", "coordinates": [72.9091251, 19.0856815]}}, {"type": "Feature", "properties": {"osm_id": 12592589645, "osm_type": "node", "access": "yes", "amenity": "toilets", "female": "yes", "male": "yes", "toilets:disposal": "pitlatrine", "wheelchair": "limited"}, "geometry": {"type": "Point", "coordinates": [73.0177628, 19.0345228]}}, {"type": "Feature", "properties": {"osm_id": 12593387782, "osm_type": "node", "access": "yes", "amenity": "toilets", "female": "yes", "male": "yes", "toilets:disposal": "flush", "wheelchair": "no"}, "geometry": {"type": "Point", "coordinates": [72.9753443, 19.2369131]}}, {"type": "Feature", "properties": {"osm_id": 12651956144, "osm_type": "node", "access": "yes", "amenity": "toilets", "check_date": "2026-03-20", "male": "yes"}, "geometry": {"type": "Point", "coordinates": [72.8457701, 19.0148789]}}, {"type": "Feature", "properties": {"osm_id": 12651956145, "osm_type": "node", "access": "yes", "amenity": "toilets", "check_date": "2026-03-20", "female": "yes"}, "geometry": {"type": "Point", "coordinates": [72.8457847, 19.0149013]}}, {"type": "Feature", "properties": {"osm_id": 12760272403, "osm_type": "node", "access": "yes", "amenity": "toilets", "fee": "yes", "level": "0", "male": "yes"}, "geometry": {"type": "Point", "coordinates": [72.8430976, 19.0196621]}}, {"type": "Feature", "properties": {"osm_id": 12760272458, "osm_type": "node", "access": "yes", "amenity": "toilets", "fee": "yes", "female": "yes", "level": "0"}, "geometry": {"type": "Point", "coordinates": [72.8431205, 19.0196967]}}, {"type": "Feature", "properties": {"osm_id": 12767802327, "osm_type": "node", "amenity": "toilets"}, "geometry": {"type": "Point", "coordinates": [72.9433282, 19.1777682]}}, {"type": "Feature", "properties": {"osm_id": 12767802358, "osm_type": "node", "amenity": "toilets", "fee": "no", "name": "Urinal"}, "geometry": {"type": "Point", "coordinates": [72.9410798, 19.1779177]}}, {"type": "Feature", "properties": {"osm_id": 12786048115, "osm_type": "node", "access": "yes", "amenity": "toilets", "fee": "no", "female": "yes", "male": "yes", "wheelchair": "no"}, "geometry": {"type": "Point", "coordinates": [72.8638335, 19.2968196]}}, {"type": "Feature", "properties": {"osm_id": 12811685524, "osm_type": "node", "amenity": "toilets"}, "geometry": {"type": "Point", "coordinates": [72.8546664, 19.0479768]}}, {"type": "Feature", "properties": {"osm_id": 12846796670, "osm_type": "node", "amenity": "toilets", "name": "Baba Da Dhaba"}, "geometry": {"type": "Point", "coordinates": [72.9676015, 19.1764809]}}, {"type": "Feature", "properties": {"osm_id": 12846796671, "osm_type": "node", "amenity": "toilets"}, "geometry": {"type": "Point", "coordinates": [72.9671771, 19.1787735]}}, {"type": "Feature", "properties": {"osm_id": 12855022232, "osm_type": "node", "amenity": "toilets", "changing_table": "no", "female": "yes", "male": "yes", "wheelchair": "yes"}, "geometry": {"type": "Point", "coordinates": [72.8978703, 19.0732033]}}, {"type": "Feature", "properties": {"osm_id": 12855222422, "osm_type": "node", "amenity": "toilets"}, "geometry": {"type": "Point", "coordinates": [72.96707, 19.180211]}}, {"type": "Feature", "properties": {"osm_id": 12863749645, "osm_type": "node", "amenity": "toilets"}, "geometry": {"type": "Point", "coordinates": [72.9303675, 19.167135]}}, {"type": "Feature", "properties": {"osm_id": 12865221005, "osm_type": "node", "amenity": "toilets"}, "geometry": {"type": "Point", "coordinates": [72.8497384, 19.2279994]}}, {"type": "Feature", "properties": {"osm_id": 12865221025, "osm_type": "node", "amenity": "toilets"}, "geometry": {"type": "Point", "coordinates": [72.8508383, 19.2260296]}}, {"type": "Feature", "properties": {"osm_id": 12875122166, "osm_type": "node", "amenity": "toilets"}, "geometry": {"type": "Point", "coordinates": [72.9612354, 19.1758846]}}, {"type": "Feature", "properties": {"osm_id": 12936465956, "osm_type": "node", "access": "yes", "amenity": "toilets", "fee": "yes", "female": "yes", "level": "0", "male": "yes", "name": "Mangal Shauchalay", "toilets:disposal": "flush", "toilets:handwashing": "yes", "wheelchair": "limited"}, "geometry": {"type": "Point", "coordinates": [72.8414178, 19.0824688]}}, {"type": "Feature", "properties": {"osm_id": 12936465969, "osm_type": "node", "access": "permissive", "amenity": "toilets", "fee": "no", "level": "0", "male": "yes", "toilets:handwashing": "yes", "toilets:position": "urinal"}, "geometry": {"type": "Point", "coordinates": [72.8380556, 19.0884666]}}, {"type": "Feature", "properties": {"osm_id": 12944124401, "osm_type": "node", "amenity": "toilets"}, "geometry": {"type": "Point", "coordinates": [72.8732015, 19.228696]}}, {"type": "Feature", "properties": {"osm_id": 12959069285, "osm_type": "node", "access": "yes", "amenity": "toilets", "fee": "yes", "female": "yes", "level": "0", "toilets:disposal": "flush", "toilets:handwashing": "yes", "toilets:position": "urinal", "wheelchair": "limited"}, "geometry": {"type": "Point", "coordinates": [72.857343, 19.2293086]}}, {"type": "Feature", "properties": {"osm_id": 12959069288, "osm_type": "node", "access": "yes", "amenity": "toilets", "fee": "yes", "level": "0", "male": "yes", "toilets:disposal": "flush", "toilets:handwashing": "yes", "toilets:position": "urinal", "wheelchair": "limited"}, "geometry": {"type": "Point", "coordinates": [72.857327, 19.2292048]}}, {"type": "Feature", "properties": {"osm_id": 12959153791, "osm_type": "node", "access": "yes", "amenity": "toilets", "fee": "yes", "female": "yes", "level": "0", "male": "yes", "toilets:disposal": "flush", "toilets:handwashing": "yes", "toilets:position": "urinal"}, "geometry": {"type": "Point", "coordinates": [72.8464744, 19.1201778]}}, {"type": "Feature", "properties": {"osm_id": 12959165311, "osm_type": "node", "access": "yes", "amenity": "toilets", "fee": "yes", "female": "yes", "male": "yes", "toilets:disposal": "flush", "toilets:handwashing": "yes", "wheelchair": "no"}, "geometry": {"type": "Point", "coordinates": [72.9746416, 19.1863106]}}, {"type": "Feature", "properties": {"osm_id": 13039699952, "osm_type": "node", "access": "yes", "amenity": "toilets", "fee": "yes", "female": "yes", "level": "0", "male": "yes", "operator": "MBMC", "toilets:disposal": "bucket", "wheelchair": "limited"}, "geometry": {"type": "Point", "coordinates": [72.8582695, 19.2958581]}}, {"type": "Feature", "properties": {"osm_id": 13050240431, "osm_type": "node", "addr:state": "MH", "addr:street": "Ratilal Mehta Marg", "amenity": "toilets"}, "geometry": {"type": "Point", "coordinates": [72.9090688, 19.0854929]}}, {"type": "Feature", "properties": {"osm_id": 13131311185, "osm_type": "node", "amenity": "toilets"}, "geometry": {"type": "Point", "coordinates": [72.8369611, 19.1090313]}}, {"type": "Feature", "properties": {"osm_id": 13167044570, "osm_type": "node", "amenity": "toilets", "female": "yes", "male": "yes", "operator": "MBMC"}, "geometry": {"type": "Point", "coordinates": [72.8673124, 19.2997108]}}, {"type": "Feature", "properties": {"osm_id": 13169406101, "osm_type": "node", "access": "yes", "amenity": "toilets", "fee": "yes", "female": "yes", "male": "yes", "operator": "MBMC", "wheelchair": "limited"}, "geometry": {"type": "Point", "coordinates": [72.8573201, 19.2968337]}}, {"type": "Feature", "properties": {"osm_id": 13238493342, "osm_type": "node", "access": "customers", "amenity": "toilets", "drinking_water": "no", "fee": "no", "female": "yes", "level": "1", "male": "yes", "toilets:disposal": "flush", "toilets:handwashing": "yes", "toilets:position": "seated;urinal", "wheelchair": "limited"}, "geometry": {"type": "Point", "coordinates": [72.8317186, 19.1403983]}}, {"type": "Feature", "properties": {"osm_id": 13240948720, "osm_type": "node", "access": "permissive", "amenity": "toilets", "drinking_water": "no", "fee": "no", "level": "0", "toilets:disposal": "flush", "toilets:handwashing": "yes", "toilets:paper_supplied": "no", "toilets:position": "squat", "unisex": "yes", "wheelchair": "no"}, "geometry": {"type": "Point", "coordinates": [72.8592152, 19.1806038]}}, {"type": "Feature", "properties": {"osm_id": 13247373343, "osm_type": "node", "access": "customers", "amenity": "toilets", "fee": "no", "level": "1", "male": "yes", "toilets:disposal": "flush", "toilets:handwashing": "yes", "toilets:paper_supplied": "no", "toilets:position": "seated;urinal", "wheelchair": "no"}, "geometry": {"type": "Point", "coordinates": [72.8582192, 19.1796158]}}, {"type": "Feature", "properties": {"osm_id": 13247373357, "osm_type": "node", "access": "customers", "amenity": "toilets", "fee": "no", "level": "1", "opening_hours": "Mo-Su,PH 06:00-23:00", "toilets:disposal": "flush", "toilets:handwashing": "yes", "toilets:position": "seated", "unisex": "yes", "wheelchair": "designated"}, "geometry": {"type": "Point", "coordinates": [72.8583997, 19.179616]}}, {"type": "Feature", "properties": {"osm_id": 13247373376, "osm_type": "node", "access": "customers", "amenity": "toilets", "fee": "no", "female": "yes", "level": "1", "opening_hours": "Mo-Su,PH 06:00-23:00", "toilets:disposal": "flush", "toilets:handwashing": "yes", "toilets:paper_supplied": "no", "toilets:position": "seated", "wheelchair": "limited"}, "geometry": {"type": "Point", "coordinates": [72.858364, 19.1795469]}}, {"type": "Feature", "properties": {"osm_id": 13249446985, "osm_type": "node", "access": "yes", "amenity": "toilets"}, "geometry": {"type": "Point", "coordinates": [72.8611424, 19.2998818]}}, {"type": "Feature", "properties": {"osm_id": 13252681179, "osm_type": "node", "access": "yes", "amenity": "toilets", "fee": "yes", "female": "yes", "level": "0", "male": "yes", "toilets:disposal": "flush", "toilets:handwashing": "yes", "toilets:paper_supplied": "no", "wheelchair": "limited"}, "geometry": {"type": "Point", "coordinates": [72.8478803, 19.1189149]}}, {"type": "Feature", "properties": {"osm_id": 13252681181, "osm_type": "node", "access": "yes", "amenity": "toilets", "drinking_water": "no", "fee": "yes", "female": "yes", "level": "1", "toilets:disposal": "flush", "toilets:handwashing": "yes", "toilets:paper_supplied": "no"}, "geometry": {"type": "Point", "coordinates": [72.8463448, 19.1187254]}}, {"type": "Feature", "properties": {"osm_id": 13252681182, "osm_type": "node", "access": "yes", "amenity": "toilets", "drinking_water": "no", "fee": "yes", "level": "1", "male": "yes", "toilets:disposal": "flush", "toilets:handwashing": "yes", "toilets:paper_supplied": "no"}, "geometry": {"type": "Point", "coordinates": [72.8463411, 19.118704]}}, {"type": "Feature", "properties": {"osm_id": 13252683688, "osm_type": "node", "access": "customers", "amenity": "toilets", "fee": "no", "female": "yes", "level": "1", "toilets:disposal": "flush", "toilets:handwashing": "yes", "wheelchair": "limited"}, "geometry": {"type": "Point", "coordinates": [72.8338777, 19.1460377]}}, {"type": "Feature", "properties": {"osm_id": 13252683697, "osm_type": "node", "access": "customers", "amenity": "toilets", "fee": "no", "level": "1", "toilets:disposal": "flush", "toilets:handwashing": "yes", "unisex": "yes", "wheelchair": "designated"}, "geometry": {"type": "Point", "coordinates": [72.8339064, 19.1460248]}}, {"type": "Feature", "properties": {"osm_id": 13252700904, "osm_type": "node", "access": "customers", "amenity": "toilets", "fee": "no", "level": "1", "male": "yes", "toilets:disposal": "flush", "toilets:handwashing": "yes", "wheelchair": "limited"}, "geometry": {"type": "Point", "coordinates": [72.8339283, 19.1460387]}}, {"type": "Feature", "properties": {"osm_id": 13252709766, "osm_type": "node", "access": "yes", "amenity": "toilets", "drinking_water": "no", "fee": "yes", "female": "yes", "level": "1", "toilets:handwashing": "yes", "toilets:paper_supplied": "no", "wheelchair": "no"}, "geometry": {"type": "Point", "coordinates": [72.8432012, 19.0187122]}}, {"type": "Feature", "properties": {"osm_id": 13252709779, "osm_type": "node", "access": "yes", "amenity": "toilets", "drinking_water": "no", "fee": "yes", "level": "1", "male": "yes", "toilets:handwashing": "yes", "toilets:paper_supplied": "no", "toilets:position": "urinal", "wheelchair": "no"}, "geometry": {"type": "Point", "coordinates": [72.8432471, 19.0186893]}}, {"type": "Feature", "properties": {"osm_id": 13373630781, "osm_type": "node", "access": "private", "amenity": "toilets", "fee": "no", "female": "yes", "level": "0", "male": "yes", "toilets:disposal": "flush", "toilets:handwashing": "yes", "toilets:position": "seated", "unisex": "yes", "wheelchair": "limited"}, "geometry": {"type": "Point", "coordinates": [72.8977749, 19.0573202]}}, {"type": "Feature", "properties": {"osm_id": 13373889829, "osm_type": "node", "access": "customers", "amenity": "toilets", "fee": "no", "female": "yes", "level": "0", "male": "yes", "toilets:disposal": "flush", "toilets:handwashing": "yes", "unisex": "yes"}, "geometry": {"type": "Point", "coordinates": [73.0171878, 19.1145286]}}, {"type": "Feature", "properties": {"osm_id": 13373889831, "osm_type": "node", "access": "customers", "amenity": "toilets", "fee": "no", "female": "yes", "level": "-1", "male": "yes", "toilets:disposal": "flush", "toilets:handwashing": "yes", "unisex": "yes"}, "geometry": {"type": "Point", "coordinates": [73.0172826, 19.1145655]}}, {"type": "Feature", "properties": {"osm_id": 13383588874, "osm_type": "node", "access": "permissive", "amenity": "toilets", "fee": "no", "female": "yes", "level": "0", "male": "yes", "toilets:disposal": "flush", "toilets:handwashing": "yes", "toilets:position": "squat", "unisex": "yes", "wheelchair": "no"}, "geometry": {"type": "Point", "coordinates": [72.8245471, 19.1449856]}}, {"type": "Feature", "properties": {"osm_id": 13386371359, "osm_type": "node", "access": "yes", "amenity": "toilets", "female": "yes", "level": "1", "male": "yes", "portable": "no", "toilets:disposal": "flush", "toilets:handwashing": "yes", "toilets:position": "inside", "wheelchair": "yes"}, "geometry": {"type": "Point", "coordinates": [72.8299878, 19.1283901]}}, {"type": "Feature", "properties": {"osm_id": 13386371361, "osm_type": "node", "amenity": "toilets"}, "geometry": {"type": "Point", "coordinates": [72.880424, 19.1594888]}}, {"type": "Feature", "properties": {"osm_id": 13387660173, "osm_type": "node", "amenity": "toilets"}, "geometry": {"type": "Point", "coordinates": [72.8630667, 19.2339353]}}, {"type": "Feature", "properties": {"osm_id": 13387730676, "osm_type": "node", "access": "permissive", "amenity": "toilets", "fee": "no", "female": "yes", "level": "0", "male": "yes", "toilets:disposal": "flush", "toilets:handwashing": "yes", "toilets:paper_supplied": "yes", "toilets:position": "seated", "unisex": "yes", "wheelchair": "no"}, "geometry": {"type": "Point", "coordinates": [72.8254672, 19.1343494]}}, {"type": "Feature", "properties": {"osm_id": 13420305651, "osm_type": "node", "amenity": "toilets"}, "geometry": {"type": "Point", "coordinates": [72.8187168, 18.9910378]}}, {"type": "Feature", "properties": {"osm_id": 13420337059, "osm_type": "node", "amenity": "toilets"}, "geometry": {"type": "Point", "coordinates": [72.9315933, 19.1635362]}}, {"type": "Feature", "properties": {"osm_id": 13483737157, "osm_type": "node", "access": "yes", "amenity": "toilets", "check_date": "2026-03-20", "fee": "no", "level": "0", "male": "yes", "toilets:disposal": "flush", "wheelchair": "no"}, "geometry": {"type": "Point", "coordinates": [72.8426993, 19.0164118]}}, {"type": "Feature", "properties": {"osm_id": 13483737165, "osm_type": "node", "access": "yes", "amenity": "toilets", "check_date": "2026-03-20", "fee": "no", "female": "yes", "level": "0", "toilets:disposal": "flush", "wheelchair": "no"}, "geometry": {"type": "Point", "coordinates": [72.8427147, 19.0164017]}}, {"type": "Feature", "properties": {"osm_id": 13501093231, "osm_type": "node", "access": "private", "amenity": "toilets", "fee": "no", "level": "0", "male": "yes", "toilets:disposal": "flush"}, "geometry": {"type": "Point", "coordinates": [72.8652368, 19.1252928]}}, {"type": "Feature", "properties": {"osm_id": 13507403013, "osm_type": "node", "amenity": "toilets"}, "geometry": {"type": "Point", "coordinates": [72.8589728, 19.0166105]}}, {"type": "Feature", "properties": {"osm_id": 13510287961, "osm_type": "node", "access": "yes", "amenity": "toilets", "drinking_water": "no", "fee": "no", "female": "yes", "level": "0", "toilets:disposal": "flush", "toilets:handwashing": "yes", "toilets:paper_supplied": "no", "wheelchair": "no"}, "geometry": {"type": "Point", "coordinates": [72.8238032, 19.1448341]}}, {"type": "Feature", "properties": {"osm_id": 13510287962, "osm_type": "node", "access": "yes", "amenity": "toilets", "drinking_water": "no", "fee": "no", "level": "0", "male": "yes", "toilets:disposal": "flush", "toilets:handwashing": "yes", "toilets:paper_supplied": "no", "toilets:position": "squat;urinal", "wheelchair": "no"}, "geometry": {"type": "Point", "coordinates": [72.8238232, 19.1449286]}}, {"type": "Feature", "properties": {"osm_id": 13574925710, "osm_type": "node", "access": "yes", "amenity": "toilets", "fee": "no", "gender_segregated": "yes", "handwashing:soap": "no", "supervised": "no", "toilets:disposal": "flush", "toilets:hands_drying": "no", "toilets:handwashing": "yes", "toilets:position": "seated;urinal", "wheelchair": "yes"}, "geometry": {"type": "Point", "coordinates": [73.0383444, 19.0106338]}}, {"type": "Feature", "properties": {"osm_id": 13752713461, "osm_type": "node", "access": "yes", "amenity": "toilets", "fee": "no", "level": "0", "male": "yes", "toilets:disposal": "flush"}, "geometry": {"type": "Point", "coordinates": [72.8889021, 19.0661336]}}, {"type": "Feature", "properties": {"osm_id": 13752713465, "osm_type": "node", "access": "yes", "amenity": "toilets", "fee": "no", "level": "0", "toilets:disposal": "flush", "unisex": "yes", "wheelchair": "designated"}, "geometry": {"type": "Point", "coordinates": [72.8889659, 19.0661151]}}, {"type": "Feature", "properties": {"osm_id": 13760340674, "osm_type": "node", "access": "yes", "amenity": "toilets", "female": "yes", "level": "0", "toilets:disposal": "flush"}, "geometry": {"type": "Point", "coordinates": [72.8593464, 19.0163587]}}, {"type": "Feature", "properties": {"osm_id": 13760344121, "osm_type": "node", "access": "yes", "amenity": "toilets", "level": "0", "male": "yes", "toilets:disposal": "flush"}, "geometry": {"type": "Point", "coordinates": [72.8593248, 19.016332]}}, {"type": "Feature", "properties": {"osm_id": 13866396088, "osm_type": "node", "access": "yes", "amenity": "toilets", "check_date": "2026-05-23", "check_date:wheelchair": "2026-05-23", "fee": "no", "wheelchair": "limited"}, "geometry": {"type": "Point", "coordinates": [72.9999677, 19.0690103]}}, {"type": "Feature", "properties": {"osm_id": 13890965127, "osm_type": "node", "access": "yes", "amenity": "toilets"}, "geometry": {"type": "Point", "coordinates": [72.9775911, 19.1873295]}}, {"type": "Feature", "properties": {"osm_id": 203056325, "osm_type": "way", "amenity": "toilets", "building": "yes"}, "geometry": {"type": "Point", "coordinates": [72.8284523, 19.1535629]}}, {"type": "Feature", "properties": {"osm_id": 203056329, "osm_type": "way", "amenity": "toilets", "building": "yes"}, "geometry": {"type": "Point", "coordinates": [72.8298606, 19.1523037]}}, {"type": "Feature", "properties": {"osm_id": 314402700, "osm_type": "way", "amenity": "toilets", "building": "yes", "name": "shulab swachalaya"}, "geometry": {"type": "Point", "coordinates": [72.9506463, 19.0353867]}}, {"type": "Feature", "properties": {"osm_id": 315334208, "osm_type": "way", "access": "yes", "amenity": "toilets", "building": "yes", "operator": "Municipal Corporation of Greater Mumbai", "toilets:disposal": "pitlatrine"}, "geometry": {"type": "Point", "coordinates": [72.9008968, 19.0525249]}}, {"type": "Feature", "properties": {"osm_id": 353405195, "osm_type": "way", "amenity": "toilets", "building": "yes", "name": "SBM Toilet"}, "geometry": {"type": "Point", "coordinates": [72.8667054, 19.0334609]}}, {"type": "Feature", "properties": {"osm_id": 359729587, "osm_type": "way", "amenity": "toilets", "building": "yes", "changing_table": "yes", "name": "SBM Toilet", "unisex": "yes"}, "geometry": {"type": "Point", "coordinates": [73.0112582, 19.0208889]}}, {"type": "Feature", "properties": {"osm_id": 380562830, "osm_type": "way", "access": "yes", "amenity": "toilets", "building": "yes"}, "geometry": {"type": "Point", "coordinates": [72.8790616, 19.0668776]}}, {"type": "Feature", "properties": {"osm_id": 390218927, "osm_type": "way", "amenity": "toilets", "building": "yes", "fee": "yes", "female": "yes", "male": "yes", "wheelchair": "designated"}, "geometry": {"type": "Point", "coordinates": [72.8170263, 19.1287099]}}, {"type": "Feature", "properties": {"osm_id": 416066973, "osm_type": "way", "amenity": "toilets", "building": "yes"}, "geometry": {"type": "Point", "coordinates": [73.0220905, 19.0322565]}}, {"type": "Feature", "properties": {"osm_id": 560014531, "osm_type": "way", "amenity": "toilets", "building": "yes", "fee": "no", "wheelchair": "limited"}, "geometry": {"type": "Point", "coordinates": [73.0117539, 19.023478]}}, {"type": "Feature", "properties": {"osm_id": 571791052, "osm_type": "way", "amenity": "toilets", "building": "yes", "operator": "BBRT"}, "geometry": {"type": "Point", "coordinates": [72.8187545, 19.0445413]}}, {"type": "Feature", "properties": {"osm_id": 628462323, "osm_type": "way", "access": "yes", "amenity": "toilets", "building": "yes", "changing_table": "yes", "name": "Swachh Public Toilet", "unisex": "yes", "wheelchair": "yes"}, "geometry": {"type": "Point", "coordinates": [73.015654, 19.0079085]}}, {"type": "Feature", "properties": {"osm_id": 645931477, "osm_type": "way", "access": "yes", "amenity": "toilets", "building": "yes", "fee": "yes", "name": "Swachh Public Toilet", "operator": "NMMC", "unisex": "yes"}, "geometry": {"type": "Point", "coordinates": [73.0201428, 19.0193248]}}, {"type": "Feature", "properties": {"osm_id": 647588852, "osm_type": "way", "amenity": "toilets", "building": "yes", "fee": "yes", "name": "Swachh Public Toilet", "unisex": "yes", "wheelchair": "limited"}, "geometry": {"type": "Point", "coordinates": [73.0171256, 19.0319079]}}, {"type": "Feature", "properties": {"osm_id": 682277260, "osm_type": "way", "amenity": "toilets", "building": "yes"}, "geometry": {"type": "Point", "coordinates": [72.9696752, 19.1795886]}}, {"type": "Feature", "properties": {"osm_id": 844957668, "osm_type": "way", "amenity": "toilets", "building": "yes"}, "geometry": {"type": "Point", "coordinates": [72.9671235, 19.1803246]}}, {"type": "Feature", "properties": {"osm_id": 876590723, "osm_type": "way", "amenity": "toilets", "building": "yes"}, "geometry": {"type": "Point", "coordinates": [72.9740082, 19.1755311]}}, {"type": "Feature", "properties": {"osm_id": 895612497, "osm_type": "way", "amenity": "toilets", "building": "yes", "fee": "no", "wheelchair": "no"}, "geometry": {"type": "Point", "coordinates": [72.9717083, 19.241417]}}, {"type": "Feature", "properties": {"osm_id": 905716248, "osm_type": "way", "access": "yes", "amenity": "toilets", "building": "yes", "fee": "no", "wheelchair": "yes"}, "geometry": {"type": "Point", "coordinates": [72.9307113, 19.0344201]}}, {"type": "Feature", "properties": {"osm_id": 905716255, "osm_type": "way", "amenity": "toilets", "building": "yes", "fee": "no", "wheelchair": "yes"}, "geometry": {"type": "Point", "coordinates": [72.9289214, 19.0416438]}}, {"type": "Feature", "properties": {"osm_id": 905716257, "osm_type": "way", "amenity": "toilets", "building": "yes", "fee": "no", "wheelchair": "yes"}, "geometry": {"type": "Point", "coordinates": [72.9228931, 19.0424008]}}, {"type": "Feature", "properties": {"osm_id": 905716266, "osm_type": "way", "amenity": "toilets", "building": "yes", "fee": "no", "wheelchair": "yes"}, "geometry": {"type": "Point", "coordinates": [72.9154869, 19.0412629]}}, {"type": "Feature", "properties": {"osm_id": 909242574, "osm_type": "way", "amenity": "toilets", "area": "yes"}, "geometry": {"type": "Point", "coordinates": [72.949717, 19.223783]}}, {"type": "Feature", "properties": {"osm_id": 911855366, "osm_type": "way", "amenity": "toilets", "building": "yes"}, "geometry": {"type": "Point", "coordinates": [72.9639116, 19.2669018]}}, {"type": "Feature", "properties": {"osm_id": 921429406, "osm_type": "way", "amenity": "toilets", "level": "0"}, "geometry": {"type": "Point", "coordinates": [72.9707958, 19.2083572]}}, {"type": "Feature", "properties": {"osm_id": 921577825, "osm_type": "way", "amenity": "toilets", "level": "1"}, "geometry": {"type": "Point", "coordinates": [72.9707904, 19.2084189]}}, {"type": "Feature", "properties": {"osm_id": 921577865, "osm_type": "way", "amenity": "toilets", "level": "1"}, "geometry": {"type": "Point", "coordinates": [72.9722287, 19.2093222]}}, {"type": "Feature", "properties": {"osm_id": 921614504, "osm_type": "way", "amenity": "toilets", "level": "2"}, "geometry": {"type": "Point", "coordinates": [72.9709601, 19.2079959]}}, {"type": "Feature", "properties": {"osm_id": 921614573, "osm_type": "way", "amenity": "toilets", "level": "2"}, "geometry": {"type": "Point", "coordinates": [72.9722153, 19.2093241]}}, {"type": "Feature", "properties": {"osm_id": 922022885, "osm_type": "way", "amenity": "toilets", "level": "0"}, "geometry": {"type": "Point", "coordinates": [72.9722314, 19.20932]}}, {"type": "Feature", "properties": {"osm_id": 976685885, "osm_type": "way", "amenity": "toilets"}, "geometry": {"type": "Point", "coordinates": [72.9713394, 19.1817404]}}, {"type": "Feature", "properties": {"osm_id": 1002033159, "osm_type": "way", "amenity": "toilets", "building": "yes"}, "geometry": {"type": "Point", "coordinates": [72.9571507, 19.2157952]}}, {"type": "Feature", "properties": {"osm_id": 1013238233, "osm_type": "way", "access": "yes", "amenity": "toilets", "building": "yes"}, "geometry": {"type": "Point", "coordinates": [73.0018721, 19.0636653]}}, {"type": "Feature", "properties": {"osm_id": 1041994705, "osm_type": "way", "amenity": "toilets", "building": "yes"}, "geometry": {"type": "Point", "coordinates": [72.9278325, 19.0613217]}}, {"type": "Feature", "properties": {"osm_id": 1041994706, "osm_type": "way", "amenity": "toilets", "building": "yes"}, "geometry": {"type": "Point", "coordinates": [72.9269349, 19.0610351]}}, {"type": "Feature", "properties": {"osm_id": 1041994707, "osm_type": "way", "amenity": "toilets", "building": "yes"}, "geometry": {"type": "Point", "coordinates": [72.927829, 19.0602615]}}, {"type": "Feature", "properties": {"osm_id": 1041994708, "osm_type": "way", "amenity": "toilets", "building": "yes"}, "geometry": {"type": "Point", "coordinates": [72.9297868, 19.0600547]}}, {"type": "Feature", "properties": {"osm_id": 1062397992, "osm_type": "way", "amenity": "toilets", "building": "yes"}, "geometry": {"type": "Point", "coordinates": [73.0296548, 19.0166474]}}, {"type": "Feature", "properties": {"osm_id": 1062398004, "osm_type": "way", "access": "yes", "amenity": "toilets", "building": "yes", "changing_table": "yes", "unisex": "yes", "wheelchair": "yes"}, "geometry": {"type": "Point", "coordinates": [73.0288824, 19.014712]}}, {"type": "Feature", "properties": {"osm_id": 1068842864, "osm_type": "way", "access": "yes", "amenity": "toilets", "building": "yes"}, "geometry": {"type": "Point", "coordinates": [72.9928103, 19.1482623]}}, {"type": "Feature", "properties": {"osm_id": 1068846654, "osm_type": "way", "access": "yes", "amenity": "toilets", "building": "yes", "opening_hours:covid19": "closed", "toilets:disposal": "flush", "unisex": "yes"}, "geometry": {"type": "Point", "coordinates": [72.9918883, 19.1516393]}}, {"type": "Feature", "properties": {"osm_id": 1068978787, "osm_type": "way", "amenity": "toilets", "building": "yes"}, "geometry": {"type": "Point", "coordinates": [72.989848, 19.146445]}}, {"type": "Feature", "properties": {"osm_id": 1071195451, "osm_type": "way", "access": "customers", "amenity": "toilets", "building": "yes", "fee": "no", "male": "yes", "wheelchair": "no"}, "geometry": {"type": "Point", "coordinates": [72.830068, 19.0507]}}, {"type": "Feature", "properties": {"osm_id": 1071195452, "osm_type": "way", "access": "customers", "amenity": "toilets", "building": "yes", "fee": "no", "female": "yes", "wheelchair": "no"}, "geometry": {"type": "Point", "coordinates": [72.8301348, 19.0507352]}}, {"type": "Feature", "properties": {"osm_id": 1071957758, "osm_type": "way", "access": "yes", "amenity": "toilets", "female": "yes", "male": "yes", "toilets:disposal": "pitlatrine", "wheelchair": "yes"}, "geometry": {"type": "Point", "coordinates": [72.9981681, 19.1568181]}}, {"type": "Feature", "properties": {"osm_id": 1089965322, "osm_type": "way", "amenity": "toilets", "building": "yes", "changing_table": "yes", "name": "Chanakya, Palm Beach Seawoods", "unisex": "yes", "wheelchair": "yes"}, "geometry": {"type": "Point", "coordinates": [73.0087915, 19.020889]}}, {"type": "Feature", "properties": {"osm_id": 1217712828, "osm_type": "way", "amenity": "toilets", "building": "yes"}, "geometry": {"type": "Point", "coordinates": [72.9188944, 19.044569]}}, {"type": "Feature", "properties": {"osm_id": 1226781784, "osm_type": "way", "amenity": "toilets", "building": "yes", "check_date": "2026-03-20"}, "geometry": {"type": "Point", "coordinates": [72.8170415, 18.9634583]}}, {"type": "Feature", "properties": {"osm_id": 1300081196, "osm_type": "way", "access": "yes", "amenity": "toilets", "bath:open_air": "no", "building": "yes", "changing_table": "yes", "toilets:disposal": "flush", "wheelchair": "yes"}, "geometry": {"type": "Point", "coordinates": [73.0301625, 19.0224716]}}, {"type": "Feature", "properties": {"osm_id": 1328347041, "osm_type": "way", "access": "yes", "amenity": "toilets", "building": "yes", "building:levels": "2", "fee": "yes", "female": "yes", "male": "yes", "toilets:handwashing": "yes", "toilets:position": "squat"}, "geometry": {"type": "Point", "coordinates": [72.8455217, 19.1465107]}}, {"type": "Feature", "properties": {"osm_id": 1330803992, "osm_type": "way", "access": "yes", "amenity": "toilets", "building": "yes", "building:levels": "2", "female": "yes", "level": "0", "male": "yes", "operator": "Brihanmumbai Mahanagarpalika", "roof:shape": "flat"}, "geometry": {"type": "Point", "coordinates": [72.8067602, 19.1381521]}}, {"type": "Feature", "properties": {"osm_id": 1332919327, "osm_type": "way", "access": "yes", "amenity": "toilets", "building": "yes", "building:levels": "3", "roof:shape": "flat"}, "geometry": {"type": "Point", "coordinates": [72.8442057, 19.1460344]}}, {"type": "Feature", "properties": {"osm_id": 1334578724, "osm_type": "way", "amenity": "toilets", "building": "yes"}, "geometry": {"type": "Point", "coordinates": [72.8368919, 19.0555116]}}, {"type": "Feature", "properties": {"osm_id": 1339382537, "osm_type": "way", "amenity": "toilets", "building": "yes"}, "geometry": {"type": "Point", "coordinates": [72.9359606, 19.1787005]}}, {"type": "Feature", "properties": {"osm_id": 1339474352, "osm_type": "way", "amenity": "toilets", "building": "yes"}, "geometry": {"type": "Point", "coordinates": [73.0297667, 18.9899979]}}, {"type": "Feature", "properties": {"osm_id": 1339474353, "osm_type": "way", "amenity": "toilets", "building": "retail"}, "geometry": {"type": "Point", "coordinates": [73.0297973, 18.988659]}}, {"type": "Feature", "properties": {"osm_id": 1373494137, "osm_type": "way", "access": "yes", "amenity": "toilets", "building": "yes", "wheelchair": "yes"}, "geometry": {"type": "Point", "coordinates": [72.8310263, 19.0575453]}}, {"type": "Feature", "properties": {"osm_id": 1378123561, "osm_type": "way", "amenity": "toilets", "building": "yes", "check_date": "2026-03-20"}, "geometry": {"type": "Point", "coordinates": [72.8469038, 19.0218486]}}, {"type": "Feature", "properties": {"osm_id": 1378348926, "osm_type": "way", "amenity": "toilets", "building": "yes"}, "geometry": {"type": "Point", "coordinates": [72.854663, 19.0479745]}}, {"type": "Feature", "properties": {"osm_id": 1387274683, "osm_type": "way", "amenity": "toilets", "building": "yes"}, "geometry": {"type": "Point", "coordinates": [72.8245226, 19.1046508]}}, {"type": "Feature", "properties": {"osm_id": 1387774669, "osm_type": "way", "amenity": "toilets", "building": "yes"}, "geometry": {"type": "Point", "coordinates": [72.9676499, 19.1767185]}}, {"type": "Feature", "properties": {"osm_id": 1390292387, "osm_type": "way", "amenity": "toilets", "building": "yes"}, "geometry": {"type": "Point", "coordinates": [72.931319, 19.1717193]}}, {"type": "Feature", "properties": {"osm_id": 1391308867, "osm_type": "way", "amenity": "toilets", "building": "yes"}, "geometry": {"type": "Point", "coordinates": [73.0011925, 19.1105842]}}, {"type": "Feature", "properties": {"osm_id": 1391518698, "osm_type": "way", "amenity": "toilets", "building": "yes"}, "geometry": {"type": "Point", "coordinates": [72.9580621, 19.1738393]}}, {"type": "Feature", "properties": {"osm_id": 1391542763, "osm_type": "way", "amenity": "toilets", "building": "yes"}, "geometry": {"type": "Point", "coordinates": [72.956577, 19.1715391]}}, {"type": "Feature", "properties": {"osm_id": 1391566586, "osm_type": "way", "amenity": "toilets", "building": "yes"}, "geometry": {"type": "Point", "coordinates": [72.9565114, 19.1722931]}}, {"type": "Feature", "properties": {"osm_id": 1455096902, "osm_type": "way", "amenity": "toilets", "building": "yes"}, "geometry": {"type": "Point", "coordinates": [72.8213746, 19.0588378]}}, {"type": "Feature", "properties": {"osm_id": 1459695421, "osm_type": "way", "access": "yes", "amenity": "toilets", "building": "yes", "fee": "yes", "female": "yes", "level": "0", "male": "yes", "roof:shape": "flat", "toilets:disposal": "flush", "toilets:handwashing": "yes", "toilets:paper_supplied": "no", "toilets:position": "seated;squat;urinal", "wheelchair": "no"}, "geometry": {"type": "Point", "coordinates": [72.8226612, 19.1154614]}}, {"type": "Feature", "properties": {"osm_id": 1467652577, "osm_type": "way", "amenity": "toilets", "building": "yes"}, "geometry": {"type": "Point", "coordinates": [73.0153133, 19.0335015]}}, {"type": "Feature", "properties": {"osm_id": 1468907406, "osm_type": "way", "amenity": "toilets", "building": "yes"}, "geometry": {"type": "Point", "coordinates": [72.8246674, 18.9289923]}}, {"type": "Feature", "properties": {"osm_id": 1480756464, "osm_type": "way", "access": "yes", "amenity": "toilets", "building": "yes", "fee": "yes", "female": "yes", "male": "yes", "roof:shape": "flat", "toilets:disposal": "flush"}, "geometry": {"type": "Point", "coordinates": [72.8349874, 19.1568912]}}, {"type": "Feature", "properties": {"osm_id": 1481731213, "osm_type": "way", "access": "yes", "amenity": "toilets", "building": "yes", "female": "yes", "male": "yes", "name": "Sulabh Toilet Complex", "name:hi": "सुलभ शौचालय संकुल", "toilets:disposal": "flush"}, "geometry": {"type": "Point", "coordinates": [72.8267955, 19.1202933]}}, {"type": "Feature", "properties": {"osm_id": 1482229735, "osm_type": "way", "access": "yes", "amenity": "toilets", "building": "yes", "level": "0", "toilets:disposal": "flush"}, "geometry": {"type": "Point", "coordinates": [72.8485232, 19.1185775]}}, {"type": "Feature", "properties": {"osm_id": 1485722097, "osm_type": "way", "access": "yes", "amenity": "toilets", "building": "yes"}, "geometry": {"type": "Point", "coordinates": [72.8424136, 19.2940118]}}, {"type": "Feature", "properties": {"osm_id": 1526167382, "osm_type": "way", "access": "yes", "amenity": "toilets", "building": "yes", "female": "yes", "male": "yes"}, "geometry": {"type": "Point", "coordinates": [72.8375233, 19.0616092]}}]}