{"type": "FeatureCollection", "crs": {"type": "name", "properties": {"name": "urn:ogc:def:crs:OGC:1.3:CRS84"}}, "features": [{"type": "Feature", "properties": {"osm_id": 1012264149, "osm_type": "node", "amenity": "hospital", "healthcare": "hospital", "name": "Mariampur Hospital"}, "geometry": {"type": "Point", "coordinates": [80.305789, 26.465464]}}, {"type": "Feature", "properties": {"osm_id": 1291414310, "osm_type": "node", "amenity": "hospital", "name": "Agarwal Hospital"}, "geometry": {"type": "Point", "coordinates": [80.314388, 26.464244]}}, {"type": "Feature", "properties": {"osm_id": 1291414312, "osm_type": "node", "amenity": "hospital", "name": "Rama Krishna Mission Hospital"}, "geometry": {"type": "Point", "coordinates": [80.318223, 26.468763]}}, {"type": "Feature", "properties": {"osm_id": 1634140077, "osm_type": "node", "addr:district": "Kanpur Nagar", "addr:full": "Swaroop Nagar", "addr:postcode": "208001", "addr:state": "Uttar Pradesh", "alt_name": "L.L.R Hospital", "amenity": "hospital", "emergency": "yes", "name": "Lala Lajpat Rai and Associate Hospital", "name:hi": "लाला लाजपत राय अस्पताल", "source": "OpenGovernmentData"}, "geometry": {"type": "Point", "coordinates": [80.3114319, 26.4781242]}}, {"type": "Feature", "properties": {"osm_id": 4686324403, "osm_type": "node", "amenity": "clinic", "name": "प्राथमिक स्वास्थ्य केन्द्र", "name:en": "Primary Health Center", "name:hi": "प्राथमिक स्वास्थ्य केन्द्र"}, "geometry": {"type": "Point", "coordinates": [80.3267936, 26.4712772]}}, {"type": "Feature", "properties": {"osm_id": 6149794485, "osm_type": "node", "amenity": "hospital", "healthcare": "hospital", "name:en": "J L Rohatgi Hospital"}, "geometry": {"type": "Point", "coordinates": [80.3056219, 26.4791725]}}, {"type": "Feature", "properties": {"osm_id": 7017961878, "osm_type": "node", "addr:district": "Kanpur Nagar", "addr:full": "88/327, Chaman Ganj", "addr:postcode": "208002", "addr:state": "Uttar Pradesh", "amenity": "hospital", "name": "Shifa Eye Research Centre(Ana Eye Hospital)", "source": "OpenGovernmentData"}, "geometry": {"type": "Point", "coordinates": [80.3357461, 26.468316]}}, {"type": "Feature", "properties": {"osm_id": 7017979038, "osm_type": "node", "addr:district": "Kanpur Nagar", "addr:full": "13 Lakhanpur Road", "addr:postcode": "208001", "addr:state": "Uttar Pradesh", "amenity": "hospital", "healthcare": "hospital", "name": "Shekhar Rastogi Eye Hospital", "source": "OpenGovernmentData"}, "geometry": {"type": "Point", "coordinates": [80.2790838, 26.4945033]}}, {"type": "Feature", "properties": {"osm_id": 7018011399, "osm_type": "node", "addr:district": "Kanpur Nagar", "addr:full": "E-32, Panki Mandir Road", "addr:postcode": "208002", "addr:state": "Uttar Pradesh", "amenity": "hospital", "name": "Merry Gold Hospital", "source": "OpenGovernmentData"}, "geometry": {"type": "Point", "coordinates": [80.3274326, 26.409045]}}, {"type": "Feature", "properties": {"osm_id": 7018011416, "osm_type": "node", "addr:district": "Kanpur Nagar", "addr:full": "Block - 11,Govind Nagar", "addr:postcode": "208006", "addr:state": "Uttar Pradesh", "amenity": "hospital", "healthcare": "hospital", "name": "R.K.Sindhi Sangh Maternity Hospital", "source": "OpenGovernmentData"}, "geometry": {"type": "Point", "coordinates": [80.302311, 26.4527897]}}, {"type": "Feature", "properties": {"osm_id": 7018066794, "osm_type": "node", "addr:district": "Kanpur Nagar", "addr:full": "120/503, Shivaji Nagar", "addr:postcode": "208005", "addr:state": "Uttar Pradesh", "amenity": "hospital", "healthcare": "hospital", "name": "Shivani Hospital Pvt Ltd", "source": "OpenGovernmentData"}, "geometry": {"type": "Point", "coordinates": [80.3020616, 26.4718516]}}, {"type": "Feature", "properties": {"osm_id": 7018342509, "osm_type": "node", "addr:district": "Kanpur Nagar", "addr:full": "14/116-A Civil Lines Civil Lines", "addr:postcode": "208001", "addr:state": "Uttar Pradesh", "amenity": "hospital", "name": "Tulsi Hospitals Ltd", "source": "OpenGovernmentData"}, "geometry": {"type": "Point", "coordinates": [80.344069, 26.4794961]}}, {"type": "Feature", "properties": {"osm_id": 7018342555, "osm_type": "node", "addr:district": "Kanpur Nagar", "addr:full": "Kanpur Nursing Home, Opp Hallet Hospital ,7/199 Swaroop Nagar", "addr:postcode": "208002", "addr:state": "Uttar Pradesh", "amenity": "hospital", "name": "Jeevani Hospital", "source": "OpenGovernmentData"}, "geometry": {"type": "Point", "coordinates": [80.3106406, 26.4795897]}}, {"type": "Feature", "properties": {"osm_id": 7018342560, "osm_type": "node", "addr:district": "Kanpur Nagar", "addr:full": "127, W-1/63, Saket Nagar, (Opposite Parag Diary)", "addr:postcode": "208014", "addr:state": "Uttar Pradesh", "amenity": "clinic", "name": "Gopal Krishna Surgical and Maternity Clinic", "source": "OpenGovernmentData"}, "geometry": {"type": "Point", "coordinates": [80.3091238, 26.439615]}}, {"type": "Feature", "properties": {"osm_id": 7018342582, "osm_type": "node", "addr:district": "Kanpur Nagar", "addr:full": "128/A187, K Block,Kidwai Nagar", "addr:postcode": "208001", "addr:state": "Uttar Pradesh", "amenity": "hospital", "name": "S.R Hospital and Diagnostic Point", "source": "OpenGovernmentData"}, "geometry": {"type": "Point", "coordinates": [80.3293204, 26.4201391]}}, {"type": "Feature", "properties": {"osm_id": 7018342603, "osm_type": "node", "addr:district": "Kanpur Nagar", "addr:full": "Shivli Road, Kalyanpur", "addr:postcode": "208002", "addr:state": "Uttar Pradesh", "amenity": "hospital", "healthcare": "hospital", "name": "Maa Durga Hospital and Research Center", "source": "OpenGovernmentData"}, "geometry": {"type": "Point", "coordinates": [80.2374639, 26.4984456]}}, {"type": "Feature", "properties": {"osm_id": 7018342626, "osm_type": "node", "addr:district": "Kanpur Nagar", "addr:full": "97/128 Talao Mahal", "addr:postcode": "208001", "addr:state": "Uttar Pradesh", "amenity": "hospital", "name": "Hamid Hospital", "source": "OpenGovernmentData"}, "geometry": {"type": "Point", "coordinates": [80.3406358, 26.4721229]}}, {"type": "Feature", "properties": {"osm_id": 7018418041, "osm_type": "node", "addr:district": "Kanpur Nagar", "addr:full": "A-2, Sarvodaya Nagar", "addr:postcode": "208005", "addr:state": "Uttar Pradesh", "amenity": "hospital", "email": "info@regencyhospital.in", "healthcare": "hospital", "name": "Regency Hospital", "operator:type": "private", "source": "OpenGovernmentData", "website": "www.regencyhospital.in"}, "geometry": {"type": "Point", "coordinates": [80.3015634, 26.4793574]}}, {"type": "Feature", "properties": {"osm_id": 7018521757, "osm_type": "node", "addr:district": "Kanpur Nagar", "addr:full": "I-6, Moti Vihar, 117/K/13, Sarvodaya Nagar", "addr:postcode": "208025", "addr:state": "Uttar Pradesh", "amenity": "hospital", "healthcare": "hospital", "name": "Ratandeep Hospital", "source": "OpenGovernmentData"}, "geometry": {"type": "Point", "coordinates": [80.2994223, 26.4808825]}}, {"type": "Feature", "properties": {"osm_id": 7018539753, "osm_type": "node", "addr:district": "Kanpur Nagar", "addr:full": "113/103A, Swaroop Nagar", "addr:postcode": "208002", "addr:state": "Uttar Pradesh", "amenity": "hospital", "name": "Royal Cancer Institute and Research Centre", "source": "OpenGovernmentData", "website": "royalcancerinstitute.com"}, "geometry": {"type": "Point", "coordinates": [80.3160292, 26.479268]}}, {"type": "Feature", "properties": {"osm_id": 7018564243, "osm_type": "node", "addr:district": "Kanpur Nagar", "addr:full": "25/11 - Canal Road", "addr:postcode": "208001", "addr:state": "Uttar Pradesh", "amenity": "hospital", "email": "care@northstarhospital.co.in", "healthcare": "hospital", "name": "North Star Hospital and Joint Replacement center", "operator:type": "private", "source": "OpenGovernmentData", "website": "www.northstarhospital.co.in"}, "geometry": {"type": "Point", "coordinates": [80.359061, 26.4635912]}}, {"type": "Feature", "properties": {"osm_id": 7018636413, "osm_type": "node", "addr:district": "Kanpur Nagar", "addr:full": "81, W-2, Vivek Vihar, Barra", "addr:postcode": "208027", "addr:state": "Uttar Pradesh", "amenity": "hospital", "healthcare": "hospital", "name": "Rama Shiv Hospital", "source": "OpenGovernmentData"}, "geometry": {"type": "Point", "coordinates": [80.307937, 26.4309735]}}, {"type": "Feature", "properties": {"osm_id": 7018666879, "osm_type": "node", "addr:district": "Kanpur Nagar", "addr:full": "#2/344, A-Azad Nagar Kanpur,Opposite Pandit Deen Dayal Vidyalaya", "addr:postcode": "208002", "addr:state": "Uttar Pradesh", "amenity": "clinic", "name": "Akshi Eye Care Centre", "source": "OpenGovernmentData"}, "geometry": {"type": "Point", "coordinates": [80.3117881, 26.4983439]}}, {"type": "Feature", "properties": {"osm_id": 7018689629, "osm_type": "node", "addr:district": "Kanpur Nagar", "addr:full": "G.T Road , Awadhpuri", "addr:postcode": "208024", "addr:state": "Uttar Pradesh", "amenity": "hospital", "healthcare": "hospital", "name": "Madhav Eye Hospital", "source": "OpenGovernmentData"}, "geometry": {"type": "Point", "coordinates": [80.269344, 26.4952396]}}, {"type": "Feature", "properties": {"osm_id": 7018918767, "osm_type": "node", "addr:district": "Kanpur Nagar", "addr:full": "15/263, Civil Lines Civil Lines", "addr:postcode": "208001", "addr:state": "Uttar Pradesh", "amenity": "hospital", "name": "Bhargava Hospital", "source": "OpenGovernmentData"}, "geometry": {"type": "Point", "coordinates": [80.350167, 26.4743257]}}, {"type": "Feature", "properties": {"osm_id": 7018919705, "osm_type": "node", "addr:district": "Kanpur Nagar", "addr:full": "63/8, Mg Marg,Mall Road", "addr:postcode": "208004", "addr:state": "Uttar Pradesh", "amenity": "hospital", "healthcare": "hospital", "name": "St. Catherine's Hospital", "source": "OpenGovernmentData", "website": "stcatherineshospital.org.in"}, "geometry": {"type": "Point", "coordinates": [80.3603929, 26.4581507]}}, {"type": "Feature", "properties": {"osm_id": 7018940008, "osm_type": "node", "addr:district": "Kanpur Nagar", "addr:full": "128/70 Y, Block Kidwai Nagar", "addr:postcode": "208011", "addr:state": "Uttar Pradesh", "amenity": "hospital", "healthcare": "hospital", "name": "New Shiv Raj Hospital", "source": "OpenGovernmentData"}, "geometry": {"type": "Point", "coordinates": [80.3196676, 26.422144]}}, {"type": "Feature", "properties": {"osm_id": 7018943852, "osm_type": "node", "addr:district": "Kanpur Nagar", "addr:full": "87/73 Hindustan Tannery Compound Bypass Road Jajmau", "addr:postcode": "208001", "addr:state": "Uttar Pradesh", "amenity": "hospital", "name": "Nasir Hospital", "source": "OpenGovernmentData"}, "geometry": {"type": "Point", "coordinates": [80.4056311, 26.4311536]}}, {"type": "Feature", "properties": {"osm_id": 7018991779, "osm_type": "node", "addr:district": "Kanpur Nagar", "addr:full": "Manu Clinic, 7/117, Swaroop Nagar", "addr:postcode": "208001", "addr:state": "Uttar Pradesh", "amenity": "hospital", "healthcare": "hospital", "name": "Paliwal Eye and Retina Centre", "source": "OpenGovernmentData"}, "geometry": {"type": "Point", "coordinates": [80.3198902, 26.4841176]}}, {"type": "Feature", "properties": {"osm_id": 7019130175, "osm_type": "node", "addr:district": "Kanpur Nagar", "addr:full": "108-B Vinova Nagar Near Malik Guest House -Ramadevi", "addr:postcode": "208001", "addr:state": "Uttar Pradesh", "amenity": "hospital", "name": "Jain Hospital, Kanpur Nagar", "source": "OpenGovernmentData"}, "geometry": {"type": "Point", "coordinates": [80.3832681, 26.4137606]}}, {"type": "Feature", "properties": {"osm_id": 7019366043, "osm_type": "node", "addr:district": "Kanpur Nagar", "addr:full": "7/223 Gutaiya Swaroop Nagar, G.T. Road", "addr:postcode": "208002", "addr:state": "Uttar Pradesh", "amenity": "clinic", "healthcare": "clinic", "name": "New G.T. Nursing Home", "source": "OpenGovernmentData"}, "geometry": {"type": "Point", "coordinates": [80.3022359, 26.4817924]}}, {"type": "Feature", "properties": {"osm_id": 7020160125, "osm_type": "node", "addr:district": "Kanpur Nagar", "addr:full": "117/H-2/168-A, Pandu Nagar", "addr:postcode": "208005", "addr:state": "Uttar Pradesh", "amenity": "hospital", "healthcare": "hospital", "name": "Dwivedi Hospital", "source": "OpenGovernmentData"}, "geometry": {"type": "Point", "coordinates": [80.2927013, 26.4727891]}}, {"type": "Feature", "properties": {"osm_id": 7020160150, "osm_type": "node", "addr:district": "Kanpur Nagar", "addr:full": "268 A-2, Naubasta, Hamirpur Road", "addr:postcode": "208002", "addr:state": "Uttar Pradesh", "amenity": "hospital", "name": "Krishnalok Hospital, Kanpur Nagar", "source": "OpenGovernmentData"}, "geometry": {"type": "Point", "coordinates": [80.315024, 26.4044301]}}, {"type": "Feature", "properties": {"osm_id": 7020365852, "osm_type": "node", "addr:district": "Kanpur Nagar", "addr:full": "128, Block-Y, Kidwai Nagar", "addr:postcode": "208011", "addr:state": "Uttar Pradesh", "amenity": "hospital", "healthcare": "hospital", "name": "Swati Hospital and Research Center", "source": "OpenGovernmentData"}, "geometry": {"type": "Point", "coordinates": [80.3195925, 26.4204133]}}, {"type": "Feature", "properties": {"osm_id": 7020446796, "osm_type": "node", "addr:district": "Kanpur Nagar", "addr:full": "12 A 3 Gaushala Defence Colony, Jajmau", "addr:postcode": "208010", "addr:state": "Uttar Pradesh", "amenity": "hospital", "name": "Mahsa Hospital", "source": "OpenGovernmentData"}, "geometry": {"type": "Point", "coordinates": [80.400032, 26.426279]}}, {"type": "Feature", "properties": {"osm_id": 7020521557, "osm_type": "node", "addr:district": "Kanpur Nagar", "addr:full": "107-264-Brahma Nagar Near Brahma Nagar Chauraha", "addr:postcode": "208012", "addr:state": "Uttar Pradesh", "amenity": "clinic", "name": "Navyug Nursing Home", "source": "OpenGovernmentData"}, "geometry": {"type": "Point", "coordinates": [80.3254947, 26.4728672]}}, {"type": "Feature", "properties": {"osm_id": 7020694670, "osm_type": "node", "addr:district": "Kanpur Nagar", "addr:full": "132/168 Babu Purwa", "addr:postcode": "208023", "addr:state": "Uttar Pradesh", "amenity": "hospital", "healthcare": "hospital", "name": "Huma Hospital", "source": "OpenGovernmentData"}, "geometry": {"type": "Point", "coordinates": [80.3438169, 26.4387576]}}, {"type": "Feature", "properties": {"osm_id": 7020772618, "osm_type": "node", "addr:district": "Kanpur Nagar", "addr:full": "C- 35, Sarvodaya Nagar", "addr:postcode": "208005", "addr:state": "Uttar Pradesh", "amenity": "clinic", "healthcare": "clinic", "name": "D S Memorial Nursing Home", "source": "OpenGovernmentData"}, "geometry": {"type": "Point", "coordinates": [80.3000928, 26.4807217]}}, {"type": "Feature", "properties": {"osm_id": 7020787572, "osm_type": "node", "addr:district": "Kanpur Nagar", "addr:full": "107/279,Brahama Nagar,Near Brahama Nagar Chauraha", "addr:postcode": "208012", "addr:state": "Uttar Pradesh", "amenity": "hospital", "healthcare": "hospital", "name": "Fortune Hospital", "source": "OpenGovernmentData"}, "geometry": {"type": "Point", "coordinates": [80.2893063, 26.4879419]}}, {"type": "Feature", "properties": {"osm_id": 7020886876, "osm_type": "node", "addr:district": "Kanpur Nagar", "addr:full": "9/55, Arya Nagar", "addr:postcode": "208012", "addr:state": "Uttar Pradesh", "amenity": "hospital", "name": "Ktc's Vedanta (A Hospital And Research Centre) Kanpur Ortho And Trauma Centre Pvt Ltd", "source": "OpenGovernmentData"}, "geometry": {"type": "Point", "coordinates": [80.3229298, 26.4788514]}}, {"type": "Feature", "properties": {"osm_id": 7020925911, "osm_type": "node", "addr:district": "Kanpur Nagar", "addr:full": "117-N-65, Kaka Deo,OppositeDeoki Cinema", "addr:postcode": "208025", "addr:state": "Uttar Pradesh", "amenity": "clinic", "healthcare": "clinic", "name": "Suraj Medical and Diagnostics Pvt Ltd", "source": "OpenGovernmentData"}, "geometry": {"type": "Point", "coordinates": [80.2951455, 26.4765274]}}, {"type": "Feature", "properties": {"osm_id": 7020949628, "osm_type": "node", "addr:district": "Kanpur Nagar", "addr:full": "491, Kazi Khera, Lal Bangla, Harjinder Nagar", "addr:postcode": "208007", "addr:state": "Uttar Pradesh", "amenity": "hospital", "name": "Dey's Hospital", "source": "OpenGovernmentData", "website": "deyshospital.in"}, "geometry": {"type": "Point", "coordinates": [80.3895941, 26.4193612]}}, {"type": "Feature", "properties": {"osm_id": 7021039196, "osm_type": "node", "addr:district": "Kanpur Nagar", "addr:full": "110/231-A/B, Jawahar Nagar", "addr:postcode": "208012", "addr:state": "Uttar Pradesh", "amenity": "hospital", "name": "Prem Maternity Home", "source": "OpenGovernmentData"}, "geometry": {"type": "Point", "coordinates": [80.3202832, 26.4694313]}}, {"type": "Feature", "properties": {"osm_id": 7021097666, "osm_type": "node", "addr:district": "Kanpur Nagar", "addr:full": "C-15, New Azad Nagar, Kalyanpur", "addr:postcode": "208001", "addr:state": "Uttar Pradesh", "amenity": "hospital", "healthcare": "hospital", "name": "Shyam Children and Maternity Centre", "source": "OpenGovernmentData"}, "geometry": {"type": "Point", "coordinates": [80.2570769, 26.500529]}}, {"type": "Feature", "properties": {"osm_id": 7021134663, "osm_type": "node", "addr:district": "Kanpur Nagar", "addr:full": "2A/228,Azad Nagar", "addr:postcode": "208002", "addr:state": "Uttar Pradesh", "amenity": "hospital", "name": "Sulaxmi Hospital", "source": "OpenGovernmentData"}, "geometry": {"type": "Point", "coordinates": [80.3053232, 26.5000165]}}, {"type": "Feature", "properties": {"osm_id": 7021267994, "osm_type": "node", "addr:district": "Kanpur Nagar", "addr:full": "A, 33/1, Awas Vikas Colony, Hanspuram, Naubasta", "addr:postcode": "208021", "addr:state": "Uttar Pradesh", "amenity": "hospital", "healthcare": "hospital", "name": "Rajrani Hospital", "source": "OpenGovernmentData"}, "geometry": {"type": "Point", "coordinates": [80.3146715, 26.3994503]}}, {"type": "Feature", "properties": {"osm_id": 7022298807, "osm_type": "node", "addr:district": "Kanpur Nagar", "addr:full": "G.S.V.M Medical College", "addr:postcode": "208002", "addr:state": "Uttar Pradesh", "amenity": "hospital", "healthcare": "hospital", "name": "L.P.S . Institute Of Cardilogy", "source": "OpenGovernmentData"}, "geometry": {"type": "Point", "coordinates": [80.3034604, 26.4812162]}}, {"type": "Feature", "properties": {"osm_id": 7022322511, "osm_type": "node", "addr:district": "Kanpur Nagar", "addr:full": "10/503 B Allenganj Tilak Nagar", "addr:postcode": "208002", "addr:state": "Uttar Pradesh", "amenity": "hospital", "healthcare": "hospital", "name": "Abha Nursing Home Pvt Ltd", "source": "OpenGovernmentData"}, "geometry": {"type": "Point", "coordinates": [80.325028, 26.4854512]}}, {"type": "Feature", "properties": {"osm_id": 7024789289, "osm_type": "node", "addr:district": "Kanpur Nagar", "addr:full": "615 Safipur,Harjinder Nagar", "addr:postcode": "208001", "addr:state": "Uttar Pradesh", "amenity": "clinic", "name": "Awasthi's Nursing Home", "operator": "awasthi jii", "operator:type": "private", "source": "OpenGovernmentData"}, "geometry": {"type": "Point", "coordinates": [80.3902982, 26.4152055]}}, {"type": "Feature", "properties": {"osm_id": 7025018109, "osm_type": "node", "addr:district": "Kanpur Nagar", "addr:full": "Panki Rd, Devkali Market", "addr:postcode": "208017", "addr:state": "Uttar Pradesh", "amenity": "hospital", "healthcare": "hospital", "name": "Kanpur Trauma and Ortho. Centre", "source": "OpenGovernmentData"}, "geometry": {"type": "Point", "coordinates": [80.2507339, 26.5020967]}}, {"type": "Feature", "properties": {"osm_id": 7025046367, "osm_type": "node", "addr:city": "Kanpur", "addr:district": "Kanpur Nagar", "addr:full": "Kidwai Nagar Kidwai Nagar", "addr:postcode": "208001", "addr:state": "Uttar Pradesh", "amenity": "hospital", "healthcare": "hospital", "name": "Madhulok Hospital", "source": "OpenGovernmentData"}, "geometry": {"type": "Point", "coordinates": [80.3202206, 26.4240594]}}, {"type": "Feature", "properties": {"osm_id": 7025068991, "osm_type": "node", "addr:district": "Kanpur Nagar", "addr:full": "15/201, Civil Lines Civil Lines", "addr:postcode": "208001", "addr:state": "Uttar Pradesh", "amenity": "hospital", "name": "Lala Amba Prasad Smarak Chikitsalaya", "source": "OpenGovernmentData"}, "geometry": {"type": "Point", "coordinates": [80.3560156, 26.4756865]}}, {"type": "Feature", "properties": {"osm_id": 7025148897, "osm_type": "node", "addr:district": "Kanpur Nagar", "addr:full": "113/121-A, Swaroop Nagar", "addr:postcode": "208002", "addr:state": "Uttar Pradesh", "amenity": "hospital", "name": "Madhuraj Multi Speciality Hospital", "source": "OpenGovernmentData"}, "geometry": {"type": "Point", "coordinates": [80.3175304, 26.4795518]}}, {"type": "Feature", "properties": {"osm_id": 7025269444, "osm_type": "node", "addr:district": "Kanpur Nagar", "addr:full": "119/22 - A Nasimabad,Gumti No.5", "addr:postcode": "208012", "addr:state": "Uttar Pradesh", "amenity": "clinic", "name": "Jolly Nursing Home and Research Centre (P) Ltd", "source": "OpenGovernmentData"}, "geometry": {"type": "Point", "coordinates": [80.3149804, 26.4693047]}}, {"type": "Feature", "properties": {"osm_id": 7025340457, "osm_type": "node", "addr:district": "Kanpur Nagar", "addr:full": "121/625, Shastri Nagar, (Near Vijay Nagar Crossing)", "addr:postcode": "208005", "addr:state": "Uttar Pradesh", "amenity": "hospital", "healthcare": "hospital", "name": "C L Memorail Hospital and Maternity Home Pvt Ltd", "source": "OpenGovernmentData"}, "geometry": {"type": "Point", "coordinates": [80.3057024, 26.4629904]}}, {"type": "Feature", "properties": {"osm_id": 7025481522, "osm_type": "node", "addr:district": "Kanpur Nagar", "addr:full": "113 / 157, Swaroop Nagar", "addr:postcode": "208002", "addr:state": "Uttar Pradesh", "amenity": "hospital", "email": "suprabhadubey@rkdevi.com", "name": "R K Devi Eye Research Institute", "operator:type": "private", "source": "OpenGovernmentData", "website": "https://www.rkdevi.com/"}, "geometry": {"type": "Point", "coordinates": [80.3172376, 26.4819618]}}, {"type": "Feature", "properties": {"osm_id": 7025501353, "osm_type": "node", "addr:district": "Kanpur Nagar", "addr:full": "117/17, Sarvodaya Nagar", "addr:postcode": "208005", "addr:state": "Uttar Pradesh", "amenity": "clinic", "healthcare": "clinic", "name": "Bimal Nursing Home", "source": "OpenGovernmentData"}, "geometry": {"type": "Point", "coordinates": [80.3040625, 26.4799462]}}, {"type": "Feature", "properties": {"osm_id": 7025610756, "osm_type": "node", "addr:district": "Kanpur Nagar", "addr:full": "Civil Lines 14/116 'C' - 1 Civil Lines", "addr:postcode": "208001", "addr:state": "Uttar Pradesh", "amenity": "hospital", "name": "New Leelamani Hospital", "source": "OpenGovernmentData"}, "geometry": {"type": "Point", "coordinates": [80.3437733, 26.4796137]}}, {"type": "Feature", "properties": {"osm_id": 7025765332, "osm_type": "node", "addr:district": "Kanpur Nagar", "addr:full": "931/4 Kalpi Road Panki", "addr:postcode": "208020", "addr:state": "Uttar Pradesh", "amenity": "hospital", "healthcare": "hospital", "name": "Shri Baba Hospital and Trauma Centre", "source": "OpenGovernmentData"}, "geometry": {"type": "Point", "coordinates": [80.2594098, 26.4602956]}}, {"type": "Feature", "properties": {"osm_id": 7025968842, "osm_type": "node", "addr:district": "Kanpur Nagar", "addr:full": "127/214, Barah Devi Chauraha Juhi", "addr:postcode": "208014", "addr:state": "Uttar Pradesh", "amenity": "hospital", "name": "Santosh Hospital, Kanpur Nagar", "source": "OpenGovernmentData"}, "geometry": {"type": "Point", "coordinates": [80.3244178, 26.4396126]}}, {"type": "Feature", "properties": {"osm_id": 7026504632, "osm_type": "node", "addr:district": "Kanpur Nagar", "addr:full": "14A(Ii)-C, Baba Nagar, Naubasta, Near Chaturvedi Bulding", "addr:postcode": "208021", "addr:state": "Uttar Pradesh", "amenity": "hospital", "healthcare": "hospital", "name": "Utkarsh Hospital and Maternity Home", "source": "OpenGovernmentData"}, "geometry": {"type": "Point", "coordinates": [80.3150207, 26.413784]}}, {"type": "Feature", "properties": {"osm_id": 7027159784, "osm_type": "node", "addr:district": "Kanpur Nagar", "addr:full": "Near Barra By Pass", "addr:postcode": "208019", "addr:state": "Uttar Pradesh", "amenity": "clinic", "healthcare": "clinic", "name": "Shanti Surgical Clinic and Nursing Home", "source": "OpenGovernmentData"}, "geometry": {"type": "Point", "coordinates": [80.3065369, 26.4289487]}}, {"type": "Feature", "properties": {"osm_id": 7027572496, "osm_type": "node", "addr:district": "Kanpur Nagar", "addr:full": "30-E 'O' Block, Kidwai Nagar", "addr:postcode": "208023", "addr:state": "Uttar Pradesh", "amenity": "clinic", "name": "Bhargava Medical And Trauma Centre", "source": "OpenGovernmentData"}, "geometry": {"type": "Point", "coordinates": [80.327277, 26.4381365]}}, {"type": "Feature", "properties": {"osm_id": 7027605931, "osm_type": "node", "addr:district": "Kanpur Nagar", "addr:full": "133/190, Juhi Hamirpur Road, Near Baradevi", "addr:postcode": "208011", "addr:state": "Uttar Pradesh", "amenity": "hospital", "name": "S D Hospital, Kanpur Nagar", "source": "OpenGovernmentData"}, "geometry": {"type": "Point", "coordinates": [80.3266427, 26.441433]}}, {"type": "Feature", "properties": {"osm_id": 7027605975, "osm_type": "node", "addr:district": "Kanpur Nagar", "addr:full": "128,W-2 Block, Damodar Nagar", "addr:postcode": "208023", "addr:state": "Uttar Pradesh", "amenity": "hospital", "healthcare": "hospital", "name": "The Orient Hospital", "source": "OpenGovernmentData"}, "geometry": {"type": "Point", "coordinates": [80.3092469, 26.4252711]}}, {"type": "Feature", "properties": {"osm_id": 7027606285, "osm_type": "node", "addr:district": "Kanpur Nagar", "addr:full": "7/190 D-1, 2, 3, Swaroop Nagar,Khalasi Line, Old Sales Tax Road", "addr:postcode": "208002", "addr:state": "Uttar Pradesh", "amenity": "hospital", "name": "The Gastro Liver Hospital", "source": "OpenGovernmentData"}, "geometry": {"type": "Point", "coordinates": [80.313289, 26.4829828]}}, {"type": "Feature", "properties": {"osm_id": 7027726616, "osm_type": "node", "addr:district": "Kanpur Nagar", "addr:full": "13, Lekhanpur Road", "addr:postcode": "208027", "addr:state": "Uttar Pradesh", "amenity": "hospital", "healthcare": "hospital", "name": "Shubh Netra Kendra", "source": "OpenGovernmentData"}, "geometry": {"type": "Point", "coordinates": [80.2792176, 26.4945687]}}, {"type": "Feature", "properties": {"osm_id": 7027743598, "osm_type": "node", "addr:district": "Kanpur Nagar", "addr:full": "76-E Block, Panki,Kanpur,Near Railway Station", "addr:postcode": "208020", "addr:state": "Uttar Pradesh", "amenity": "hospital", "healthcare": "hospital", "name": "Mahaveer Hospital And Trauma Centre", "source": "OpenGovernmentData"}, "geometry": {"type": "Point", "coordinates": [80.243741, 26.4625053]}}, {"type": "Feature", "properties": {"osm_id": 7027743613, "osm_type": "node", "addr:district": "Kanpur Nagar", "addr:full": "117/H-2/28,Pandunagar", "addr:state": "Uttar Pradesh", "amenity": "clinic", "health_facility:type": "dispensary", "healthcare": "centre", "name": "CGHS Dispensary, Pandunagar", "operator:type": "government", "source": "OpenGovernmentData", "website": "http://nb.bsf.gov.in/CGHS%20DIspenseries.pdf"}, "geometry": {"type": "Point", "coordinates": [80.2940364, 26.4714566]}}, {"type": "Feature", "properties": {"osm_id": 7027783656, "osm_type": "node", "addr:district": "Kanpur Nagar", "addr:full": "113/340, Swaroop Nagar ( Near Kanpur Vidya Mandir), Khalasi Line", "addr:postcode": "208002", "addr:state": "Uttar Pradesh", "amenity": "clinic", "name": "Sharma Nursing Home, Kanpur Nagar", "source": "OpenGovernmentData"}, "geometry": {"type": "Point", "coordinates": [80.3145647, 26.4824454]}}, {"type": "Feature", "properties": {"osm_id": 7027822933, "osm_type": "node", "addr:district": "Kanpur Nagar", "addr:full": "117/N/33, Avon Market, Kakadeo, Kanpur, Uttar Pradesh", "addr:postcode": "208025", "addr:state": "Uttar Pradesh", "amenity": "hospital", "email": "helpline@globushospital.com", "healthcare": "hospital", "name": "Globus Hospital for Joint Replacement", "operator:type": "private", "source": "OpenGovernmentData", "website": "https://www.globushospital.com/"}, "geometry": {"type": "Point", "coordinates": [80.2943628, 26.4758744]}}, {"type": "Feature", "properties": {"osm_id": 7027929689, "osm_type": "node", "addr:district": "Unnao", "addr:full": "Opp Saraswati Takies 10/166 Rajdhani Marg, Shuklaganj", "addr:postcode": "209801", "addr:state": "Uttar Pradesh", "amenity": "hospital", "name": "Indraprastha Hospital, Unnao", "source": "OpenGovernmentData"}, "geometry": {"type": "Point", "coordinates": [80.383193, 26.4763701]}}, {"type": "Feature", "properties": {"osm_id": 7027932245, "osm_type": "node", "addr:district": "Kanpur Nagar", "addr:full": "128/46 Y Block Kidwai Nagar", "addr:postcode": "208011", "addr:state": "Uttar Pradesh", "amenity": "clinic", "name": "Sanya Surgical Clinic", "source": "OpenGovernmentData"}, "geometry": {"type": "Point", "coordinates": [80.3350957, 26.4351094]}}, {"type": "Feature", "properties": {"osm_id": 7027932283, "osm_type": "node", "addr:district": "Kanpur Nagar", "addr:full": "A9, Hanspuram, Hamirpur Road, Naubasta Bamba, Near Bamba Sabji Mandi", "addr:postcode": "208021", "addr:state": "Uttar Pradesh", "amenity": "hospital", "healthcare": "hospital", "name": "Famity Hospital and Research Centre", "source": "OpenGovernmentData"}, "geometry": {"type": "Point", "coordinates": [80.3241523, 26.3958316]}}, {"type": "Feature", "properties": {"osm_id": 7028089716, "osm_type": "node", "addr:district": "Kanpur Nagar", "addr:full": "150, 157, Ratan Lal Nagar, Chikitsalaya Sampurna, Manavta Se Paripurna", "addr:postcode": "208022", "addr:state": "Uttar Pradesh", "amenity": "hospital", "healthcare": "hospital", "name": "Laxmi Devi Kishanchand Memorial Hospital", "source": "OpenGovernmentData"}, "geometry": {"type": "Point", "coordinates": [80.2900936, 26.4453476]}}, {"type": "Feature", "properties": {"osm_id": 7028096712, "osm_type": "node", "addr:district": "Kanpur Nagar", "addr:full": "No. 10 A, Lakanpur, Gt Road, Near Palace Cross", "addr:postcode": "208024", "addr:state": "Uttar Pradesh", "amenity": "hospital", "healthcare": "hospital", "name": "Metro Hospital, Kanpur Nagar", "source": "OpenGovernmentData"}, "geometry": {"type": "Point", "coordinates": [80.2837479, 26.4921475]}}, {"type": "Feature", "properties": {"osm_id": 7028096752, "osm_type": "node", "addr:district": "Kanpur Nagar", "addr:full": "112, 202, near Utkarsh Academy,Swaroop Nagar", "addr:postcode": "208002", "addr:state": "Uttar Pradesh", "amenity": "hospital", "email": "contact@mahendraeyeinstitute.com", "name": "Khairabad Eye Hospital", "operator:type": "private", "source": "OpenGovernmentData", "website": "www.mahendraeyeinstitute.com"}, "geometry": {"type": "Point", "coordinates": [80.3206587, 26.4878566]}}, {"type": "Feature", "properties": {"osm_id": 7028196929, "osm_type": "node", "addr:district": "Kanpur Nagar", "addr:full": "105/568, Anand Bagh, Kanpur(Near Sangeet Cinema)", "addr:postcode": "208002", "addr:state": "Uttar Pradesh", "amenity": "hospital", "healthcare": "hospital", "name": "Mother and Child Care Centre, Kanpur Nagar", "source": "OpenGovernmentData"}, "geometry": {"type": "Point", "coordinates": [80.3551532, 26.4231234]}}, {"type": "Feature", "properties": {"osm_id": 7028345701, "osm_type": "node", "addr:district": "Kanpur Nagar", "addr:full": "C-46-50, Kalyanpur", "addr:postcode": "208017", "addr:state": "Uttar Pradesh", "amenity": "hospital", "healthcare": "hospital", "name": "Spm Hospital Research and Trauma Centre", "source": "OpenGovernmentData"}, "geometry": {"type": "Point", "coordinates": [80.2575342, 26.5010511]}}, {"type": "Feature", "properties": {"osm_id": 7028347032, "osm_type": "node", "addr:district": "Kanpur Nagar", "addr:full": "B R Stone Clinic, 111/456, Harsh Nagar", "addr:postcode": "208012", "addr:state": "Uttar Pradesh", "amenity": "clinic", "name": "Kanpur Nursing Home", "source": "OpenGovernmentData"}, "geometry": {"type": "Point", "coordinates": [80.3232202, 26.4727615]}}, {"type": "Feature", "properties": {"osm_id": 7028737942, "osm_type": "node", "addr:district": "Kanpur Nagar", "addr:full": "475, Vayu Vihar , Harjinder Nagar", "addr:postcode": "208007", "addr:state": "Uttar Pradesh", "amenity": "clinic", "name": "Sugandha Maternity and Nursing Home", "source": "OpenGovernmentData"}, "geometry": {"type": "Point", "coordinates": [80.3936067, 26.4142909]}}, {"type": "Feature", "properties": {"osm_id": 7028968156, "osm_type": "node", "addr:district": "Kanpur Nagar", "addr:full": "C- 35, Sarvodaya Nagar", "addr:postcode": "208005", "addr:state": "Uttar Pradesh", "amenity": "hospital", "healthcare": "hospital", "name": "Angel Eyes Lasik Center", "source": "OpenGovernmentData"}, "geometry": {"type": "Point", "coordinates": [80.2997737, 26.4805524]}}, {"type": "Feature", "properties": {"osm_id": 7029200262, "osm_type": "node", "addr:district": "Kanpur Nagar", "addr:full": "195, Lal Quarters (Opp Natraj Cinema), Govind Nagar", "addr:postcode": "208006", "addr:state": "Uttar Pradesh", "amenity": "clinic", "healthcare": "clinic", "name": "D. T Nursing Home", "source": "OpenGovernmentData"}, "geometry": {"type": "Point", "coordinates": [80.2986109, 26.4493968]}}, {"type": "Feature", "properties": {"osm_id": 7029313876, "osm_type": "node", "addr:district": "Kanpur Nagar", "addr:full": "127/ W-1/1/41, Saket Nagar", "addr:postcode": "208012", "addr:state": "Uttar Pradesh", "amenity": "clinic", "name": "Dr. S.K Nigam Surgical and Laparoscopy Clinic", "source": "OpenGovernmentData"}, "geometry": {"type": "Point", "coordinates": [80.3094497, 26.4402574]}}, {"type": "Feature", "properties": {"osm_id": 7029338982, "osm_type": "node", "addr:district": "Kanpur Nagar", "addr:full": "111/399, Ashok Nagar,(Harsh Nagar Main Road )", "addr:postcode": "208012", "addr:state": "Uttar Pradesh", "amenity": "hospital", "name": "Mehrotra Ear , Nose, Throat Hospital and Research Centre", "source": "OpenGovernmentData"}, "geometry": {"type": "Point", "coordinates": [80.3205447, 26.4728846]}}, {"type": "Feature", "properties": {"osm_id": 7029614607, "osm_type": "node", "addr:district": "Kanpur Nagar", "addr:full": "Association For The Prevention 0f Blindness, G.T.Road, Sarvodaya Nagar", "addr:postcode": "208020", "addr:state": "Uttar Pradesh", "amenity": "hospital", "email": "jlrhospital@hotmail.com", "healthcare": "hospital", "name": "J.L.Rohatgi Hospital and Jawaharlal Rohatagi Smarak Netra Chikitsalaya", "operator:type": "private", "source": "OpenGovernmentData", "website": "http://www.jlrohatgihospital.org/"}, "geometry": {"type": "Point", "coordinates": [80.3056209, 26.4788118]}}, {"type": "Feature", "properties": {"osm_id": 7030449549, "osm_type": "node", "addr:district": "Kanpur Nagar", "addr:full": "76A, Krishna Vihar, Panki Road, Kalyanpur", "addr:postcode": "208017", "addr:state": "Uttar Pradesh", "amenity": "hospital", "healthcare": "hospital", "name": "Saubhagya Hospital, Kanpur Nagar", "source": "OpenGovernmentData"}, "geometry": {"type": "Point", "coordinates": [80.2473673, 26.4919941]}}, {"type": "Feature", "properties": {"osm_id": 7030526529, "osm_type": "node", "addr:district": "Kanpur Nagar", "addr:full": "C 1/15, H.I.G. World Bank Colony Barra", "addr:postcode": "208027", "addr:state": "Uttar Pradesh", "amenity": "hospital", "healthcare": "hospital", "name": "Raj Hospital, Kanpur Nagar", "source": "OpenGovernmentData"}, "geometry": {"type": "Point", "coordinates": [80.301827, 26.4294214]}}, {"type": "Feature", "properties": {"osm_id": 7030526560, "osm_type": "node", "addr:district": "Kanpur Nagar", "addr:full": "111/456, Harsh Nagar", "addr:postcode": "208012", "addr:state": "Uttar Pradesh", "amenity": "clinic", "name": "B.R. Stone Clinic", "source": "OpenGovernmentData"}, "geometry": {"type": "Point", "coordinates": [80.3235877, 26.473014]}}, {"type": "Feature", "properties": {"osm_id": 7030575129, "osm_type": "node", "addr:district": "Kanpur Nagar", "addr:full": "171/A/5, Harsh Nagar", "addr:postcode": "208002", "addr:state": "Uttar Pradesh", "amenity": "hospital", "name": "Kanika Hospital Pvt Ltd", "source": "OpenGovernmentData"}, "geometry": {"type": "Point", "coordinates": [80.3248114, 26.4757531]}}, {"type": "Feature", "properties": {"osm_id": 7030846777, "osm_type": "node", "addr:district": "Kanpur", "addr:full": "H. NO. 78 'O' Block, Keshavpuram Awas Vikas Colony, Kanpur", "addr:postcode": "208017", "addr:state": "Uttar Pradesh", "amenity": "clinic", "email": "info@prachetaclinic.com", "healthcare": "clinic", "name": "Pracheta Ayurvedic Clinic and Panchakarma Center", "operator:type": "private", "source": "OpenGovernmentData", "website": "https://www.prachetaclinic.com/"}, "geometry": {"type": "Point", "coordinates": [80.2759342, 26.4857146]}}, {"type": "Feature", "properties": {"osm_id": 7030904674, "osm_type": "node", "addr:district": "Kanpur Nagar", "addr:full": "117/N/8, Kakadeo", "addr:postcode": "208025", "addr:state": "Uttar Pradesh", "amenity": "hospital", "email": "info@kulwantihospitals.com", "healthcare": "hospital", "name": "Kulwanti Hospitals", "operator:type": "private", "source": "OpenGovernmentData", "website": "https://www.kulwantihospitals.com/"}, "geometry": {"type": "Point", "coordinates": [80.2935573, 26.4795707]}}, {"type": "Feature", "properties": {"osm_id": 7031006644, "osm_type": "node", "addr:district": "Kanpur Nagar", "addr:full": "14/5, Civil Lines, Gwaltoli, Opposite Victoria Mill", "addr:postcode": "208001", "addr:state": "Uttar Pradesh", "amenity": "clinic", "name": "Swaroops Surgical Nursing Home", "source": "OpenGovernmentData"}, "geometry": {"type": "Point", "coordinates": [80.33714, 26.4828719]}}, {"type": "Feature", "properties": {"osm_id": 7031186353, "osm_type": "node", "addr:district": "Kanpur Nagar", "addr:full": "Kalpi Road", "addr:postcode": "208020", "addr:state": "Uttar Pradesh", "amenity": "hospital", "healthcare": "hospital", "name": "Raja Ram Hospital", "source": "OpenGovernmentData"}, "geometry": {"type": "Point", "coordinates": [80.247132, 26.4599666]}}, {"type": "Feature", "properties": {"osm_id": 7031435061, "osm_type": "node", "addr:district": "Kanpur Nagar", "addr:full": "974, 14-1, Saket Nager, Near Kedwani Nagar,Thana", "addr:postcode": "208014", "addr:state": "Uttar Pradesh", "amenity": "hospital", "healthcare": "hospital", "name": "Sushila General Hospital", "source": "OpenGovernmentData"}, "geometry": {"type": "Point", "coordinates": [80.3177847, 26.4352451]}}, {"type": "Feature", "properties": {"osm_id": 7033196402, "osm_type": "node", "addr:district": "Kanpur Nagar", "addr:full": "Double Road,Hig 1/3 Barra-06", "addr:postcode": "208027", "addr:state": "Uttar Pradesh", "amenity": "hospital", "healthcare": "hospital", "name": "Satya Trauma and Maternity Center", "source": "OpenGovernmentData"}, "geometry": {"type": "Point", "coordinates": [80.2926692, 26.4392169]}}, {"type": "Feature", "properties": {"osm_id": 7033196407, "osm_type": "node", "addr:district": "Kanpur Nagar", "addr:full": "(Managed By K R V Hoapital Pvt Ltd) 120/192(105) Lajpat Nagar", "addr:postcode": "208005", "addr:state": "Uttar Pradesh", "amenity": "hospital", "healthcare": "hospital", "name": "Guru Teg Bhadur Charitable Hospital, Kanpur Nagar", "source": "OpenGovernmentData"}, "geometry": {"type": "Point", "coordinates": [80.3070136, 26.4677746]}}, {"type": "Feature", "properties": {"osm_id": 7034673913, "osm_type": "node", "addr:district": "Kanpur Nagar", "addr:full": "15/45 (AandB) Civil Lines", "addr:state": "Uttar Pradesh", "amenity": "clinic", "health_facility:type": "dispensary", "healthcare": "centre", "name": "CGHS Dispensary, Civil Lines", "operator:type": "government", "source": "OpenGovernmentData", "website": "http://nb.bsf.gov.in/CGHS%20DIspenseries.pdf"}, "geometry": {"type": "Point", "coordinates": [80.3465098, 26.4760088]}}, {"type": "Feature", "properties": {"osm_id": 7034694090, "osm_type": "node", "addr:district": "Kanpur Nagar", "addr:full": "89, Gandhi Gram", "addr:state": "Uttar Pradesh", "amenity": "clinic", "health_facility:type": "dispensary", "healthcare": "centre", "name": "CGHS Dispensary, Gandhi Gram", "operator:type": "government", "source": "OpenGovernmentData", "website": "http://nb.bsf.gov.in/CGHS%20DIspenseries.pdf"}, "geometry": {"type": "Point", "coordinates": [80.3783557, 26.4104791]}}, {"type": "Feature", "properties": {"osm_id": 7035003246, "osm_type": "node", "addr:district": "Kanpur Nagar", "addr:full": "Bajrang Chourah, Yashoda Nagar", "addr:postcode": "208011", "addr:state": "Uttar Pradesh", "amenity": "hospital", "email": "hospitalsofkabeer@gmail.com", "name": "Kabeer Hospital", "operator:type": "private", "source": "OpenGovernmentData", "website": "https://www.kabeerhospital.com/"}, "geometry": {"type": "Point", "coordinates": [80.3314365, 26.407704]}}, {"type": "Feature", "properties": {"osm_id": 7035025468, "osm_type": "node", "addr:district": "Kanpur Nagar", "addr:full": "88.593, Near Sisamau Post Office", "addr:postcode": "208001", "addr:state": "Uttar Pradesh", "amenity": "clinic", "name": "Prashant Nursing Home, Kanpur Nagar", "source": "OpenGovernmentData"}, "geometry": {"type": "Point", "coordinates": [80.3303629, 26.4689307]}}, {"type": "Feature", "properties": {"osm_id": 7035114997, "osm_type": "node", "addr:district": "Kanpur Nagar", "addr:full": "9/60, Arya Nagar", "addr:postcode": "208002", "addr:state": "Uttar Pradesh", "amenity": "hospital", "email": "chandnihospital@gmail.com", "name": "Chandni Hospital", "operator:type": "private", "source": "OpenGovernmentData", "website": "https://www.chandnihospital.com/"}, "geometry": {"type": "Point", "coordinates": [80.3224813, 26.4796845]}}, {"type": "Feature", "properties": {"osm_id": 7035164726, "osm_type": "node", "addr:district": "Kanpur Nagar", "addr:full": "Kidwai Nagar,kapur", "addr:postcode": "208011", "addr:state": "Uttar Pradesh", "amenity": "clinic", "name": "Shree Ram Nursing Home Pvt Ltd", "source": "OpenGovernmentData"}, "geometry": {"type": "Point", "coordinates": [80.328964, 26.4201982]}}, {"type": "Feature", "properties": {"osm_id": 7035329343, "osm_type": "node", "addr:district": "Kanpur Nagar", "addr:full": "D-25 & 30, Barra Bye Pass Road, Barra World Bank", "addr:postcode": "208027", "addr:state": "Uttar Pradesh", "amenity": "hospital", "healthcare": "hospital", "name": "Priya Hospital, Kanpur Nagar", "source": "OpenGovernmentData"}, "geometry": {"type": "Point", "coordinates": [80.2998844, 26.4304314]}}, {"type": "Feature", "properties": {"osm_id": 7035452782, "osm_type": "node", "addr:district": "Kanpur Nagar", "addr:full": "29-A, Garderianpurwa, Zoo Road,Vikas Nagar", "addr:postcode": "208001", "addr:state": "Uttar Pradesh", "amenity": "hospital", "healthcare": "hospital", "name": "R.P. Medical Centre", "source": "OpenGovernmentData"}, "geometry": {"type": "Point", "coordinates": [80.2880752, 26.4957485]}}, {"type": "Feature", "properties": {"osm_id": 7035491603, "osm_type": "node", "addr:district": "Kanpur Nagar", "addr:full": "88/455, Humayun Bagh", "addr:postcode": "208001", "addr:state": "Uttar Pradesh", "amenity": "hospital", "name": "Manama Hospital", "source": "OpenGovernmentData"}, "geometry": {"type": "Point", "coordinates": [80.3367707, 26.4665567]}}, {"type": "Feature", "properties": {"osm_id": 7035713912, "osm_type": "node", "addr:district": "Kanpur Nagar", "addr:full": "94-E, Panki, Near Panki Police Station", "addr:postcode": "208020", "addr:state": "Uttar Pradesh", "amenity": "hospital", "email": "mail@bmchospital.in", "healthcare": "hospital", "name": "Brij Medical Centre", "operator:type": "private", "source": "OpenGovernmentData", "website": "https://bmchospital.in/"}, "geometry": {"type": "Point", "coordinates": [80.2436337, 26.4633734]}}, {"type": "Feature", "properties": {"osm_id": 7036094644, "osm_type": "node", "addr:district": "Kanpur Nagar", "addr:full": "S-123, Yashoda Nagar", "addr:postcode": "208011", "addr:state": "Uttar Pradesh", "amenity": "clinic", "name": "Annapurna Nursing Home", "source": "OpenGovernmentData"}, "geometry": {"type": "Point", "coordinates": [80.3285672, 26.4095507]}}, {"type": "Feature", "properties": {"osm_id": 7037362571, "osm_type": "node", "addr:district": "Kanpur Nagar", "addr:full": "National Highway 91, Swaroop Nagar", "addr:postcode": "208002", "addr:state": "Uttar Pradesh", "amenity": "hospital", "healthcare": "hospital", "name": "G.S.V.M. Medical College", "source": "OpenGovernmentData;local knowledge"}, "geometry": {"type": "Point", "coordinates": [80.3075287, 26.4810191]}}, {"type": "Feature", "properties": {"osm_id": 7037707478, "osm_type": "node", "addr:district": "Kanpur Nagar", "addr:full": "117/52, Sarvodaya Nagar,Near Bhoot Nath Mandhir", "addr:postcode": "208005", "addr:state": "Uttar Pradesh", "amenity": "clinic", "healthcare": "clinic", "name": "Dr. Jawaharlal Rohatgi Smarak Netra Chikitsalaya", "source": "OpenGovernmentData"}, "geometry": {"type": "Point", "coordinates": [80.303913, 26.4478043]}}, {"type": "Feature", "properties": {"osm_id": 7037751998, "osm_type": "node", "addr:district": "Kanpur Nagar", "addr:full": "OppositeThana Chakeri, Lal Bangla", "addr:postcode": "208007", "addr:state": "Uttar Pradesh", "amenity": "clinic", "email": "info@saralnursinghome.com", "name": "Saral Nursing Home", "operator:type": "private", "source": "OpenGovernmentData", "website": "www.saralnursinghome.com"}, "geometry": {"type": "Point", "coordinates": [80.3882737, 26.4230462]}}, {"type": "Feature", "properties": {"osm_id": 7037994532, "osm_type": "node", "addr:district": "Kanpur Nagar", "addr:full": "113/58 B, Swaroop Nagar", "addr:postcode": "208002", "addr:state": "Uttar Pradesh", "amenity": "hospital", "name": "Dr Lalchandani E N T and Laser Center", "source": "OpenGovernmentData"}, "geometry": {"type": "Point", "coordinates": [80.314271, 26.4795045]}}, {"type": "Feature", "properties": {"osm_id": 7038310632, "osm_type": "node", "addr:district": "Kanpur Nagar", "addr:full": "110/31, R.K.Nagar", "addr:state": "Uttar Pradesh", "amenity": "clinic", "health_facility:type": "dispensary", "healthcare": "centre", "name": "CGHS Dispensary, R.K.Nagar", "operator:type": "government", "source": "OpenGovernmentData", "website": "http://nb.bsf.gov.in/CGHS%20DIspenseries.pdf"}, "geometry": {"type": "Point", "coordinates": [80.3196408, 26.4706637]}}, {"type": "Feature", "properties": {"osm_id": 7038714304, "osm_type": "node", "addr:district": "Kanpur Nagar", "addr:full": "14/138, Chunni Ganj", "addr:postcode": "208020", "addr:state": "Uttar Pradesh", "amenity": "hospital", "email": "contact@excelhospitals.in", "name": "Excel Hospital", "operator:type": "private", "source": "OpenGovernmentData", "website": "www.excelhospitals.in"}, "geometry": {"type": "Point", "coordinates": [80.3372837, 26.4805512]}}, {"type": "Feature", "properties": {"osm_id": 7039962697, "osm_type": "node", "addr:district": "Kanpur Nagar", "addr:full": "117/P-1/1040, 120 Feet Road, Near Namak Factory Xing, Kakadeo", "addr:postcode": "208025", "addr:state": "Uttar Pradesh", "amenity": "hospital", "healthcare": "hospital", "name": "Apex Hospital and Research Centre", "source": "OpenGovernmentData"}, "geometry": {"type": "Point", "coordinates": [80.2497008, 26.4840275]}}, {"type": "Feature", "properties": {"osm_id": 7039962989, "osm_type": "node", "addr:district": "Kanpur Nagar", "addr:full": "113/57, Mall Rd, Next to Allahabad Bank, Opposite Motijheel, Swaroop Nagar", "addr:postcode": "208002", "addr:state": "Uttar Pradesh", "amenity": "hospital", "name": "Eye-Q Super Speciality Eye Hospitals", "operator:type": "private", "source": "OpenGovernmentData", "website": "https://eyeqindia.com/"}, "geometry": {"type": "Point", "coordinates": [80.3140309, 26.4792296]}}, {"type": "Feature", "properties": {"osm_id": 7184011469, "osm_type": "node", "addr:district": "Kanpur Nagar", "addr:full": "NEAR CMO OFFICE, G T ROAD, G.T. ROAD, KASHIRAM HOSPITAL", "addr:postcode": "208007", "addr:state": "Uttar Pradesh", "addr:subdistrict": "Kanpur", "amenity": "hospital", "description": "District Hospital", "name": "MANYAWAR KASHIRAM HOSPITAL", "source": "OpenGovernmentData"}, "geometry": {"type": "Point", "coordinates": [80.3815126, 26.4144909]}}, {"type": "Feature", "properties": {"osm_id": 7184837507, "osm_type": "node", "addr:district": "Kanpur Nagar", "addr:full": "Smt. Balwant kaur Anand State Elopatic Hospitals and UHPC Harjandra Nagar Kanpur 208007, Smt. Balwant kaur Anand State Elopatic Hospitals and UHPC Harjandra Nagar Kanpur", "addr:postcode": "208007", "addr:state": "Uttar Pradesh", "addr:subdistrict": "Kanpur", "amenity": "hospital", "name": "Government hospital", "source": "OpenGovernmentData"}, "geometry": {"type": "Point", "coordinates": [80.3920779, 26.4213129]}}, {"type": "Feature", "properties": {"osm_id": 7187945518, "osm_type": "node", "addr:district": "Kanpur Nagar", "addr:full": "OPP. HOTEL LANDMARK, BADA CHURAHA, UHM HOSPITAL", "addr:postcode": "208001", "addr:state": "Uttar Pradesh", "addr:subdistrict": "Kanpur", "amenity": "hospital", "description": "District Hospital", "name": "UHM MALE HOSPITAL", "source": "OpenGovernmentData"}, "geometry": {"type": "Point", "coordinates": [80.3489359, 26.4727543]}}, {"type": "Feature", "properties": {"osm_id": 7506643185, "osm_type": "node", "addr:district": "Kanpur", "addr:full": "Barra 2, Barra World Bank, Barra, Kanpur", "addr:postcode": "208027", "addr:state": "Uttar Pradesh", "amenity": "hospital", "healthcare": "hospital", "name": "Ganesh Hospital", "source": "Local Knowledge"}, "geometry": {"type": "Point", "coordinates": [80.3015697, 26.4348052]}}, {"type": "Feature", "properties": {"osm_id": 7506643186, "osm_type": "node", "addr:district": "Kanpur", "addr:full": "Subham Complex, Main Road, Jarauli Phase 1, Karrahi, Damodar Nagar, Kanpur", "addr:postcode": "208027", "addr:state": "Uttar Pradesh", "amenity": "hospital", "healthcare": "hospital", "name": "Ram Hospital", "source": "Local Knowledge"}, "geometry": {"type": "Point", "coordinates": [80.2969922, 26.41613]}}, {"type": "Feature", "properties": {"osm_id": 7506643187, "osm_type": "node", "addr:district": "Kanpur", "addr:full": "Vasant Vihar, Naubasta, Kanpur", "addr:postcode": "208011", "addr:state": "Uttar Pradesh", "amenity": "hospital", "healthcare": "hospital", "name": "Dhanvantri Hospital", "source": "Local Knowledge"}, "geometry": {"type": "Point", "coordinates": [80.3180405, 26.4211347]}}, {"type": "Feature", "properties": {"osm_id": 7506643188, "osm_type": "node", "addr:district": "Kanpur", "addr:full": "Jvs Tower, Kalyanpur, Kanpur", "addr:postcode": "208017", "addr:state": "Uttar Pradesh", "amenity": "hospital", "healthcare": "hospital", "name": "Galaxy Hospital", "source": "Local Knowledge"}, "geometry": {"type": "Point", "coordinates": [80.2459457, 26.4809198]}}, {"type": "Feature", "properties": {"osm_id": 7506643189, "osm_type": "node", "addr:district": "Kanpur", "addr:full": "Aadarsh Street, Keshavpuram, Kalyanpur, Kanpur", "addr:postcode": "208017", "addr:state": "Uttar Pradesh", "amenity": "hospital", "healthcare": "hospital", "name": "Narayan Hospital", "source": "Local Knowledge"}, "geometry": {"type": "Point", "coordinates": [80.2535283, 26.4965306]}}, {"type": "Feature", "properties": {"osm_id": 7506643190, "osm_type": "node", "addr:district": "Kanpur", "addr:full": "High Income Group, Ratan Lal Nagar, Kanpur", "addr:postcode": "208022", "addr:state": "Uttar Pradesh", "amenity": "hospital", "healthcare": "hospital", "name": "Reenadeep Woman & Child Care Centre", "source": "Local Knowledge"}, "geometry": {"type": "Point", "coordinates": [80.292013, 26.446065]}}, {"type": "Feature", "properties": {"osm_id": 7506643191, "osm_type": "node", "addr:district": "Kanpur", "addr:full": "Govind Nagar Road, N Block, B Block, Govind Nagar, Kanpur", "addr:postcode": "208006", "addr:state": "Uttar Pradesh", "amenity": "hospital", "healthcare": "hospital", "name": "Sai Eye Hospital, Govind Nagar", "source": "Local Knowledge"}, "geometry": {"type": "Point", "coordinates": [80.3068255, 26.4520246]}}, {"type": "Feature", "properties": {"osm_id": 7506643192, "osm_type": "node", "addr:district": "Kanpur", "addr:full": "Y Block, Kidwai Nagar, Kanpur", "addr:postcode": "208011", "addr:state": "Uttar Pradesh", "amenity": "hospital", "healthcare": "hospital", "name": "Royal Children's Hospital", "source": "Local Knowledge"}, "geometry": {"type": "Point", "coordinates": [80.3201424, 26.4235699]}}, {"type": "Feature", "properties": {"osm_id": 7506643193, "osm_type": "node", "addr:district": "Kanpur", "addr:full": "Sarvodaya Nagar, Near Rto Office, Adjacent To Baba Bhootnath Ashram, Kanpur", "addr:postcode": "208005", "addr:state": "Uttar Pradesh", "amenity": "hospital", "healthcare": "hospital", "name": "Mahendru Hospital", "source": "Local Knowledge"}, "geometry": {"type": "Point", "coordinates": [80.304545, 26.4789036]}}, {"type": "Feature", "properties": {"osm_id": 7506643194, "osm_type": "node", "addr:district": "Kanpur", "addr:full": "Kailash Vihar, Kalyanpur, Kanpur", "addr:postcode": "208017", "addr:state": "Uttar Pradesh", "amenity": "hospital", "healthcare": "hospital", "name": "Abhinav Nursing Home Hospital", "source": "Local Knowledge"}, "geometry": {"type": "Point", "coordinates": [80.2508829, 26.4908616]}}, {"type": "Feature", "properties": {"osm_id": 7506643195, "osm_type": "node", "addr:district": "Kanpur", "addr:full": "Shastri Nagar, Post Office Road, Chain Factory Chauraha, Kanpur", "addr:postcode": "208005", "addr:state": "Uttar Pradesh", "amenity": "hospital", "healthcare": "hospital", "name": "Asg Eye Hospital", "source": "Local Knowledge"}, "geometry": {"type": "Point", "coordinates": [80.3024695, 26.4643404]}}, {"type": "Feature", "properties": {"osm_id": 7506643196, "osm_type": "node", "addr:district": "Kanpur", "addr:full": "Vishwa Bank Colony, Barra World Bank, Barra, Kanpur", "addr:postcode": "208027", "addr:state": "Uttar Pradesh", "amenity": "hospital", "healthcare": "hospital", "name": "Chandra Hospital", "source": "Local Knowledge"}, "geometry": {"type": "Point", "coordinates": [80.3021013, 26.4292042]}}, {"type": "Feature", "properties": {"osm_id": 7506643197, "osm_type": "node", "addr:district": "Kanpur", "addr:full": "Panki Thana Road, Near Sbi, Shahpur, Panki, Kanpur", "addr:postcode": "208020", "addr:state": "Uttar Pradesh", "amenity": "hospital", "healthcare": "hospital", "name": "Arogya Hospital", "source": "Local Knowledge"}, "geometry": {"type": "Point", "coordinates": [80.2487713, 26.467618]}}, {"type": "Feature", "properties": {"osm_id": 7506643198, "osm_type": "node", "addr:district": "Kanpur", "addr:full": "Panki Road, Awas Vikas Ambedkar Puram, Kharanja, Kalyanpur, Kanpur", "addr:postcode": "208017", "addr:state": "Uttar Pradesh", "amenity": "hospital", "healthcare": "hospital", "name": "Tirupati Hospital", "source": "Local Knowledge"}, "geometry": {"type": "Point", "coordinates": [80.246573, 26.490033]}}, {"type": "Feature", "properties": {"osm_id": 7506643199, "osm_type": "node", "addr:district": "Kanpur", "addr:full": "Barra Main Road, Barra World Bank, Barra, Kanpur", "addr:postcode": "208027", "addr:state": "Uttar Pradesh", "amenity": "hospital", "name": "Drishti Hospital", "source": "Local Knowledge"}, "geometry": {"type": "Point", "coordinates": [80.3039944, 26.4363234]}}, {"type": "Feature", "properties": {"osm_id": 7506643200, "osm_type": "node", "addr:district": "Kanpur", "addr:full": "Barra World Bank, Barra, Kanpur", "addr:postcode": "208027", "addr:state": "Uttar Pradesh", "amenity": "hospital", "emergency": "yes", "healthcare": "hospital", "name": "Kabira Hospital", "source": "Local Knowledge;local knowledge"}, "geometry": {"type": "Point", "coordinates": [80.2977356, 26.4420488]}}, {"type": "Feature", "properties": {"osm_id": 7506643201, "osm_type": "node", "addr:district": "Kanpur", "addr:full": "Neemeshwar Mahamandir Society, Barra World Bank, Barra, Kanpur", "addr:postcode": "208027", "addr:state": "Uttar Pradesh", "amenity": "hospital", "healthcare": "hospital", "name": "Shraddha Hospital", "source": "Local Knowledge"}, "geometry": {"type": "Point", "coordinates": [80.2931634, 26.4412092]}}, {"type": "Feature", "properties": {"osm_id": 7506643202, "osm_type": "node", "addr:district": "Kanpur", "addr:full": "Machhariya Road, Macharia, Naubasta, Kanpur", "addr:postcode": "208011", "addr:state": "Uttar Pradesh", "amenity": "hospital", "name": "Raunak Hospital", "source": "Local Knowledge"}, "geometry": {"type": "Point", "coordinates": [80.3226006, 26.4082916]}}, {"type": "Feature", "properties": {"osm_id": 7506643203, "osm_type": "node", "addr:district": "Kanpur", "addr:full": "Kidwai Nagar, Kanpur", "addr:postcode": "208011", "addr:state": "Uttar Pradesh", "amenity": "hospital", "healthcare": "hospital", "name": "ESI Hospital, Kanpur", "operator": "Employees' State Insurance", "operator:short": "ESI", "operator:type": "public", "operator:wikidata": "Q3595726", "source": "Local Knowledge"}, "geometry": {"type": "Point", "coordinates": [80.3263608, 26.425111]}}, {"type": "Feature", "properties": {"osm_id": 7506643204, "osm_type": "node", "addr:district": "Kanpur", "addr:full": "Karrahi Road, Karrhi, Barra World Bank, Damodar Nagar, Kanpur", "addr:postcode": "208027", "addr:state": "Uttar Pradesh", "amenity": "hospital", "healthcare": "hospital", "name": "Mandakini Hospital", "source": "Local Knowledge"}, "geometry": {"type": "Point", "coordinates": [80.302848, 26.4226298]}}, {"type": "Feature", "properties": {"osm_id": 7506643205, "osm_type": "node", "addr:district": "Kanpur", "addr:full": "Kalyanpur - Vijay Nagar Road, Navin Nagar, Kakadeo, Kanpur", "addr:postcode": "208005", "addr:state": "Uttar Pradesh", "amenity": "hospital", "healthcare": "hospital", "name": "Swaraj Hospital", "source": "Local Knowledge"}, "geometry": {"type": "Point", "coordinates": [80.2868425, 26.4762302]}}, {"type": "Feature", "properties": {"osm_id": 7506643206, "osm_type": "node", "addr:district": "Kanpur", "addr:full": "Hamirpur Road, K Block, Kidwai Nagar, Kanpur", "addr:postcode": "208014", "addr:state": "Uttar Pradesh", "amenity": "hospital", "healthcare": "hospital", "name": "Amogh Hospital", "source": "Local Knowledge"}, "geometry": {"type": "Point", "coordinates": [80.3208681, 26.428073]}}, {"type": "Feature", "properties": {"osm_id": 7506643207, "osm_type": "node", "addr:district": "Kanpur", "addr:full": "Barra-II Main Road, Barra World Bank, Barra, Kanpur", "addr:postcode": "208027", "addr:state": "Uttar Pradesh", "amenity": "hospital", "name": "Aashvi Hospital", "source": "Local Knowledge"}, "geometry": {"type": "Point", "coordinates": [80.29936, 26.4407734]}}, {"type": "Feature", "properties": {"osm_id": 7506643208, "osm_type": "node", "addr:district": "Kanpur", "addr:full": "Subji Mandi Road, Barra 2, Near Barra World Bank, Kanpur", "addr:postcode": "208027", "addr:state": "Uttar Pradesh", "amenity": "hospital", "healthcare": "hospital", "name": "Jeewan Jyoti Hospital", "source": "Local Knowledge"}, "geometry": {"type": "Point", "coordinates": [80.3016336, 26.4341246]}}, {"type": "Feature", "properties": {"osm_id": 7506643209, "osm_type": "node", "addr:district": "Kanpur", "addr:full": "Panki, Kanpur", "addr:postcode": "208017", "addr:state": "Uttar Pradesh", "amenity": "hospital", "healthcare": "hospital", "name": "Samarpan Hospital", "source": "Local Knowledge"}, "geometry": {"type": "Point", "coordinates": [80.244155, 26.4779926]}}, {"type": "Feature", "properties": {"osm_id": 7506643210, "osm_type": "node", "addr:district": "Kanpur", "addr:full": "Panki Road, Awas Vikas Ambedkar Puram, Kalyanpur, Kanpur", "addr:postcode": "208017", "addr:state": "Uttar Pradesh", "amenity": "hospital", "healthcare": "hospital", "name": "Apex Hospital", "source": "Local Knowledge"}, "geometry": {"type": "Point", "coordinates": [80.2508067, 26.4844728]}}, {"type": "Feature", "properties": {"osm_id": 7506643212, "osm_type": "node", "addr:district": "Kanpur", "addr:full": "Kalyanpur, Kanpur", "addr:postcode": "208017", "addr:state": "Uttar Pradesh", "amenity": "hospital", "healthcare": "hospital", "name": "H2O Life Care Hospital", "source": "Local Knowledge"}, "geometry": {"type": "Point", "coordinates": [80.2446146, 26.4840826]}}, {"type": "Feature", "properties": {"osm_id": 7506643213, "osm_type": "node", "addr:district": "Kanpur", "addr:full": "Water Park Road Awas Vikasnaubasta, Hanspuram, Naubasta, Kanpur", "addr:postcode": "208021", "addr:state": "Uttar Pradesh", "amenity": "hospital", "healthcare": "hospital", "name": "Jagrati Hospital", "source": "Local Knowledge"}, "geometry": {"type": "Point", "coordinates": [80.323418, 26.396746]}}, {"type": "Feature", "properties": {"osm_id": 7506643214, "osm_type": "node", "addr:district": "Kanpur", "addr:full": "New Shivli Road, Gautam Vihar, Kalyanpur, Kanpur", "addr:postcode": "208017", "addr:state": "Uttar Pradesh", "amenity": "hospital", "healthcare": "hospital", "name": "Kanha Hospital", "source": "Local Knowledge"}, "geometry": {"type": "Point", "coordinates": [80.2436952, 26.496557]}}, {"type": "Feature", "properties": {"osm_id": 7506643215, "osm_type": "node", "addr:district": "Kanpur", "addr:full": "Dr.Ram Manohar Lohia Pg College Campus, Kalyanpur, Kanpur", "addr:postcode": "208006", "addr:state": "Uttar Pradesh", "amenity": "hospital", "name": "Bmg Hospital", "source": "Local Knowledge"}, "geometry": {"type": "Point", "coordinates": [80.3108157, 26.4395556]}}, {"type": "Feature", "properties": {"osm_id": 7506643216, "osm_type": "node", "addr:district": "Kanpur", "addr:full": "Near Kargil Fuel Pump, Kanpur - Jhansi Highway, Barra 8, Barra, Kanpur", "addr:postcode": "208027", "addr:state": "Uttar Pradesh", "amenity": "hospital", "healthcare": "hospital", "name": "Shri Jairam Hospital & Trauma Centre", "source": "Local Knowledge"}, "geometry": {"type": "Point", "coordinates": [80.2874106, 26.4354633]}}, {"type": "Feature", "properties": {"osm_id": 7506643217, "osm_type": "node", "addr:district": "Kanpur", "addr:full": "Swaroop Nagar, Opposite Motijheel, Kanpur", "addr:postcode": "208002", "addr:state": "Uttar Pradesh", "amenity": "hospital", "name": "Regency Renal Sciences Centre", "source": "Local Knowledge"}, "geometry": {"type": "Point", "coordinates": [80.3160697, 26.4793556]}}, {"type": "Feature", "properties": {"osm_id": 7506643218, "osm_type": "node", "addr:district": "Kanpur", "addr:full": "Keshav Puram Bagia Crossing, Indira Nagar Road, Awas Vikas, Kalyanpur, Kanpur", "addr:postcode": "208017", "addr:state": "Uttar Pradesh", "amenity": "hospital", "healthcare": "hospital", "name": "Maa Jwala Hospital and Trauma Centre", "source": "Local Knowledge"}, "geometry": {"type": "Point", "coordinates": [80.2547548, 26.4947458]}}, {"type": "Feature", "properties": {"osm_id": 7506643219, "osm_type": "node", "addr:district": "Kanpur", "addr:full": "Keshavpuram, Kailash Vihar, Kalyanpur, Kanpur", "addr:postcode": "208017", "addr:state": "Uttar Pradesh", "amenity": "hospital", "healthcare": "hospital", "name": "Ansh Hospital", "source": "Local Knowledge"}, "geometry": {"type": "Point", "coordinates": [80.2527644, 26.4927666]}}, {"type": "Feature", "properties": {"osm_id": 7506643220, "osm_type": "node", "addr:district": "Kanpur", "addr:full": "Panki Road, Awas Vikas, Kharanja, Kalyanpur, Kanpur", "addr:postcode": "208017", "addr:state": "Uttar Pradesh", "amenity": "hospital", "healthcare": "hospital", "name": "Shiv Hospital", "source": "Local Knowledge"}, "geometry": {"type": "Point", "coordinates": [80.2490212, 26.4939082]}}, {"type": "Feature", "properties": {"osm_id": 7506643221, "osm_type": "node", "addr:district": "Kanpur", "addr:full": "Awas Vikas Ambedkar Puram, Kalyanpur, Kanpur", "addr:postcode": "208017", "addr:state": "Uttar Pradesh", "amenity": "hospital", "healthcare": "hospital", "name": "Sis Hospital", "source": "Local Knowledge"}, "geometry": {"type": "Point", "coordinates": [80.2562763, 26.4848634]}}, {"type": "Feature", "properties": {"osm_id": 7506643222, "osm_type": "node", "addr:district": "Kanpur", "addr:full": "New Shivali Road, Near Mahila Hotel, Kalyanpur, Kanpur", "addr:postcode": "208017", "addr:state": "Uttar Pradesh", "amenity": "hospital", "healthcare": "hospital", "name": "Shaurya Hospital", "source": "Local Knowledge"}, "geometry": {"type": "Point", "coordinates": [80.2405193, 26.4980692]}}, {"type": "Feature", "properties": {"osm_id": 7506643223, "osm_type": "node", "addr:district": "Kanpur", "addr:full": "Armapur Estate, Kanpur", "addr:postcode": "208022", "addr:state": "Uttar Pradesh", "amenity": "hospital", "healthcare": "hospital", "name": "Ofc Hospital Armapur", "source": "Local Knowledge"}, "geometry": {"type": "Point", "coordinates": [80.2619627, 26.4655444]}}, {"type": "Feature", "properties": {"osm_id": 7506643224, "osm_type": "node", "addr:district": "Kanpur", "addr:full": "Gujaini Bypass Road, Ambedkar Nagar, Gujaini, Kanpur", "addr:postcode": "208022", "addr:state": "Uttar Pradesh", "amenity": "hospital", "healthcare": "hospital", "name": "Maa Vindhyeshwari Hospital", "source": "Local Knowledge"}, "geometry": {"type": "Point", "coordinates": [80.2714112, 26.4380686]}}, {"type": "Feature", "properties": {"osm_id": 7506643225, "osm_type": "node", "addr:district": "Kanpur", "addr:full": "Panki Road, Panki, Kanpur", "addr:postcode": "208020", "addr:state": "Uttar Pradesh", "amenity": "hospital", "healthcare": "hospital", "name": "Merigold Hospital", "source": "Local Knowledge"}, "geometry": {"type": "Point", "coordinates": [80.242583, 26.471595]}}, {"type": "Feature", "properties": {"osm_id": 7506643226, "osm_type": "node", "addr:district": "Kanpur", "addr:full": "Keshavpuram, Kalyanpur, Kanpur", "addr:postcode": "208017", "addr:state": "Uttar Pradesh", "amenity": "hospital", "healthcare": "hospital", "name": "Krishna Hospital", "source": "Local Knowledge"}, "geometry": {"type": "Point", "coordinates": [80.2529902, 26.4966226]}}, {"type": "Feature", "properties": {"osm_id": 7506643227, "osm_type": "node", "addr:district": "Kanpur", "addr:full": "Laxmi Ratan Colony, Lajpat Nagar, Shastri Nagar, Kanpur", "addr:postcode": "208005", "addr:state": "Uttar Pradesh", "amenity": "hospital", "healthcare": "hospital", "name": "Guru Nanak Hospital", "name:etymology:wikidata": "Q83322", "source": "Local Knowledge"}, "geometry": {"type": "Point", "coordinates": [80.3065835, 26.4668348]}}, {"type": "Feature", "properties": {"osm_id": 7506643228, "osm_type": "node", "addr:district": "Kanpur", "addr:full": "Barra Bypass Road, Parag Milk Dairy, Juhi Kalan, Saket Nagar, Kanpur", "addr:postcode": "208014", "addr:state": "Uttar Pradesh", "amenity": "hospital", "healthcare": "hospital", "name": "Ppm Hospital", "source": "Local Knowledge"}, "geometry": {"type": "Point", "coordinates": [80.3089165, 26.435452]}}, {"type": "Feature", "properties": {"osm_id": 7506643229, "osm_type": "node", "addr:district": "Kanpur", "addr:full": "Kidwainagar Road, Babu Purva Colony, Kidwai Nagar, Kanpur", "addr:postcode": "208011", "addr:state": "Uttar Pradesh", "amenity": "hospital", "name": "New Angel Hospital & Research Centre", "source": "Local Knowledge"}, "geometry": {"type": "Point", "coordinates": [80.3350672, 26.4271922]}}, {"type": "Feature", "properties": {"osm_id": 7506643230, "osm_type": "node", "addr:district": "Kanpur", "addr:full": "L-Block, Kakadeo Between Neercheer Chauraha & Double Pulia, Kanpur", "addr:postcode": "208005", "addr:state": "Uttar Pradesh", "amenity": "hospital", "healthcare": "hospital", "name": "The Panacea Hospital, Kanpur", "source": "Local Knowledge"}, "geometry": {"type": "Point", "coordinates": [80.293236, 26.473978]}}, {"type": "Feature", "properties": {"osm_id": 7506643231, "osm_type": "node", "addr:district": "Kanpur", "addr:full": "Govind Nagar, Kanpur", "addr:postcode": "208006", "addr:state": "Uttar Pradesh", "amenity": "hospital", "healthcare": "hospital", "name": "Sagh Hospital", "source": "Local Knowledge"}, "geometry": {"type": "Point", "coordinates": [80.3063278, 26.4506626]}}, {"type": "Feature", "properties": {"osm_id": 7506643232, "osm_type": "node", "addr:district": "Kanpur", "addr:full": "Ghari Purva, Kidwai Nagar, Kanpur", "addr:postcode": "208011", "addr:state": "Uttar Pradesh", "amenity": "hospital", "healthcare": "hospital", "name": "Anuradha Hospital", "source": "Local Knowledge"}, "geometry": {"type": "Point", "coordinates": [80.319435, 26.4151589]}}, {"type": "Feature", "properties": {"osm_id": 7506643233, "osm_type": "node", "addr:district": "Kanpur", "addr:full": "Opposite Chamber Of Commerce, Green Park Civil Lines, Green Park, Permat, Kanpur", "addr:postcode": "208001", "addr:state": "Uttar Pradesh", "amenity": "hospital", "name": "McRobert Memorial Hospital", "source": "Local Knowledge"}, "geometry": {"type": "Point", "coordinates": [80.3436045, 26.4811998]}}, {"type": "Feature", "properties": {"osm_id": 7506643234, "osm_type": "node", "addr:district": "Kanpur", "addr:full": "Govind Nagar Road, Nand Lal Chauraha, Govind Nagar, Kanpur", "addr:postcode": "208006", "addr:state": "Uttar Pradesh", "amenity": "hospital", "healthcare": "hospital", "name": "Regency Hospital", "source": "Local Knowledge"}, "geometry": {"type": "Point", "coordinates": [80.3090486, 26.4486148]}}, {"type": "Feature", "properties": {"osm_id": 7506643235, "osm_type": "node", "addr:district": "Kanpur", "addr:full": "Varun Vihar Road,Rooma Road, F Block, Hal Market, Barra, Kanpur", "addr:postcode": "208007", "addr:state": "Uttar Pradesh", "amenity": "hospital", "healthcare": "hospital", "name": "Ma Hospital", "source": "Local Knowledge"}, "geometry": {"type": "Point", "coordinates": [80.2898738, 26.4298594]}}, {"type": "Feature", "properties": {"osm_id": 7506643236, "osm_type": "node", "addr:district": "Kanpur", "addr:full": "Rawatpur, Near Gol Chauraha, Sarvodaya Nagar, Kanpur", "addr:postcode": "208002", "addr:state": "Uttar Pradesh", "amenity": "hospital", "healthcare": "hospital", "name": "Dr. Murari Lal Chest Hospital", "source": "Local Knowledge"}, "geometry": {"type": "Point", "coordinates": [80.30321, 26.4820398]}}, {"type": "Feature", "properties": {"osm_id": 7506643237, "osm_type": "node", "addr:district": "Kanpur", "addr:full": "Ambedkar Nagar, Gujaini Gaon, Ravidas Puram, Kanpur", "addr:postcode": "208022", "addr:state": "Uttar Pradesh", "amenity": "hospital", "healthcare": "hospital", "name": "Nostrum Hospital", "source": "Local Knowledge"}, "geometry": {"type": "Point", "coordinates": [80.2730833, 26.436185]}}, {"type": "Feature", "properties": {"osm_id": 7506643238, "osm_type": "node", "addr:district": "Kanpur", "addr:full": "Shastri Nagar, Barra World Bank, Barra, Kanpur", "addr:postcode": "208027", "addr:state": "Uttar Pradesh", "amenity": "hospital", "healthcare": "hospital", "name": "SPM Hospital", "source": "Local Knowledge"}, "geometry": {"type": "Point", "coordinates": [80.303751, 26.424901]}}, {"type": "Feature", "properties": {"osm_id": 7506643239, "osm_type": "node", "addr:district": "Kanpur", "addr:full": "Ranjeet Nagar, Shastri Nagar, Kanpur", "addr:postcode": "208005", "addr:state": "Uttar Pradesh", "amenity": "hospital", "healthcare": "hospital", "name": "ESI Hospital", "operator": "Employees' State Insurance", "operator:short": "ESI", "operator:type": "public", "operator:wikidata": "Q3595726", "source": "Local Knowledge"}, "geometry": {"type": "Point", "coordinates": [80.3060965, 26.4647984]}}, {"type": "Feature", "properties": {"osm_id": 7506643240, "osm_type": "node", "addr:district": "Kanpur", "addr:full": "Karrahi Main Road ,Kanpur", "addr:postcode": "208027", "addr:state": "Uttar Pradesh", "amenity": "hospital", "healthcare": "hospital", "name": "South City Hospital & Trauma Centre", "source": "Local Knowledge"}, "geometry": {"type": "Point", "coordinates": [80.2988164, 26.413303]}}, {"type": "Feature", "properties": {"osm_id": 7506643241, "osm_type": "node", "addr:district": "Kanpur", "addr:full": "Awas Vikas Road, Hanspuram, Naubasta, Kanpur", "addr:postcode": "208023", "addr:state": "Uttar Pradesh", "amenity": "hospital", "name": "Shifa Hospital", "source": "Local Knowledge"}, "geometry": {"type": "Point", "coordinates": [80.3286391, 26.3970138]}}, {"type": "Feature", "properties": {"osm_id": 7506643242, "osm_type": "node", "addr:district": "Kanpur", "addr:full": "Keshavpuram, Kalyanpur, Kanpur", "addr:postcode": "208017", "addr:state": "Uttar Pradesh", "amenity": "hospital", "healthcare": "hospital", "name": "Vatsalya Hospital", "source": "Local Knowledge"}, "geometry": {"type": "Point", "coordinates": [80.2521237, 26.4960542]}}, {"type": "Feature", "properties": {"osm_id": 7506643243, "osm_type": "node", "addr:district": "Kanpur", "addr:full": "Hanspuram, Naubasta, Kanpur", "addr:postcode": "208021", "addr:state": "Uttar Pradesh", "amenity": "hospital", "healthcare": "hospital", "name": "Ramraj Hospital and Trauma Centre", "source": "Local Knowledge"}, "geometry": {"type": "Point", "coordinates": [80.3171224, 26.3929574]}}, {"type": "Feature", "properties": {"osm_id": 7506643244, "osm_type": "node", "addr:district": "Kanpur", "addr:full": "Yadav Market, Near Gujaini Police Chowki, Ratan Lal Nagar, Gujaini, Kanpur", "addr:postcode": "208027", "addr:state": "Uttar Pradesh", "amenity": "hospital", "healthcare": "hospital", "name": "Indian Hospital", "source": "Local Knowledge"}, "geometry": {"type": "Point", "coordinates": [80.2812601, 26.4405956]}}, {"type": "Feature", "properties": {"osm_id": 7506643246, "osm_type": "node", "addr:district": "Kanpur", "addr:full": "Green Park, Civil Lines, Kanpur", "addr:postcode": "208001", "addr:state": "Uttar Pradesh", "amenity": "hospital", "name": "Amba Hospital", "source": "Local Knowledge"}, "geometry": {"type": "Point", "coordinates": [80.3486214, 26.4782262]}}, {"type": "Feature", "properties": {"osm_id": 7506643247, "osm_type": "node", "addr:district": "Kanpur", "addr:full": "Juhi Kalan, Saket Nagar, Kanpur", "addr:postcode": "208014", "addr:state": "Uttar Pradesh", "amenity": "hospital", "healthcare": "hospital", "name": "Angel Hospital", "source": "Local Knowledge"}, "geometry": {"type": "Point", "coordinates": [80.3145196, 26.4334214]}}, {"type": "Feature", "properties": {"osm_id": 7506643248, "osm_type": "node", "addr:district": "Kanpur", "addr:full": "Singhbihar Road, Naubasta, Kanpur", "addr:postcode": "208021", "addr:state": "Uttar Pradesh", "amenity": "hospital", "name": "Mannat Hospital", "source": "Local Knowledge"}, "geometry": {"type": "Point", "coordinates": [80.3095276, 26.3881898]}}, {"type": "Feature", "properties": {"osm_id": 7506643249, "osm_type": "node", "addr:district": "Kanpur", "addr:full": "Barra Main Road, Sabji Mandi, Bypass Chauraha, Barra World Bank, Barra, Kanpur", "addr:postcode": "208027", "addr:state": "Uttar Pradesh", "amenity": "hospital", "healthcare": "hospital", "name": "Mansrovar Medical Centre Hospital", "source": "Local Knowledge"}, "geometry": {"type": "Point", "coordinates": [80.3027312, 26.4345552]}}, {"type": "Feature", "properties": {"osm_id": 7506643250, "osm_type": "node", "addr:district": "Kanpur", "addr:full": "Hig, Barra World Bank, Barra, Kanpur", "addr:postcode": "208027", "addr:state": "Uttar Pradesh", "amenity": "hospital", "healthcare": "hospital", "name": "Khushi Hospital", "source": "Local Knowledge"}, "geometry": {"type": "Point", "coordinates": [80.297997, 26.432604]}}, {"type": "Feature", "properties": {"osm_id": 7506643251, "osm_type": "node", "addr:district": "Kanpur", "addr:full": "Kidwai Nagar, Kanpur", "addr:postcode": "208011", "addr:state": "Uttar Pradesh", "amenity": "hospital", "name": "Emerald Hospital", "source": "Local Knowledge"}, "geometry": {"type": "Point", "coordinates": [80.3300111, 26.4294583]}}, {"type": "Feature", "properties": {"osm_id": 7506643252, "osm_type": "node", "addr:district": "Kanpur", "addr:full": "Neemeshwar Mahamandir Society, Ratan Lal Nagar, Kanpur", "addr:postcode": "208022", "addr:state": "Uttar Pradesh", "amenity": "hospital", "healthcare": "hospital", "name": "City Hospital", "source": "Local Knowledge"}, "geometry": {"type": "Point", "coordinates": [80.2864849, 26.4434516]}}, {"type": "Feature", "properties": {"osm_id": 7506643253, "osm_type": "node", "addr:district": "Kanpur", "addr:full": "Barra 3 Road, Near Shastri Chowk, Kanpur", "addr:postcode": "208027", "addr:state": "Uttar Pradesh", "amenity": "hospital", "healthcare": "hospital", "name": "South Hospital", "source": "Local Knowledge"}, "geometry": {"type": "Point", "coordinates": [80.2938076, 26.4423466]}}, {"type": "Feature", "properties": {"osm_id": 7506643254, "osm_type": "node", "addr:district": "Kanpur", "addr:full": "Awas Vikas Road, Hamirpur Road, Hanspuram, Kanpur", "addr:postcode": "208021", "addr:state": "Uttar Pradesh", "amenity": "hospital", "healthcare": "hospital", "name": "S. S. Hospital", "source": "Local Knowledge"}, "geometry": {"type": "Point", "coordinates": [80.3128923, 26.3943803]}}, {"type": "Feature", "properties": {"osm_id": 7506643255, "osm_type": "node", "addr:district": "Kanpur", "addr:full": "Gujaini, Kanpur", "addr:postcode": "208027", "addr:state": "Uttar Pradesh", "amenity": "hospital", "healthcare": "hospital", "name": "Chandra Hospital", "source": "Local Knowledge"}, "geometry": {"type": "Point", "coordinates": [80.2796814, 26.440292]}}, {"type": "Feature", "properties": {"osm_id": 7506643256, "osm_type": "node", "addr:district": "Kanpur", "addr:full": "Ambedaker Puram, Awas Vikas, No .3, Kalyanpur, Kanpur", "addr:postcode": "208017", "addr:state": "Uttar Pradesh", "amenity": "hospital", "healthcare": "hospital", "name": "Sis Hospital & Research Centre", "source": "Local Knowledge"}, "geometry": {"type": "Point", "coordinates": [80.256, 26.4842178]}}, {"type": "Feature", "properties": {"osm_id": 7506643257, "osm_type": "node", "addr:district": "Kanpur", "addr:full": "Pashupati Nagar, Yashoda Nagar, Kanpur", "addr:postcode": "208011", "addr:state": "Uttar Pradesh", "amenity": "hospital", "name": "Shanti Mission Hospital", "source": "Local Knowledge"}, "geometry": {"type": "Point", "coordinates": [80.3246691, 26.412936]}}, {"type": "Feature", "properties": {"osm_id": 7506643258, "osm_type": "node", "addr:district": "Kanpur", "addr:full": "Juhi - 2, Vinoba Nagar, Kanpur", "addr:postcode": "208014", "addr:state": "Uttar Pradesh", "amenity": "hospital", "name": "Vimal Hospital", "source": "Local Knowledge"}, "geometry": {"type": "Point", "coordinates": [80.3208933, 26.4412496]}}, {"type": "Feature", "properties": {"osm_id": 7506643259, "osm_type": "node", "addr:district": "Kanpur", "addr:full": "Fazalganj Industrial Estate, Fazalganj, Shastri Nagar, Kanpur", "addr:postcode": "208005", "addr:state": "Uttar Pradesh", "amenity": "hospital", "healthcare": "hospital", "name": "C L Memorial Hospital", "source": "Local Knowledge"}, "geometry": {"type": "Point", "coordinates": [80.2966156, 26.4637792]}}, {"type": "Feature", "properties": {"osm_id": 7506643260, "osm_type": "node", "addr:district": "Kanpur", "addr:full": "New Basti Arra, Naubasta, Kanpur", "addr:postcode": "208021", "addr:state": "Uttar Pradesh", "amenity": "hospital", "name": "Jaigurudev Hospital", "source": "Local Knowledge"}, "geometry": {"type": "Point", "coordinates": [80.3033404, 26.4041953]}}, {"type": "Feature", "properties": {"osm_id": 7506643262, "osm_type": "node", "addr:district": "Kanpur", "addr:full": "Panki Station Road, Panki Power House, Panki, Kanpur", "addr:postcode": "208020", "addr:state": "Uttar Pradesh", "amenity": "hospital", "healthcare": "hospital", "name": "Shivansh Hospital", "source": "Local Knowledge"}, "geometry": {"type": "Point", "coordinates": [80.2435715, 26.4633274]}}, {"type": "Feature", "properties": {"osm_id": 7506643263, "osm_type": "node", "addr:district": "Kanpur", "addr:full": "Naya Purwa, Marble Market, Kidwai Nagar, Kanpur", "addr:postcode": "208011", "addr:state": "Uttar Pradesh", "amenity": "hospital", "name": "Gaytri Nursing Home", "source": "Local Knowledge"}, "geometry": {"type": "Point", "coordinates": [80.3333814, 26.4382968]}}, {"type": "Feature", "properties": {"osm_id": 7506643264, "osm_type": "node", "addr:district": "Kanpur", "addr:full": "Panki Road, Avas Vikar 1st, Near Oriental Bank, Kalyanpur, Kanpur", "addr:postcode": "208017", "addr:state": "Uttar Pradesh", "amenity": "hospital", "healthcare": "hospital", "name": "Pulse Hospital", "source": "Local Knowledge"}, "geometry": {"type": "Point", "coordinates": [80.2495592, 26.4949552]}}, {"type": "Feature", "properties": {"osm_id": 7506643265, "osm_type": "node", "addr:district": "Kanpur", "addr:full": "Shankaracharya Nagar, Deoki Nagar, Yashoda Nagar, Kanpur", "addr:postcode": "208011", "addr:state": "Uttar Pradesh", "amenity": "hospital", "name": "J K Hospital", "source": "Local Knowledge"}, "geometry": {"type": "Point", "coordinates": [80.332896, 26.411717]}}, {"type": "Feature", "properties": {"osm_id": 7506643266, "osm_type": "node", "addr:district": "Kanpur", "addr:full": "Naubasta, Kanpur", "addr:postcode": "208021", "addr:state": "Uttar Pradesh", "amenity": "hospital", "healthcare": "hospital", "name": "Sahyog Hospital", "source": "Local Knowledge"}, "geometry": {"type": "Point", "coordinates": [80.3118793, 26.3939435]}}, {"type": "Feature", "properties": {"osm_id": 7506643267, "osm_type": "node", "addr:district": "Kanpur", "addr:full": "Awas Vikas Ambedkar Puram, Kalyanpur, Kanpur", "addr:postcode": "208017", "addr:state": "Uttar Pradesh", "amenity": "hospital", "healthcare": "hospital", "name": "Sunrise Hospital", "source": "Local Knowledge"}, "geometry": {"type": "Point", "coordinates": [80.2489416, 26.485006]}}, {"type": "Feature", "properties": {"osm_id": 7506643268, "osm_type": "node", "addr:district": "Kanpur", "addr:full": "Barra Bypass Road, Vishwa Bank Colony, Barra World Bank, Barra, Kanpur", "addr:postcode": "208027", "addr:state": "Uttar Pradesh", "amenity": "hospital", "healthcare": "hospital", "name": "Ganga Devi Hospital", "source": "Local Knowledge"}, "geometry": {"type": "Point", "coordinates": [80.3012719, 26.429673]}}, {"type": "Feature", "properties": {"osm_id": 7506643269, "osm_type": "node", "addr:district": "Kanpur", "addr:full": "Esplanade Road, A.S.I Hospital, Near Gurudwara, Model Town, Pandu Nagar, Kanpur", "addr:postcode": "208005", "addr:state": "Uttar Pradesh", "amenity": "hospital", "healthcare": "hospital", "name": "Bima Hospital", "source": "Local Knowledge"}, "geometry": {"type": "Point", "coordinates": [80.2959961, 26.4731026]}}, {"type": "Feature", "properties": {"osm_id": 7506643270, "osm_type": "node", "addr:district": "Kanpur", "addr:full": "Barra 8 Road, B Block, Barra World Bank, Barra, Kanpur", "addr:postcode": "208027", "addr:state": "Uttar Pradesh", "amenity": "hospital", "healthcare": "hospital", "name": "Bliss Hospital", "source": "Local Knowledge"}, "geometry": {"type": "Point", "coordinates": [80.2901908, 26.4298823]}}, {"type": "Feature", "properties": {"osm_id": 7506643271, "osm_type": "node", "addr:district": "Kanpur", "addr:full": "Hanshpuram Naubasat, Kanpur", "addr:postcode": "208021", "addr:state": "Uttar Pradesh", "amenity": "hospital", "name": "Uttam Hospital and Trauma Centre", "source": "Local Knowledge"}, "geometry": {"type": "Point", "coordinates": [80.31303, 26.388799]}}, {"type": "Feature", "properties": {"osm_id": 7506643273, "osm_type": "node", "addr:district": "Kanpur", "addr:full": "Neemeshwar Mahamandir Society, Ratan Lal Nagar, Kanpur", "addr:postcode": "208022", "addr:state": "Uttar Pradesh", "amenity": "hospital", "healthcare": "hospital", "name": "New City Hospital", "source": "Local Knowledge"}, "geometry": {"type": "Point", "coordinates": [80.2826888, 26.4373156]}}, {"type": "Feature", "properties": {"osm_id": 7506643274, "osm_type": "node", "addr:district": "Kanpur", "addr:full": "Ranapratap Nagar, Rajivpuram, Kanpur", "addr:postcode": "208019", "addr:state": "Uttar Pradesh", "amenity": "hospital", "healthcare": "hospital", "name": "Chanda Hospital", "source": "Local Knowledge"}, "geometry": {"type": "Point", "coordinates": [80.2811825, 26.4826868]}}, {"type": "Feature", "properties": {"osm_id": 7506643275, "osm_type": "node", "addr:district": "Kanpur", "addr:full": "Awas Vikas, Kalyanpur, Kanpur", "addr:postcode": "208017", "addr:state": "Uttar Pradesh", "amenity": "hospital", "healthcare": "hospital", "name": "Saine Hospital", "source": "Local Knowledge"}, "geometry": {"type": "Point", "coordinates": [80.265679, 26.489764]}}, {"type": "Feature", "properties": {"osm_id": 7506643276, "osm_type": "node", "addr:district": "Kanpur", "addr:full": "Vijay Nagar, Kanpur Road, P Block, Navin Nagar, Kakadeo, Kanpur", "addr:postcode": "208005", "addr:state": "Uttar Pradesh", "amenity": "hospital", "healthcare": "hospital", "name": "Dr. Ram Shankar Smarak Hospital", "source": "Local Knowledge"}, "geometry": {"type": "Point", "coordinates": [80.2860444, 26.4753348]}}, {"type": "Feature", "properties": {"osm_id": 7506643277, "osm_type": "node", "addr:district": "Kanpur", "addr:full": "Hamirpur Road, Opp. Mandi Samithi Main Gate, Hanspuram, Naubasta, Kanpur", "addr:postcode": "208021", "addr:state": "Uttar Pradesh", "amenity": "hospital", "name": "Krishna Hospital, Kanpur", "source": "Local Knowledge"}, "geometry": {"type": "Point", "coordinates": [80.3116336, 26.3902964]}}, {"type": "Feature", "properties": {"osm_id": 7506643278, "osm_type": "node", "addr:district": "Kanpur", "addr:full": "Panki Road, Shahpur, Panki, Kanpur", "addr:postcode": "208020", "addr:state": "Uttar Pradesh", "amenity": "hospital", "healthcare": "hospital", "name": "Merrygold Hospital", "source": "Local Knowledge"}, "geometry": {"type": "Point", "coordinates": [80.244649, 26.4622903]}}, {"type": "Feature", "properties": {"osm_id": 7506643279, "osm_type": "node", "addr:district": "Kanpur", "addr:full": "Model Town, Sarvodaya Nagar, Kanpur", "addr:postcode": "208005", "addr:state": "Uttar Pradesh", "amenity": "hospital", "healthcare": "hospital", "name": "E S I Hospital", "operator": "Employees' State Insurance", "operator:short": "ESI", "operator:type": "public", "operator:wikidata": "Q3595726", "source": "Local Knowledge"}, "geometry": {"type": "Point", "coordinates": [80.3005286, 26.4758309]}}, {"type": "Feature", "properties": {"osm_id": 7506643280, "osm_type": "node", "addr:district": "Kanpur", "addr:full": "Shaneshwar Mandir Chauraha, Near Petrol Pump, Rawat Pur, Kanpur", "addr:postcode": "208019", "addr:state": "Uttar Pradesh", "amenity": "hospital", "healthcare": "hospital", "name": "Shrey Hospital & Trauma Centre", "source": "Local Knowledge"}, "geometry": {"type": "Point", "coordinates": [80.2725991, 26.4773044]}}, {"type": "Feature", "properties": {"osm_id": 7506643281, "osm_type": "node", "addr:district": "Kanpur", "addr:full": "Kidwai Nagar, Bypass Road, Dhansinghpur, Kanpur", "addr:postcode": "208011", "addr:state": "Uttar Pradesh", "amenity": "hospital", "name": "Swastik Surgical and Maternity Centre", "source": "Local Knowledge"}, "geometry": {"type": "Point", "coordinates": [80.3281649, 26.4164054]}}, {"type": "Feature", "properties": {"osm_id": 7506643282, "osm_type": "node", "addr:district": "Kanpur", "addr:full": "M Block, Kakadeo, Kanpur", "addr:postcode": "208019", "addr:state": "Uttar Pradesh", "amenity": "hospital", "healthcare": "hospital", "name": "Delight Hospital", "source": "Local Knowledge"}, "geometry": {"type": "Point", "coordinates": [80.2837909, 26.4742698]}}, {"type": "Feature", "properties": {"osm_id": 7506643283, "osm_type": "node", "addr:district": "Kanpur", "addr:full": "Hanspuram, Naubasta, Kanpur", "addr:postcode": "208021", "addr:state": "Uttar Pradesh", "amenity": "hospital", "healthcare": "hospital", "name": "Satya Eye Hospital", "source": "Local Knowledge"}, "geometry": {"type": "Point", "coordinates": [80.3146522, 26.3998309]}}, {"type": "Feature", "properties": {"osm_id": 7506643284, "osm_type": "node", "addr:district": "Kanpur", "addr:full": "Awas Vikas, Naubasta, Kanpur", "addr:postcode": "208021", "addr:state": "Uttar Pradesh", "amenity": "hospital", "healthcare": "hospital", "name": "The Expert Hospital", "source": "Local Knowledge"}, "geometry": {"type": "Point", "coordinates": [80.3131154, 26.3948501]}}, {"type": "Feature", "properties": {"osm_id": 7506643285, "osm_type": "node", "addr:district": "Kanpur", "addr:full": "Opposite Ram Leela Ground, Govind Nagar, Kanpur", "addr:postcode": "208006", "addr:state": "Uttar Pradesh", "amenity": "hospital", "healthcare": "hospital", "name": "Hari Hospital", "source": "Local Knowledge"}, "geometry": {"type": "Point", "coordinates": [80.3004194, 26.4512764]}}, {"type": "Feature", "properties": {"osm_id": 7506643286, "osm_type": "node", "addr:district": "Kanpur", "addr:full": "Sharda Nagar Road, Near Chhapera Pulia, Sharda Nagar, Kanpur", "addr:postcode": "208025", "addr:state": "Uttar Pradesh", "amenity": "hospital", "healthcare": "hospital", "name": "Anurag Hospital", "source": "Local Knowledge"}, "geometry": {"type": "Point", "coordinates": [80.2875474, 26.4832658]}}, {"type": "Feature", "properties": {"osm_id": 7506643287, "osm_type": "node", "addr:district": "Kanpur", "addr:full": "Awas Vikas Road, Hanspuram, Naubasta, Kanpur", "addr:postcode": "208021", "addr:state": "Uttar Pradesh", "amenity": "hospital", "healthcare": "hospital", "name": "Anil Memorial Hospital", "source": "Local Knowledge"}, "geometry": {"type": "Point", "coordinates": [80.3146814, 26.3972276]}}, {"type": "Feature", "properties": {"osm_id": 7506643288, "osm_type": "node", "addr:district": "Kanpur", "addr:full": "Barra, Kanpur", "addr:postcode": "208027", "addr:state": "Uttar Pradesh", "amenity": "hospital", "healthcare": "hospital", "name": "Sanjeevani Hospital", "source": "Local Knowledge"}, "geometry": {"type": "Point", "coordinates": [80.2921882, 26.4298416]}}, {"type": "Feature", "properties": {"osm_id": 7506643289, "osm_type": "node", "addr:district": "Kanpur", "addr:full": "Meston Road, Shiwala, Parade, Kanpur", "addr:postcode": "208001", "addr:state": "Uttar Pradesh", "amenity": "hospital", "name": "Ursala Hospital", "source": "Local Knowledge"}, "geometry": {"type": "Point", "coordinates": [80.3505315, 26.4723152]}}, {"type": "Feature", "properties": {"osm_id": 7506643290, "osm_type": "node", "addr:district": "Kanpur", "addr:full": "Kanpur - Jhansi Highway, Barra 7, Sector - A, Barra World Bank, Barra, Kanpur", "addr:postcode": "208027", "addr:state": "Uttar Pradesh", "amenity": "hospital", "healthcare": "hospital", "name": "Parivar Kalyan Seva Sanstha Hospital", "source": "Local Knowledge"}, "geometry": {"type": "Point", "coordinates": [80.2863142, 26.4363952]}}, {"type": "Feature", "properties": {"osm_id": 7506643291, "osm_type": "node", "addr:district": "Kanpur", "addr:full": "Vasant Vihar, Naubasta, Kanpur", "addr:postcode": "208011", "addr:state": "Uttar Pradesh", "amenity": "hospital", "healthcare": "hospital", "name": "R.U. Charitable Hospital", "source": "Local Knowledge"}, "geometry": {"type": "Point", "coordinates": [80.3133719, 26.418948]}}, {"type": "Feature", "properties": {"osm_id": 7506643292, "osm_type": "node", "addr:district": "Kanpur", "addr:full": "Barra World Bank, Barra, Kanpur", "addr:postcode": "208027", "addr:state": "Uttar Pradesh", "amenity": "hospital", "healthcare": "hospital", "name": "Seva Chandra Prabha Hospital", "source": "Local Knowledge"}, "geometry": {"type": "Point", "coordinates": [80.2969058, 26.4313268]}}, {"type": "Feature", "properties": {"osm_id": 7506643293, "osm_type": "node", "addr:district": "Kanpur", "addr:full": "Kalyanpur, Kanpur", "addr:postcode": "208017", "addr:state": "Uttar Pradesh", "amenity": "hospital", "healthcare": "hospital", "name": "Sakshi Hospital", "source": "Local Knowledge"}, "geometry": {"type": "Point", "coordinates": [80.246312, 26.4883816]}}, {"type": "Feature", "properties": {"osm_id": 7506643294, "osm_type": "node", "addr:district": "Kanpur", "addr:full": "Naubasta Road, Jarauli Phase 1, Ramaipur, Naubasta, Kanpur", "addr:postcode": "208021", "addr:state": "Uttar Pradesh", "amenity": "hospital", "healthcare": "hospital", "name": "Udai Hospital", "source": "Local Knowledge"}, "geometry": {"type": "Point", "coordinates": [80.3005119, 26.414795]}}, {"type": "Feature", "properties": {"osm_id": 7666557114, "osm_type": "node", "amenity": "hospital", "healthcare": "hospital"}, "geometry": {"type": "Point", "coordinates": [80.2860992, 26.4753148]}}, {"type": "Feature", "properties": {"osm_id": 9961469617, "osm_type": "node", "amenity": "hospital", "name:en": "Paras Yash kothari memorial hospital"}, "geometry": {"type": "Point", "coordinates": [80.2590829, 26.5493938]}}, {"type": "Feature", "properties": {"osm_id": 10921507966, "osm_type": "node", "amenity": "hospital", "healthcare": "hospital", "healthcare:speciality": "general", "name": "UPRVUNL Dispensary"}, "geometry": {"type": "Point", "coordinates": [80.2376196, 26.4802958]}}, {"type": "Feature", "properties": {"osm_id": 10959672148, "osm_type": "node", "addr:city": "Kanpur", "addr:postcode": "209206", "amenity": "hospital", "healthcare": "hospital", "name": "Good Hospital"}, "geometry": {"type": "Point", "coordinates": [80.3201758, 26.4236203]}}, {"type": "Feature", "properties": {"osm_id": 10959672190, "osm_type": "node", "amenity": "hospital", "healthcare": "hospital", "name": "New Shivraj Hospital"}, "geometry": {"type": "Point", "coordinates": [80.3194895, 26.4217223]}}, {"type": "Feature", "properties": {"osm_id": 11690461082, "osm_type": "node", "amenity": "hospital", "healthcare": "hospital", "name": "mariampur hospital"}, "geometry": {"type": "Point", "coordinates": [80.3059435, 26.464995]}}, {"type": "Feature", "properties": {"osm_id": 13645862471, "osm_type": "node", "amenity": "hospital", "healthcare": "hospital", "name": "Sushrut Hospital"}, "geometry": {"type": "Point", "coordinates": [80.2640495, 26.5117507]}}, {"type": "Feature", "properties": {"osm_id": 259781081, "osm_type": "way", "amenity": "hospital", "emergency": "yes", "healthcare": "hospital", "name": "Health Centre"}, "geometry": {"type": "Polygon", "coordinates": [[[80.2334322, 26.5056322], [80.233902, 26.5056312], [80.2339015, 26.5054318], [80.2339004, 26.5049897], [80.2334306, 26.5049906], [80.2334322, 26.5056322]]]}}, {"type": "Feature", "properties": {"osm_id": 902908263, "osm_type": "way", "addr:district": "Kanpur", "addr:full": "Cantonment, Gale Road, Kanpur", "addr:postcode": "208001", "addr:state": "Uttar Pradesh", "amenity": "hospital", "healthcare": "hospital", "name": "7 Air Force Hospital", "source": "Local Knowledge"}, "geometry": {"type": "Polygon", "coordinates": [[[80.374331, 26.4458632], [80.3757874, 26.4453541], [80.3766674, 26.4454587], [80.377197, 26.4463234], [80.3779057, 26.4467906], [80.3781472, 26.4472787], [80.3787249, 26.4477502], [80.3795196, 26.4474587], [80.3805945, 26.4488047], [80.3801832, 26.4490568], [80.379325, 26.4482234], [80.3777964, 26.4481653], [80.3777802, 26.4483625], [80.376543, 26.4490614], [80.3756491, 26.4494296], [80.3752111, 26.4481782], [80.374331, 26.4458632]]]}}]}