{"type":"FeatureCollection","features":[{"type":"Feature","properties":{"stop_id":"KANPURMETRO_bada_chauraha","stop_name":"Bada Chauraha","stop_code":"","mode":"metro","operator":"Uttar Pradesh Metro Rail Corporation - Kanpur Metro","source_feed_id":"kanpur_metro_unofficial_constructed"},"geometry":{"type":"Point","coordinates":[80.3523972,26.4726897]}},{"type":"Feature","properties":{"stop_id":"KANPURMETRO_chunniganj","stop_name":"Chunniganj","stop_code":"","mode":"metro","operator":"Uttar Pradesh Metro Rail Corporation - Kanpur Metro","source_feed_id":"kanpur_metro_unofficial_constructed"},"geometry":{"type":"Point","coordinates":[80.3370699,26.4770395]}},{"type":"Feature","properties":{"stop_id":"KANPURMETRO_geeta_nagar","stop_name":"Geeta Nagar","stop_code":"","mode":"metro","operator":"Uttar Pradesh Metro Rail Corporation - Kanpur Metro","source_feed_id":"kanpur_metro_unofficial_constructed"},"geometry":{"type":"Point","coordinates":[80.2921052,26.4870224]}},{"type":"Feature","properties":{"stop_id":"KANPURMETRO_gurudev_chauraha","stop_name":"Gurudev Chauraha","stop_code":"","mode":"metro","operator":"Uttar Pradesh Metro Rail Corporation - Kanpur Metro","source_feed_id":"kanpur_metro_unofficial_constructed"},"geometry":{"type":"Point","coordinates":[80.2843697,26.4915749]}},{"type":"Feature","properties":{"stop_id":"KANPURMETRO_iit_kanpur","stop_name":"IIT Kanpur","stop_code":"","mode":"metro","operator":"Uttar Pradesh Metro Rail Corporation - Kanpur Metro","source_feed_id":"kanpur_metro_unofficial_constructed"},"geometry":{"type":"Point","coordinates":[80.2483111,26.5092071]}},{"type":"Feature","properties":{"stop_id":"KANPURMETRO_kalyanpur","stop_name":"Kalyanpur","stop_code":"","mode":"metro","operator":"Uttar Pradesh Metro Rail Corporation - Kanpur Metro","source_feed_id":"kanpur_metro_unofficial_constructed"},"geometry":{"type":"Point","coordinates":[80.2525656,26.5037242]}},{"type":"Feature","properties":{"stop_id":"KANPURMETRO_kanpur_central","stop_name":"Kanpur Central","stop_code":"","mode":"metro","operator":"Uttar Pradesh Metro Rail Corporation - Kanpur Metro","source_feed_id":"kanpur_metro_unofficial_constructed"},"geometry":{"type":"Point","coordinates":[80.3517886,26.4538778]}},{"type":"Feature","properties":{"stop_id":"KANPURMETRO_llr_hospital","stop_name":"LLR Hospital","stop_code":"","mode":"metro","operator":"Uttar Pradesh Metro Rail Corporation - Kanpur Metro","source_feed_id":"kanpur_metro_unofficial_constructed"},"geometry":{"type":"Point","coordinates":[80.311601,26.4792656]}},{"type":"Feature","properties":{"stop_id":"KANPURMETRO_moti_jheel","stop_name":"Moti Jheel","stop_code":"","mode":"metro","operator":"Uttar Pradesh Metro Rail Corporation - Kanpur Metro","source_feed_id":"kanpur_metro_unofficial_constructed"},"geometry":{"type":"Point","coordinates":[80.3178935,26.4791286]}},{"type":"Feature","properties":{"stop_id":"KANPURMETRO_naveen_market","stop_name":"Naveen Market","stop_code":"","mode":"metro","operator":"Uttar Pradesh Metro Rail Corporation - Kanpur Metro","source_feed_id":"kanpur_metro_unofficial_constructed"},"geometry":{"type":"Point","coordinates":[80.3454472,26.4740673]}},{"type":"Feature","properties":{"stop_id":"KANPURMETRO_nayaganj","stop_name":"Nayaganj","stop_code":"","mode":"metro","operator":"Uttar Pradesh Metro Rail Corporation - Kanpur Metro","source_feed_id":"kanpur_metro_unofficial_constructed"},"geometry":{"type":"Point","coordinates":[80.3595041,26.4641599]}},{"type":"Feature","properties":{"stop_id":"KANPURMETRO_rawatpur","stop_name":"Rawatpur","stop_code":"","mode":"metro","operator":"Uttar Pradesh Metro Rail Corporation - Kanpur Metro","source_feed_id":"kanpur_metro_unofficial_constructed"},"geometry":{"type":"Point","coordinates":[80.3000734,26.4828664]}},{"type":"Feature","properties":{"stop_id":"KANPURMETRO_spm_hospital","stop_name":"SPM Hospital","stop_code":"","mode":"metro","operator":"Uttar Pradesh Metro Rail Corporation - Kanpur Metro","source_feed_id":"kanpur_metro_unofficial_constructed"},"geometry":{"type":"Point","coordinates":[80.2589004,26.4988957]}},{"type":"Feature","properties":{"stop_id":"KANPURMETRO_vishwavidyalaya","stop_name":"Vishwavidyalaya","stop_code":"","mode":"metro","operator":"Uttar Pradesh Metro Rail Corporation - Kanpur Metro","source_feed_id":"kanpur_metro_unofficial_constructed"},"geometry":{"type":"Point","coordinates":[80.267272,26.496489]}}]}