{"type":"FeatureCollection","features":[{"type":"Feature","properties":{"route_id":"kanpur_orange","route_short_name":"Orange","route_long_name":"Kanpur Metro Orange Line","agency_id":"KANPURMETRO","mode":"metro","operator":"Uttar Pradesh Metro Rail Corporation - Kanpur Metro","source_feed_id":"kanpur_metro_unofficial_constructed"},"geometry":{"type":"LineString","coordinates":[[80.2483111,26.5092071],[80.2525656,26.5037242],[80.2589004,26.4988957],[80.267272,26.496489],[80.2843697,26.4915749],[80.2921052,26.4870224],[80.3000734,26.4828664],[80.311601,26.4792656],[80.3178935,26.4791286],[80.3370699,26.4770395],[80.3454472,26.4740673],[80.3523972,26.4726897],[80.3595041,26.4641599],[80.3517886,26.4538778]]}}]}