{"type": "FeatureCollection", "features": [{"type": "Feature", "geometry": {"type": "Point", "coordinates": [80.3523972, 26.4726897]}, "properties": {"name": "Bada Chauraha", "operator": "Uttar Pradesh Metro Rail Corporation", "mode": "metro", "source": "OpenStreetMap (fallback)", "source_node_id": "7944298553"}}, {"type": "Feature", "geometry": {"type": "Point", "coordinates": [80.3370699, 26.4770395]}, "properties": {"name": "Chunniganj", "operator": "Uttar Pradesh Metro Rail Corporation", "mode": "metro", "source": "OpenStreetMap (fallback)", "source_node_id": "7944317797"}}, {"type": "Feature", "geometry": {"type": "Point", "coordinates": [80.2921052, 26.4870224]}, "properties": {"name": "Geeta Nagar", "operator": "Uttar Pradesh Metro Rail Corporation", "mode": "metro", "source": "OpenStreetMap (fallback)", "source_node_id": "7944298578"}}, {"type": "Feature", "geometry": {"type": "Point", "coordinates": [80.2843697, 26.4915749]}, "properties": {"name": "Gurudev Chauraha", "operator": "Uttar Pradesh Metro Rail Corporation", "mode": "metro", "source": "OpenStreetMap (fallback)", "source_node_id": "7944298542"}}, {"type": "Feature", "geometry": {"type": "Point", "coordinates": [80.2483111, 26.5092071]}, "properties": {"name": "IIT Kanpur", "operator": "Uttar Pradesh Metro Rail Corporation", "mode": "metro", "source": "OpenStreetMap (fallback)", "source_node_id": "7944317792"}}, {"type": "Feature", "geometry": {"type": "Point", "coordinates": [80.2525656, 26.5037242]}, "properties": {"name": "Kalyanpur", "operator": "Uttar Pradesh Metro Rail Corporation", "mode": "metro", "source": "OpenStreetMap (fallback)", "source_node_id": "12893756176"}}, {"type": "Feature", "geometry": {"type": "Point", "coordinates": [80.3517886, 26.4538778]}, "properties": {"name": "Kanpur Central", "operator": "Uttar Pradesh Metro Rail Corporation", "mode": "metro", "source": "OpenStreetMap (fallback)", "source_node_id": "12893829469"}}, {"type": "Feature", "geometry": {"type": "Point", "coordinates": [80.311601, 26.4792656]}, "properties": {"name": "LLR Hospital", "operator": "Uttar Pradesh Metro Rail Corporation", "mode": "metro", "source": "OpenStreetMap (fallback)", "source_node_id": "7944317805"}}, {"type": "Feature", "geometry": {"type": "Point", "coordinates": [80.3178935, 26.4791286]}, "properties": {"name": "Moti Jheel", "operator": "Uttar Pradesh Metro Rail Corporation", "mode": "metro", "source": "OpenStreetMap (fallback)", "source_node_id": "12893829305"}}, {"type": "Feature", "geometry": {"type": "Point", "coordinates": [80.3454472, 26.4740673]}, "properties": {"name": "Naveen Market", "operator": "Uttar Pradesh Metro Rail Corporation", "mode": "metro", "source": "OpenStreetMap (fallback)", "source_node_id": "7944298577"}}, {"type": "Feature", "geometry": {"type": "Point", "coordinates": [80.3595041, 26.4641599]}, "properties": {"name": "Nayaganj", "operator": "Uttar Pradesh Metro Rail Corporation", "mode": "metro", "source": "OpenStreetMap (fallback)", "source_node_id": "7944317804"}}, {"type": "Feature", "geometry": {"type": "Point", "coordinates": [80.3000734, 26.4828664]}, "properties": {"name": "Rawatpur", "operator": "Uttar Pradesh Metro Rail Corporation", "mode": "metro", "source": "OpenStreetMap (fallback)", "source_node_id": "7944298567"}}, {"type": "Feature", "geometry": {"type": "Point", "coordinates": [80.2589004, 26.4988957]}, "properties": {"name": "SPM Hospital", "operator": "Uttar Pradesh Metro Rail Corporation", "mode": "metro", "source": "OpenStreetMap (fallback)", "source_node_id": "7944298579"}}, {"type": "Feature", "geometry": {"type": "Point", "coordinates": [80.267272, 26.496489]}, "properties": {"name": "Vishwavidyalaya", "operator": "Uttar Pradesh Metro Rail Corporation", "mode": "metro", "source": "OpenStreetMap (fallback)", "source_node_id": "7944298554"}}]}
