{"type": "FeatureCollection", "crs": {"type": "name", "properties": {"name": "urn:ogc:def:crs:OGC:1.3:CRS84"}}, "features": [{"type": "Feature", "properties": {"osm_id": 7806894792, "osm_type": "node", "amenity": "police", "name": "Police Station Kanpur Cantonment"}, "geometry": {"type": "Point", "coordinates": [80.3642638, 26.4541883]}}, {"type": "Feature", "properties": {"osm_id": 10703242260, "osm_type": "node", "addr:city": "Kanpur", "addr:postcode": "208016", "amenity": "police", "name": "IIT Kanpur Police Chowki"}, "geometry": {"type": "Point", "coordinates": [80.2419345, 26.510144]}}, {"type": "Feature", "properties": {"osm_id": 11236062295, "osm_type": "node", "amenity": "police", "check_date": "2026-03-13", "contact:mobile": "+91 97948 37346", "contact:phone": "+91 512 232 0434", "level": "0", "name": "Railway Police Force Post", "operator": "Indian Railways", "operator:wikidata": "Q3523040"}, "geometry": {"type": "Point", "coordinates": [80.3502878, 26.4537138]}}, {"type": "Feature", "properties": {"osm_id": 11690601301, "osm_type": "node", "amenity": "police", "name": "police chawki"}, "geometry": {"type": "Point", "coordinates": [80.2983572, 26.4673878]}}, {"type": "Feature", "properties": {"osm_id": 13780400901, "osm_type": "node", "amenity": "police", "name": "Police chawki"}, "geometry": {"type": "Point", "coordinates": [80.3443978, 26.4727272]}}, {"type": "Feature", "properties": {"osm_id": 13780433001, "osm_type": "node", "addr:city": "kanpur Nagar", "addr:postcode": "208001", "addr:street": "yateem kahana", "amenity": "police", "name": "Police station "}, "geometry": {"type": "Point", "coordinates": [80.3429517, 26.4731064]}}, {"type": "Feature", "properties": {"osm_id": 964160307, "osm_type": "way", "amenity": "police", "building": "yes", "name": "POLICE CHOWKI", "operator": "daroga"}, "geometry": {"type": "Polygon", "coordinates": [[[80.3885858, 26.4235456], [80.3886314, 26.4234466], [80.3887402, 26.4235158], [80.3886841, 26.4235928], [80.3885858, 26.4235456]]]}}]}