{"type": "FeatureCollection", "crs": {"type": "name", "properties": {"name": "urn:ogc:def:crs:OGC:1.3:CRS84"}}, "features": [{"type": "Feature", "properties": {"osm_id": 1012264148, "osm_type": "node", "amenity": "school", "name": "Mariampur School"}, "geometry": {"type": "Point", "coordinates": [80.3052778, 26.4658333]}}, {"type": "Feature", "properties": {"osm_id": 1291414947, "osm_type": "node", "amenity": "school", "name": "St Xaviers High School"}, "geometry": {"type": "Point", "coordinates": [80.318127, 26.470832]}}, {"type": "Feature", "properties": {"osm_id": 1291415471, "osm_type": "node", "amenity": "college", "name": "Hiralal Khanna College"}, "geometry": {"type": "Point", "coordinates": [80.32001, 26.470203]}}, {"type": "Feature", "properties": {"osm_id": 1291415473, "osm_type": "node", "amenity": "college", "name": "Mahatma Gandhi College", "name:etymology:wikidata": "Q1001"}, "geometry": {"type": "Point", "coordinates": [80.289674, 26.468057]}}, {"type": "Feature", "properties": {"osm_id": 1296946249, "osm_type": "node", "addr:city": "Vijay Nagar, Kanpur", "amenity": "college", "name": "Saraswati Mahila Mahavidyalaya"}, "geometry": {"type": "Point", "coordinates": [80.2902104, 26.4660231]}}, {"type": "Feature", "properties": {"osm_id": 2285468601, "osm_type": "node", "amenity": "school", "name": "Dolphin Junior High School"}, "geometry": {"type": "Point", "coordinates": [80.2869788, 26.4726389]}}, {"type": "Feature", "properties": {"osm_id": 2285468603, "osm_type": "node", "amenity": "school", "name": "Queens Memorial School"}, "geometry": {"type": "Point", "coordinates": [80.2863112, 26.4724685]}}, {"type": "Feature", "properties": {"osm_id": 2285468604, "osm_type": "node", "amenity": "school", "name": "Swaraj India Public School"}, "geometry": {"type": "Point", "coordinates": [80.2880674, 26.472689]}}, {"type": "Feature", "properties": {"osm_id": 2293280447, "osm_type": "node", "amenity": "school", "name": "Adarsh Saraswati vidya mandir"}, "geometry": {"type": "Point", "coordinates": [80.3058537, 26.4988814]}}, {"type": "Feature", "properties": {"osm_id": 2293297523, "osm_type": "node", "amenity": "school", "name": "RBRD Inter college"}, "geometry": {"type": "Point", "coordinates": [80.3094478, 26.497326]}}, {"type": "Feature", "properties": {"osm_id": 2293298588, "osm_type": "node", "addr:housename": "ST john schppl", "addr:postcode": "2080002", "amenity": "school", "name": "St John School"}, "geometry": {"type": "Point", "coordinates": [80.3081114, 26.4964866]}}, {"type": "Feature", "properties": {"osm_id": 2293323386, "osm_type": "node", "amenity": "school"}, "geometry": {"type": "Point", "coordinates": [80.3139861, 26.4977772]}}, {"type": "Feature", "properties": {"osm_id": 2993047700, "osm_type": "node", "barrier": "gate"}, "geometry": {"type": "Point", "coordinates": [80.2352192, 26.5033775]}}, {"type": "Feature", "properties": {"osm_id": 4318640790, "osm_type": "node", "amenity": "school"}, "geometry": {"type": "Point", "coordinates": [80.3750095, 26.4065247]}}, {"type": "Feature", "properties": {"osm_id": 4695005591, "osm_type": "node", "amenity": "school", "name:en": "Shanti motor driving school"}, "geometry": {"type": "Point", "coordinates": [80.3270469, 26.4713787]}}, {"type": "Feature", "properties": {"osm_id": 8244500814, "osm_type": "node", "addr:housenumber": "C8GC+H63", "addr:postcode": "208011", "amenity": "school", "name": "UP Kirana School Samiti", "opening_hours": "Mo-Fr 09:00-13:00; Sa 09:00-12:30", "website": "http://www.upkssv.org/"}, "geometry": {"type": "Point", "coordinates": [80.324505, 26.4308246]}}, {"type": "Feature", "properties": {"osm_id": 10598446570, "osm_type": "node", "barrier": "gate"}, "geometry": {"type": "Point", "coordinates": [80.2354911, 26.5083523]}}, {"type": "Feature", "properties": {"osm_id": 11563103143, "osm_type": "node", "amenity": "school", "name": "Rooprani sukhandan singh mahavidyalay"}, "geometry": {"type": "Point", "coordinates": [80.3165588, 26.4124031]}}, {"type": "Feature", "properties": {"osm_id": 11684762443, "osm_type": "node", "amenity": "school", "name": "gg ground"}, "geometry": {"type": "Point", "coordinates": [80.3012217, 26.4674457]}}, {"type": "Feature", "properties": {"osm_id": 11684766634, "osm_type": "node", "amenity": "school", "name": "govtt school"}, "geometry": {"type": "Point", "coordinates": [80.2999499, 26.4695857]}}, {"type": "Feature", "properties": {"osm_id": 11684779971, "osm_type": "node", "amenity": "school", "name": "triangular park"}, "geometry": {"type": "Point", "coordinates": [80.2979309, 26.4682431]}}, {"type": "Feature", "properties": {"osm_id": 11690533830, "osm_type": "node", "amenity": "school", "name": "dbs college"}, "geometry": {"type": "Point", "coordinates": [80.3101791, 26.4523437]}}, {"type": "Feature", "properties": {"osm_id": 11690601803, "osm_type": "node", "amenity": "school", "name": "diamond public school"}, "geometry": {"type": "Point", "coordinates": [80.3002313, 26.4657898]}}, {"type": "Feature", "properties": {"osm_id": 11690613069, "osm_type": "node", "amenity": "school", "name": "career solution"}, "geometry": {"type": "Point", "coordinates": [80.2997694, 26.4692959]}}, {"type": "Feature", "properties": {"osm_id": 12478830049, "osm_type": "node", "addr:city": "Kanpur", "addr:district": "Kanpur Nagar", "addr:postcode": "208011", "amenity": "school", "education": "school", "mobile": "+91-0961-6233476", "name": "Ghanshyamdas Shivkumar Nagarik Higher Secondary School", "opening_hours": "Mo-Su 10:00-17:00"}, "geometry": {"type": "Point", "coordinates": [80.3240417, 26.4284968]}}, {"type": "Feature", "properties": {"osm_id": 12478997549, "osm_type": "node", "addr:city": "Kanpur", "addr:district": "Kanpur Nagar", "addr:postcode": "208013", "addr:street": "Mother Teresa Ave", "amenity": "school", "name": "Mercy Memorial School (Junior Wing)"}, "geometry": {"type": "Point", "coordinates": [80.3259931, 26.4212057]}}, {"type": "Feature", "properties": {"osm_id": 12479050845, "osm_type": "node", "addr:city": "Kanpur", "addr:postcode": "208011", "amenity": "school", "name": "Mercy Memorial School Senior Wing", "operator": "Board of High School and Intermediate Education", "operator:type": "government", "operator:wikidata": "Q19891401"}, "geometry": {"type": "Point", "coordinates": [80.3212902, 26.4218358]}}, {"type": "Feature", "properties": {"osm_id": 12479081074, "osm_type": "node", "addr:city": "Kanpur", "addr:district": "Kanpur Nagar", "addr:postcode": "208011", "amenity": "school", "name": "Dr. Chiranji Lal Rashtriya Inter College", "opening_hours": "Mo-Su 09:00-12:30", "website": "https://rastriyaintercollege.wordpress.com/"}, "geometry": {"type": "Point", "coordinates": [80.3297685, 26.4255801]}}, {"type": "Feature", "properties": {"osm_id": 12843537395, "osm_type": "node", "amenity": "college", "name": "Dr. Ambedkar Institute of Technology for Divyangjan", "website": "https://www.aith.ac.in/"}, "geometry": {"type": "Point", "coordinates": [80.27722, 26.50238]}}, {"type": "Feature", "properties": {"osm_id": 13506520701, "osm_type": "node", "addr:housenumber": "496 C BLOCK", "addr:postcode": "208020", "addr:street": "M.I.G Road", "amenity": "school", "name": "SHREE RADHA SHIKSHA MANDIR 496 C BLOCK PANKI KANPUR 208020", "opening_hours": "Mo-Su 17:00-19:00"}, "geometry": {"type": "Point", "coordinates": [80.2453125, 26.4681875]}}, {"type": "Feature", "properties": {"osm_id": 45059032, "osm_type": "way", "amenity": "school", "name": "Methodist High School"}, "geometry": {"type": "Polygon", "coordinates": [[[80.365892, 26.4662609], [80.3670722, 26.4655693], [80.3654629, 26.4627517], [80.3640874, 26.4633849], [80.365892, 26.4662609]]]}}, {"type": "Feature", "properties": {"osm_id": 52434888, "osm_type": "way", "addr:city": "Kanpur", "addr:postcode": "208016", "addr:street": "IIT Kanpur", "amenity": "university", "check_date": "2026-03-13", "internet_access": "yes", "name": "Indian Institute of Technology Kanpur", "name:hi": "भारतीय प्रौध्योगिकी संस्थान कानपुर", "short_name": "IITK;IIT Kanpur", "website": "http://www.iitk.ac.in", "wikidata": "Q782682", "wikipedia": "en:Indian Institute of Technology Kanpur"}, "geometry": {"type": "Polygon", "coordinates": [[[80.2332414, 26.5012764], [80.2332816, 26.5014276], [80.2336115, 26.5017589], [80.2338744, 26.5020181], [80.2341239, 26.5021693], [80.2342285, 26.5022701], [80.2342915, 26.5023854], [80.2344343, 26.5026278], [80.2352192, 26.5033775], [80.2354634, 26.5034318], [80.2357337, 26.5036348], [80.2369707, 26.5048437], [80.2387661, 26.5065183], [80.2393049, 26.5068349], [80.2393211, 26.5069354], [80.2395591, 26.5072324], [80.2401367, 26.5079533], [80.2409086, 26.5079301], [80.2415943, 26.507382], [80.2423281, 26.5078689], [80.242644, 26.5076273], [80.2431931, 26.5082994], [80.2436009, 26.507898], [80.2439228, 26.5079748], [80.2444163, 26.5075718], [80.2455321, 26.5086661], [80.245465, 26.5092908], [80.2464549, 26.5099342], [80.2466555, 26.5097573], [80.2468542, 26.5099232], [80.2459918, 26.5110006], [80.2425654, 26.5158699], [80.2357176, 26.5254143], [80.232042, 26.5234671], [80.231048, 26.525002], [80.230889, 26.5248647], [80.2309984, 26.5247746], [80.2309253, 26.5245377], [80.2307933, 26.5243704], [80.2307152, 26.5243847], [80.2307027, 26.5241295], [80.2306278, 26.5240473], [80.2305752, 26.5239156], [80.2305726, 26.5237913], [80.2307086, 26.523645], [80.2306908, 26.5233839], [80.2304233, 26.5232423], [80.2302651, 26.5232515], [80.230084, 26.5231943], [80.2299913, 26.5230442], [80.2298203, 26.522998], [80.2294886, 26.5226524], [80.229499, 26.5225183], [80.2295609, 26.5223728], [80.2292111, 26.5222014], [80.2287736, 26.5215892], [80.2280012, 26.5208585], [80.2277477, 26.5207106], [80.2275694, 26.5204649], [80.2278649, 26.5202189], [80.227815, 26.5195603], [80.2279634, 26.5195296], [80.2279368, 26.5193225], [80.2279269, 26.5191414], [80.2277878, 26.5188686], [80.2277283, 26.5185701], [80.2276579, 26.5184777], [80.227455, 26.5183152], [80.2272869, 26.5181751], [80.2272675, 26.5181291], [80.2295666, 26.5164957], [80.2288904, 26.5157478], [80.2300732, 26.5148723], [80.2282587, 26.5129096], [80.2276793, 26.5131208], [80.227377, 26.512868], [80.2269927, 26.513236], [80.2267781, 26.51314], [80.2262263, 26.5134518], [80.2264344, 26.5137466], [80.2250615, 26.5145225], [80.2233234, 26.5144264], [80.2221433, 26.5139272], [80.221681, 26.5132596], [80.2203995, 26.511409], [80.2189675, 26.5092229], [80.2221889, 26.5050704], [80.2231303, 26.5056513], [80.2234522, 26.5056513], [80.2240315, 26.5054401], [80.2245036, 26.5051137], [80.2252117, 26.5041152], [80.2269283, 26.5027902], [80.2294373, 26.5019471], [80.2299869, 26.5028785], [80.2308677, 26.5025165], [80.2307178, 26.5021284], [80.2325964, 26.5008924], [80.2329918, 26.5013641], [80.2332414, 26.5012764]]]}}, {"type": "Feature", "properties": {"osm_id": 115994800, "osm_type": "way", "amenity": "school", "name": "Kumari Udyan Vidyalaya"}, "geometry": {"type": "Polygon", "coordinates": [[[80.3156641, 26.4732191], [80.3161899, 26.4740066], [80.3173969, 26.4739394], [80.3173325, 26.4731086], [80.3156641, 26.4732191]]]}}, {"type": "Feature", "properties": {"osm_id": 116001924, "osm_type": "way", "addr:housenumber": "11/208", "addr:postcode": "208001", "addr:street": "Prabati Bagla Road", "amenity": "college", "name": "Government Central Textile Institute"}, "geometry": {"type": "Polygon", "coordinates": [[[80.334842, 26.488445], [80.3339032, 26.4869566], [80.3351102, 26.4861979], [80.3350619, 26.4859531], [80.3356949, 26.485641], [80.3369394, 26.4873887], [80.334842, 26.488445]]]}}, {"type": "Feature", "properties": {"osm_id": 150512204, "osm_type": "way", "amenity": "college", "name": "Ganesh Shanker Vidyarthi College", "name:etymology:wikidata": "Q5520851", "name:ml": "ഗണേഷ് ശങ്കർ വിദ്യാർത്ഥി മെമ്മോറിയൽ മെഡിക്കൽ കോളേജ്", "url": "http://www.gsvmmedicalcollege.com/", "website": "https://gsvmmedicalcollege.com/", "wikidata": "Q5520850", "wikipedia": "en:Ganesh Shankar Vidyarthi Memorial Medical College"}, "geometry": {"type": "Polygon", "coordinates": [[[80.3063352, 26.4797736], [80.3069365, 26.4796991], [80.3086746, 26.4793822], [80.3134034, 26.4789993], [80.3133678, 26.478792], [80.3131297, 26.4755589], [80.3126867, 26.4755864], [80.3121931, 26.4755288], [80.3116245, 26.475356], [80.3110559, 26.474895], [80.3063352, 26.4797736]]]}}, {"type": "Feature", "properties": {"osm_id": 295697794, "osm_type": "way", "alt_name": "Central School", "amenity": "school", "brand": "Kendriya Vidyalaya", "brand:wikidata": "Q1156653", "grades": "1-12", "name": "Kendriya Vidyalaya", "operator:type": "government_non_profit", "website": "https://iitkanpur.kvs.ac.in/"}, "geometry": {"type": "Polygon", "coordinates": [[[80.2354721, 26.5092981], [80.2354911, 26.5083523], [80.2355068, 26.5075711], [80.2374777, 26.5076028], [80.2374645, 26.5082614], [80.2372869, 26.508497], [80.2372739, 26.5091363], [80.2362265, 26.5091192], [80.2362226, 26.5093102], [80.2354721, 26.5092981]]]}}, {"type": "Feature", "properties": {"osm_id": 310313680, "osm_type": "way", "addr:city": "Kanpur", "addr:housenumber": "831 B", "addr:postcode": "208020", "addr:street": "M.I.G Road", "amenity": "school", "name": "Shi Ram Education Centre"}, "geometry": {"type": "Polygon", "coordinates": [[[80.2526422, 26.4653647], [80.2531849, 26.4648806], [80.2538369, 26.4654664], [80.2542768, 26.4658571], [80.2537369, 26.4663441], [80.2533003, 26.4659562], [80.2526422, 26.4653647]]]}}, {"type": "Feature", "properties": {"osm_id": 506689489, "osm_type": "way", "amenity": "university", "contact:facebook": "https://www.facebook.com/csjmuknp", "email": "csjmu@kanpuruniversity.org", "name": "Chhatrapati Shahu Ji Maharaj University", "name:etymology:wikidata": "Q3633171", "old_name": "Kanpur University", "operator:type": "public", "phone": "0512 258 1280", "short_name": "CSJMU", "website": "https://csjmu.ac.in/", "wikidata": "Q5094823"}, "geometry": {"type": "Polygon", "coordinates": [[[80.2696411, 26.4965919], [80.2739292, 26.5070579], [80.2673913, 26.5094728], [80.2632916, 26.5038463], [80.2631244, 26.5035256], [80.2629912, 26.5032702], [80.2638205, 26.5027534], [80.2632809, 26.5022709], [80.2630646, 26.5024332], [80.2618754, 26.5010139], [80.2621865, 26.5004666], [80.2610547, 26.4999553], [80.2611056, 26.4995976], [80.2621007, 26.4993528], [80.2617145, 26.4982486], [80.2639997, 26.4975645], [80.2666685, 26.4967723], [80.2673283, 26.4965683], [80.2676636, 26.4971828], [80.2679747, 26.4970964], [80.2679077, 26.496926], [80.2683315, 26.4967531], [80.2684361, 26.4969476], [80.2687228, 26.4968625], [80.2690014, 26.4967797], [80.2696411, 26.4965919]]]}}, {"type": "Feature", "properties": {"osm_id": 583260172, "osm_type": "way", "amenity": "school"}, "geometry": {"type": "Polygon", "coordinates": [[[80.368372, 26.4613581], [80.3675405, 26.4617759], [80.3674171, 26.4612332], [80.3681681, 26.4609691], [80.368372, 26.4613581]]]}}, {"type": "Feature", "properties": {"osm_id": 836429246, "osm_type": "way", "amenity": "college", "name": "Christ Church Inter College"}, "geometry": {"type": "Polygon", "coordinates": [[[80.3524514, 26.4720978], [80.3523636, 26.4718336], [80.3526363, 26.4717617], [80.3527335, 26.4720409], [80.3524514, 26.4720978]]]}}, {"type": "Feature", "properties": {"osm_id": 836429247, "osm_type": "way", "amenity": "college", "name": "Christ Church College, Kanpur"}, "geometry": {"type": "Polygon", "coordinates": [[[80.3525566, 26.4712537], [80.3524725, 26.4711333], [80.3526724, 26.4710396], [80.352749, 26.4711667], [80.3525566, 26.4712537]]]}}, {"type": "Feature", "properties": {"osm_id": 902921461, "osm_type": "way", "amenity": "school"}, "geometry": {"type": "Polygon", "coordinates": [[[80.3705975, 26.4556056], [80.3712322, 26.4563795], [80.3712127, 26.4564806], [80.3696746, 26.4575613], [80.3686816, 26.4562819], [80.3693514, 26.4558566], [80.3705975, 26.4556056]]]}}, {"type": "Feature", "properties": {"osm_id": 955941905, "osm_type": "way", "addr:postcode": "208002", "addr:street": "Azad nagar strreet", "amenity": "school", "name": "Pandit Deen Dayal Upadhyay School", "name:etymology:wikidata": "Q3631426"}, "geometry": {"type": "Polygon", "coordinates": [[[80.3117484, 26.4990936], [80.3121024, 26.4995448], [80.313009, 26.499132], [80.3124082, 26.4982342], [80.3122151, 26.498191], [80.311861, 26.4989351], [80.3117484, 26.4990936]]]}}, {"type": "Feature", "properties": {"osm_id": 955941914, "osm_type": "way", "alt_name": "CSAUA&T", "amenity": "university", "name": "Chandra Shekhar Azad University of Agriculture and Technology", "name:etymology:wikidata": "Q738368", "name:hi": "चन्द्र शेखर आजाद कृषि एवं प्रौद्योगिकी विश्वविद्यालय", "website": "https://csauk.ac.in/", "wikidata": "Q5071310", "wikipedia": "en:Chandra Shekhar Azad University of Agriculture and Technology"}, "geometry": {"type": "Polygon", "coordinates": [[[80.3091574, 26.4922089], [80.3103161, 26.4921993], [80.3106487, 26.4918153], [80.3109276, 26.491508], [80.3101283, 26.4909366], [80.310654, 26.4904325], [80.3101122, 26.4898564], [80.3098118, 26.4893426], [80.3092378, 26.4889873], [80.3073013, 26.487595], [80.3057349, 26.4864474], [80.3054184, 26.4862314], [80.3044367, 26.4858713], [80.3033155, 26.4854824], [80.3024733, 26.4851175], [80.3017062, 26.4847189], [80.3003544, 26.4855592], [80.301379, 26.4866827], [80.3019154, 26.4869804], [80.3016311, 26.4873789], [80.3012985, 26.4877054], [80.3004616, 26.4880991], [80.3003383, 26.4881471], [80.3000218, 26.4873981], [80.2996463, 26.4876238], [80.2990079, 26.4862362], [80.2977741, 26.485079], [80.2955747, 26.4862842], [80.2954566, 26.4863802], [80.2953976, 26.4863466], [80.2936703, 26.4875277], [80.2935415, 26.4876046], [80.29374, 26.4879215], [80.2931821, 26.4882431], [80.2933109, 26.4884208], [80.2922809, 26.4890065], [80.2918839, 26.4884448], [80.2909398, 26.4890258], [80.2934504, 26.4921465], [80.2922165, 26.49315], [80.2944159, 26.496045], [80.2955908, 26.4956177], [80.2969801, 26.4958241], [80.2971572, 26.495973], [80.2975863, 26.4956753], [80.2977419, 26.4958145], [80.2996838, 26.4946575], [80.2991688, 26.4940094], [80.3002149, 26.4931932], [80.301438, 26.492545], [80.3020441, 26.4924442], [80.30294, 26.4926314], [80.3032306, 26.4926164], [80.3034979, 26.4926026], [80.3045869, 26.4923146], [80.3073817, 26.4922426], [80.3078484, 26.4922233], [80.3091574, 26.4922089]]]}}, {"type": "Feature", "properties": {"osm_id": 1137189333, "osm_type": "way", "addr:city": "Kanpur", "addr:postcode": "208016", "amenity": "school", "name": "Campus School", "phone": "+91 512 2597354;+91 512 2597770", "website": "https://www.iitk.ac.in/campusschool/"}, "geometry": {"type": "Polygon", "coordinates": [[[80.2339679, 26.5067161], [80.2353252, 26.5067274], [80.2353372, 26.505584], [80.234487, 26.5055768], [80.2342754, 26.5057689], [80.234272, 26.5061046], [80.2339742, 26.5061021], [80.2339679, 26.5067161]]]}}, {"type": "Feature", "properties": {"osm_id": 1157380952, "osm_type": "way", "addr:city": "Kanpur", "addr:place": "Kalyanpur", "addr:postcode": "208017", "amenity": "university", "email": "nsikanpur@nic.in", "name": "National Sugar Institute", "short_name": "NSI Kanpur", "website": "http://nsi.gov.in/", "wikidata": "Q13652208", "wikipedia": "en:National Sugar Institute"}, "geometry": {"type": "Polygon", "coordinates": [[[80.2513097, 26.5081704], [80.250856, 26.5066265], [80.2514189, 26.5054916], [80.2518163, 26.5049552], [80.2529024, 26.5061732], [80.2533263, 26.507717], [80.2513097, 26.5081704]]]}}, {"type": "Feature", "properties": {"osm_id": 1172337971, "osm_type": "way", "addr:city": "Kanpur", "addr:housenumber": "6, Naramau", "addr:postcode": "208016", "amenity": "school", "email": "wendyhighschoolnaramau@gmail.com", "name": "Wendy High School", "phone": "+91-7311133336", "website": "https://www.wendyhighschool.com/"}, "geometry": {"type": "Polygon", "coordinates": [[[80.2414447, 26.5179421], [80.2417669, 26.5181219], [80.2419894, 26.5178026], [80.2416673, 26.5176228], [80.2414447, 26.5179421]]]}}, {"type": "Feature", "properties": {"osm_id": 1349241153, "osm_type": "way", "addr:city": "Kanpur", "addr:district": "Kanpur Nagar", "addr:postcode": "208011", "addr:street": "Padmanabhan Mandir Road", "amenity": "school", "mobile": "+91-0800-9005551", "name": "Delhi Public School Kidwai Nagar", "opening_hours": "Mo-Sa 08:00-16:00"}, "geometry": {"type": "Polygon", "coordinates": [[[80.3260507, 26.4266084], [80.3261954, 26.4268113], [80.3263509, 26.4267206], [80.3262052, 26.4265197], [80.3260507, 26.4266084]]]}}, {"type": "Feature", "properties": {"osm_id": 1352107570, "osm_type": "way", "amenity": "school"}, "geometry": {"type": "Polygon", "coordinates": [[[80.320879, 26.4221235], [80.3218186, 26.4217485], [80.3215416, 26.4212279], [80.3207438, 26.4215659], [80.320879, 26.4221235]]]}}, {"type": "Feature", "properties": {"osm_id": 1352111154, "osm_type": "way", "amenity": "school"}, "geometry": {"type": "Polygon", "coordinates": [[[80.3294097, 26.4267091], [80.3299316, 26.4263644], [80.3293984, 26.4257171], [80.3288766, 26.4260617], [80.3294097, 26.4267091]]]}}, {"type": "Feature", "properties": {"osm_id": 1387429991, "osm_type": "way", "amenity": "college", "name": "Indian Institute of Pulses Research", "name:hi": "भारतीय दलहन अनुसंधान संस्था", "operator:type": "public", "short_name": "IIPR", "wikipedia": "en:Indian_Institute_of_Pulses_Research"}, "geometry": {"type": "Polygon", "coordinates": [[[80.2550384, 26.4942244], [80.2584893, 26.4919723], [80.2649639, 26.4892857], [80.2653702, 26.4899712], [80.2655941, 26.4900158], [80.2664246, 26.4892159], [80.2668941, 26.488942], [80.2746285, 26.488977], [80.2758623, 26.4903062], [80.2766534, 26.4915041], [80.2780922, 26.4928656], [80.2781492, 26.4928504], [80.2782256, 26.4929982], [80.2718148, 26.4949371], [80.2717326, 26.4946906], [80.2714554, 26.4948133], [80.258393, 26.4986478], [80.2550384, 26.4942244]]]}}, {"type": "Feature", "properties": {"osm_id": 1449378691, "osm_type": "way", "addr:city": "Kanpur", "addr:district": "Kanpur Nagar", "addr:postcode": "208011", "amenity": "school", "education": "school", "operator": "UP Kirana School Samiti"}, "geometry": {"type": "Polygon", "coordinates": [[[80.3241171, 26.4304288], [80.3243222, 26.4303753], [80.3240173, 26.4299543], [80.3239115, 26.4299786], [80.3241171, 26.4304288]]]}}, {"type": "Feature", "properties": {"osm_id": 1453321807, "osm_type": "way", "amenity": "school", "name": "Dr. Virendra Swarup Public School"}, "geometry": {"type": "Polygon", "coordinates": [[[80.268822, 26.49633], [80.2694846, 26.496102], [80.2696834, 26.4965795], [80.2696411, 26.4965919], [80.2690014, 26.4967797], [80.268822, 26.49633]]]}}, {"type": "Feature", "properties": {"osm_id": 1489353742, "osm_type": "way", "amenity": "school", "name": "Sunshine Public School", "operator:type": "private"}, "geometry": {"type": "Polygon", "coordinates": [[[80.2710934, 26.4842565], [80.2708705, 26.4839142], [80.2702995, 26.484212], [80.2705213, 26.4845575], [80.2710934, 26.4842565]]]}}, {"type": "Feature", "properties": {"osm_id": 1489353743, "osm_type": "way", "amenity": "school", "name": "Escorts World School", "operator:type": "private"}, "geometry": {"type": "Polygon", "coordinates": [[[80.2685198, 26.4879941], [80.2690204, 26.4886859], [80.2687106, 26.4888469], [80.2681284, 26.4887135], [80.2678698, 26.4883282], [80.2685198, 26.4879941]]]}}, {"type": "Feature", "properties": {"osm_id": 1489353744, "osm_type": "way", "amenity": "school", "name": "Bharti Gyansthali Higher Secondary School", "operator:type": "private", "short_name": "B.G.S. Higher Secondary School"}, "geometry": {"type": "Polygon", "coordinates": [[[80.2712407, 26.4844807], [80.2710934, 26.4842565], [80.2705213, 26.4845575], [80.2706685, 26.4847817], [80.2712407, 26.4844807]]]}}, {"type": "Feature", "properties": {"osm_id": 1508800388, "osm_type": "way", "amenity": "school", "area": "yes", "name": "Army Public School Cantt Kanpur"}, "geometry": {"type": "Polygon", "coordinates": [[[80.363752, 26.4360525], [80.3650002, 26.4361593], [80.3672525, 26.4368996], [80.3659887, 26.4341038], [80.3637407, 26.4335205], [80.363752, 26.4360525]]]}}]}