{"type": "FeatureCollection", "crs": {"type": "name", "properties": {"name": "urn:ogc:def:crs:OGC:1.3:CRS84"}}, "features": [{"type": "Feature", "properties": {"osm_id": 2734619313, "osm_type": "node", "amenity": "toilets"}, "geometry": {"type": "Point", "coordinates": [80.2362652, 26.511768]}}, {"type": "Feature", "properties": {"osm_id": 8087654604, "osm_type": "node", "amenity": "toilets"}, "geometry": {"type": "Point", "coordinates": [80.351992, 26.4559363]}}, {"type": "Feature", "properties": {"osm_id": 8087654605, "osm_type": "node", "amenity": "toilets"}, "geometry": {"type": "Point", "coordinates": [80.3513136, 26.4582624]}}, {"type": "Feature", "properties": {"osm_id": 8087654606, "osm_type": "node", "amenity": "toilets"}, "geometry": {"type": "Point", "coordinates": [80.3585226, 26.4622567]}}, {"type": "Feature", "properties": {"osm_id": 8090183393, "osm_type": "node", "amenity": "toilets"}, "geometry": {"type": "Point", "coordinates": [80.3492289, 26.4569472]}}, {"type": "Feature", "properties": {"osm_id": 8090183394, "osm_type": "node", "amenity": "toilets"}, "geometry": {"type": "Point", "coordinates": [80.3545483, 26.4559126]}}, {"type": "Feature", "properties": {"osm_id": 8090183395, "osm_type": "node", "amenity": "toilets"}, "geometry": {"type": "Point", "coordinates": [80.3581374, 26.4566837]}}, {"type": "Feature", "properties": {"osm_id": 8090183396, "osm_type": "node", "amenity": "toilets"}, "geometry": {"type": "Point", "coordinates": [80.3590593, 26.4607047]}}, {"type": "Feature", "properties": {"osm_id": 10583209415, "osm_type": "node", "amenity": "toilets", "female": "yes"}, "geometry": {"type": "Point", "coordinates": [80.2280998, 26.5094319]}}, {"type": "Feature", "properties": {"osm_id": 10583209416, "osm_type": "node", "amenity": "toilets", "female": "yes"}, "geometry": {"type": "Point", "coordinates": [80.2263841, 26.5060854]}}, {"type": "Feature", "properties": {"osm_id": 10605366657, "osm_type": "node", "amenity": "toilets"}, "geometry": {"type": "Point", "coordinates": [80.2331485, 26.5108503]}}, {"type": "Feature", "properties": {"osm_id": 10605408144, "osm_type": "node", "amenity": "toilets", "male": "yes"}, "geometry": {"type": "Point", "coordinates": [80.2291734, 26.5049672]}}, {"type": "Feature", "properties": {"osm_id": 10656632243, "osm_type": "node", "amenity": "toilets"}, "geometry": {"type": "Point", "coordinates": [80.2329614, 26.5089734]}}, {"type": "Feature", "properties": {"osm_id": 10834140700, "osm_type": "node", "amenity": "toilets"}, "geometry": {"type": "Point", "coordinates": [80.3063357, 26.4740243]}}, {"type": "Feature", "properties": {"osm_id": 11236080186, "osm_type": "node", "access": "yes", "amenity": "toilets", "female": "no", "male": "yes"}, "geometry": {"type": "Point", "coordinates": [80.3512212, 26.4539387]}}, {"type": "Feature", "properties": {"osm_id": 13331574382, "osm_type": "node", "access": "yes", "amenity": "toilets", "fee": "yes", "female": "yes", "male": "yes"}, "geometry": {"type": "Point", "coordinates": [80.3505877, 26.4532734]}}, {"type": "Feature", "properties": {"osm_id": 13651498477, "osm_type": "node", "access": "permissive", "amenity": "toilets", "fee": "no", "level": "0", "male": "yes", "toilets:disposal": "flush", "toilets:handwashing": "yes", "toilets:position": "seated;urinal"}, "geometry": {"type": "Point", "coordinates": [80.2709832, 26.4833083]}}, {"type": "Feature", "properties": {"osm_id": 13651498500, "osm_type": "node", "access": "permissive", "amenity": "toilets", "fee": "no", "female": "yes", "level": "0", "toilets:disposal": "flush", "toilets:handwashing": "yes", "toilets:position": "seated;urinal"}, "geometry": {"type": "Point", "coordinates": [80.2709668, 26.4832801]}}, {"type": "Feature", "properties": {"osm_id": 13672577116, "osm_type": "node", "access": "customers", "amenity": "toilets", "female": "yes", "male": "yes", "toilets:disposal": "flush"}, "geometry": {"type": "Point", "coordinates": [80.3061131, 26.4618054]}}, {"type": "Feature", "properties": {"osm_id": 1135360257, "osm_type": "way", "amenity": "toilets", "building": "yes"}, "geometry": {"type": "Polygon", "coordinates": [[[80.2288814, 26.5040557], [80.2289958, 26.5040557], [80.2289958, 26.5039646], [80.2288814, 26.5039646], [80.2288814, 26.5040557]]]}}, {"type": "Feature", "properties": {"osm_id": 1488889417, "osm_type": "way", "access": "yes", "amenity": "toilets", "toilets:disposal": "flush"}, "geometry": {"type": "Polygon", "coordinates": [[[80.2529327, 26.5030315], [80.2529936, 26.5029585], [80.2530233, 26.5029783], [80.2529623, 26.5030513], [80.2529327, 26.5030315]]]}}, {"type": "Feature", "properties": {"osm_id": 1489040317, "osm_type": "way", "access": "permissive", "amenity": "toilets", "fee": "no", "female": "yes", "level": "1", "toilets:disposal": "flush", "toilets:handwashing": "yes", "toilets:position": "squat", "wheelchair": "limited"}, "geometry": {"type": "Polygon", "coordinates": [[[80.2323915, 26.5107329], [80.2324162, 26.5107377], [80.2324262, 26.5107266], [80.2324297, 26.5107128], [80.2324262, 26.5106989], [80.2324163, 26.5106878], [80.2324019, 26.5106817], [80.2323915, 26.5107329]]]}}, {"type": "Feature", "properties": {"osm_id": 1489040318, "osm_type": "way", "access": "permissive", "amenity": "toilets", "fee": "no", "level": "0", "male": "yes", "toilets:disposal": "flush", "toilets:handwashing": "yes", "toilets:position": "squat;urinal", "wheelchair": "limited"}, "geometry": {"type": "Polygon", "coordinates": [[[80.2323915, 26.5107329], [80.2324019, 26.5106817], [80.2323861, 26.5106818], [80.2323718, 26.510688], [80.232362, 26.5106992], [80.2323586, 26.5107131], [80.2323624, 26.5107269], [80.2323915, 26.5107329]]]}}, {"type": "Feature", "properties": {"osm_id": 1489040329, "osm_type": "way", "access": "permissive", "amenity": "toilets", "fee": "no", "level": "1", "male": "yes", "toilets:disposal": "flush", "toilets:handwashing": "yes", "toilets:position": "squat;urinal", "wheelchair": "limited"}, "geometry": {"type": "Polygon", "coordinates": [[[80.2323915, 26.5107329], [80.2324019, 26.5106817], [80.2323861, 26.5106818], [80.2323718, 26.510688], [80.232362, 26.5106992], [80.2323586, 26.5107131], [80.2323624, 26.5107269], [80.2323915, 26.5107329]]]}}, {"type": "Feature", "properties": {"osm_id": 1489040335, "osm_type": "way", "access": "permissive", "amenity": "toilets", "fee": "no", "female": "yes", "level": "0", "toilets:disposal": "flush", "toilets:handwashing": "yes", "toilets:position": "squat", "wheelchair": "limited"}, "geometry": {"type": "Polygon", "coordinates": [[[80.2323915, 26.5107329], [80.2324162, 26.5107377], [80.2324262, 26.5107266], [80.2324297, 26.5107128], [80.2324262, 26.5106989], [80.2324163, 26.5106878], [80.2324019, 26.5106817], [80.2323915, 26.5107329]]]}}]}