{"type": "FeatureCollection", "features": [{"type": "Feature", "geometry": {"type": "Point", "coordinates": [72.5163171, 23.0398116]}, "properties": {"name": "Bodakdev Fire Station", "kind": "fire"}}, {"type": "Feature", "geometry": {"type": "Point", "coordinates": [72.5510013, 23.0455062]}, "properties": {"name": "Memnagar Fire Station", "kind": "fire"}}, {"type": "Feature", "geometry": {"type": "Point", "coordinates": [72.4711874, 23.0126733]}, "properties": {"name": "Bopal Fire Station", "kind": "fire"}}, {"type": "Feature", "geometry": {"type": "Point", "coordinates": [72.499106, 23.0537528]}, "properties": {"name": "Thaltej Fire Dpt.", "kind": "fire"}}, {"type": "Feature", "geometry": {"type": "Point", "coordinates": [72.6838274, 23.1663246]}, "properties": {"name": "GIFT Fire Station", "kind": "fire"}}, {"type": "Feature", "geometry": {"type": "Point", "coordinates": [72.6305471, 23.0778321]}, "properties": {"name": "Sardar Vallabhbhai Patel International Airport Fire Station", "kind": "fire"}}]}