{"type": "FeatureCollection", "crs": {"type": "name", "properties": {"name": "urn:ogc:def:crs:OGC:1.3:CRS84"}}, "features": [{"type": "Feature", "properties": {"osm_id": 2445342986, "osm_type": "node", "addr:district": "Khordha", "addr:full": "IMS and SUM Hospital, K-8,Kalinga Nagar, Bhubaneswar,Khordha", "addr:postcode": "751003", "addr:state": "Odisha", "addr:subdistrict": "Bhubaneswar", "amenity": "hospital", "email": "sumhospital@soauniversity.ac.in", "healthcare": "hospital", "name": "IMS SUM Hospital", "source": "OpenGovernmentData", "website": "https://www.ims.ac.in/", "wikidata": "Q16958268", "wikipedia": "en:Institute of Medical Sciences and Sum Hospital"}, "geometry": {"type": "Point", "coordinates": [85.7696633, 20.2834826]}}, {"type": "Feature", "properties": {"osm_id": 2445343009, "osm_type": "node", "amenity": "hospital", "healthcare": "hospital", "name": "Institute of Dental Sciences"}, "geometry": {"type": "Point", "coordinates": [85.7673727, 20.2828486]}}, {"type": "Feature", "properties": {"osm_id": 2895059331, "osm_type": "node", "addr:district": "Khordha", "addr:full": "N4-1/1, Irc Village Nayapally Bhubaneswar", "addr:postcode": "751015", "addr:state": "Odisha", "amenity": "clinic", "emergency": "no", "name": "Usthi Hospital And Research Centre", "source": "OpenGovernmentData"}, "geometry": {"type": "Point", "coordinates": [85.8112879, 20.2935264]}}, {"type": "Feature", "properties": {"osm_id": 2895073909, "osm_type": "node", "addr:city": "Bhubaneswar", "addr:housenumber": "Acharya Vihar", "addr:street": "bhubaneswar", "amenity": "hospital", "emergency": "yes"}, "geometry": {"type": "Point", "coordinates": [85.8316524, 20.3057095]}}, {"type": "Feature", "properties": {"osm_id": 2928932109, "osm_type": "node", "addr:city": "Bhubaneswar", "addr:postcode": "751015", "addr:street": "Nayapalli", "amenity": "hospital", "name": "Lion's Eye Hospital"}, "geometry": {"type": "Point", "coordinates": [85.8114232, 20.2932299]}}, {"type": "Feature", "properties": {"osm_id": 2934142991, "osm_type": "node", "amenity": "hospital"}, "geometry": {"type": "Point", "coordinates": [85.7951552, 20.2728258]}}, {"type": "Feature", "properties": {"osm_id": 2935070101, "osm_type": "node", "amenity": "hospital", "name": "kids hospital ground"}, "geometry": {"type": "Point", "coordinates": [85.7851433, 20.2442831]}}, {"type": "Feature", "properties": {"osm_id": 3134943544, "osm_type": "node", "amenity": "hospital", "name": "Zenith Clinic"}, "geometry": {"type": "Point", "coordinates": [85.7863147, 20.2610038]}}, {"type": "Feature", "properties": {"osm_id": 3777142424, "osm_type": "node", "addr:district": "Khordha", "addr:full": "Plot No -251 Sainik School Road Unit-15 Bhubaneswar", "addr:postcode": "751005", "addr:state": "Odisha", "amenity": "hospital", "healthcare": "hospital", "name": "Apollo Hospitals", "operator": "Apollo Hospitals", "operator:type": "private", "operator:wikidata": "Q4780321", "source": "OpenGovernmentData"}, "geometry": {"type": "Point", "coordinates": [85.8316432, 20.305642]}}, {"type": "Feature", "properties": {"osm_id": 3777142895, "osm_type": "node", "amenity": "hospital", "name": "Shree Hospitals"}, "geometry": {"type": "Point", "coordinates": [85.8415191, 20.2483697]}}, {"type": "Feature", "properties": {"osm_id": 4794225133, "osm_type": "node", "addr:city": "Bhubaneshwar", "addr:district": "Khordha", "addr:housenumber": "324", "addr:postcode": "751016", "addr:street": "Prachi Enclave", "alt_name": "Care Hospitals", "amenity": "hospital", "emergency": "yes", "health_facility:type": "emergency services", "name": "Care hospital unit 2", "website": "https://www.carehospitals.com/"}, "geometry": {"type": "Point", "coordinates": [85.8128616, 20.3214309]}}, {"type": "Feature", "properties": {"osm_id": 7051098081, "osm_type": "node", "addr:district": "Khordha", "addr:full": "Plot No-185-P, Saheed Nagar, Bhubaneswar", "addr:postcode": "751007", "addr:state": "Odisha", "amenity": "hospital", "name": "Jagannath Hospital", "source": "OpenGovernmentData"}, "geometry": {"type": "Point", "coordinates": [85.8448559, 20.2899524]}}, {"type": "Feature", "properties": {"osm_id": 7051124622, "osm_type": "node", "addr:district": "Khordha", "addr:full": "164, Bapuji Nagar, Bhubaneswar", "addr:postcode": "751009", "addr:state": "Odisha", "amenity": "hospital", "name": "Jagannath Seva Sadan", "source": "OpenGovernmentData"}, "geometry": {"type": "Point", "coordinates": [85.8372905, 20.2605818]}}, {"type": "Feature", "properties": {"osm_id": 7051296367, "osm_type": "node", "addr:district": "Khordha", "addr:full": "N-1/258, Irc Village, Crp Square, Nayapalli, Bhubaneswar", "addr:postcode": "751015", "addr:state": "Odisha", "amenity": "hospital", "name": "Millenium Hospitals Private Limited", "source": "OpenGovernmentData"}, "geometry": {"type": "Point", "coordinates": [85.807323, 20.2859719]}}, {"type": "Feature", "properties": {"osm_id": 7053681974, "osm_type": "node", "addr:district": "Khordha", "addr:full": "No.4 1/2 Nayapalli", "addr:postcode": "751015", "addr:state": "Odisha", "amenity": "hospital", "name": "Lions Eye Hospital, Khordha", "source": "OpenGovernmentData"}, "geometry": {"type": "Point", "coordinates": [85.8117187, 20.293277]}}, {"type": "Feature", "properties": {"osm_id": 7053772988, "osm_type": "node", "addr:district": "Khordha", "addr:full": "3103A, Mahabir Bazaar, Samantarapur, Bhubaneswar", "addr:postcode": "751002", "addr:state": "Odisha", "amenity": "hospital", "name": "Sanjeevani Medicare", "source": "OpenGovernmentData"}, "geometry": {"type": "Point", "coordinates": [85.8414093, 20.2322348]}}, {"type": "Feature", "properties": {"osm_id": 7059164419, "osm_type": "node", "addr:district": "Khordha", "addr:full": "A/142, Saheed Nagar, Bhubneshwar", "addr:postcode": "751007", "addr:state": "Odisha", "amenity": "hospital", "name": "Matrenity Care Hospital", "source": "OpenGovernmentData"}, "geometry": {"type": "Point", "coordinates": [85.8441536, 20.2943263]}}, {"type": "Feature", "properties": {"osm_id": 7059195268, "osm_type": "node", "addr:district": "Khordha", "addr:full": "2508-B, Lewis Road , Bhubneshwar", "addr:postcode": "751002", "addr:state": "Odisha", "amenity": "clinic", "name": "Sneha Clinic", "source": "OpenGovernmentData"}, "geometry": {"type": "Point", "coordinates": [85.8389054, 20.245379]}}, {"type": "Feature", "properties": {"osm_id": 7062135275, "osm_type": "node", "addr:district": "Khordha", "addr:full": "C-19,Palashpalli, Bhubaneswar", "addr:postcode": "751020", "addr:state": "Odisha", "amenity": "clinic", "name": "Utkal Polyclinic", "source": "OpenGovernmentData"}, "geometry": {"type": "Point", "coordinates": [85.8243088, 20.2466112]}}, {"type": "Feature", "properties": {"osm_id": 7062152957, "osm_type": "node", "addr:district": "Khordha", "addr:full": "Market Building, Unit-II, Market Building, Unit-2, Ashok Nagar, Bhubaneswar", "addr:postcode": "751009", "addr:state": "Odisha", "amenity": "hospital", "name": "Utkal Ayurveda Pratisthan", "source": "OpenGovernmentData"}, "geometry": {"type": "Point", "coordinates": [85.8330927, 20.2654456]}}, {"type": "Feature", "properties": {"osm_id": 7068857140, "osm_type": "node", "addr:district": "Khordha", "addr:full": "666, Lal Bahadur Sastry Colony, Old Station Bazar, Bhubaneswar", "addr:postcode": "751006", "addr:state": "Odisha", "amenity": "hospital", "name": "Satayu Hospital and Diabetic Research Centre", "source": "OpenGovernmentData"}, "geometry": {"type": "Point", "coordinates": [85.8467915, 20.2635981]}}, {"type": "Feature", "properties": {"osm_id": 7068857145, "osm_type": "node", "addr:district": "Khordha", "addr:full": "8,Madhusudan Nagar,Unit-Iv", "addr:postcode": "751001", "addr:state": "Odisha", "amenity": "clinic", "name": "Satabdi Gynaec Clinic", "source": "OpenGovernmentData"}, "geometry": {"type": "Point", "coordinates": [85.8335609, 20.2829223]}}, {"type": "Feature", "properties": {"osm_id": 7068857150, "osm_type": "node", "addr:district": "Khordha", "addr:full": "33, Forest Park, ( In Front Of Dr. P. C.Mohanty Ultrasound Clinic) Bhubneswar", "addr:postcode": "751009", "addr:state": "Odisha", "amenity": "clinic", "name": "Saswat Clinic", "source": "OpenGovernmentData"}, "geometry": {"type": "Point", "coordinates": [85.8294653, 20.2552531]}}, {"type": "Feature", "properties": {"osm_id": 7078964748, "osm_type": "node", "addr:district": "Khordha", "addr:full": "Campus - 5, Kiit University, Chandaka Industrial Estate, K I I T University, Patia, Bhubaneswar, Od 751024", "addr:postcode": "751024", "addr:state": "Odisha", "amenity": "hospital", "name": "Pradyumna Bal Memorial Hospital (Kalinga Inst Of Medical Sciences)", "source": "OpenGovernmentData", "website": "https://kims.kiit.ac.in/"}, "geometry": {"type": "Point", "coordinates": [85.8154891, 20.3534661]}}, {"type": "Feature", "properties": {"osm_id": 7078978774, "osm_type": "node", "addr:district": "Khordha", "addr:full": "A/99, Budha Nagar, Bhubaneswar", "addr:postcode": "751006", "addr:state": "Odisha", "amenity": "clinic", "name": "Sun Flower Nursing Home", "source": "OpenGovernmentData"}, "geometry": {"type": "Point", "coordinates": [85.8427054, 20.2610585]}}, {"type": "Feature", "properties": {"osm_id": 7079057896, "osm_type": "node", "addr:district": "Khordha", "addr:full": "A/407, Sahid Nagar, Bhubaneshwar,Behind Netra Tower, Vali Vihar", "addr:postcode": "751007", "addr:state": "Odisha", "amenity": "hospital", "name": "Sparsh Hospital & Critical Care Pvt. Ltd.", "source": "OpenGovernmentData"}, "geometry": {"type": "Point", "coordinates": [85.8433176, 20.2953994]}}, {"type": "Feature", "properties": {"osm_id": 7079170763, "osm_type": "node", "addr:district": "Khordha", "addr:full": "A/115, Press Colony, Unit - iii ,Kharvel Nagar, Bhubaneswar", "addr:postcode": "751001", "addr:state": "Odisha", "amenity": "clinic", "name": "Panda Nursing Home Pvt Ltd", "source": "OpenGovernmentData"}, "geometry": {"type": "Point", "coordinates": [85.8473577, 20.2747054]}}, {"type": "Feature", "properties": {"osm_id": 7079232145, "osm_type": "node", "addr:district": "Khordha", "addr:full": "Pandara, Rasulgarh, Bhubaneswar", "addr:postcode": "751025", "addr:state": "Odisha", "addr:subdistrict": "Bhubaneswar", "amenity": "hospital", "email": "info@hi-techmedical.org", "name": "Hi Tech Medical College, Bhubaneswar", "source": "OpenGovernmentData", "website": "https://www.hi-techmedical.org/"}, "geometry": {"type": "Point", "coordinates": [85.87846, 20.3039069]}}, {"type": "Feature", "properties": {"osm_id": 7079268142, "osm_type": "node", "addr:district": "Khordha", "addr:full": "Nalco Square, Rmrc Backside", "addr:postcode": "751023", "addr:state": "Odisha", "amenity": "hospital", "name": "Hemlata Hospitals and Research Centre", "source": "OpenGovernmentData"}, "geometry": {"type": "Point", "coordinates": [85.8168758, 20.3159425]}}, {"type": "Feature", "properties": {"osm_id": 7081521249, "osm_type": "node", "addr:district": "Khordha", "addr:full": "Plot No . 210/1320 , Sarala Nagar, Near Okilbag, Cuttack Road, Bhuvaneshwar", "addr:postcode": "751006", "addr:state": "Odisha", "amenity": "hospital", "name": "Padma Hospital", "source": "OpenGovernmentData"}, "geometry": {"type": "Point", "coordinates": [85.8493111, 20.2718248]}}, {"type": "Feature", "properties": {"osm_id": 7081521254, "osm_type": "node", "addr:district": "Cuttack", "addr:full": "Telengapenth, Nh-5", "addr:postcode": "754001", "addr:state": "Odisha", "amenity": "hospital", "name": "HCG Panda Cancer Hospital", "source": "OpenGovernmentData"}, "geometry": {"type": "Point", "coordinates": [85.8866879, 20.3872408]}}, {"type": "Feature", "properties": {"osm_id": 7081686541, "osm_type": "node", "addr:district": "Khordha", "addr:full": "Plot No:13,14, Bhoi Nagar, Acharya Vihar Square, Bhubaneswar", "addr:postcode": "751022", "addr:state": "Odisha", "amenity": "hospital", "name": "Ayush Hospital", "source": "OpenGovernmentData"}, "geometry": {"type": "Point", "coordinates": [85.8341166, 20.2961441]}}, {"type": "Feature", "properties": {"osm_id": 7081686546, "osm_type": "node", "addr:district": "Khordha", "addr:full": "B-104, Bda Duplex, Baramunda", "addr:postcode": "751001", "addr:state": "Odisha", "amenity": "clinic", "name": "Auro Clinic", "source": "OpenGovernmentData"}, "geometry": {"type": "Point", "coordinates": [85.7931639, 20.2752571]}}, {"type": "Feature", "properties": {"osm_id": 7081686566, "osm_type": "node", "addr:district": "Khordha", "addr:full": "Patia Bhubaneswar", "addr:postcode": "751024", "addr:state": "Odisha", "amenity": "hospital", "name": "Lv Prasad Eye Institute", "source": "OpenGovernmentData"}, "geometry": {"type": "Point", "coordinates": [85.8161745, 20.3464101]}}, {"type": "Feature", "properties": {"osm_id": 7081842631, "osm_type": "node", "addr:district": "Khordha", "addr:full": "Plot No 84 (D C) Saheed Nagar Bhubaneswar", "addr:postcode": "751007", "addr:state": "Odisha", "amenity": "hospital", "name": "Deepak Clinic And Nursing Home", "source": "OpenGovernmentData"}, "geometry": {"type": "Point", "coordinates": [85.8447242, 20.2922322]}}, {"type": "Feature", "properties": {"osm_id": 7081843200, "osm_type": "node", "addr:district": "Khordha", "addr:full": "4/84. Kharvelanagar Bhubaneswar", "addr:postcode": "751001", "addr:state": "Odisha", "amenity": "hospital", "email": "info@yoursite.com", "name": "Neelachal Hospital Pvt Ltd - Bhubaneshwar", "phone": "+ 1235 2355 98", "source": "OpenGovernmentData", "website": "http://www.neelachalhospital.in/"}, "geometry": {"type": "Point", "coordinates": [85.8454296, 20.2707865]}}, {"type": "Feature", "properties": {"osm_id": 7085358079, "osm_type": "node", "addr:district": "Khordha", "addr:full": "Plot No-2767/4805 , Nageshwer Tangi Old Town, Bhubaneswar", "addr:postcode": "751002", "addr:state": "Odisha", "amenity": "hospital", "name": "Annapurna Memorial Hospital", "source": "OpenGovernmentData"}, "geometry": {"type": "Point", "coordinates": [85.836615, 20.2464631]}}, {"type": "Feature", "properties": {"osm_id": 7085440147, "osm_type": "node", "addr:district": "Khordha", "addr:full": "N/5-121 ; Jayadev Vihar ; Nayapally", "addr:postcode": "751015", "addr:state": "Odisha", "amenity": "clinic", "name": "Life Line Clinic and Nursing Home, Khordha", "source": "OpenGovernmentData"}, "geometry": {"type": "Point", "coordinates": [85.816435, 20.297118]}}, {"type": "Feature", "properties": {"osm_id": 7085479263, "osm_type": "node", "addr:district": "Khordha", "addr:full": "Plot No-10 Satyanagar, Near Kali Mandir, Bhubaneswar", "addr:postcode": "751007", "addr:state": "Odisha", "amenity": "hospital", "name": "Kar Vision Eye Hospital", "source": "OpenGovernmentData"}, "geometry": {"type": "Point", "coordinates": [85.8442306, 20.2797771]}}, {"type": "Feature", "properties": {"osm_id": 7085481906, "osm_type": "node", "addr:district": "Khordha", "addr:full": "Plot No.329/1929P, Chandra Sekharpur, Near Muncipal Kalyan Mandap, Bhubaneswar", "addr:postcode": "751016", "addr:state": "Odisha", "amenity": "hospital", "emergency": "yes", "healthcare:speciality": "general", "name": "Aditya Ashwini Hospital", "source": "OpenGovernmentData"}, "geometry": {"type": "Point", "coordinates": [85.8224773, 20.3302101]}}, {"type": "Feature", "properties": {"osm_id": 7085703183, "osm_type": "node", "addr:district": "Khordha", "addr:full": "#1120, Phase-Ii,Near Khandagiri Square,Dumduma", "addr:postcode": "751019", "addr:state": "Odisha", "amenity": "hospital", "name": "Kanungo Insitute Of Diabetes Specialities", "source": "OpenGovernmentData"}, "geometry": {"type": "Point", "coordinates": [85.7851317, 20.2450522]}}, {"type": "Feature", "properties": {"osm_id": 7085744484, "osm_type": "node", "addr:district": "Bhubaneswar", "addr:full": "24, Behind Maharishi College, Saheed Nagar", "addr:postcode": "751007", "addr:state": "Odisha", "amenity": "hospital", "healthcare": "centre", "name": "Vision Care Eye Hospital", "source": "OpenGovernmentData"}, "geometry": {"type": "Point", "coordinates": [85.8496208, 20.284683]}}, {"type": "Feature", "properties": {"osm_id": 7087304436, "osm_type": "node", "addr:district": "Khordha", "addr:full": "33, Samanta Vihar, Nalco Square, Bhubaneswar", "addr:postcode": "751017", "addr:state": "Odisha", "amenity": "hospital", "name": "Ananta Jyot Eye Hospital", "source": "OpenGovernmentData"}, "geometry": {"type": "Point", "coordinates": [85.8216242, 20.3149112]}}, {"type": "Feature", "properties": {"osm_id": 7087304446, "osm_type": "node", "addr:district": "Khordha", "addr:full": "Flot No 1, Bta District Centre, Chandrashekarpur", "addr:postcode": "751016", "addr:state": "Odisha", "amenity": "hospital", "name": "Bhubaneswar Medical Research Institute and Nursing Home", "source": "OpenGovernmentData"}, "geometry": {"type": "Point", "coordinates": [85.8198577, 20.3219121]}}, {"type": "Feature", "properties": {"osm_id": 7087304483, "osm_type": "node", "addr:district": "Khordha", "addr:full": "Plot No.1061, Nayapali Bhubaneswar", "addr:postcode": "751012", "addr:state": "Odisha", "amenity": "clinic", "name": "Krishna Nursing Home, Khordha", "source": "OpenGovernmentData"}, "geometry": {"type": "Point", "coordinates": [85.8144302, 20.2883682]}}, {"type": "Feature", "properties": {"osm_id": 7206421468, "osm_type": "node", "addr:district": "Khordha", "addr:full": "Nuabanta, Nuabanta", "addr:postcode": "754001", "addr:state": "Odisha", "amenity": "hospital", "name": "Hosp. Nuabanta", "source": "OpenGovernmentData"}, "geometry": {"type": "Point", "coordinates": [85.8573443, 20.3688686]}}, {"type": "Feature", "properties": {"osm_id": 7208902737, "osm_type": "node", "addr:district": "Khordha", "addr:full": "Bhingapur, Bhingapur", "addr:postcode": "752102", "addr:state": "Odisha", "addr:subdistrict": "Balianta", "amenity": "hospital", "name": "Goverment hospital,Bhingarpur", "source": "OpenGovernmentData"}, "geometry": {"type": "Point", "coordinates": [85.9312767, 20.2610963]}}, {"type": "Feature", "properties": {"osm_id": 7212038213, "osm_type": "node", "addr:district": "Khordha", "addr:full": "Secretariate Zonal Dispensary, Secretariate Zonal Dispensary", "addr:postcode": "751000", "addr:state": "Odisha", "addr:subdistrict": "Bhubaneswar (M.Corp.) P.S.", "amenity": "hospital", "name": "Secretariate Zonal Dispensary", "source": "OpenGovernmentData"}, "geometry": {"type": "Point", "coordinates": [85.8384629, 20.2739449]}}, {"type": "Feature", "properties": {"osm_id": 7701568080, "osm_type": "node", "addr:district": "Khordha", "addr:full": "Puranpadhan", "addr:postcode": "752100", "addr:state": "Odhisa", "amenity": "hospital", "name": "Sai Saburi Hospitals Private Hospital", "source": "Local Knowledge"}, "geometry": {"type": "Point", "coordinates": [85.8921327, 20.1982244]}}, {"type": "Feature", "properties": {"osm_id": 7701568085, "osm_type": "node", "addr:district": "Khordha", "addr:full": "Janani Hospital, Gangotri Nagar, Bhubaneswar", "addr:postcode": "751002", "addr:state": "Odhisa", "amenity": "hospital", "name": "Janani Hospital", "source": "Local Knowledge"}, "geometry": {"type": "Point", "coordinates": [85.8524348, 20.2169039]}}, {"type": "Feature", "properties": {"osm_id": 7701568087, "osm_type": "node", "addr:district": "Khordha", "addr:full": "Plot no -273, 6, Laxmi Vihar, Mahaveer Nagar, Bhubaneswar", "addr:postcode": "751002", "addr:state": "Odhisa", "amenity": "clinic", "name": "Health Cure Physiotherapy Clinic", "source": "Local Knowledge"}, "geometry": {"type": "Point", "coordinates": [85.843712, 20.225923]}}, {"type": "Feature", "properties": {"osm_id": 7701568093, "osm_type": "node", "addr:district": "Khordha", "addr:full": "Bhubaneswar", "addr:postcode": "751002", "addr:state": "Odhisa", "amenity": "clinic", "name": "Prava Life Care", "source": "Local Knowledge"}, "geometry": {"type": "Point", "coordinates": [85.844619, 20.223943]}}, {"type": "Feature", "properties": {"osm_id": 7701568094, "osm_type": "node", "addr:district": "Khordha", "addr:full": "Puranpadhan", "addr:postcode": "752100", "addr:state": "Odhisa", "amenity": "hospital", "name": "Government Ayurvedic Hospital", "source": "Local Knowledge"}, "geometry": {"type": "Point", "coordinates": [85.8991655, 20.1936121]}}, {"type": "Feature", "properties": {"osm_id": 7701568099, "osm_type": "node", "addr:district": "Khordha", "addr:full": "Samantarapur, Bhubaneswar", "addr:postcode": "751002", "addr:state": "Odhisa", "amenity": "hospital", "name": "Muncipal Hospital", "source": "Local Knowledge"}, "geometry": {"type": "Point", "coordinates": [85.8420358, 20.2309511]}}, {"type": "Feature", "properties": {"osm_id": 7701568125, "osm_type": "node", "addr:district": "Khordha", "addr:full": "Samantarapur, Bhubaneswar", "addr:postcode": "751002", "addr:state": "Odhisa", "amenity": "hospital", "name": "Sara Hospital", "source": "Local Knowledge"}, "geometry": {"type": "Point", "coordinates": [85.8429377, 20.2349312]}}, {"type": "Feature", "properties": {"osm_id": 7701568128, "osm_type": "node", "addr:district": "Khordha", "addr:full": "Vijaya Vihar, Lingipur, Bhubaneswar", "addr:postcode": "751002", "addr:state": "Odhisa", "amenity": "clinic", "name": "Maa Sakti Clinic", "source": "Local Knowledge"}, "geometry": {"type": "Point", "coordinates": [85.8437838, 20.2222292]}}, {"type": "Feature", "properties": {"osm_id": 7701568138, "osm_type": "node", "addr:district": "Khordha", "addr:full": "Gouri Nagar, Bhubaneswar", "addr:postcode": "751002", "addr:state": "Odhisa", "amenity": "hospital", "name": "Sara Gastro & Laparoscopic Hospital", "source": "Local Knowledge"}, "geometry": {"type": "Point", "coordinates": [85.840364, 20.2375006]}}, {"type": "Feature", "properties": {"osm_id": 7701568156, "osm_type": "node", "addr:district": "Khordha", "addr:full": "Divya Vihar, Samantarapur, Bhubaneswar", "addr:postcode": "751002", "addr:state": "Odhisa", "amenity": "clinic", "name": "Sri Khetra Poly Clinic", "source": "Local Knowledge"}, "geometry": {"type": "Point", "coordinates": [85.8437126, 20.2314526]}}, {"type": "Feature", "properties": {"osm_id": 7701568169, "osm_type": "node", "addr:district": "Khordha", "addr:full": "Gangotri Nagar, Bhubaneswar", "addr:postcode": "751002", "addr:state": "Odhisa", "amenity": "clinic", "name": "Sunshine Clinic", "source": "Local Knowledge"}, "geometry": {"type": "Point", "coordinates": [85.8508522, 20.2183679]}}, {"type": "Feature", "properties": {"osm_id": 7701747908, "osm_type": "node", "addr:district": "Cuttack", "addr:full": "Cuttack", "addr:postcode": "754001", "addr:state": "Odhisa", "amenity": "hospital", "name": "Government Hospital", "source": "Local Knowledge"}, "geometry": {"type": "Point", "coordinates": [85.8884547, 20.3778991]}}, {"type": "Feature", "properties": {"osm_id": 7701747914, "osm_type": "node", "addr:district": "Cuttack", "addr:full": "Urali", "addr:postcode": "753011", "addr:state": "Odhisa", "amenity": "hospital", "name": "Rudra Hospital", "source": "Local Knowledge"}, "geometry": {"type": "Point", "coordinates": [85.8797351, 20.4145623]}}, {"type": "Feature", "properties": {"osm_id": 7701747930, "osm_type": "node", "addr:district": "Cuttack", "addr:full": "Bhanpur, Urali", "addr:postcode": "753011", "addr:state": "Odhisa", "amenity": "hospital", "name": "Sai Kiran Hospital", "source": "Local Knowledge"}, "geometry": {"type": "Point", "coordinates": [85.8796058, 20.4137204]}}, {"type": "Feature", "properties": {"osm_id": 7701747944, "osm_type": "node", "addr:district": "Cuttack", "addr:full": "Belagachhia, Cuttack", "addr:postcode": "754005", "addr:state": "Odhisa", "amenity": "hospital", "name": "Laxmi Hospital", "source": "Local Knowledge"}, "geometry": {"type": "Point", "coordinates": [85.8587099, 20.4147646]}}, {"type": "Feature", "properties": {"osm_id": 7709755694, "osm_type": "node", "addr:district": "Khordha", "addr:full": "Lenka Gali, Jagamara, Bhubaneswar", "addr:postcode": "751030", "addr:state": "Odhisa", "amenity": "hospital", "name": "Shrushti Hospital", "source": "Local Knowledge"}, "geometry": {"type": "Point", "coordinates": [85.7955432, 20.2624874]}}, {"type": "Feature", "properties": {"osm_id": 7709755697, "osm_type": "node", "addr:district": "Khordha", "addr:full": "Khandagiri - Chandaka Road, Khandagiri, Bhubaneswar", "addr:postcode": "751030", "addr:state": "Odhisa", "amenity": "hospital", "name": "Government Ayurvedic Hospital", "source": "Local Knowledge"}, "geometry": {"type": "Point", "coordinates": [85.787017, 20.260842]}}, {"type": "Feature", "properties": {"osm_id": 7709755698, "osm_type": "node", "addr:district": "Khordha", "addr:full": "Baramunda Housing Board Colony, Baramunda, Bhubaneswar", "addr:postcode": "751003", "addr:state": "Odhisa", "amenity": "clinic", "name": "Dr. Sahoo's Unique Ayur Clinic", "source": "Local Knowledge"}, "geometry": {"type": "Point", "coordinates": [85.7958181, 20.2782053]}}, {"type": "Feature", "properties": {"osm_id": 7709755699, "osm_type": "node", "addr:district": "Khordha", "addr:full": "Samanta Vihar, Chandrasekharpur, Bhubaneswar", "addr:postcode": "751017", "addr:state": "Odhisa", "amenity": "clinic", "name": "OM Healthcare Centre", "source": "Local Knowledge"}, "geometry": {"type": "Point", "coordinates": [85.822061, 20.315109]}}, {"type": "Feature", "properties": {"osm_id": 7709755701, "osm_type": "node", "addr:district": "Khordha", "addr:full": "District Center, Chandrasekharpur, Bhubaneswar", "addr:postcode": "751016", "addr:state": "Odhisa", "amenity": "clinic", "name": "Shreema Clinic", "source": "Local Knowledge"}, "geometry": {"type": "Point", "coordinates": [85.8195055, 20.3249697]}}, {"type": "Feature", "properties": {"osm_id": 7709755702, "osm_type": "node", "addr:district": "Khordha", "addr:full": "Baramunda, Bhubaneswar", "addr:postcode": "751003", "addr:state": "Odhisa", "amenity": "clinic", "name": "Taj Homeo Clinic", "source": "Local Knowledge"}, "geometry": {"type": "Point", "coordinates": [85.7962214, 20.2781245]}}, {"type": "Feature", "properties": {"osm_id": 7709755704, "osm_type": "node", "addr:district": "Khordha", "addr:full": "Patia, Bhubaneshwar", "addr:postcode": "751017", "addr:state": "Odhisa", "amenity": "hospital", "name": "Eye Hospital", "source": "Local Knowledge"}, "geometry": {"type": "Point", "coordinates": [85.8265447, 20.3519588]}}, {"type": "Feature", "properties": {"osm_id": 7709755705, "osm_type": "node", "addr:district": "Khordha", "addr:full": "Plot No 1358, Phase II, Dumduma, Bhubaneswar", "addr:postcode": "751019", "addr:state": "Odhisa", "amenity": "clinic", "name": "Dr. Moharana's Homeopathy Clinic", "source": "Local Knowledge"}, "geometry": {"type": "Point", "coordinates": [85.788564, 20.240167]}}, {"type": "Feature", "properties": {"osm_id": 7709755706, "osm_type": "node", "addr:district": "Khordha", "addr:full": "No. 693 A, Nilakantheswar Road, Millennium Colony, Soubhagya Nagar, Baramunda, Bhubaneswar", "addr:postcode": "751003", "addr:state": "Odhisa", "amenity": "clinic", "name": "Grand Vision and Eye Clinic", "source": "Local Knowledge"}, "geometry": {"type": "Point", "coordinates": [85.8004995, 20.2720974]}}, {"type": "Feature", "properties": {"osm_id": 7709755707, "osm_type": "node", "addr:district": "Khordha", "addr:full": "Baramunda Housing Board Colony, Baramunda, Bhubaneswar", "addr:postcode": "751003", "addr:state": "Odhisa", "amenity": "hospital", "name": "Advanced Eye Care Hospital", "source": "Local Knowledge"}, "geometry": {"type": "Point", "coordinates": [85.7948213, 20.278541]}}, {"type": "Feature", "properties": {"osm_id": 7709755709, "osm_type": "node", "addr:district": "Khordha", "addr:full": "Samanta Vihar, Gajapati Nagar, Bhubaneswar", "addr:postcode": "751017", "addr:state": "Odhisa", "amenity": "clinic", "name": "A1Care Poly Clinic", "source": "Local Knowledge"}, "geometry": {"type": "Point", "coordinates": [85.82249, 20.3148939]}}, {"type": "Feature", "properties": {"osm_id": 7709755710, "osm_type": "node", "addr:district": "Khordha", "addr:full": "Bhubaneshwar", "addr:postcode": "751024", "addr:state": "Odhisa", "amenity": "clinic", "name": "Netra Jyoti Eye Clinic", "source": "Local Knowledge"}, "geometry": {"type": "Point", "coordinates": [85.8195609, 20.3431181]}}, {"type": "Feature", "properties": {"osm_id": 7709755712, "osm_type": "node", "addr:district": "Khordha", "addr:full": "92-Dumuduma, Khandagiri Square, Bhubaneswar", "addr:postcode": "751030", "addr:state": "Odhisa", "amenity": "clinic", "healthcare": "clinic", "name": "Hillside Nursing Home", "source": "Local Knowledge"}, "geometry": {"type": "Point", "coordinates": [85.7879021, 20.2539683]}}, {"type": "Feature", "properties": {"osm_id": 7709755713, "osm_type": "node", "addr:district": "Khordha", "addr:full": "Jagannath Temple Road, Sailashree Vihar, Chandrasekharpur", "addr:postcode": "751016", "addr:state": "Odhisa", "amenity": "hospital", "name": "Bhubaneshwar Hospital", "source": "Local Knowledge"}, "geometry": {"type": "Point", "coordinates": [85.8097418, 20.3339609]}}, {"type": "Feature", "properties": {"osm_id": 7709755715, "osm_type": "node", "addr:district": "Khordha", "addr:full": "Kanan Vihar, Chandrasekharpur, Bhubaneshwar", "addr:postcode": "751017", "addr:state": "Odhisa", "amenity": "hospital", "name": "Baidyanath Memorial Hospital", "source": "Local Knowledge"}, "geometry": {"type": "Point", "coordinates": [85.823371, 20.342354]}}, {"type": "Feature", "properties": {"osm_id": 7709755716, "osm_type": "node", "addr:district": "Khordha", "addr:full": "Nandankanan Road, Patia, Bhubaneshwar", "addr:postcode": "751024", "addr:state": "Odhisa", "amenity": "clinic", "name": "Life Care Clinic", "source": "Local Knowledge"}, "geometry": {"type": "Point", "coordinates": [85.8273829, 20.3542078]}}, {"type": "Feature", "properties": {"osm_id": 7709755717, "osm_type": "node", "addr:district": "Khordha", "addr:full": "Soubhagya Nagar, Baramunda, Bhubaneswar", "addr:postcode": "751003", "addr:state": "Odhisa", "amenity": "clinic", "name": "Bhubaneshwar Multispeciality Clinic", "source": "Local Knowledge"}, "geometry": {"type": "Point", "coordinates": [85.8054401, 20.2698285]}}, {"type": "Feature", "properties": {"osm_id": 7709755718, "osm_type": "node", "addr:district": "Khordha", "addr:full": "Bajrang Vihar, Patia", "addr:postcode": "751024", "addr:state": "Odhisa", "amenity": "hospital", "name": "Pen Hospital", "source": "Local Knowledge"}, "geometry": {"type": "Point", "coordinates": [85.824008, 20.3474462]}}, {"type": "Feature", "properties": {"osm_id": 7709755719, "osm_type": "node", "addr:district": "Khordha", "addr:full": "Housing Board Colony, Chandrasekharpur", "addr:postcode": "751016", "addr:state": "Odhisa", "amenity": "clinic", "name": "Multicare Homeopathy Clinic", "source": "Local Knowledge"}, "geometry": {"type": "Point", "coordinates": [85.8204449, 20.3281145]}}, {"type": "Feature", "properties": {"osm_id": 7709755720, "osm_type": "node", "addr:district": "Khordha", "addr:full": "Patia, Bhubaneshwar", "addr:postcode": "751024", "addr:state": "Odhisa", "amenity": "hospital", "name": "ECOS Rotary Royal Eye Hospital", "source": "Local Knowledge"}, "geometry": {"type": "Point", "coordinates": [85.831932, 20.358408]}}, {"type": "Feature", "properties": {"osm_id": 7709755721, "osm_type": "node", "addr:district": "Khordha", "addr:full": "Nandankanan Road, Patia, Bhubaneshwar", "addr:postcode": "751024", "addr:state": "Odhisa", "amenity": "hospital", "name": "L V Prasad Eye Hospital", "source": "Local Knowledge"}, "geometry": {"type": "Point", "coordinates": [85.8252999, 20.3510921]}}, {"type": "Feature", "properties": {"osm_id": 7709755722, "osm_type": "node", "addr:district": "Khordha", "addr:full": "RBI Colony, Baramunda, Bhubaneswar", "addr:postcode": "751003", "addr:state": "Odhisa", "amenity": "clinic", "name": "Dr. Dalal's Clinic", "source": "Local Knowledge"}, "geometry": {"type": "Point", "coordinates": [85.7950293, 20.2759257]}}, {"type": "Feature", "properties": {"osm_id": 7709755724, "osm_type": "node", "addr:district": "Khordha", "addr:full": "Housing Board Colony, Chandrasekharpur", "addr:postcode": "751016", "addr:state": "Odhisa", "amenity": "hospital", "name": "Chandrasekharpur Hospital", "source": "Local Knowledge"}, "geometry": {"type": "Point", "coordinates": [85.8177743, 20.3294222]}}, {"type": "Feature", "properties": {"osm_id": 7709755726, "osm_type": "node", "addr:district": "Khordha", "addr:full": "Nandankanan Road, District Center, Chandrasekharpur, Bhubaneswar", "addr:postcode": "751016", "addr:state": "Odhisa", "amenity": "hospital", "name": "Gastro and Kidney Hospital", "source": "Local Knowledge"}, "geometry": {"type": "Point", "coordinates": [85.8202648, 20.324962]}}, {"type": "Feature", "properties": {"osm_id": 7709755728, "osm_type": "node", "addr:district": "Khordha", "addr:full": "Baramunda Housing Board Colony, Baramunda, Bhubaneswar", "addr:postcode": "751003", "addr:state": "Odhisa", "amenity": "clinic", "name": "Baramunda Eye & ENT Clinic", "source": "Local Knowledge"}, "geometry": {"type": "Point", "coordinates": [85.795574, 20.277951]}}, {"type": "Feature", "properties": {"osm_id": 7709755730, "osm_type": "node", "addr:district": "Khordha", "addr:full": "Samanta Vihar, Gajapati Nagar, Bhubaneshwar", "addr:postcode": "751017", "addr:state": "Odhisa", "amenity": "hospital", "name": "Netralaya Eye Hospital", "source": "Local Knowledge"}, "geometry": {"type": "Point", "coordinates": [85.8214376, 20.3149518]}}, {"type": "Feature", "properties": {"osm_id": 7709755731, "osm_type": "node", "addr:district": "Khordha", "addr:full": "Lane Number 3, District Center, Chandrasekharpur", "addr:postcode": "751016", "addr:state": "Odhisa", "amenity": "hospital", "name": "Health Point Hospital", "source": "Local Knowledge"}, "geometry": {"type": "Point", "coordinates": [85.8191438, 20.3257458]}}, {"type": "Feature", "properties": {"osm_id": 7709755732, "osm_type": "node", "addr:district": "Khordha", "addr:full": "Baramunda, Bhubaneswar", "addr:postcode": "751003", "addr:state": "Odhisa", "amenity": "hospital", "name": "Apex Hospital and Maternity Centre", "source": "Local Knowledge"}, "geometry": {"type": "Point", "coordinates": [85.7986267, 20.2730944]}}, {"type": "Feature", "properties": {"osm_id": 7709755733, "osm_type": "node", "addr:district": "Khordha", "addr:full": "Khandagiri - Chandaka Road, Khandagiri, Bhubaneswar", "addr:postcode": "751030", "addr:state": "Odhisa", "amenity": "clinic", "name": "Kamilini Homeo Clinic", "source": "Local Knowledge"}, "geometry": {"type": "Point", "coordinates": [85.7870657, 20.2608945]}}, {"type": "Feature", "properties": {"osm_id": 7709755734, "osm_type": "node", "addr:district": "Khordha", "addr:full": "Bhubaneshwar", "addr:postcode": "751024", "addr:state": "Odhisa", "amenity": "hospital", "name": "Vision Care Eye Hospital", "source": "Local Knowledge"}, "geometry": {"type": "Point", "coordinates": [85.7971041, 20.3642234]}}, {"type": "Feature", "properties": {"osm_id": 7709755735, "osm_type": "node", "addr:district": "Khordha", "addr:full": "Patia Square, Kanan Vihar, Patia, Bhubaneshwar", "addr:postcode": "751024", "addr:state": "Odhisa", "amenity": "clinic", "name": "Nurture Mother and Child Healthcare", "source": "Local Knowledge"}, "geometry": {"type": "Point", "coordinates": [85.8222185, 20.3414977]}}, {"type": "Feature", "properties": {"osm_id": 7709755737, "osm_type": "node", "addr:district": "Khordha", "addr:full": "Samanta Vihar, Gajapati Nagar, Bhubaneswar", "addr:postcode": "751017", "addr:state": "Odhisa", "amenity": "clinic", "name": "Sree Sai Ayurveda Clinic", "source": "Local Knowledge"}, "geometry": {"type": "Point", "coordinates": [85.8212325, 20.3151493]}}, {"type": "Feature", "properties": {"osm_id": 7709755738, "osm_type": "node", "addr:district": "Khordha", "addr:full": "Neeladri Vihar, Chandrasekharpur", "addr:postcode": "751021", "addr:state": "Odhisa", "amenity": "hospital", "name": "Utkal Hospital", "source": "Local Knowledge"}, "geometry": {"type": "Point", "coordinates": [85.8004875, 20.3227673]}}, {"type": "Feature", "properties": {"osm_id": 7709755740, "osm_type": "node", "addr:district": "Khordha", "addr:full": "Laxmi Vihar, Vani Vihar, Bhubaneswar", "addr:postcode": "751005", "addr:state": "Odhisa", "amenity": "clinic", "name": "Bhubaneshwar Superspeciality Clinic", "source": "Local Knowledge"}, "geometry": {"type": "Point", "coordinates": [85.8344461, 20.3100518]}}, {"type": "Feature", "properties": {"osm_id": 7709755741, "osm_type": "node", "addr:district": "Khordha", "addr:full": "Sishu Vihar Road, Beside Aditri Snacks, Sishu Vihar, Patia", "addr:postcode": "751024", "addr:state": "Odhisa", "amenity": "clinic", "name": "Ek Dantaya Dental Clinic", "source": "Local Knowledge"}, "geometry": {"type": "Point", "coordinates": [85.8233589, 20.3468174]}}, {"type": "Feature", "properties": {"osm_id": 7709755742, "osm_type": "node", "addr:district": "Khordha", "addr:full": "Mancheswar, Bhubaneswar", "addr:postcode": "751017", "addr:state": "Odhisa", "amenity": "hospital", "name": "Central Hospital", "source": "Local Knowledge"}, "geometry": {"type": "Point", "coordinates": [85.8355564, 20.3211842]}}, {"type": "Feature", "properties": {"osm_id": 7709755743, "osm_type": "node", "addr:district": "Khordha", "addr:full": "Housing Board Colony, Chandrasekharpur", "addr:postcode": "751016", "addr:state": "Odhisa", "amenity": "hospital", "name": "Government Hospital", "source": "Local Knowledge"}, "geometry": {"type": "Point", "coordinates": [85.8180427, 20.3286739]}}, {"type": "Feature", "properties": {"osm_id": 7709755744, "osm_type": "node", "addr:district": "Khordha", "addr:full": "Soubhagya Nagar, Baramunda, Bhubaneswar", "addr:postcode": "751003", "addr:state": "Odhisa", "amenity": "clinic", "name": "Patholab and Clinic", "source": "Local Knowledge"}, "geometry": {"type": "Point", "coordinates": [85.8003926, 20.2695479]}}, {"type": "Feature", "properties": {"osm_id": 7709755745, "osm_type": "node", "addr:district": "Khordha", "addr:full": "Gayatri Vihar, Kanan Vihar, Chandrasekharpur", "addr:postcode": "751016", "addr:state": "Odhisa", "amenity": "hospital", "name": "Maxfort Hospital", "source": "Local Knowledge"}, "geometry": {"type": "Point", "coordinates": [85.821066, 20.339782]}}, {"type": "Feature", "properties": {"osm_id": 7709755746, "osm_type": "node", "addr:district": "Khordha", "addr:full": "Satabdi Nagar, Baramunda, Bhubaneswar", "addr:postcode": "751003", "addr:state": "Odhisa", "amenity": "hospital", "name": "Baramunda Hospital", "source": "Local Knowledge"}, "geometry": {"type": "Point", "coordinates": [85.802735, 20.272165]}}, {"type": "Feature", "properties": {"osm_id": 7709755747, "osm_type": "node", "addr:district": "Khordha", "addr:full": "Baramunda Housing Board Colony, Baramunda, Bhubaneswar", "addr:postcode": "751003", "addr:state": "Odhisa", "amenity": "clinic", "name": "Care and Cure Physiotherapy Clinic", "source": "Local Knowledge"}, "geometry": {"type": "Point", "coordinates": [85.797416, 20.279687]}}, {"type": "Feature", "properties": {"osm_id": 7709755748, "osm_type": "node", "addr:district": "Khordha", "addr:full": "HIG Duplex BDA Colony, RBI Colony, Baramunda, Bhubaneswar", "addr:postcode": "751003", "addr:state": "Odhisa", "amenity": "clinic", "name": "Dr. Pushpa Clinic", "source": "Local Knowledge"}, "geometry": {"type": "Point", "coordinates": [85.7943051, 20.2753089]}}, {"type": "Feature", "properties": {"osm_id": 7709755749, "osm_type": "node", "addr:district": "Khordha", "addr:full": "Mancheswar Industrial Estate, Gadakan", "addr:postcode": "751017", "addr:state": "Odhisa", "amenity": "hospital", "name": "City Primary Hospital", "source": "Local Knowledge"}, "geometry": {"type": "Point", "coordinates": [85.838564, 20.328592]}}, {"type": "Feature", "properties": {"osm_id": 7709755751, "osm_type": "node", "addr:district": "Khordha", "addr:full": "257, Road Number 1, Jagannath Vihar, Baramunda, Bhubaneswar", "addr:postcode": "751003", "addr:state": "Odhisa", "amenity": "clinic", "name": "Dr. S S Patra's Clinic", "source": "Local Knowledge"}, "geometry": {"type": "Point", "coordinates": [85.7911388, 20.2871279]}}, {"type": "Feature", "properties": {"osm_id": 7709755752, "osm_type": "node", "addr:district": "Khordha", "addr:full": "Soubhagya Nagar, Phase 2, Baramunda, Bhubaneswar", "addr:postcode": "751003", "addr:state": "Odhisa", "amenity": "clinic", "name": "Dr. B B Karan's Brain Clinic", "source": "Local Knowledge"}, "geometry": {"type": "Point", "coordinates": [85.8028256, 20.2690362]}}, {"type": "Feature", "properties": {"osm_id": 7709755755, "osm_type": "node", "addr:district": "Khordha", "addr:full": "HIG Colony, Neeladri Vihar, Chandrasekharpur", "addr:postcode": "751021", "addr:state": "Odhisa", "amenity": "hospital", "name": "Government Hospital", "source": "Local Knowledge"}, "geometry": {"type": "Point", "coordinates": [85.814219, 20.3302566]}}, {"type": "Feature", "properties": {"osm_id": 7709755759, "osm_type": "node", "addr:district": "Khordha", "addr:full": "Baramunda, Bhubaneswar", "addr:postcode": "751003", "addr:state": "Odhisa", "amenity": "hospital", "name": "Baramunda Homeopathy Hospital", "source": "Local Knowledge"}, "geometry": {"type": "Point", "coordinates": [85.7994011, 20.2670943]}}, {"type": "Feature", "properties": {"osm_id": 7709755761, "osm_type": "node", "addr:district": "Khordha", "addr:full": "Patia, Bhubaneshwar", "addr:postcode": "751024", "addr:state": "Odhisa", "amenity": "hospital", "name": "Rotary Eye Hospital", "source": "Local Knowledge"}, "geometry": {"type": "Point", "coordinates": [85.8329288, 20.3577862]}}, {"type": "Feature", "properties": {"osm_id": 7709755762, "osm_type": "node", "addr:district": "Khordha", "addr:full": "Mahabinayak Puram, Patia", "addr:postcode": "751024", "addr:state": "Odhisa", "amenity": "clinic", "name": "Mamata Clinic & Lab", "source": "Local Knowledge"}, "geometry": {"type": "Point", "coordinates": [85.8300418, 20.3549024]}}, {"type": "Feature", "properties": {"osm_id": 7709755763, "osm_type": "node", "addr:district": "Khordha", "addr:full": "Housing Board Colony, Chandrasekharpur", "addr:postcode": "751016", "addr:state": "Odhisa", "amenity": "hospital", "name": "Sun Hospital Information Centre", "source": "Local Knowledge"}, "geometry": {"type": "Point", "coordinates": [85.8185398, 20.332058]}}, {"type": "Feature", "properties": {"osm_id": 7709755764, "osm_type": "node", "addr:district": "Khordha", "addr:full": "Cosmopolis Road, Dumduma, Bhubaneswar", "addr:postcode": "751019", "addr:state": "Odhisa", "amenity": "clinic", "name": "Ever Healthy Clinic", "source": "Local Knowledge"}, "geometry": {"type": "Point", "coordinates": [85.785974, 20.248995]}}, {"type": "Feature", "properties": {"osm_id": 7709755766, "osm_type": "node", "addr:district": "Khordha", "addr:full": "Samanta Vihar, Gajapati Nagar, Bhubaneswar", "addr:postcode": "751017", "addr:state": "Odhisa", "amenity": "clinic", "name": "Varsha Clinic", "source": "Local Knowledge"}, "geometry": {"type": "Point", "coordinates": [85.82124, 20.3151163]}}, {"type": "Feature", "properties": {"osm_id": 7709755767, "osm_type": "node", "addr:district": "Khordha", "addr:full": "Soubhagya Nagar, Baramunda, Bhubaneswar", "addr:postcode": "751003", "addr:state": "Odhisa", "amenity": "clinic", "name": "Oro Clinic", "source": "Local Knowledge"}, "geometry": {"type": "Point", "coordinates": [85.8045986, 20.2692609]}}, {"type": "Feature", "properties": {"osm_id": 7709755768, "osm_type": "node", "addr:district": "Khordha", "addr:full": "Sibaswamya, Khandagiri Vihar, Bhubaneshwar", "addr:postcode": "751030", "addr:state": "Odhisa", "amenity": "hospital", "name": "Ayurprakruthi Ayurveda Hospital", "source": "Local Knowledge"}, "geometry": {"type": "Point", "coordinates": [85.785748, 20.260142]}}, {"type": "Feature", "properties": {"osm_id": 7709755769, "osm_type": "node", "addr:district": "Khordha", "addr:full": "BDA Colony, Chandrasekharpur", "addr:postcode": "751016", "addr:state": "Odhisa", "amenity": "hospital", "name": "Mamata Hospital", "source": "Local Knowledge"}, "geometry": {"type": "Point", "coordinates": [85.8175039, 20.3216263]}}, {"type": "Feature", "properties": {"osm_id": 7709755775, "osm_type": "node", "addr:district": "Khordha", "addr:full": "Samanta Vihar, Gajapati Nagar, Bhubaneswar", "addr:postcode": "751017", "addr:state": "Odhisa", "amenity": "clinic", "name": "Srujana Clinic", "source": "Local Knowledge"}, "geometry": {"type": "Point", "coordinates": [85.8213562, 20.3155432]}}, {"type": "Feature", "properties": {"osm_id": 7709970627, "osm_type": "node", "addr:district": "Khordha", "addr:full": "Dayanandnagar, Nigamananda Nagar, Rasulgarh, Bhubaneswar", "addr:postcode": "751007", "addr:state": "Odhisa", "amenity": "clinic", "name": "Satyam Health Centre", "source": "Local Knowledge"}, "geometry": {"type": "Point", "coordinates": [85.8593909, 20.2865656]}}, {"type": "Feature", "properties": {"osm_id": 7709970630, "osm_type": "node", "addr:district": "Khordha", "addr:full": "N4, Block N4, IRC Village, Nayapalli, Bhubaneswar", "addr:postcode": "751015", "addr:state": "Odhisa", "amenity": "clinic", "name": "Jeevan Rekha Nursing Home", "source": "Local Knowledge"}, "geometry": {"type": "Point", "coordinates": [85.810979, 20.292167]}}, {"type": "Feature", "properties": {"osm_id": 7709970631, "osm_type": "node", "addr:district": "Khordha", "addr:full": "Bhol Nagar, Vani Vihar, Bhubaneswar", "addr:postcode": "751022", "addr:state": "Odhisa", "amenity": "hospital", "name": "Trinity Neuro Hospital and Trauma Centre", "source": "Local Knowledge"}, "geometry": {"type": "Point", "coordinates": [85.8397433, 20.2950416]}}, {"type": "Feature", "properties": {"osm_id": 7709970633, "osm_type": "node", "addr:district": "Khordha", "addr:full": "Bhimatangi Housing Colony, Bhubaneswar", "addr:postcode": "751002", "addr:state": "Odhisa", "amenity": "clinic", "name": "Sabita Clinic", "source": "Local Knowledge"}, "geometry": {"type": "Point", "coordinates": [85.8250302, 20.2412875]}}, {"type": "Feature", "properties": {"osm_id": 7709970635, "osm_type": "node", "addr:district": "Khordha", "addr:full": "Puri - Cuttack Road, Nigamananda Nagar, Rasulgarh, Bhubaneswar", "addr:postcode": "751007", "addr:state": "Odhisa", "amenity": "clinic", "name": "Dr. Mohan's Diabetes Specialities Centre", "source": "Local Knowledge"}, "geometry": {"type": "Point", "coordinates": [85.8572329, 20.2863494]}}, {"type": "Feature", "properties": {"osm_id": 7709970637, "osm_type": "node", "addr:district": "Khordha", "addr:full": "BMC Bhawani Mall Street, Saheed Nagar, Bhubaneswar", "addr:postcode": "751007", "addr:state": "Odhisa", "amenity": "hospital", "name": "Dr. Agarwal's Eye Hospital", "source": "Local Knowledge"}, "geometry": {"type": "Point", "coordinates": [85.8465823, 20.2870276]}}, {"type": "Feature", "properties": {"osm_id": 7709970638, "osm_type": "node", "addr:district": "Khordha", "addr:full": "Bapuji Nagar, Bhubaneswar", "addr:postcode": "751009", "addr:state": "Odhisa", "amenity": "clinic", "name": "Vandana Clinic", "source": "Local Knowledge"}, "geometry": {"type": "Point", "coordinates": [85.8348902, 20.2580439]}}, {"type": "Feature", "properties": {"osm_id": 7709970640, "osm_type": "node", "addr:district": "Khordha", "addr:full": "Bapuji Nagar, Bhubaneswar", "addr:postcode": "751009", "addr:state": "Odhisa", "amenity": "hospital", "name": "Satyam Hospital", "source": "Local Knowledge"}, "geometry": {"type": "Point", "coordinates": [85.8366439, 20.2590446]}}, {"type": "Feature", "properties": {"osm_id": 7709970642, "osm_type": "node", "addr:district": "Khordha", "addr:full": "N-1, 1460/61, IRC Village, Nayapalli, Bhubaneswar", "addr:postcode": "751015", "addr:state": "Odhisa", "amenity": "hospital", "name": "Gastro and Kidney Care Hospital", "source": "Local Knowledge"}, "geometry": {"type": "Point", "coordinates": [85.8106459, 20.2878308]}}, {"type": "Feature", "properties": {"osm_id": 7709970645, "osm_type": "node", "addr:district": "Khordha", "addr:full": "Shahid Nagar, Bomikhal, Jharapada, Bhubaneswar", "addr:postcode": "751007", "addr:state": "Odhisa", "amenity": "clinic", "name": "Aum Ambe Ayurvedic Clinic", "source": "Local Knowledge"}, "geometry": {"type": "Point", "coordinates": [85.855867, 20.285126]}}, {"type": "Feature", "properties": {"osm_id": 7709970648, "osm_type": "node", "addr:district": "Khordha", "addr:full": "Bomikhal, Bhubaneswar", "addr:postcode": "751006", "addr:state": "Odhisa", "amenity": "hospital", "name": "Lath ENT Centre", "source": "Local Knowledge"}, "geometry": {"type": "Point", "coordinates": [85.8554075, 20.2814711]}}, {"type": "Feature", "properties": {"osm_id": 7709970652, "osm_type": "node", "addr:district": "Khordha", "addr:full": "Lingaraj Vihar, Pokhariput, Bhubaneswar", "addr:postcode": "751020", "addr:state": "Odhisa", "amenity": "clinic", "name": "Laxmi Brain Clinic", "source": "Local Knowledge"}, "geometry": {"type": "Point", "coordinates": [85.812988, 20.2362]}}, {"type": "Feature", "properties": {"osm_id": 7709970654, "osm_type": "node", "addr:district": "Khordha", "addr:full": "Budheswari Colony, Laxmisagar, Bhubaneswar", "addr:postcode": "751006", "addr:state": "Odhisa", "amenity": "hospital", "name": "Sunshine Hospital", "source": "Local Knowledge"}, "geometry": {"type": "Point", "coordinates": [85.8483738, 20.2690649]}}, {"type": "Feature", "properties": {"osm_id": 7709970655, "osm_type": "node", "addr:district": "Khordha", "addr:full": "Saheed Nagar, Bhubaneswar", "addr:postcode": "751007", "addr:state": "Odhisa", "amenity": "clinic", "name": "Winika Clinic", "source": "Local Knowledge"}, "geometry": {"type": "Point", "coordinates": [85.8470627, 20.2869046]}}, {"type": "Feature", "properties": {"osm_id": 7709970657, "osm_type": "node", "addr:district": "Khordha", "addr:full": "Pokhariput, Bhubaneswar", "addr:postcode": "751020", "addr:state": "Odhisa", "amenity": "hospital", "name": "Astang Ayurvedic Hospital", "source": "Local Knowledge"}, "geometry": {"type": "Point", "coordinates": [85.806084, 20.241578]}}, {"type": "Feature", "properties": {"osm_id": 7709970658, "osm_type": "node", "addr:district": "Khordha", "addr:full": "Unit 3, Kharabela Nagar, Bhubaneswar", "addr:postcode": "751001", "addr:state": "Odhisa", "amenity": "hospital", "name": "Global Hospital", "source": "Local Knowledge"}, "geometry": {"type": "Point", "coordinates": [85.835778, 20.2727519]}}, {"type": "Feature", "properties": {"osm_id": 7709970660, "osm_type": "node", "addr:district": "Khordha", "addr:full": "Industrial Area, Kharabela Nagar, Bhubaneswar", "addr:postcode": "751001", "addr:state": "Odhisa", "amenity": "hospital", "name": "ASG Eye Hospital", "source": "Local Knowledge"}, "geometry": {"type": "Point", "coordinates": [85.8456043, 20.2746478]}}, {"type": "Feature", "properties": {"osm_id": 7709970661, "osm_type": "node", "addr:district": "Khordha", "addr:full": "Tankapani Road, Rajarani Colony, Rajarani Temple, Bhubaneswar", "addr:postcode": "751014", "addr:state": "Odhisa", "amenity": "clinic", "name": "Sai Kids Clinic", "source": "Local Knowledge"}, "geometry": {"type": "Point", "coordinates": [85.8440741, 20.2451053]}}, {"type": "Feature", "properties": {"osm_id": 7709970662, "osm_type": "node", "addr:district": "Khordha", "addr:full": "Ashok Nagar, Bhubaneswar", "addr:postcode": "751009", "addr:state": "Odhisa", "amenity": "hospital", "name": "Global Health Care", "source": "Local Knowledge"}, "geometry": {"type": "Point", "coordinates": [85.838825, 20.2609261]}}, {"type": "Feature", "properties": {"osm_id": 7709970663, "osm_type": "node", "addr:district": "Khordha", "addr:full": "Bomikhal, Jharapada, Bhubaneswar", "addr:postcode": "751006", "addr:state": "Odhisa", "amenity": "clinic", "name": "Maya Health Care", "source": "Local Knowledge"}, "geometry": {"type": "Point", "coordinates": [85.8563321, 20.283477]}}, {"type": "Feature", "properties": {"osm_id": 7709970665, "osm_type": "node", "addr:district": "Khordha", "addr:full": "Satya Nagar, Bhubaneswar", "addr:postcode": "751007", "addr:state": "Odhisa", "amenity": "hospital", "name": "National City Medical", "source": "Local Knowledge"}, "geometry": {"type": "Point", "coordinates": [85.8480983, 20.2813207]}}, {"type": "Feature", "properties": {"osm_id": 7709970667, "osm_type": "node", "addr:district": "Khordha", "addr:full": "Dayanandnagar, Nigamananda Nagar, Rasulgarh, Bhubaneswar", "addr:postcode": "751007", "addr:state": "Odhisa", "amenity": "hospital", "name": "Sanjeevani Panchakarma Center and Piles Clinic", "source": "Local Knowledge"}, "geometry": {"type": "Point", "coordinates": [85.8593787, 20.2873182]}}, {"type": "Feature", "properties": {"osm_id": 7709970668, "osm_type": "node", "addr:district": "Khordha", "addr:full": "Forest Park, Bhubaneswar", "addr:postcode": "751020", "addr:state": "Odhisa", "amenity": "clinic", "name": "Mamata Chikitsalaya", "source": "Local Knowledge"}, "geometry": {"type": "Point", "coordinates": [85.8301314, 20.2541201]}}, {"type": "Feature", "properties": {"osm_id": 7709970669, "osm_type": "node", "addr:district": "Khordha", "addr:full": "Siba Nagar, Brahmeswarpatna, Bhubaneswar", "addr:postcode": "751002", "addr:state": "Odhisa", "amenity": "clinic", "name": "Sri Krishna Poly Clinic", "source": "Local Knowledge"}, "geometry": {"type": "Point", "coordinates": [85.850946, 20.243716]}}, {"type": "Feature", "properties": {"osm_id": 7709970671, "osm_type": "node", "addr:district": "Khordha", "addr:full": "Plot No.:25(P, Maharishi College Road, Near Vision Care, Back Side of Saheed Nagar, Bhubaneswar", "addr:postcode": "751007", "addr:state": "Odhisa", "amenity": "clinic", "name": "Ghana Shyam Health Care", "source": "Local Knowledge"}, "geometry": {"type": "Point", "coordinates": [85.8502952, 20.286539]}}, {"type": "Feature", "properties": {"osm_id": 7709970673, "osm_type": "node", "addr:district": "Khordha", "addr:full": "Nageswar Tangi, Gautam Nagar", "addr:postcode": "751014", "addr:state": "Odhisa", "amenity": "clinic", "name": "Aspire Clinic", "source": "Local Knowledge"}, "geometry": {"type": "Point", "coordinates": [85.838864, 20.2556985]}}, {"type": "Feature", "properties": {"osm_id": 7709970675, "osm_type": "node", "addr:district": "Khordha", "addr:full": "Jayadev Vihar, Bhubaneswar", "addr:postcode": "751013", "addr:state": "Odhisa", "amenity": "hospital", "name": "Santosh Memorial Hospital and Rehabilitation Centre", "source": "Local Knowledge"}, "geometry": {"type": "Point", "coordinates": [85.8201822, 20.2983865]}}, {"type": "Feature", "properties": {"osm_id": 7709970676, "osm_type": "node", "addr:district": "Khordha", "addr:full": "Bhubaneswar", "addr:postcode": "751002", "addr:state": "Odhisa", "amenity": "clinic", "name": "Mohan Prava Clinic", "source": "Local Knowledge"}, "geometry": {"type": "Point", "coordinates": [85.819064, 20.234815]}}, {"type": "Feature", "properties": {"osm_id": 7709970677, "osm_type": "node", "addr:district": "Khordha", "addr:full": "New AG Colony, Bhubaneswar", "addr:postcode": "751022", "addr:state": "Odhisa", "amenity": "hospital", "name": "Power Hospital", "source": "Local Knowledge"}, "geometry": {"type": "Point", "coordinates": [85.8365902, 20.2940895]}}, {"type": "Feature", "properties": {"osm_id": 7709970678, "osm_type": "node", "addr:district": "Khordha", "addr:full": "Kalpana Square, Laxmisagar, Bhubaneswar", "addr:postcode": "751006", "addr:state": "Odhisa", "amenity": "hospital", "name": "Vikash Hospital", "source": "Local Knowledge"}, "geometry": {"type": "Point", "coordinates": [85.8461782, 20.2581158]}}, {"type": "Feature", "properties": {"osm_id": 7709970679, "osm_type": "node", "addr:district": "Khordha", "addr:full": "Saheed Nagar, Bhubaneswar", "addr:postcode": "751007", "addr:state": "Odhisa", "amenity": "hospital", "name": "Amri Hospitals", "source": "Local Knowledge"}, "geometry": {"type": "Point", "coordinates": [85.8466525, 20.2880923]}}, {"type": "Feature", "properties": {"osm_id": 7709970680, "osm_type": "node", "addr:district": "Khordha", "addr:full": "Jayadev Vihar Road, Nayapalli, Bhubaneswar", "addr:postcode": "751015", "addr:state": "Odhisa", "amenity": "clinic", "name": "Unique Ayur Clinic", "source": "Local Knowledge"}, "geometry": {"type": "Point", "coordinates": [85.805304, 20.297496]}}, {"type": "Feature", "properties": {"osm_id": 7709970682, "osm_type": "node", "addr:district": "Khordha", "addr:full": "Gandamunda, Pokhariput, Bhubaneswar", "addr:postcode": "751020", "addr:state": "Odhisa", "amenity": "hospital", "name": "Government Hospital", "source": "Local Knowledge"}, "geometry": {"type": "Point", "coordinates": [85.8081203, 20.246205]}}, {"type": "Feature", "properties": {"osm_id": 7709970683, "osm_type": "node", "addr:district": "Khordha", "addr:full": "Industrial Area, Rasulgarh, Bhubaneswar", "addr:postcode": "751007", "addr:state": "Odhisa", "amenity": "clinic", "name": "Anvi ENT & Head, Neck Centre", "source": "Local Knowledge"}, "geometry": {"type": "Point", "coordinates": [85.8577153, 20.2913408]}}, {"type": "Feature", "properties": {"osm_id": 7709970684, "osm_type": "node", "addr:district": "Khordha", "addr:full": "Nayapalli, Bhubaneswar", "addr:postcode": "751012", "addr:state": "Odhisa", "amenity": "clinic", "name": "Tripathi Clinic", "source": "Local Knowledge"}, "geometry": {"type": "Point", "coordinates": [85.8127679, 20.2950235]}}, {"type": "Feature", "properties": {"osm_id": 7709970685, "osm_type": "node", "addr:district": "Khordha", "addr:full": "Jharapada, Bhubaneswar", "addr:postcode": "751006", "addr:state": "Odhisa", "amenity": "hospital", "name": "Shharc Homeopathy Hospital", "source": "Local Knowledge"}, "geometry": {"type": "Point", "coordinates": [85.8574992, 20.2825278]}}, {"type": "Feature", "properties": {"osm_id": 7709970686, "osm_type": "node", "addr:district": "Khordha", "addr:full": "Tankapani Road, Rajarani Colony, Bhubaneswar", "addr:postcode": "751014", "addr:state": "Odhisa", "amenity": "clinic", "name": "Chakadola Clinic", "source": "Local Knowledge"}, "geometry": {"type": "Point", "coordinates": [85.8412648, 20.2445621]}}, {"type": "Feature", "properties": {"osm_id": 7709970690, "osm_type": "node", "addr:district": "Khordha", "addr:full": "Bhima Kunda, Bhimatangi Housing Colony, Bhubaneswar", "addr:postcode": "751002", "addr:state": "Odhisa", "amenity": "clinic", "name": "Riva Child and Skin Care", "source": "Local Knowledge"}, "geometry": {"type": "Point", "coordinates": [85.8211857, 20.237285]}}, {"type": "Feature", "properties": {"osm_id": 7709970691, "osm_type": "node", "addr:district": "Khordha", "addr:full": "Kapila Prasad, Bhimatangi Housing Colony, Bhubaneswar", "addr:postcode": "751002", "addr:state": "Odhisa", "amenity": "clinic", "name": "Carex Clinic", "source": "Local Knowledge"}, "geometry": {"type": "Point", "coordinates": [85.8154982, 20.2342097]}}, {"type": "Feature", "properties": {"osm_id": 7709970693, "osm_type": "node", "addr:district": "Khordha", "addr:full": "Sunderprada, Kapilaprasad, Bhubaneswar", "addr:postcode": "751012", "addr:state": "Odhisa", "amenity": "hospital", "name": "Sundarpada Hospital", "source": "Local Knowledge"}, "geometry": {"type": "Point", "coordinates": [85.8156911, 20.2319766]}}, {"type": "Feature", "properties": {"osm_id": 7709970694, "osm_type": "node", "addr:district": "Khordha", "addr:full": "Old Post Office Lane, Laxmisagar, Bhubaneswar", "addr:postcode": "751006", "addr:state": "Odhisa", "amenity": "clinic", "name": "Dr. Debabrata Padhy Bone and Joint Clinic", "source": "Local Knowledge"}, "geometry": {"type": "Point", "coordinates": [85.8488209, 20.265314]}}, {"type": "Feature", "properties": {"osm_id": 7709970695, "osm_type": "node", "addr:district": "Khordha", "addr:full": "Lingaraj Vihar, Pokhariput, Bhubaneswar", "addr:postcode": "751020", "addr:state": "Odhisa", "amenity": "hospital", "name": "Laxmi Hospital", "source": "Local Knowledge"}, "geometry": {"type": "Point", "coordinates": [85.8130762, 20.2364792]}}, {"type": "Feature", "properties": {"osm_id": 7709970696, "osm_type": "node", "addr:district": "Khordha", "addr:full": "Rasulgarh Canal Road, Nigamananda Nagar, Rasulgarh, Bhubaneswar", "addr:postcode": "751010", "addr:state": "Odhisa", "amenity": "clinic", "name": "Healthline Multi Speciality Clinic", "source": "Local Knowledge"}, "geometry": {"type": "Point", "coordinates": [85.8610232, 20.2879798]}}, {"type": "Feature", "properties": {"osm_id": 7709970697, "osm_type": "node", "addr:district": "Khordha", "addr:full": "Acharya Vihar, Bhubaneswar", "addr:postcode": "751022", "addr:state": "Odhisa", "amenity": "clinic", "name": "Niki Skin Care", "source": "Local Knowledge"}, "geometry": {"type": "Point", "coordinates": [85.831527, 20.295718]}}, {"type": "Feature", "properties": {"osm_id": 7709970698, "osm_type": "node", "addr:district": "Khordha", "addr:full": "Bapuji Nagar, Bhubaneswar", "addr:postcode": "751009", "addr:state": "Odhisa", "amenity": "clinic", "name": "Laggicare Surgical Clinic", "source": "Local Knowledge"}, "geometry": {"type": "Point", "coordinates": [85.834385, 20.2546973]}}, {"type": "Feature", "properties": {"osm_id": 7709970699, "osm_type": "node", "addr:district": "Khordha", "addr:full": "Bhubaneswar", "addr:postcode": "751022", "addr:state": "Odhisa", "amenity": "clinic", "healthcare": "clinic", "name": "Nicky Home Clinic", "source": "Local Knowledge"}, "geometry": {"type": "Point", "coordinates": [85.8391386, 20.2866738]}}, {"type": "Feature", "properties": {"osm_id": 7709970700, "osm_type": "node", "addr:district": "Khordha", "addr:full": "Chintamaniswar, Laxmisagar, Bhubaneswar", "addr:postcode": "751006", "addr:state": "Odhisa", "amenity": "hospital", "name": "Ananya Hospital", "source": "Local Knowledge"}, "geometry": {"type": "Point", "coordinates": [85.8513634, 20.2610106]}}, {"type": "Feature", "properties": {"osm_id": 7709970703, "osm_type": "node", "addr:district": "Khordha", "addr:full": "Acharya Vihar, Bhubaneswar", "addr:postcode": "751022", "addr:state": "Odhisa", "amenity": "clinic", "name": "Pedi Skin Clinic", "source": "Local Knowledge"}, "geometry": {"type": "Point", "coordinates": [85.8297031, 20.2965568]}}, {"type": "Feature", "properties": {"osm_id": 7709970704, "osm_type": "node", "addr:district": "Khordha", "addr:full": "Acharya Vihar, Bhubaneswar", "addr:postcode": "751013", "addr:state": "Odhisa", "amenity": "hospital", "name": "Police Hospital", "source": "Local Knowledge"}, "geometry": {"type": "Point", "coordinates": [85.8259064, 20.2937411]}}, {"type": "Feature", "properties": {"osm_id": 7709970706, "osm_type": "node", "addr:district": "Khordha", "addr:full": "Bhubaneswar", "addr:postcode": "751020", "addr:state": "Odhisa", "amenity": "hospital", "name": "Shishu Bhavan Hospital", "source": "Local Knowledge"}, "geometry": {"type": "Point", "coordinates": [85.8320433, 20.2545983]}}, {"type": "Feature", "properties": {"osm_id": 7709970707, "osm_type": "node", "addr:district": "Khordha", "addr:full": "Nayapalli, Bhubaneswar", "addr:postcode": "751015", "addr:state": "Odhisa", "amenity": "clinic", "name": "Prachi Clinic", "source": "Local Knowledge"}, "geometry": {"type": "Point", "coordinates": [85.812177, 20.2960798]}}, {"type": "Feature", "properties": {"osm_id": 7709970708, "osm_type": "node", "addr:district": "Khordha", "addr:full": "Nageswar Tangi, Old Town, Bhubaneswar", "addr:postcode": "751014", "addr:state": "Odhisa", "amenity": "hospital", "name": "Government Ayurvedic Hospital", "source": "Local Knowledge"}, "geometry": {"type": "Point", "coordinates": [85.8380208, 20.2525266]}}, {"type": "Feature", "properties": {"osm_id": 7709970709, "osm_type": "node", "addr:district": "Khordha", "addr:full": "Saheed Nagar, Bhubaneswar", "addr:postcode": "751007", "addr:state": "Odhisa", "amenity": "clinic", "name": "Saraswat Clinic", "source": "Local Knowledge"}, "geometry": {"type": "Point", "coordinates": [85.8538269, 20.288949]}}, {"type": "Feature", "properties": {"osm_id": 7709970710, "osm_type": "node", "addr:district": "Khordha", "addr:full": "Badagada Brit Colony, Pandav Nagar, Bhubaneswar", "addr:postcode": "751018", "addr:state": "Odhisa", "amenity": "clinic", "name": "Pradhan Homeo Clinic", "source": "Local Knowledge"}, "geometry": {"type": "Point", "coordinates": [85.8522115, 20.2482951]}}, {"type": "Feature", "properties": {"osm_id": 7709970715, "osm_type": "node", "addr:district": "Khordha", "addr:full": "Nayapalli, Bhubaneswar", "addr:postcode": "751015", "addr:state": "Odhisa", "amenity": "clinic", "name": "Neev Child Care", "source": "Local Knowledge"}, "geometry": {"type": "Point", "coordinates": [85.814632, 20.29154]}}, {"type": "Feature", "properties": {"osm_id": 7709970716, "osm_type": "node", "addr:district": "Khordha", "addr:full": "Bhubaneswar", "addr:postcode": "751009", "addr:state": "Odhisa", "amenity": "clinic", "name": "Prayas Health Care", "source": "Local Knowledge"}, "geometry": {"type": "Point", "coordinates": [85.828879, 20.255359]}}, {"type": "Feature", "properties": {"osm_id": 7709970718, "osm_type": "node", "addr:district": "Khordha", "addr:full": "Government Dispensary, IRC Village, Jayadev Vihar, Bhubaneswar", "addr:postcode": "751015", "addr:state": "Odhisa", "amenity": "hospital", "name": "Government Hospital", "source": "Local Knowledge"}, "geometry": {"type": "Point", "coordinates": [85.81368, 20.294308]}}, {"type": "Feature", "properties": {"osm_id": 7709970720, "osm_type": "node", "addr:district": "Khordha", "addr:full": "Jayadev Vihar, Bhubaneswar", "addr:postcode": "751013", "addr:state": "Odhisa", "amenity": "hospital", "name": "Satyam Hospital", "source": "Local Knowledge"}, "geometry": {"type": "Point", "coordinates": [85.8165439, 20.2973352]}}, {"type": "Feature", "properties": {"osm_id": 8817721092, "osm_type": "node", "addr:city": "Bhubaneswar", "addr:housenumber": "N2/19", "addr:postcode": "751015", "addr:street": "Nayapalli, IRC Village", "amenity": "clinic", "healthcare": "clinic", "healthcare:speciality": "orthopaedics", "name": "SimpleeKare Clinic", "website": "https://www.drsmarajitpatnaik.in/"}, "geometry": {"type": "Point", "coordinates": [85.8085121, 20.291651]}}, {"type": "Feature", "properties": {"osm_id": 8870030863, "osm_type": "node", "amenity": "hospital", "description": "Covid Treatment Available", "disease:covid19": "yes", "emergency": "no", "healthcare": "hospital", "name": "AIIMS Hospital"}, "geometry": {"type": "Point", "coordinates": [85.7736749, 20.2317351]}}, {"type": "Feature", "properties": {"osm_id": 8870030865, "osm_type": "node", "amenity": "hospital", "description": "Covid Treatment Available", "disease:covid19": "yes", "healthcare": "hospital", "name": "Vivekananda Hospital"}, "geometry": {"type": "Point", "coordinates": [85.8002264, 20.2792952]}}, {"type": "Feature", "properties": {"osm_id": 12307438824, "osm_type": "node", "addr:district": "Khordha", "addr:full": "A-32, Unit-4 Unit-4 Bhubaneswar", "addr:postcode": "751001", "addr:state": "Odisha", "addr:subdistrict": "Bhubaneswar", "amenity": "clinic", "healthcare": "clinic", "name": "Kar Clinic And Hospital Pvt Ltd", "source": "OpenGovernmentData"}, "geometry": {"type": "Point", "coordinates": [85.8333235, 20.277265]}}, {"type": "Feature", "properties": {"osm_id": 12307438825, "osm_type": "node", "addr:district": "Khordha", "addr:full": "CGHS, A.G.Colony, Unit-IV", "addr:postcode": "751001", "addr:state": "Odisha", "addr:subdistrict": "Bhubaneswar", "amenity": "clinic", "health_facility:type": "dispensary", "healthcare": "centre", "name": "CGHS", "source": "OpenGovernmentData", "website": "http://nb.bsf.gov.in/CGHS%20DIspenseries.pdf"}, "geometry": {"type": "Point", "coordinates": [85.8293487, 20.2794318]}}, {"type": "Feature", "properties": {"osm_id": 13288308734, "osm_type": "node", "amenity": "clinic", "check_date": "2025-11-08", "healthcare": "clinic", "name": "Shree Narayana Speech And Hearing Centre"}, "geometry": {"type": "Point", "coordinates": [85.8814424, 20.3179903]}}, {"type": "Feature", "properties": {"osm_id": 13546459613, "osm_type": "node", "addr:city": "Bhubaneswar", "addr:district": "Khordha", "addr:postcode": "751029", "amenity": "hospital", "healthcare": "hospital", "healthcare:speciality": "gastroenterology", "name": "IGKC Multispecialty Hospital", "operator": "Private", "operator:type": "private"}, "geometry": {"type": "Point", "coordinates": [85.7640308, 20.2743362]}}, {"type": "Feature", "properties": {"osm_id": 13685544652, "osm_type": "node", "amenity": "hospital", "healthcare": "hospital"}, "geometry": {"type": "Point", "coordinates": [85.82119, 20.3117544]}}, {"type": "Feature", "properties": {"osm_id": 236359578, "osm_type": "way", "amenity": "hospital", "healthcare": "hospital", "name": "Manipal Hospital Bhubaneswar", "website": "https://www.manipalhospitals.com/bhubaneswar/hospitals/"}, "geometry": {"type": "Polygon", "coordinates": [[[85.7764986, 20.2598831], [85.7764767, 20.2603753], [85.7767637, 20.2604464], [85.7776786, 20.2604946], [85.7784556, 20.2605356], [85.7784868, 20.2598309], [85.7764986, 20.2598831]]]}}, {"type": "Feature", "properties": {"osm_id": 289339580, "osm_type": "way", "addr:city": "Bhubaneswar", "addr:street": "Jayadev Vihar", "amenity": "hospital", "name": "SWARNA HOSPITAL"}, "geometry": {"type": "Polygon", "coordinates": [[[85.8204716, 20.2996694], [85.8203899, 20.2993519], [85.8208685, 20.2992402], [85.8209619, 20.2995818], [85.8204716, 20.2996694]]]}}, {"type": "Feature", "properties": {"osm_id": 289349935, "osm_type": "way", "addr:city": "Bhubaneswar", "addr:district": "Khordha", "addr:full": "Chandrasekharpur, Bhubaneswar", "addr:postcode": "751023", "addr:state": "Odisha", "addr:street": "Chandrasekharpur", "amenity": "hospital", "healthcare": "hospital", "name": "Kalinga Hospital", "source": "OpenGovernmentData", "website": "https://www.brlife.com/hospitals/bhubaneshwar/kalinga-hospital-4/", "wikidata": "Q42940491"}, "geometry": {"type": "Polygon", "coordinates": [[[85.818052, 20.3140502], [85.8192662, 20.3139538], [85.8191167, 20.3125261], [85.8179772, 20.3126224], [85.818052, 20.3140502]]]}}, {"type": "Feature", "properties": {"osm_id": 340644738, "osm_type": "way", "addr:district": "Khordha", "addr:full": "Capital Hospital Bbsr", "addr:postcode": "751001", "addr:state": "Odisha", "amenity": "hospital", "email": "info@capitalhospital.in", "name": "Capital Hospital (Bhubaneswar)", "phone": "0674-2391983", "source": "OpenGovernmentData", "website": "http://capitalhospital.nic.in/"}, "geometry": {"type": "Polygon", "coordinates": [[[85.8226012, 20.2609314], [85.8235898, 20.2602631], [85.8228711, 20.2593179], [85.8218354, 20.2600098], [85.8226012, 20.2609314]]]}}, {"type": "Feature", "properties": {"osm_id": 466594727, "osm_type": "way", "amenity": "hospital", "name": "ESI Hospital"}, "geometry": {"type": "Polygon", "coordinates": [[[85.8216534, 20.3010811], [85.8219484, 20.3002409], [85.8209131, 20.2998937], [85.8202801, 20.2995717], [85.8196524, 20.3000296], [85.8199368, 20.3003013], [85.8202264, 20.3004924], [85.8216534, 20.3010811]]]}}, {"type": "Feature", "properties": {"osm_id": 490265841, "osm_type": "way", "addr:district": "Khordha", "addr:full": "Sijua Patrapada, Bhubaneshwar", "addr:postcode": "751019", "addr:state": "Odisha", "addr:subdistrict": "Bhubaneswar", "amenity": "hospital", "name": "AIIMS, Bhubaneswar", "source": "OpenGovernmentData", "website": "www.aiimsbhubaneswar.edu.in"}, "geometry": {"type": "Polygon", "coordinates": [[[85.7699374, 20.2311458], [85.7710005, 20.2310638], [85.7710656, 20.2310676], [85.77184, 20.2312564], [85.772147, 20.2313289], [85.7721876, 20.2313232], [85.7722547, 20.2312564], [85.7726714, 20.2308807], [85.7729601, 20.2306175], [85.7730516, 20.2305793], [85.7731817, 20.2305297], [85.773143, 20.2304591], [85.773946, 20.2300128], [85.7751636, 20.2293758], [85.7756618, 20.2291231], [85.776142, 20.230134], [85.7771329, 20.2297388], [85.777816, 20.2295561], [85.7778691, 20.2304694], [85.777908, 20.2310439], [85.7781996, 20.2326271], [85.7767401, 20.2327906], [85.7745387, 20.2329866], [85.7707376, 20.2333851], [85.7699374, 20.2311458]]]}}, {"type": "Feature", "properties": {"osm_id": 585873952, "osm_type": "way", "addr:district": "Khordha", "addr:full": "A.G.Colony, Unit 4, Bhauma Nagar, Bhubaneswar", "addr:postcode": "751001", "addr:state": "Odisha", "amenity": "hospital", "check_date": "2023-12-22", "emergency": "yes", "healthcare": "hospital", "healthcare:speciality": "general;paediatrics;gynaecology;emergency", "internet_access": "no", "name": "Unit-4 Govt. Hospital", "operator": "BMC", "operator:type": "public", "source": "OpenGovernmentData", "wheelchair": "yes"}, "geometry": {"type": "Polygon", "coordinates": [[[85.8269299, 20.2803811], [85.8268421, 20.2795762], [85.8274321, 20.2793891], [85.8275322, 20.2803414], [85.8269299, 20.2803811]]]}}, {"type": "Feature", "properties": {"osm_id": 758839774, "osm_type": "way", "addr:district": "Khordha", "addr:full": "CGHS, A.G.Colony, Unit-IV", "addr:postcode": "751001", "addr:state": "Odisha", "addr:subdistrict": "Bhubaneswar", "amenity": "clinic", "building": "hospital", "health_facility:type": "dispensary", "healthcare": "centre", "name": "CGHS", "source": "OpenGovernmentData", "website": "http://nb.bsf.gov.in/CGHS%20DIspenseries.pdf"}, "geometry": {"type": "Polygon", "coordinates": [[[85.829296, 20.2792011], [85.8293046, 20.2795653], [85.8294097, 20.2795631], [85.8294011, 20.2791989], [85.829296, 20.2792011]]]}}, {"type": "Feature", "properties": {"osm_id": 758865853, "osm_type": "way", "addr:district": "Khordha", "addr:full": "A-32, Unit-4 Unit-4 Bhubaneswar", "addr:postcode": "751001", "addr:state": "Odisha", "amenity": "clinic", "building": "yes", "healthcare": "clinic", "name": "Kar Clinic And Hospital Pvt Ltd", "source": "OpenGovernmentData"}, "geometry": {"type": "Polygon", "coordinates": [[[85.833409, 20.277162], [85.8332017, 20.2772178], [85.8332402, 20.2773435], [85.8334475, 20.2772877], [85.833409, 20.277162]]]}}, {"type": "Feature", "properties": {"osm_id": 825729561, "osm_type": "way", "addr:district": "Khordha", "addr:full": "92-Dumuduma, Khandagiri Square, Bhubaneswar", "addr:postcode": "751030", "addr:state": "Odisha", "amenity": "clinic", "building": "healthcare", "healthcare": "clinic", "name": "Hillside Nursing Home"}, "geometry": {"type": "Polygon", "coordinates": [[[85.7877875, 20.2540295], [85.7878354, 20.2540284], [85.7878373, 20.2541028], [85.787946, 20.2541004], [85.7879432, 20.2539933], [85.7879684, 20.2539928], [85.7879653, 20.2538746], [85.7878928, 20.2538762], [85.7878918, 20.2538388], [85.7878223, 20.2538404], [85.787823, 20.2538693], [85.7877834, 20.2538702], [85.7877875, 20.2540295]]]}}, {"type": "Feature", "properties": {"osm_id": 1139255374, "osm_type": "way", "addr:city": "Bhubaneswar", "addr:housenumber": "C-21", "addr:place": "B.J.B Nagar", "addr:postcode": "751014", "amenity": "hospital", "emergency": "no", "healthcare": "hospital", "name": "Sara Gastro & Laparoscopic Hospital"}, "geometry": {"type": "Polygon", "coordinates": [[[85.8457949, 20.2540877], [85.8457243, 20.2540043], [85.8458895, 20.2538812], [85.8459601, 20.2539646], [85.8457949, 20.2540877]]]}}, {"type": "Feature", "properties": {"osm_id": 1428305062, "osm_type": "way", "amenity": "hospital", "healthcare": "hospital", "name": "Munna medicine store"}, "geometry": {"type": "Polygon", "coordinates": [[[85.8332787, 20.2400026], [85.8333375, 20.2399686], [85.8333104, 20.2399274], [85.8332516, 20.2399613], [85.8332787, 20.2400026]]]}}]}