{"type": "FeatureCollection", "crs": {"type": "name", "properties": {"name": "urn:ogc:def:crs:OGC:1.3:CRS84"}}, "features": [{"type": "Feature", "properties": {"ST_NAME": "OD", "PC_NAME": "Bhubaneswar", "ST_CODE": "S18", "PC_CODE": 18, "Res": "GEN", "representative": "Aparajita Sarangi", "party": "BJP", "pc_name": "Bhubaneswar", "office": "MP"}, "geometry": {"type": "Polygon", "coordinates": [[[85.81681640491853, 20.426312878472718], [85.82329310160792, 20.407703079601706], [85.83087469778818, 20.403848086511022], [85.83015090121278, 20.401688670624885], [85.83102121871954, 20.40165469461426], [85.8340296805439, 20.4015372091918], [85.83553390994733, 20.401478443754556], [85.8370381370454, 20.40141966321742], [85.83854236378636, 20.401360867504252], [85.8400465882213, 20.401302056691282], [85.84155081229844, 20.401243230702285], [85.84305503406887, 20.40118438961359], [85.84455925548083, 20.40112553334888], [85.84462168965942, 20.402543750204796], [85.84612592479576, 20.402484878131727], [85.84618837629924, 20.40390309526486], [85.84919687560975, 20.40378530424875], [85.85063862415124, 20.40230817100839], [85.85208033961428, 20.400831025072915], [85.8535220240291, 20.399353868204685], [85.85502621909667, 20.399294906723657], [85.85646785404249, 20.39781772269763], [85.85797203040792, 20.397758731651866], [85.85947620641164, 20.397699725430652], [85.86098038010455, 20.397640704110454], [85.86248455343507, 20.39758166761478], [85.86398872445409, 20.397522616020176], [85.86549289510998, 20.39746354925021], [85.86705973542918, 20.398822669775445], [85.86712240870212, 20.40024087315752], [85.86718508335387, 20.401659079363846], [85.86724775930331, 20.403077286556393], [85.86731043663164, 20.40449549657158], [85.86737311525773, 20.405913707571237], [85.86743579526281, 20.40733192139177], [85.86887737942592, 20.405854606258416], [85.87038164128107, 20.405795489845683], [85.87182317604884, 20.404318149391514], [85.87332741919334, 20.404259003414417], [85.87476890448524, 20.402781635804647], [85.87621035678032, 20.40130425734272], [85.876147585942, 20.399886055407766], [85.87608481648459, 20.398467856297195], [85.87602204832675, 20.397049658174637], [85.87595928154975, 20.395631462878235], [85.87589651607225, 20.39421326857161], [85.87583375197548, 20.39279507709276], [85.87426689298606, 20.39143605644682], [85.87420414759794, 20.39001786807649], [85.87407866079991, 20.38718149615327], [85.87401591938989, 20.38576331260217], [85.87244916099375, 20.38440428306566], [85.87238643828965, 20.38298610263157], [85.87232371696524, 20.38156792503208], [85.87081973028772, 20.38162705961564], [85.86925305332397, 20.380268001076878], [85.86768640942732, 20.378908928777204], [85.8660571447005, 20.37613166818206], [85.86599449413018, 20.37471349640842], [85.8659318449379, 20.37329532747445], [85.86586919704244, 20.371877159543693], [85.8673104139898, 20.37039991093192], [85.86868892198527, 20.367504489836346], [85.87019275072758, 20.367445377471327], [85.8701300601124, 20.36602721937296], [85.87163387051949, 20.365968092625504], [85.87157116526059, 20.364549938084394], [85.8730122392976, 20.363072644058377], [85.87294952069387, 20.361654494085027], [85.87445328035714, 20.361595339210265], [85.87595703965539, 20.361536169164722], [85.87739803127042, 20.360058837201368], [85.87890177186807, 20.35999963760461], [85.88034271412045, 20.358522280365627], [85.88178362526462, 20.357044910395953], [85.8832873288257, 20.356985666869242], [85.8847910320197, 20.35692640817251], [85.885179930167, 20.35652764484407], [85.88152022281828, 20.349034186774446], [85.87627065896463, 20.34297175465216], [85.87177735279556, 20.339658545000646], [85.87040438996345, 20.335748610060953], [85.87145600358251, 20.332389848514072], [85.87882134495347, 20.331821601018362], [85.87674593945323, 20.32912649799084], [85.87694924363575, 20.325782710109706], [85.88431623226388, 20.325260175020624], [85.88045067061736, 20.318490070865312], [85.88464809674373, 20.315685985972813], [85.88904415072624, 20.314615398352128], [85.89222604245396, 20.312453857838783], [85.89012084417102, 20.30710763725793], [85.88410503072971, 20.302656425612057], [85.8846210370961, 20.297269032711522], [85.8851589025837, 20.297247824887062], [85.88659909510322, 20.29577049836876], [85.88653626327361, 20.294352446913784], [85.8864734328252, 20.292934398346375], [85.88791356493796, 20.29145706451795], [85.88785072116613, 20.29003902060715], [85.88772503760389, 20.28720293778278], [85.8891650927457, 20.28572560033836], [85.8891022383336, 20.2843075650354], [85.88903938522168, 20.282889530788974], [85.88897653349132, 20.281471499437], [85.88891368306102, 20.28005346914326], [85.8888508340122, 20.278635441745674], [85.88878798626338, 20.277217415408014], [85.88872513989593, 20.275799391968178], [85.88866229482839, 20.27438136958998], [85.88859945114214, 20.272963350111336], [85.88853660875573, 20.271545331696093], [85.88847376775053, 20.270127316182023], [85.88841092804506, 20.268709301733033], [85.88834808972071, 20.267291290186943], [85.88828525269604, 20.265873279707684], [85.88822241705238, 20.264455272133052], [85.88815958270828, 20.263037265626856], [85.88809674974516, 20.261619262027022], [85.88803391808152, 20.260201259497375], [85.88797108779872, 20.258783259875692], [85.88790825881534, 20.25736526132594], [85.88784543121272, 20.25594726568592], [85.88628006196167, 20.25458855389106], [85.88621725303445, 20.253170561519394], [85.88615444540613, 20.251752570223037], [85.88452635292795, 20.24897585935907], [85.88446356535295, 20.24755787425107], [85.882835560514, 20.244781156629276], [85.88277279290854, 20.243363175880365], [85.88271002668237, 20.24194519804959], [85.88114487375516, 20.240586451593817], [85.87964248539124, 20.240645666731748], [85.87957975382646, 20.23922769147048], [85.87807737914373, 20.23928689081418], [85.87651230581281, 20.237928099393844], [85.87500994444744, 20.237987267788945], [85.87494726353295, 20.236569294385568], [85.87338225416846, 20.23521047387716], [85.8732569309638, 20.232374534743684], [85.87175463089007, 20.232433670045037], [85.87018970285652, 20.23107482266359], [85.86862480578985, 20.229715959863487], [85.86856219685365, 20.228297995634883], [85.86849958921198, 20.226880032496705], [85.86843698294592, 20.225462072286625], [85.8683743779743, 20.224044113168652], [85.8683117743782, 20.2226261569806], [85.86824917207646, 20.221208201886355], [85.86818657115015, 20.219790249723676], [85.86812397151813, 20.21837229865644], [85.86806137326145, 20.216954350522535], [85.86799877629896, 20.21553640348583], [85.86787358641864, 20.212700516381336], [85.8678109935007, 20.2112825763152], [85.86774840187678, 20.209864637349686], [85.86768581162795, 20.20844670132254], [85.86762322267309, 20.20702876639772], [85.8675606350932, 20.20561083441297], [85.86749804880718, 20.20419290353227], [85.86737288027874, 20.20135704876012], [85.86731029803623, 20.199939124870355], [85.86724771708741, 20.198521202088045], [85.86718513751333, 20.19710328225087], [85.86712255923287, 20.195685363522852], [85.86705998232705, 20.194267447741698], [85.86699740671476, 20.19284953307145], [85.86693483247703, 20.191431621349707], [85.86689232447598, 20.190468387892054], [85.8608057415588, 20.19142532093607], [85.85382391690241, 20.193555811865885], [85.85754895519678, 20.17889287339148], [85.85631562719936, 20.175559992247727], [85.84551568519483, 20.174725485037087], [85.84051349537626, 20.19572919174589], [85.83598299577508, 20.187993700193626], [85.83379386476074, 20.17919367657689], [85.83086256088569, 20.17523924197728], [85.82924992279078, 20.170352288865203], [85.82857172772923, 20.161661236225918], [85.82721261720216, 20.15844120751904], [85.81991680853417, 20.158378810942978], [85.81263235351716, 20.159355278574324], [85.80654558934935, 20.158306656451114], [85.80426510687298, 20.153942329286906], [85.80183137340008, 20.151198753271345], [85.80007963380196, 20.150461874182657], [85.7968297013521, 20.150894097462384], [85.78331777554669, 20.156975830087593], [85.78323254424834, 20.16084102351685], [85.78522550013568, 20.161745873928712], [85.7857858022031, 20.163874756867102], [85.78376779838814, 20.16653839621085], [85.78112181282505, 20.1674230366163], [85.77135664176744, 20.1678357000806], [85.76556439114056, 20.166613006308268], [85.7641672458815, 20.16506615010672], [85.76268997112133, 20.161332659293695], [85.76306851364865, 20.157589567586744], [85.76437277873622, 20.154411024482933], [85.76321337577849, 20.151939560939166], [85.75121223890697, 20.150410974165226], [85.74695726348463, 20.14697775551423], [85.73332813855467, 20.151283698621874], [85.72530526449373, 20.142693027671815], [85.7246762196871, 20.138377074212272], [85.7258539423869, 20.134053793421057], [85.7246341980032, 20.131177302893235], [85.72269030724597, 20.12957984216052], [85.72012707012271, 20.133286903039483], [85.71901507214865, 20.137782382860287], [85.72029762179527, 20.140196485660734], [85.72019663581364, 20.14203811646538], [85.707683577495, 20.144548532355063], [85.7000199370203, 20.151221905218026], [85.69424200331129, 20.151778486853747], [85.68947066166065, 20.148991279601283], [85.68388744186768, 20.139399202506244], [85.68325595516814, 20.131690712600964], [85.677883930906, 20.12291175424236], [85.67810291733947, 20.11674641718521], [85.6774168157257, 20.11208300360236], [85.68422487416504, 20.105928838283212], [85.68724195132428, 20.098019372989285], [85.69249050607434, 20.095047635204647], [85.68287998525106, 20.09234396863026], [85.67761542121787, 20.08684552758083], [85.676184629236, 20.08195303787449], [85.67778488998086, 20.0792932452252], [85.68160976216423, 20.077424883480138], [85.68146463132251, 20.074254312925746], [85.68023701941095, 20.071499931661624], [85.67588687734022, 20.069041518156002], [85.66974176903112, 20.06786797757322], [85.6643750834709, 20.06507767326595], [85.65869525082829, 20.064306818696746], [85.65352436671515, 20.065544831181295], [85.65006762489116, 20.07000647698317], [85.64853556680592, 20.074972313962913], [85.6504351098349, 20.090925651156343], [85.6524610108004, 20.09632020841459], [85.64725820613536, 20.09821237099264], [85.63344518703458, 20.09996544164827], [85.63336697846152, 20.097199368225727], [85.64548667026736, 20.088252113675438], [85.64639591352972, 20.082831449484136], [85.64339009442706, 20.08313383507251], [85.64288082371228, 20.079505571201747], [85.63951154696022, 20.07375934020267], [85.62806048175744, 20.068566860710046], [85.62416649277453, 20.065931129387902], [85.6205712575805, 20.058725888937726], [85.6174418740898, 20.042021276897167], [85.6202391627156, 20.035996356563142], [85.62223433212603, 20.036105038717213], [85.62400946295067, 20.029854136452716], [85.63128988706117, 20.024556672103166], [85.62384412765077, 20.013042866751437], [85.62398669385617, 20.009737468397628], [85.61972678758364, 20.000352478821632], [85.6178645627053, 19.991277209595008], [85.61461343908734, 19.99552062082116], [85.61137792030942, 20.000600488902016], [85.61509281350956, 20.0138053238462], [85.61763717412742, 20.018055744667677], [85.61464517094026, 20.019343613612197], [85.60923768477033, 20.01678084713116], [85.60516079482333, 20.01253039118666], [85.60290240151805, 20.007317023827326], [85.59681695281616, 20.00030200206549], [85.59478428083689, 19.994889174537786], [85.59116399971349, 19.997660410877383], [85.59093658717269, 20.000469898546793], [85.59029986155768, 20.002802544949564], [85.58194840698245, 20.00844619364646], [85.57921999410645, 20.018809286941128], [85.5772029119337, 20.021423650551302], [85.5729382509077, 20.023823062972436], [85.5700675430593, 20.019883033078045], [85.56571772881209, 20.011870421774198], [85.56407119946861, 20.006704952410043], [85.5665182034492, 20.004017252550767], [85.56655791898892, 20.000660678765783], [85.567237986657, 19.992607439786063], [85.5696356456041, 19.984211857930916], [85.56982577206736, 19.976430011366567], [85.56462705946186, 19.98054497148983], [85.56143502496501, 19.978201408765912], [85.56033079344944, 19.97365965378216], [85.56438604410548, 19.97047288077129], [85.56965883623009, 19.968719074267256], [85.5678166081039, 19.953631980639596], [85.56532181954061, 19.94945287579544], [85.56142189077352, 19.94947204752772], [85.55525596334705, 19.95265236307911], [85.55489300990011, 19.961323422438113], [85.55304223149051, 19.96231456127125], [85.54770889526851, 19.955959826243618], [85.53445778055965, 19.9669199890907], [85.53619089792075, 19.975025678609406], [85.53163898379958, 19.977284997591187], [85.52562353816721, 19.975229451536332], [85.51976298487702, 19.96904270707912], [85.51546359631, 19.954618784476317], [85.50720742723298, 19.950215070902633], [85.50250427464978, 19.945509578033302], [85.50434458834042, 19.943084647614576], [85.50976673333659, 19.945889511423164], [85.51976628293545, 19.941902270400863], [85.51991161594114, 19.936842772945273], [85.50903213971345, 19.93307228202549], [85.51042187732367, 19.925759417592918], [85.5229372147248, 19.92947142869804], [85.52883369351747, 19.94112898313344], [85.5334444974745, 19.94008167423449], [85.53690468137022, 19.936745391768845], [85.53618887500318, 19.9278342471331], [85.56690763894628, 19.916769454323923], [85.56372305591795, 19.906769065274826], [85.57019009999263, 19.904333671677367], [85.56737914152677, 19.869772246505445], [85.56482458588384, 19.85458245601417], [85.55651196698135, 19.8567711587326], [85.55502775163414, 19.855473459137603], [85.5535295608389, 19.85552936914533], [85.5520313697575, 19.85558526404726], [85.55053317644955, 19.855641143915697], [85.54903498285613, 19.855697008678284], [85.54753678703682, 19.855752858407342], [85.5460385909328, 19.855808693030486], [85.54454039260342, 19.855864512620066], [85.54459938130917, 19.857282045142593], [85.54310116678931, 19.857337850308532], [85.54160295004478, 19.857393640440662], [85.54010473301679, 19.857449415466643], [85.53860651376488, 19.85750517545875], [85.53710829423017, 19.85756092034469], [85.53561007247224, 19.857616650196686], [85.53411185043224, 19.857672364942527], [85.53261362616954, 19.857728064654268], [85.53111540162553, 19.857783749259877], [85.52961717485948, 19.857839418831393], [85.52811894781281, 19.85789507329667], [85.52662071854486, 19.85795071272779], [85.52512248899683, 19.858006337052704], [85.52362425722822, 19.858061946343373], [85.52212602518021, 19.858117540527793], [85.52062779091233, 19.85817311967794], [85.51912955636577, 19.858228683721794], [85.51763131959987, 19.858284232731297], [85.51613308255605, 19.85833976663448], [85.51463484329362, 19.858395285503242], [85.51313660375382, 19.858450789265714], [85.51163836199615, 19.858506277993662], [85.50864187571021, 19.858617210202393], [85.50714363118263, 19.85867265368308], [85.50731941182768, 19.862925317490575], [85.50737800784312, 19.864342875944246], [85.50743660514277, 19.865760437546385], [85.50749520365078, 19.86717800045968], [85.50755380344307, 19.86859556651978], [85.5076124044438, 19.870013133889362], [85.5076710067289, 19.871430704404005], [85.50772961022251, 19.872848276226495], [85.50778821500059, 19.874265851192284], [85.50784682098723, 19.875683427464214], [85.50640697468577, 19.877156444131852], [85.50490852083746, 19.87721186627708], [85.50341006477251, 19.877267273385247], [85.50191160843264, 19.877322665384554], [85.50041314987688, 19.877378042346777], [85.49891469104674, 19.87743340420008], [85.49741623000145, 19.877488751016223], [85.49591776868246, 19.87754408272351], [85.49292084134257, 19.877654700954615], [85.49142237532219, 19.87770998747842], [85.48992390902961, 19.87776525889327], [85.48842544052376, 19.877820515270738], [85.48692697174637, 19.87787575653931], [85.48542850075646, 19.877930982770398], [85.48393002949555, 19.87798619389252], [85.48243155602286, 19.878041389977113], [85.48093308227985, 19.878096570952714], [85.47943460632573, 19.878151736890775], [85.47793613010202, 19.878206887719795], [85.47493917296465, 19.87831714419353], [85.47344069205165, 19.878372249838183], [85.47194221087048, 19.878427340373772], [85.47038551801869, 19.877064819577956], [85.46888705027364, 19.877119879293893], [85.46733040395975, 19.875757329474343], [85.46583194965207, 19.87581235837123], [85.46433349313673, 19.875867372230687], [85.46283503635527, 19.87592237098129], [85.46127846585543, 19.874559758813387], [85.45828157696612, 19.874669679641073], [85.45822349855278, 19.873252085559542], [85.45672506865232, 19.873307022674645], [85.45522663654636, 19.873361944752432], [85.45367017469634, 19.87199925693376], [85.45067333710703, 19.872109024347612], [85.44917491597656, 19.872163885463124], [85.4476764945834, 19.87221873147027], [85.44617807098666, 19.872273562440093], [85.444679647128, 19.872328378301603], [85.44318122106648, 19.872383179125663], [85.44168279474357, 19.872437964841378], [85.4417406969265, 19.873855564990848], [85.44024225248918, 19.873910336338458], [85.43874380779114, 19.873965092577485], [85.43730321653064, 19.87543743724268], [85.43580475345837, 19.87549216400417], [85.43430628818511, 19.875546875727725], [85.43286563182033, 19.87701918095459], [85.4314249426207, 19.87849147378498], [85.43148273833393, 19.87990908751125], [85.43154053523912, 19.881326702540917], [85.43159833341123, 19.882744320709662], [85.43165613277537, 19.88416194018012], [85.43177173522972, 19.88699718669588], [85.43188734260248, 19.88983244208137], [85.43200295489399, 19.892667706329846], [85.43217638257329, 19.896920619764877], [85.43223419423445, 19.898338261388542], [85.432292007163, 19.89975590614107], [85.43079326860057, 19.89981058396286], [85.42929452783771, 19.899865246743442], [85.42635479404012, 19.90139217575313], [85.42485603464202, 19.90144679393534], [85.42341499291682, 19.9029190502507], [85.42191621514297, 19.902973638945742], [85.42041743517053, 19.90302821259901], [85.41891865494166, 19.903082771139815], [85.41741987251497, 19.90313731463878], [85.41592108983238, 19.90319184302527], [85.4144223049527, 19.90324635636993], [85.4129235198178, 19.90330085460199], [85.41142473248648, 19.90335533779217], [85.40992594490062, 19.9034098058698], [85.40842715511904, 19.903464258905416], [85.40836959444445, 19.902046599073245], [85.40675573452975, 19.899265722882664], [85.40669819348506, 19.897848069932433], [85.4051994649324, 19.89790249015513], [85.40370073612681, 19.897956895265978], [85.40220200512695, 19.898011285335414], [85.40070327387471, 19.898065660293014], [85.4007607512433, 19.899483315900532], [85.39926200187841, 19.899537676480545], [85.39776325226175, 19.89959202194847], [85.39632193132232, 19.901064013101806], [85.39482316334218, 19.9011183290792], [85.39326699413876, 19.899754967961243], [85.39171085778233, 19.89839159353355], [85.39009738876312, 19.895610548203422], [85.38854133318435, 19.894247146025826], [85.38704263772473, 19.894301383340608], [85.38554394201618, 19.894355605543915], [85.38404524411766, 19.894409812706076], [85.38254654597084, 19.894464004756756], [85.38104784563473, 19.894518181766134], [85.37954914505109, 19.894572343664105], [85.37805044227868, 19.89462649052073], [85.37660895830244, 19.896098282756295], [85.37361151580423, 19.896206502373982], [85.3721699647105, 19.897678253352307], [85.37067122498615, 19.897732326112322], [85.36917248307508, 19.897786383830493], [85.36767374091907, 19.897840426436666], [85.36617499657702, 19.89789445400091], [85.36467625199079, 19.897948466453247], [85.36167875820384, 19.898056446161835], [85.36018000900387, 19.898110413418088], [85.35868125956101, 19.898164365562337], [85.35718250793411, 19.89821830266449], [85.35712549466189, 19.896800632301925], [85.35706848256564, 19.895382963233377], [85.3570114717192, 19.8939652972962], [85.35695446204868, 19.89254763265477], [85.3568974536279, 19.891129971146395], [85.35833910249761, 19.889658377785985], [85.35978071859826, 19.888186773837166], [85.36127935636904, 19.888132811195], [85.36277799195538, 19.888078833511997], [85.36427662729848, 19.88802484071833], [85.36577526045643, 19.88797083288398], [85.36727389337037, 19.887916809938968], [85.3687725240986, 19.88786277195327], [85.37027115458211, 19.887808718856984], [85.37176978287924, 19.887754650720062], [85.3717126188896, 19.886337001539825], [85.37321123102453, 19.886282918953018], [85.37470984097243, 19.886228821325833], [85.37615124018848, 19.884757064527488], [85.37764983178624, 19.884702937410896], [85.37909118199963, 19.883231153747115], [85.38058975524648, 19.883176997141973], [85.38208832824604, 19.88312282542683], [85.38352961142694, 19.881651002358925], [85.38347232497868, 19.880233367348804], [85.38497086371068, 19.880179166808396], [85.38641208323106, 19.87870732068337], [85.38635476739105, 19.877289691442776], [85.38629745280731, 19.87587206534403], [85.38624013940559, 19.87445444055153], [85.38474166652006, 19.874508653481335], [85.38468437028793, 19.87309103116994], [85.38312863198914, 19.87172760673294], [85.38157292652389, 19.87036416900819], [85.38151566573558, 19.868946551135057], [85.38145840620228, 19.867528936408824], [85.38140114784979, 19.866111322993884], [85.38134389075222, 19.864693712727583], [85.37984552462848, 19.864747875837043], [85.37828993416333, 19.863384413561576], [85.37823271132301, 19.861966806434516], [85.37817548966267, 19.86054920062217], [85.37667716883698, 19.860603331601304], [85.37512165917941, 19.859239843489583], [85.37362335183107, 19.859293943663303], [85.37206788865065, 19.857930424740008], [85.37056959478078, 19.85798449410897], [85.36907130066608, 19.85803854837115], [85.36757300436605, 19.858092587596637], [85.36451933430796, 19.856783016657207], [85.36152276599915, 19.856890988250658], [85.3600244805101, 19.856944951422424], [85.35852619283769, 19.8569988995575], [85.3570279049232, 19.857052832585936], [85.3555296148261, 19.85710675057762], [85.3540313244876, 19.857160653462646], [85.35253303196717, 19.8572145413108], [85.35103473920609, 19.85726841405234], [85.34953644426358, 19.857322271756917], [85.34803814908119, 19.857376114354846], [85.34653985171806, 19.85742994191581], [85.34509842206916, 19.858901367077827], [85.34360010734686, 19.858955165117944], [85.34210179044494, 19.859008948120813], [85.34066029477218, 19.860480333850518], [85.33916195954198, 19.86053408736631], [85.3376636240742, 19.860587825774996], [85.336165286428, 19.860641549146145], [85.33316860848385, 19.86074895063647], [85.33167026818656, 19.860802628755646], [85.33017192571228, 19.860856291837113], [85.32867358300228, 19.860909939811442], [85.32711855984765, 19.859545949006296], [85.32706188282145, 19.858128328417596], [85.32550690957531, 19.856764325009102], [85.32395196721602, 19.855400308407106], [85.32084217889125, 19.852672231816282], [85.31928733292445, 19.85130817183013], [85.31767594466812, 19.84852648888509], [85.31761937273377, 19.847108882274195], [85.31606462462575, 19.845744797181833], [85.31450990739981, 19.844380698905884], [85.31301174356241, 19.844434188304902], [85.31151357755253, 19.844487662668033], [85.31001541131148, 19.844541121926053], [85.3085172428986, 19.84459456614822], [85.30701907425521, 19.844647995265255], [85.30552090344075, 19.84470140934632], [85.30407915875374, 19.846172416332443], [85.30263738131647, 19.8476434127496], [85.30269379416521, 19.8490610258979], [85.30125197117181, 19.850532013651392], [85.30130837051067, 19.851949631934144], [85.30136477108556, 19.85336725337471], [85.30142117282344, 19.854784876135785], [85.30147757579743, 19.856202502053048], [85.30153397993452, 19.8576201292891], [85.30159038530779, 19.85903775967958], [85.30164679184419, 19.860455391387188], [85.30170319961688, 19.861873026247537], [85.30175960855279, 19.863290662423292], [85.30331441491312, 19.864654923778513], [85.30337084216148, 19.866072563766576], [85.30342727064664, 19.867490206904005], [85.30348370029547, 19.86890785135352], [85.30354013118117, 19.870325498950717], [85.30359656323063, 19.871743147858282], [85.30365299651703, 19.873160799911776], [85.30370943096726, 19.874578453273976], [85.30376586665452, 19.87599610978052], [85.3038223035057, 19.877413767593932], [85.30387874159395, 19.878831428550004], [85.30238018626248, 19.878884813045886], [85.30093803618, 19.88035584606703], [85.29949585527191, 19.881826868423317], [85.29805364152291, 19.883297878345818], [85.29661139694686, 19.884768877600536], [85.2951127709794, 19.884822189360875], [85.29367047741519, 19.88629316171956], [85.29372681128136, 19.887710840565706], [85.29222815108088, 19.88776412347608], [85.29072949065299, 19.88781739127563], [85.29078579384407, 19.889235072723473], [85.2893434038356, 19.89070601136583], [85.287844709175, 19.890759250313383], [85.28645852923755, 19.893647853018276], [85.284959800344, 19.893701063112182], [85.28501604464658, 19.89511875602544], [85.28357352728072, 19.89658964842165], [85.28207476415385, 19.896642829660294], [85.28213097900813, 19.89806052829983], [85.28063219779366, 19.898113695144687], [85.2791896005986, 19.899584549945832], [85.27924578600187, 19.901002254307357], [85.27624815488105, 19.901108515168993], [85.27630430967223, 19.902526223956947], [85.27480547591217, 19.90257933243614], [85.2748616159394, 19.903997043163955], [85.271920023375, 19.905520931300526], [85.27197613394507, 19.906938647741445], [85.27047724980532, 19.90699171289477], [85.26909052456459, 19.909880206014883], [85.26764767260632, 19.911350968225975], [85.26614873614437, 19.911403990118497], [85.26616219177993, 19.911744329307137], [85.26789786348729, 19.912403933296616], [85.27164586912262, 19.91705588472765], [85.27762086392761, 19.912622951906283], [85.29315112205944, 19.920718950916697], [85.32132955138096, 19.926097352322905], [85.33195243043154, 19.92568520723172], [85.33458889683645, 19.935056855250362], [85.34313913846172, 19.941144619003783], [85.3500463822335, 19.942515327871288], [85.35743791861599, 19.953380657880682], [85.36364608568641, 19.958142188326274], [85.37555734347752, 19.951750572319078], [85.38455750535734, 19.950009053860303], [85.38497685480459, 19.94005392443728], [85.39025434892528, 19.939354809989293], [85.39530386360646, 19.939753694812236], [85.39763914940896, 19.939057505286794], [85.39893358158072, 19.933080635354656], [85.40382869180785, 19.9295576019454], [85.42158125529367, 19.926888913494125], [85.42246976099838, 19.934140823240064], [85.42500750287773, 19.937584767801045], [85.43131893731866, 19.938037646741236], [85.43648762069093, 19.94015988518626], [85.44102627994124, 19.945903476944867], [85.44654043560806, 19.95527194117863], [85.45404053391191, 19.96406181321204], [85.45728036985619, 19.97308796692985], [85.4537239200005, 19.9810317860988], [85.44787525070467, 19.987658973348836], [85.44170514649676, 19.9904852409634], [85.44088738698963, 19.994283940231686], [85.43319091521997, 19.992980454554502], [85.42382558238876, 19.993342433261695], [85.41687115414784, 19.994963650681633], [85.41696161434015, 20.000653841301084], [85.4182863243953, 20.003795077940822], [85.42161382275377, 20.003542994146834], [85.42534811383737, 20.006465371517333], [85.42633095945237, 20.0113597651105], [85.42905167487989, 20.013882110327042], [85.43200557186132, 20.01841947725004], [85.43517038006704, 20.027044729775405], [85.43086849747283, 20.02787990025448], [85.42636637554028, 20.027147152311503], [85.42223290769574, 20.024114985061935], [85.41740920788617, 20.026955626326245], [85.41519121785379, 20.02506783478626], [85.41508618459393, 20.020573773659464], [85.41367775116406, 20.02207591605312], [85.41334814613997, 20.02593737333344], [85.41425224508112, 20.03129467264246], [85.41213712863488, 20.033374443203858], [85.40753438514176, 20.031724876391785], [85.40359830019014, 20.033185264184386], [85.39994822420451, 20.033423371714523], [85.39698747469511, 20.03637750696095], [85.39812729140314, 20.039882152101907], [85.39568067176255, 20.040757210881804], [85.39435058869111, 20.044684742296432], [85.39444060789893, 20.047505409109316], [85.39233548416307, 20.047682791638227], [85.38711668130803, 20.055947662827244], [85.38612623559493, 20.06154162701642], [85.38100812071761, 20.0714769620245], [85.38354005045403, 20.079070992421308], [85.38101283606761, 20.081103096371038], [85.38102929052923, 20.08415651205652], [85.3852786209638, 20.089789040516777], [85.3909662952688, 20.089815709391402], [85.39639153196495, 20.08841439016599], [85.39991496071366, 20.09185590996847], [85.40260026444905, 20.095996988112713], [85.40455654612583, 20.112750977892993], [85.40668682223969, 20.1158014234352], [85.41439507218249, 20.122851052180103], [85.41453904718665, 20.12746385957357], [85.40600002461457, 20.13568731685116], [85.39986503023248, 20.139807769192213], [85.39670670435788, 20.13699209727836], [85.39554807836221, 20.134002893699897], [85.39247074093956, 20.135461948593154], [85.39000390330888, 20.138524768919243], [85.38864139403968, 20.143364515380057], [85.39011679901124, 20.147920028549464], [85.38795967170726, 20.150341555042797], [85.38695656964161, 20.1545565709118], [85.38467490754152, 20.155830283037595], [85.38338285628942, 20.1526709853695], [85.3833146746282, 20.14990438132069], [85.38011257221248, 20.149976303514], [85.3754311223487, 20.14538444322297], [85.36263735919947, 20.145782966425422], [85.35628872302536, 20.145125725816747], [85.35801858338152, 20.153124424448233], [85.3620291883857, 20.156793386253387], [85.36406938342101, 20.16595164035549], [85.36751715253968, 20.16869783512701], [85.3703181165331, 20.172672372142312], [85.37034949777275, 20.177793111437126], [85.36879530735855, 20.180687076591983], [85.3630889963137, 20.185607148121612], [85.3583963242977, 20.187643372365873], [85.3518140990287, 20.188252195688026], [85.3488986760738, 20.184573466164508], [85.347735420331, 20.181694340444245], [85.33334959304071, 20.180141766733033], [85.32407867779551, 20.173092712307515], [85.31257451976242, 20.16645168310838], [85.3148308045024, 20.158429960421657], [85.31486613065725, 20.155901275780707], [85.31232526733304, 20.154117453214024], [85.30176090795567, 20.153644765030954], [85.29782086899105, 20.151579238684764], [85.29493537961707, 20.153730810107774], [85.29118045707959, 20.150805398334068], [85.27111296578347, 20.146382985497166], [85.26759038340302, 20.14327858130859], [85.25878081513204, 20.13271413873204], [85.25606611977607, 20.13266260350417], [85.25250044009415, 20.1314084599839], [85.24849924753565, 20.128249254535977], [85.24485902031229, 20.12423560948414], [85.24106687255166, 20.114507985732807], [85.23251614272039, 20.118342849120904], [85.22952072221638, 20.122040058687872], [85.22766331696764, 20.126200850964455], [85.21772201916909, 20.128133556995422], [85.21448135661662, 20.132177107901608], [85.21505593350223, 20.137018552210407], [85.21458822549434, 20.141112230371572], [85.21594323254769, 20.14474211290841], [85.21100937838621, 20.14971183936555], [85.20733156830143, 20.151565083910686], [85.205846686022, 20.154567474879123], [85.21208816587236, 20.15847057895785], [85.21465044410887, 20.16468700499925], [85.21322644410293, 20.168496886852214], [85.2098558542468, 20.170868419216536], [85.20424570088592, 20.17215667681344], [85.20399083039496, 20.180456303730544], [85.20201266734047, 20.18368747548942], [85.20156410532584, 20.190154094675155], [85.21186974953078, 20.19875916893696], [85.21351008365336, 20.201574327041463], [85.2139771701056, 20.209756990878585], [85.21623388643759, 20.213498221749546], [85.21908529676458, 20.21711516201432], [85.22690751642351, 20.2230878061053], [85.23020988342789, 20.22019381071072], [85.23577675344919, 20.209966394873067], [85.24016745765708, 20.207995325381486], [85.24451582368502, 20.208040354779246], [85.25178212897129, 20.210779209546313], [85.25668765531246, 20.214560000158887], [85.25588035192065, 20.22113399567255], [85.25632158204206, 20.22637607337182], [85.27420313416177, 20.226885854627643], [85.27999797916746, 20.226400245502827], [85.3086890666791, 20.2294646490815], [85.31383933559118, 20.232724402807907], [85.31950290033184, 20.23102530472509], [85.32414502967016, 20.230839009860173], [85.32638828823261, 20.242063458473105], [85.32905932355278, 20.245222666426844], [85.33466590126467, 20.24427936869816], [85.34059052525593, 20.24506802279403], [85.34309726727079, 20.251043422753483], [85.34280753042506, 20.253413642447047], [85.3387164678706, 20.254231735305883], [85.33055874169446, 20.25502010135012], [85.32741789417574, 20.253766065943527], [85.3276901161765, 20.259582368293376], [85.33128109351078, 20.264643097166154], [85.33043776053871, 20.274731442657494], [85.33172453277841, 20.278124141354688], [85.33507549104296, 20.28034817567299], [85.33708180474699, 20.27215484125168], [85.34360890704662, 20.273223148845172], [85.34981825673543, 20.272209399757795], [85.3550132119649, 20.272883366407132], [85.36196265722258, 20.274869560220917], [85.3713322398012, 20.27580920214293], [85.37969568978814, 20.281881703891464], [85.38291827215946, 20.285606732255168], [85.38640073938906, 20.281904359335236], [85.39127368975092, 20.278832518193735], [85.39572915240466, 20.277252353894106], [85.39622301695249, 20.270683730803167], [85.39875409747418, 20.25954475193539], [85.40356854344539, 20.25721764678473], [85.40832498588576, 20.25610691791344], [85.4219549557116, 20.272237618741933], [85.43113473774181, 20.272938844412135], [85.43762388915988, 20.268410544811815], [85.4471860036358, 20.263933088708313], [85.45032322965963, 20.263399861033836], [85.45468886435582, 20.266545688422347], [85.45664667584467, 20.269820838043554], [85.45541099945629, 20.275586506714113], [85.45660313259924, 20.281583260414422], [85.4591174272341, 20.286409088842856], [85.46151821293138, 20.294519235340683], [85.47318388859729, 20.295389280037792], [85.48448788845724, 20.297178008416644], [85.49365440316527, 20.2960886926073], [85.5022051764258, 20.294030182802608], [85.51057363149539, 20.290873750389046], [85.51965625275271, 20.294117395500596], [85.523027926842, 20.29334859945686], [85.5221116565816, 20.299577117887925], [85.52522170664994, 20.30365313230913], [85.5298841629035, 20.30506767092647], [85.53498825184083, 20.302447107091133], [85.55062912194735, 20.30248049240365], [85.55003829144066, 20.304213875125566], [85.55276801353928, 20.305584532973732], [85.54988527433022, 20.30755496470265], [85.5531270945604, 20.31312541751585], [85.55920178897642, 20.30992728867777], [85.56721402282068, 20.300834585429243], [85.57409358241196, 20.29963933458336], [85.58466353913472, 20.300856781991783], [85.59696491615003, 20.298482225110142], [85.6027616887549, 20.297984052261203], [85.60669122151292, 20.298423087805535], [85.6095045585847, 20.296102212516985], [85.61911133991742, 20.29667939097116], [85.62674594490205, 20.2920234646422], [85.63445453238438, 20.29798038835926], [85.63342123577355, 20.304432750998714], [85.63400718285607, 20.30985557693054], [85.64005446280984, 20.319153066919174], [85.64400992902328, 20.32293725068162], [85.64771635247148, 20.325219408200397], [85.65186803260316, 20.323748799158405], [85.65874301197273, 20.329301529988957], [85.66309598018418, 20.33129198145393], [85.6690185219543, 20.330740512768426], [85.67550067655733, 20.327188567517105], [85.67898096478604, 20.324279580505507], [85.68154608886229, 20.33521487439847], [85.68430857464234, 20.340150032310525], [85.69335651587448, 20.346495073389658], [85.70181332616336, 20.361664044572283], [85.7018549892612, 20.366270364907145], [85.70586350709546, 20.375984321390607], [85.70885636537493, 20.387032386938422], [85.71468213743233, 20.391431423258588], [85.71455413461172, 20.396621916928904], [85.71584170553884, 20.399321846976186], [85.73271941828817, 20.4089543093127], [85.73705875690708, 20.407943363815207], [85.74235738741693, 20.404739702466422], [85.74695772551725, 20.406380298145862], [85.75999091517934, 20.404279296488394], [85.7678434015812, 20.41212991471062], [85.77364693290022, 20.403151588916405], [85.77615593301337, 20.40618810150665], [85.78736073821571, 20.40951138720902], [85.78863867738896, 20.416543409529577], [85.78463662669276, 20.416219944528343], [85.78275504998571, 20.42176849375383], [85.78738514544713, 20.432800624331257], [85.79476346668122, 20.42635783845853], [85.79590284309283, 20.426403352386785], [85.79889546973983, 20.428866325866945], [85.80201559113934, 20.433910359631263], [85.80752033554401, 20.433641284034433], [85.81072770236831, 20.427396549184316], [85.81681640491853, 20.426312878472718]]]}}]}