{"type": "FeatureCollection", "crs": {"type": "name", "properties": {"name": "urn:ogc:def:crs:OGC:1.3:CRS84"}}, "features": [{"type": "Feature", "properties": {"osm_id": 2368317832, "osm_type": "node", "amenity": "police", "name": "Khandagiri Police Station"}, "geometry": {"type": "Point", "coordinates": [85.7898677, 20.2595201]}}, {"type": "Feature", "properties": {"osm_id": 2417736890, "osm_type": "node", "amenity": "police", "name": "Govt. Railway Police Station, Bhubaneswar"}, "geometry": {"type": "Point", "coordinates": [85.8432199, 20.2662583]}}, {"type": "Feature", "properties": {"osm_id": 2417736917, "osm_type": "node", "amenity": "police", "name": "Govt. Railway Police Station, Bhubaneswar"}, "geometry": {"type": "Point", "coordinates": [85.8439279, 20.2661224]}}, {"type": "Feature", "properties": {"osm_id": 8910037405, "osm_type": "node", "amenity": "police", "name": "Nandankanan Police Station"}, "geometry": {"type": "Point", "coordinates": [85.8251995, 20.3923163]}}, {"type": "Feature", "properties": {"osm_id": 305226386, "osm_type": "way", "amenity": "police", "building": "yes", "name": "Khandagiri P.S."}, "geometry": {"type": "Polygon", "coordinates": [[[85.789836, 20.2594304], [85.7898588, 20.2594962], [85.7899764, 20.2594851], [85.7899982, 20.2596001], [85.7898786, 20.2596242], [85.7898271, 20.2595277], [85.7897916, 20.2594452], [85.789836, 20.2594304]]]}}, {"type": "Feature", "properties": {"osm_id": 1328840423, "osm_type": "way", "amenity": "police", "building": "yes", "building:colour": "#F7D2AF", "name": "Tamando PS", "official_name": "Tamando Police Station", "roof:colour": "#917B67", "roof:shape": "flat"}, "geometry": {"type": "Polygon", "coordinates": [[[85.745753, 20.2356083], [85.7457203, 20.2355925], [85.7457309, 20.2355776], [85.745661, 20.2355361], [85.7456513, 20.2355502], [85.74563, 20.2355286], [85.7455327, 20.2356839], [85.7455194, 20.235683], [85.7455061, 20.2357179], [85.7455265, 20.2357329], [85.7455353, 20.2357287], [85.7455982, 20.2357644], [85.745592, 20.2357744], [85.7456203, 20.2357918], [85.7456336, 20.2357752], [85.7456486, 20.235781], [85.745753, 20.2356083]]]}}]}