{"type": "FeatureCollection", "crs": {"type": "name", "properties": {"name": "urn:ogc:def:crs:OGC:1.3:CRS84"}}, "features": [{"type": "Feature", "properties": {"osm_id": 1051796690, "osm_type": "node", "highway": "bus_stop", "name": "Kalpana Chowk", "name:or": "କଳ୍ପନା ଛକ"}, "geometry": {"type": "Point", "coordinates": [85.8403809, 20.2555694]}}, {"type": "Feature", "properties": {"osm_id": 1051796828, "osm_type": "node", "highway": "bus_stop", "name": "Kalpana Chowk", "name:or": "କଳ୍ପନା ଛକ"}, "geometry": {"type": "Point", "coordinates": [85.8400668, 20.2558574]}}, {"type": "Feature", "properties": {"osm_id": 2408583734, "osm_type": "node", "highway": "bus_stop", "name": "Jayadev Vatika", "name:or": "ଜୟଦେବ ବାଟିକା"}, "geometry": {"type": "Point", "coordinates": [85.7845332, 20.2655664]}}, {"type": "Feature", "properties": {"osm_id": 2408586332, "osm_type": "node", "highway": "bus_stop"}, "geometry": {"type": "Point", "coordinates": [85.7950363, 20.2743952]}}, {"type": "Feature", "properties": {"osm_id": 2417835677, "osm_type": "node", "highway": "bus_stop", "name": "CRPF Square", "name:or": "ସିଆରପିଏଫ ଛକ"}, "geometry": {"type": "Point", "coordinates": [85.8082248, 20.2845723]}}, {"type": "Feature", "properties": {"osm_id": 2417835679, "osm_type": "node", "highway": "bus_stop", "name": "Raj Mahal", "name:or": "ରାଜ ମହଲ"}, "geometry": {"type": "Point", "coordinates": [85.8370237, 20.2621066]}}, {"type": "Feature", "properties": {"osm_id": 2417835684, "osm_type": "node", "highway": "bus_stop", "name": "Fire Station", "name:or": "ଫାୟାର ଷ୍ଟେସନ"}, "geometry": {"type": "Point", "coordinates": [85.7989418, 20.2792914]}}, {"type": "Feature", "properties": {"osm_id": 2417835685, "osm_type": "node", "highway": "bus_stop"}, "geometry": {"type": "Point", "coordinates": [85.7935416, 20.2719683]}}, {"type": "Feature", "properties": {"osm_id": 2417835686, "osm_type": "node", "highway": "bus_stop"}, "geometry": {"type": "Point", "coordinates": [85.7789109, 20.2594746]}}, {"type": "Feature", "properties": {"osm_id": 2417835688, "osm_type": "node", "highway": "bus_stop", "name": "Power Station", "name:or": "ପାୱାର ଷ୍ଟେସନ"}, "geometry": {"type": "Point", "coordinates": [85.8266704, 20.2728655]}}, {"type": "Feature", "properties": {"osm_id": 2417835689, "osm_type": "node", "highway": "bus_stop", "name": "Market Building", "name:or": "ମାର୍କେଟ ବିଲ୍ଡିଂ"}, "geometry": {"type": "Point", "coordinates": [85.8325122, 20.2648141]}}, {"type": "Feature", "properties": {"osm_id": 2417835690, "osm_type": "node", "highway": "bus_stop"}, "geometry": {"type": "Point", "coordinates": [85.8175128, 20.2758933]}}, {"type": "Feature", "properties": {"osm_id": 2417835692, "osm_type": "node", "highway": "bus_stop"}, "geometry": {"type": "Point", "coordinates": [85.7819097, 20.2538105]}}, {"type": "Feature", "properties": {"osm_id": 2447870252, "osm_type": "node", "highway": "bus_stop"}, "geometry": {"type": "Point", "coordinates": [85.8341054, 20.2391669]}}, {"type": "Feature", "properties": {"osm_id": 2999157386, "osm_type": "node", "highway": "bus_stop", "name": "Raj Mahal", "name:or": "ରାଜ ମହଲ"}, "geometry": {"type": "Point", "coordinates": [85.8361148, 20.2617293]}}, {"type": "Feature", "properties": {"osm_id": 2999157406, "osm_type": "node", "highway": "bus_stop", "name": "AG Square", "name:or": "ଏଜି ଛକ"}, "geometry": {"type": "Point", "coordinates": [85.8301523, 20.2659766]}}, {"type": "Feature", "properties": {"osm_id": 4185008302, "osm_type": "node", "highway": "bus_stop"}, "geometry": {"type": "Point", "coordinates": [85.8099948, 20.2821721]}}, {"type": "Feature", "properties": {"osm_id": 4378939896, "osm_type": "node", "highway": "bus_stop"}, "geometry": {"type": "Point", "coordinates": [85.8455348, 20.2530086]}}, {"type": "Feature", "properties": {"osm_id": 5598274154, "osm_type": "node", "bench": "yes", "bench:type": "lounger", "bus": "yes", "departures_board": "no", "highway": "bus_stop", "kerb": "no", "lit": "yes", "name": "Shastrinagar", "name:or": "ଶାସ୍ତ୍ରୀନଗର", "operator": "Capital Region Urban Transport (CRUT)", "passenger_information_display": "no", "public_transport": "platform", "shelter": "yes", "tactile_paving": "no"}, "geometry": {"type": "Point", "coordinates": [85.8266287, 20.2813621]}}, {"type": "Feature", "properties": {"osm_id": 11425364620, "osm_type": "node", "bus": "yes", "highway": "bus_stop", "name": "Unit-8 Bus stop", "name:or": "ୟୁନିଟ-8 ବସ ଷ୍ଟପ", "public_transport": "platform", "ref": "Unit-8"}, "geometry": {"type": "Point", "coordinates": [85.8193743, 20.2761241]}}, {"type": "Feature", "properties": {"osm_id": 11494489511, "osm_type": "node", "bench": "yes", "bin": "yes", "bus": "yes", "departures_board": "no", "highway": "bus_stop", "kerb": "no", "lit": "yes", "name": "SAIL Office", "name:or": "ସେଲ ଅଫିସ", "network": "Mo Bus", "operator": "CRUT", "passenger_information_display": "no", "public_transport": "platform", "shelter": "yes", "tactile_paving": "yes"}, "geometry": {"type": "Point", "coordinates": [85.8264294, 20.2795491]}}, {"type": "Feature", "properties": {"osm_id": 11494489512, "osm_type": "node", "bench": "yes", "bus": "yes", "departures_board": "no", "highway": "bus_stop", "kerb": "no", "lit": "yes", "name": "Power House Square", "name:or": "ପାୱାର ହାଉସ ଛକ", "network": "Mo Bus", "operator": "CRUT", "passenger_information_display": "no", "public_transport": "platform", "shelter": "yes", "tactile_paving": "yes"}, "geometry": {"type": "Point", "coordinates": [85.825008, 20.2747774]}}, {"type": "Feature", "properties": {"osm_id": 11494499156, "osm_type": "node", "bench": "yes", "bench:type": "seated", "bus": "yes", "departures_board": "no", "highway": "bus_stop", "name": "AG square bus stop", "name:or": "ଏଜି ଛକ ବସ ଷ୍ଟପ", "network": "Mo Bus", "operator": "CRUT", "public_transport": "platform", "shelter": "yes"}, "geometry": {"type": "Point", "coordinates": [85.8290475, 20.2667504]}}, {"type": "Feature", "properties": {"osm_id": 11494501069, "osm_type": "node", "bench": "yes", "bus": "yes", "departures_board": "no", "highway": "bus_stop", "name": "Nautala Bus Stop", "name:or": "ନତାଲା ବସ ଷ୍ଟପ୍", "network": "Mo Bus", "operator": "CRUT", "public_transport": "platform", "shelter": "yes"}, "geometry": {"type": "Point", "coordinates": [85.8293972, 20.2715088]}}, {"type": "Feature", "properties": {"osm_id": 12260719727, "osm_type": "node", "highway": "bus_stop", "name": "Master Canteen"}, "geometry": {"type": "Point", "coordinates": [85.8400299, 20.2669106]}}, {"type": "Feature", "properties": {"osm_id": 13286415716, "osm_type": "node", "bench": "yes", "bus": "yes", "highway": "bus_stop", "name": "Puri Canal", "public_transport": "platform", "shelter": "yes"}, "geometry": {"type": "Point", "coordinates": [85.8817925, 20.3197671]}}, {"type": "Feature", "properties": {"osm_id": 13337147201, "osm_type": "node", "highway": "bus_stop", "name": "Jaydev vihar bus stop"}, "geometry": {"type": "Point", "coordinates": [85.8247042, 20.2962223]}}, {"type": "Feature", "properties": {"osm_id": 13337154201, "osm_type": "node", "highway": "bus_stop", "name": "Jaydev Vihar to Nandan Kanan Bus Stop"}, "geometry": {"type": "Point", "coordinates": [85.8244698, 20.2961516]}}, {"type": "Feature", "properties": {"osm_id": 13546389699, "osm_type": "node", "bus": "yes", "highway": "bus_stop", "name": "IGKC Bus Stop", "network": "Ama Bus", "network:wikidata": "Q60768095", "operator": "AMA BUS", "public_transport": "platform"}, "geometry": {"type": "Point", "coordinates": [85.76379, 20.2747384]}}, {"type": "Feature", "properties": {"osm_id": 13690689001, "osm_type": "node", "highway": "bus_stop", "name": "Mo Bus Stop"}, "geometry": {"type": "Point", "coordinates": [85.8717656, 20.3089875]}}]}