{"type": "FeatureCollection", "crs": {"type": "name", "properties": {"name": "urn:ogc:def:crs:OGC:1.3:CRS84"}}, "features": [{"type": "Feature", "properties": {"osm_id": 2417736896, "osm_type": "node", "amenity": "toilets"}, "geometry": {"type": "Point", "coordinates": [85.8425331, 20.2653072]}}, {"type": "Feature", "properties": {"osm_id": 2417736916, "osm_type": "node", "amenity": "toilets"}, "geometry": {"type": "Point", "coordinates": [85.8443785, 20.267622]}}, {"type": "Feature", "properties": {"osm_id": 8910006219, "osm_type": "node", "amenity": "toilets"}, "geometry": {"type": "Point", "coordinates": [85.819179, 20.396153]}}, {"type": "Feature", "properties": {"osm_id": 11617795269, "osm_type": "node", "amenity": "toilets"}, "geometry": {"type": "Point", "coordinates": [85.8092966, 20.3231506]}}, {"type": "Feature", "properties": {"osm_id": 11617796770, "osm_type": "node", "amenity": "toilets"}, "geometry": {"type": "Point", "coordinates": [85.8093511, 20.3241694]}}, {"type": "Feature", "properties": {"osm_id": 11617796772, "osm_type": "node", "amenity": "toilets"}, "geometry": {"type": "Point", "coordinates": [85.8090712, 20.3248511]}}, {"type": "Feature", "properties": {"osm_id": 11617819469, "osm_type": "node", "amenity": "toilets"}, "geometry": {"type": "Point", "coordinates": [85.8058246, 20.3013163]}}, {"type": "Feature", "properties": {"osm_id": 11617916669, "osm_type": "node", "amenity": "toilets"}, "geometry": {"type": "Point", "coordinates": [85.7851186, 20.262585]}}, {"type": "Feature", "properties": {"osm_id": 12273053844, "osm_type": "node", "amenity": "toilets"}, "geometry": {"type": "Point", "coordinates": [85.8313652, 20.2684267]}}, {"type": "Feature", "properties": {"osm_id": 12440284612, "osm_type": "node", "access": "yes", "amenity": "toilets"}, "geometry": {"type": "Point", "coordinates": [85.8199674, 20.3143815]}}, {"type": "Feature", "properties": {"osm_id": 13337147001, "osm_type": "node", "amenity": "toilets", "opening_hours": "24/7"}, "geometry": {"type": "Point", "coordinates": [85.8251508, 20.294765]}}, {"type": "Feature", "properties": {"osm_id": 13337147101, "osm_type": "node", "amenity": "toilets", "opening_hours": "Mo-Su 06:00-10:00"}, "geometry": {"type": "Point", "coordinates": [85.8247111, 20.2962992]}}, {"type": "Feature", "properties": {"osm_id": 1327432139, "osm_type": "way", "access": "yes", "amenity": "toilets", "building": "yes", "female": "yes", "male": "yes", "operator": "The Sulabh International Social Service Organisation"}, "geometry": {"type": "Polygon", "coordinates": [[[85.7859341, 20.2614456], [85.7859481, 20.2614618], [85.7859629, 20.2614506], [85.7859489, 20.2614344], [85.7859341, 20.2614456]]]}}, {"type": "Feature", "properties": {"osm_id": 1344685401, "osm_type": "way", "access": "yes", "amenity": "toilets", "building": "yes"}, "geometry": {"type": "Polygon", "coordinates": [[[85.8199869, 20.314336], [85.8199401, 20.3143363], [85.8199408, 20.3144291], [85.8199876, 20.3144288], [85.8199869, 20.314336]]]}}, {"type": "Feature", "properties": {"osm_id": 1350370720, "osm_type": "way", "access": "yes", "amenity": "toilets", "building": "yes", "female": "yes", "male": "yes", "toilets:handwashing": "yes", "toilets:position": "squat"}, "geometry": {"type": "Polygon", "coordinates": [[[85.8030436, 20.3030794], [85.8029779, 20.3030102], [85.8030329, 20.3029548], [85.8030543, 20.3029762], [85.8031066, 20.3029297], [85.8031696, 20.3029863], [85.8030436, 20.3030794]]]}}]}