{"type":"FeatureCollection","features":[{"type":"Feature","properties":{"route_id":"216BU","route_short_name":"216BU","route_long_name":"216BU","agency_id":"SURATIUDX","mode":"bus","operator":"Surat Sitilink / Surat Municipal transit systems","source_feed_id":"surat_sitilink_bus_iudx_sample_constructed_gtfs"},"geometry":{"type":"LineString","coordinates":[[72.81839,21.19442],[72.81841,21.19444],[72.81846,21.19452],[72.81853,21.19463],[72.81857,21.19474],[72.81861,21.19487],[72.81868,21.19513],[72.81863,21.19521],[72.81862,21.19524],[72.81862,21.19526],[72.81862,21.1953],[72.81863,21.19535],[72.81864,21.19539],[72.81866,21.1954],[72.81875,21.19546],[72.81877,21.19546],[72.81889,21.19552],[72.81894,21.19555],[72.81897,21.19556],[72.81899,21.19556],[72.81901,21.19556],[72.8191,21.19551],[72.81911,21.19548],[72.81911,21.19547],[72.81912,21.19546],[72.81912,21.19544],[72.81912,21.19543],[72.81911,21.19541],[72.81909,21.19538],[72.81905,21.19534],[72.81903,21.19532],[72.81897,21.19526],[72.81888,21.19518],[72.81885,21.19515],[72.81882,21.19513],[72.81879,21.19512],[72.8187,21.19482],[72.81866,21.19471],[72.8186,21.19461],[72.81851,21.19445],[72.81844,21.19433],[72.81813,21.19392],[72.81784,21.1936],[72.81766,21.19339],[72.81761,21.19332],[72.81741,21.19301],[72.81739,21.19298],[72.81738,21.19291],[72.81738,21.19277],[72.81737,21.19258],[72.81735,21.1924],[72.81732,21.1923],[72.81731,21.19227],[72.81728,21.19223],[72.81725,21.1922],[72.81722,21.19218],[72.81715,21.19215],[72.81716,21.19211],[72.81716,21.19207],[72.81716,21.19203],[72.81715,21.19199],[72.81712,21.19194],[72.81705,21.19191],[72.81697,21.19189],[72.81693,21.19189],[72.81689,21.1919],[72.81685,21.19191],[72.81681,21.19193],[72.81669,21.19201],[72.81638,21.19208],[72.81608,21.19214],[72.81599,21.19216],[72.81585,21.19215],[72.81581,21.19215],[72.81562,21.19211],[72.81504,21.19195],[72.81453,21.19186],[72.81438,21.19182],[72.81428,21.19179],[72.81421,21.19175],[72.81395,21.19157],[72.81388,21.19156],[72.81381,21.19151],[72.8132,21.19107],[72.81288,21.19085],[72.81287,21.19083],[72.81285,21.1908],[72.81285,21.19075],[72.81286,21.19074],[72.81289,21.1907],[72.8129,21.19067],[72.81295,21.19052],[72.81305,21.19028],[72.81315,21.19005],[72.81322,21.18987],[72.81323,21.18982],[72.81317,21.1898],[72.81302,21.18976],[72.81293,21.18973],[72.81285,21.18972],[72.81259,21.18971],[72.81244,21.1897],[72.81235,21.1897],[72.81224,21.18968],[72.81211,21.18965],[72.81204,21.18963],[72.81194,21.18959],[72.8119,21.18956],[72.81171,21.18945],[72.81158,21.18941],[72.81153,21.18937],[72.81143,21.18927],[72.81124,21.18911],[72.81036,21.18849],[72.81017,21.18833],[72.81006,21.18822],[72.81002,21.18813],[72.81,21.18802],[72.80998,21.18793],[72.80998,21.18788],[72.81,21.18777],[72.81001,21.18775],[72.81002,21.18766],[72.81011,21.18735],[72.81042,21.18656],[72.81046,21.18647],[72.81047,21.18639],[72.81047,21.18632],[72.81047,21.18625],[72.81048,21.18618],[72.81049,21.18597],[72.8105,21.18598],[72.81055,21.18599],[72.81058,21.18599],[72.8106,21.18599],[72.81062,21.18599],[72.81065,21.18598],[72.81067,21.18597],[72.81068,21.18597],[72.81071,21.18595],[72.81074,21.18594],[72.81077,21.18592],[72.81079,21.18591],[72.81082,21.1859],[72.81084,21.18588],[72.81086,21.18586],[72.81088,21.18584],[72.81093,21.18579],[72.81104,21.18568],[72.81106,21.18566],[72.81112,21.18558],[72.81112,21.18554],[72.81112,21.18551],[72.81111,21.1855],[72.81111,21.18548],[72.81109,21.18546],[72.81107,21.18545],[72.81105,21.18544],[72.811,21.18542],[72.81095,21.18542],[72.81089,21.18544],[72.81086,21.18545],[72.81063,21.18546],[72.81043,21.18547],[72.81015,21.18545],[72.80969,21.18524],[72.80918,21.18505],[72.80899,21.18498],[72.80839,21.18477],[72.80827,21.18473],[72.80813,21.18468],[72.80773,21.18453],[72.80754,21.18445],[72.80727,21.18431],[72.80685,21.18411],[72.80676,21.18406],[72.80669,21.18401],[72.80647,21.18386],[72.80638,21.18377],[72.80625,21.18367],[72.80556,21.18313],[72.80499,21.18277],[72.80469,21.18258],[72.80463,21.18254],[72.80411,21.18221],[72.80356,21.18188],[72.80346,21.18181],[72.80284,21.1814],[72.80181,21.18072],[72.8017,21.18065],[72.80148,21.18048],[72.80066,21.17993],[72.80039,21.17974],[72.7995,21.17906],[72.79897,21.17862],[72.79819,21.17802],[72.79779,21.17759],[72.79736,21.17723],[72.79689,21.17682],[72.79674,21.17669],[72.79651,21.17649],[72.79621,21.17623],[72.79605,21.17608],[72.79587,21.17593],[72.79578,21.17585],[72.79562,21.17572],[72.79541,21.17553],[72.79504,21.1752],[72.79485,21.17502],[72.79457,21.17476],[72.79443,21.17463],[72.79428,21.1745],[72.79417,21.1744],[72.79415,21.17439],[72.79406,21.1743],[72.79395,21.1742],[72.79385,21.17411],[72.79374,21.17401],[72.79366,21.17394],[72.79349,21.17377],[72.79346,21.17375],[72.79306,21.17324],[72.79299,21.17317],[72.79261,21.17276],[72.79242,21.1726],[72.79225,21.17246],[72.79206,21.17232],[72.79193,21.17222],[72.79168,21.17208],[72.79155,21.17202],[72.79145,21.17196],[72.79122,21.17185],[72.791,21.17175],[72.79094,21.17172],[72.79072,21.1716],[72.79036,21.17143],[72.79012,21.17129],[72.78997,21.1712],[72.78966,21.17099],[72.78945,21.17082],[72.78906,21.17048],[72.78893,21.17036],[72.78871,21.17017],[72.78858,21.17005],[72.78843,21.16993],[72.7882,21.16974],[72.7879,21.1695],[72.78688,21.16871],[72.78629,21.16825],[72.7858,21.1679],[72.78566,21.16782],[72.78552,21.16776],[72.78531,21.16768],[72.78524,21.16765],[72.78519,21.16763],[72.78518,21.16762],[72.78518,21.16761],[72.78517,21.16761],[72.78517,21.1676],[72.78516,21.1676],[72.78515,21.16759],[72.78514,21.16758],[72.78511,21.16757],[72.7851,21.16756],[72.78508,21.16756],[72.78505,21.16755],[72.78502,21.16754],[72.785,21.16754],[72.78495,21.16753],[72.78493,21.16753],[72.78492,21.16753],[72.7849,21.16752],[72.78489,21.16752],[72.78488,21.16753],[72.78487,21.16753],[72.78486,21.16753],[72.78485,21.16753],[72.78484,21.16754],[72.78483,21.16754],[72.78482,21.16755],[72.78465,21.16751],[72.78447,21.16746],[72.78428,21.1674],[72.78412,21.16735],[72.78397,21.1673],[72.78384,21.16725],[72.78365,21.16716],[72.78351,21.1671],[72.78337,21.16704],[72.7832,21.16695],[72.783,21.16683],[72.78283,21.16673],[72.78262,21.1666],[72.78245,21.16649],[72.78227,21.16637],[72.782,21.16619],[72.7819,21.16612],[72.7817,21.16598],[72.78136,21.16575],[72.7813,21.16571],[72.78053,21.16519],[72.78024,21.16498],[72.7801,21.16486],[72.77995,21.16474],[72.77984,21.16465],[72.77975,21.16454],[72.77974,21.16453],[72.77973,21.16451],[72.77972,21.16449],[72.7797,21.16447],[72.77968,21.16445],[72.77965,21.16443],[72.77963,21.16441],[72.77962,21.1644],[72.7796,21.16439],[72.77958,21.16438],[72.77955,21.16437],[72.77952,21.16436],[72.77949,21.16435],[72.77948,21.16435],[72.77912,21.1641],[72.77895,21.164],[72.77878,21.16389],[72.77808,21.16343],[72.77756,21.16309],[72.77756,21.16308],[72.777,21.16269],[72.77673,21.16251],[72.7765,21.16236],[72.77581,21.16194],[72.77527,21.16166],[72.7749,21.16148],[72.77449,21.16128],[72.77392,21.16102],[72.77334,21.16076],[72.77315,21.16067],[72.77265,21.1604],[72.7723,21.16019],[72.77191,21.15995],[72.77152,21.15971],[72.77116,21.15949],[72.77109,21.15945],[72.76992,21.15882],[72.76934,21.15851],[72.76893,21.15828],[72.76855,21.15805],[72.76825,21.15784],[72.76801,21.15768],[72.76774,21.15747],[72.7676,21.15737],[72.76749,21.15726],[72.76711,21.15697],[72.76674,21.15671],[72.76665,21.15663],[72.76554,21.15571],[72.76496,21.15528],[72.76458,21.15499],[72.76454,21.15495],[72.76439,21.15482],[72.76431,21.15473],[72.76427,21.15466],[72.76421,21.15458],[72.76412,21.15439],[72.76405,21.15419],[72.76396,21.15395],[72.76382,21.15354],[72.76381,21.15352],[72.7636,21.15292],[72.7635,21.15266],[72.76318,21.15187],[72.76312,21.15174],[72.76301,21.15148],[72.7629,21.15126],[72.7629,21.15125],[72.76277,21.15101],[72.76255,21.15064],[72.76235,21.15031],[72.76197,21.14974],[72.76192,21.14966],[72.76173,21.14938],[72.76086,21.14798],[72.76068,21.14768],[72.76044,21.14724],[72.75998,21.14635],[72.75993,21.14624],[72.75984,21.14612],[72.75974,21.14593],[72.75962,21.14572],[72.75961,21.14571],[72.7596,21.1457],[72.75959,21.14569],[72.75959,21.14568],[72.75958,21.14566],[72.75957,21.14565],[72.75956,21.14564],[72.75955,21.14563],[72.75946,21.14551],[72.75936,21.1454],[72.75929,21.14536],[72.75925,21.14532],[72.7592,21.14529],[72.75916,21.14526],[72.75906,21.14516],[72.75853,21.14463],[72.75817,21.14425],[72.75788,21.14394],[72.75742,21.14349],[72.75699,21.1431],[72.75682,21.14296],[72.75652,21.14272],[72.75645,21.14266],[72.75629,21.14253],[72.75594,21.14223],[72.75587,21.14218],[72.75543,21.14182],[72.75535,21.14175],[72.7552,21.14164],[72.75511,21.14157],[72.75509,21.14156],[72.75501,21.14148],[72.75477,21.14129],[72.75469,21.14121],[72.75442,21.14099],[72.75405,21.14067],[72.75361,21.14029],[72.75311,21.13988],[72.75266,21.13949],[72.75235,21.13921],[72.75222,21.1391],[72.75209,21.13898],[72.75172,21.13868],[72.75156,21.13854],[72.75141,21.13844],[72.75114,21.13825],[72.75103,21.13818],[72.75088,21.13807],[72.75067,21.13789],[72.7503,21.13757],[72.75002,21.13734],[72.74929,21.13672],[72.7484,21.13598],[72.74779,21.13548],[72.74694,21.13477],[72.74641,21.13429],[72.74564,21.13364],[72.74505,21.13305],[72.74463,21.13262],[72.74412,21.13213],[72.74393,21.13194],[72.74387,21.13188],[72.74373,21.13173],[72.74299,21.13098],[72.74172,21.12971],[72.74117,21.12913],[72.74086,21.12869],[72.74077,21.12848],[72.7406,21.12809],[72.74034,21.12753],[72.74002,21.12679],[72.73985,21.1264],[72.73944,21.12543],[72.73939,21.12532],[72.73896,21.12435],[72.73852,21.12335],[72.73851,21.12332],[72.73849,21.12327],[72.73847,21.12322],[72.73846,21.12319],[72.73811,21.12241],[72.73795,21.12205],[72.73769,21.12147],[72.73767,21.12142],[72.73749,21.12101],[72.73713,21.12021],[72.73695,21.11979],[72.73674,21.11932],[72.73656,21.11891],[72.73622,21.11811],[72.7358,21.11718],[72.73532,21.11614],[72.73496,21.11531],[72.73463,21.11459],[72.73448,21.11425],[72.73434,21.11392],[72.73407,21.11332],[72.73378,21.11265],[72.73355,21.11212],[72.7332,21.11134],[72.73218,21.10909],[72.73143,21.10739],[72.73142,21.10737],[72.73081,21.10605],[72.7306,21.10559],[72.72983,21.10386],[72.72955,21.10323],[72.72933,21.10277],[72.72913,21.10233],[72.72863,21.10125],[72.72849,21.10095],[72.72783,21.09953],[72.72774,21.09933],[72.72766,21.09916],[72.72703,21.09774],[72.72585,21.09517],[72.72555,21.09451],[72.72544,21.09428],[72.72513,21.09364],[72.72467,21.09259],[72.72463,21.09252],[72.72455,21.09235],[72.72436,21.0919],[72.72413,21.09142],[72.72403,21.0912],[72.72331,21.08963],[72.72262,21.08813],[72.7224,21.08767],[72.72232,21.08749],[72.72232,21.08748],[72.72216,21.08719],[72.72207,21.08707],[72.72201,21.087],[72.72187,21.08687],[72.72183,21.08683],[72.72163,21.0867],[72.72157,21.08665],[72.72137,21.08652],[72.72093,21.08623],[72.7206,21.08595],[72.72054,21.08588],[72.72051,21.08585],[72.72044,21.08578],[72.72033,21.08565],[72.7191,21.08437],[72.7191,21.08436],[72.71911,21.08436],[72.71911,21.08435],[72.71911,21.08434],[72.71911,21.08433],[72.71911,21.08432],[72.71911,21.08431],[72.7191,21.08431],[72.7191,21.0843],[72.71916,21.08423],[72.71919,21.08419],[72.71924,21.08415],[72.7193,21.08411],[72.71935,21.08408],[72.72034,21.08348],[72.72052,21.08336],[72.7208,21.08318],[72.72115,21.08296],[72.72144,21.08274],[72.72198,21.08235],[72.7221,21.08226],[72.72234,21.08208],[72.72243,21.08202],[72.72318,21.08149],[72.72385,21.08101],[72.72434,21.08067],[72.72445,21.08059],[72.72449,21.08055]]}}]}