{"type": "FeatureCollection", "crs": {"type": "name", "properties": {"name": "urn:ogc:def:crs:OGC:1.3:CRS84"}}, "features": [{"type": "Feature", "properties": {"amenity": "library", "check_date": "2026-03-12", "name": "lib", "osm_id": "node/1433203405"}, "geometry": {"type": "Point", "coordinates": [73.8922142, 18.5748417]}}, {"type": "Feature", "properties": {"addr:full": "727, Kumtekar Road, Opp. Sadishiv Post OfficePune, Pune 411030, India", "amenity": "library", "check_date": "2026-03-12", "name": "The Phoenix Library", "osm_id": "node/1883742271"}, "geometry": {"type": "Point", "coordinates": [73.8491157, 18.5132392]}}, {"type": "Feature", "properties": {"amenity": "library", "name": "Gandhi Bhavan Library", "osm_id": "node/2165021343"}, "geometry": {"type": "Point", "coordinates": [73.803304, 18.4964855]}}, {"type": "Feature", "properties": {"amenity": "library", "name": "Lokmanya Vachanalay", "name:mr": "लोकमान्य वाचनालय", "osm_id": "node/2858176023"}, "geometry": {"type": "Point", "coordinates": [73.846209, 18.5086516]}}, {"type": "Feature", "properties": {"amenity": "library", "name:en": "Akshar Abhyasika", "osm_id": "node/6897634286"}, "geometry": {"type": "Point", "coordinates": [73.8302261, 18.5294684]}}, {"type": "Feature", "properties": {"amenity": "library", "name": "BB library", "operator": "parinaaz", "osm_id": "node/9128836788"}, "geometry": {"type": "Point", "coordinates": [73.8638242, 18.5899687]}}, {"type": "Feature", "properties": {"amenity": "library", "name": "Study Library", "osm_id": "node/9142594602"}, "geometry": {"type": "Point", "coordinates": [73.8891941, 18.4703121]}}, {"type": "Feature", "properties": {"amenity": "library", "check_date": "2022-12-08", "level": "1", "name": "शब्दा", "name:en": "Shabda", "name:mr": "शब्दा", "phone": "+91 80076 73535", "website": "https://shabdabooks.com/", "osm_id": "node/9937403513"}, "geometry": {"type": "Point", "coordinates": [73.7730588, 18.5960005]}}, {"type": "Feature", "properties": {"amenity": "library", "check_date": "2022-12-25", "level": "2", "name": "Just books", "name:en": "Just books", "name:mr": "जस्ट बुक्स", "opening_hours": "Mo-We,Fr-Su 10:00-13:00,16:00-20:00; Th off", "phone": "+91 95884 66463; +91 98344 93654", "osm_id": "node/10245849760"}, "geometry": {"type": "Point", "coordinates": [73.7734067, 18.5960221]}}, {"type": "Feature", "properties": {"amenity": "library", "internet_access": "wlan", "internet_access:fee": "no", "name": "I2IT Library", "osm_id": "node/10715941413"}, "geometry": {"type": "Point", "coordinates": [73.7366346, 18.5845815]}}, {"type": "Feature", "properties": {"amenity": "library", "name": "Reading room", "osm_id": "node/11375788734"}, "geometry": {"type": "Point", "coordinates": [73.8285279, 18.5504881]}}, {"type": "Feature", "properties": {"addr:city": "Pune", "addr:district": "Pune", "addr:postcode": "411005", "addr:street": "Jangli Maharaj Path", "amenity": "library", "level": "1", "name": "Saraswati Abhyasika", "name:en": "Saraswati Abhyasika", "name:hi": "सरस्वती आभ्यासिका", "name:mr": "सरस्वती आभ्यासिका", "osm_id": "node/11505392602"}, "geometry": {"type": "Point", "coordinates": [73.8498564, 18.5248253]}}, {"type": "Feature", "properties": {"addr:city": "Pune", "addr:district": "Pune", "addr:postcode": "411007", "addr:street": "Ramchandra Gayakwad Path", "amenity": "library", "contact:facebook": "https://www.facebook.com/BooksMeridian/", "contact:instagram": "https://www.instagram.com/booksmeridian/", "level": "1", "mobile": "+91 738 502 2201;+91 738 502 2201", "name": "Books Meridian", "name:en": "Books Meridian", "opening_hours": "Mo-Su 10:00-21:00; Th off", "phone": "+91 20 4123 3344", "website": "https://www.booksmeridian.com/", "osm_id": "node/11539934352"}, "geometry": {"type": "Point", "coordinates": [73.8049164, 18.5606281]}}, {"type": "Feature", "properties": {"addr:full": "Plot 0, Sunita Co-operative Housing Society, Bamboo Galli, Near Karnataka High School, Off Mehendale Garage Road, Erandwane, Pune, Maharashtra 411004", "amenity": "library", "name": "Justbooks Kothrud", "osm_id": "node/11832251998"}, "geometry": {"type": "Point", "coordinates": [73.8274992, 18.5006362]}}, {"type": "Feature", "properties": {"addr:full": "Bio-Informatics Center, University Of Pune, University Of Pune, Pune, Maharashtra 411007", "amenity": "library", "name": "Pune Library Network", "osm_id": "node/11832251999"}, "geometry": {"type": "Point", "coordinates": [73.8257325, 18.5516174]}}, {"type": "Feature", "properties": {"addr:full": "Shop No.1 Ganga Vishnu Hights, Near Pegasus Healh Club,, Pune, Maharashtra 411052", "amenity": "library", "name": "Shabda Sneha Library", "osm_id": "node/11832252000"}, "geometry": {"type": "Point", "coordinates": [73.825243, 18.4936379]}}, {"type": "Feature", "properties": {"addr:full": "Tatyaba Sadhuji Gaikwad Rd, Shivajinagar, Pune, Maharashtra 411005", "amenity": "library", "name": "Kalpana Library", "osm_id": "node/11832252001"}, "geometry": {"type": "Point", "coordinates": [73.8521432, 18.5247782]}}, {"type": "Feature", "properties": {"addr:full": "827, Bootee St, Camp, Pune, Maharashtra 411001", "amenity": "library", "name": "Readers Club Library", "osm_id": "node/11832252002"}, "geometry": {"type": "Point", "coordinates": [73.8782466, 18.5180811]}}, {"type": "Feature", "properties": {"addr:full": "Shivajinagar, Pune, Maharashtra 411005", "amenity": "library", "check_date": "2026-03-12", "name": "COEP Central Library", "osm_id": "node/11832252003"}, "geometry": {"type": "Point", "coordinates": [73.8571717, 18.5294641]}}, {"type": "Feature", "properties": {"addr:full": "Shop No. 12, Ganga Bhagyoday, Vadgaon Budruk, Next to ICICI Bank, Near Manik, Baug Petrol Pump, Sinhagad Road, Pune, Maharashtra 411051", "amenity": "library", "check_date": "2026-03-15", "name": "Just Books clc", "osm_id": "node/11832252004"}, "geometry": {"type": "Point", "coordinates": [73.8213501, 18.4702638]}}, {"type": "Feature", "properties": {"addr:full": "Jangali Maharaj Rd, Shivajinagar, Pune, Maharashtra 411005", "amenity": "library", "name": "Saraswati Library", "osm_id": "node/11832252005"}, "geometry": {"type": "Point", "coordinates": [73.8496305, 18.5248867]}}, {"type": "Feature", "properties": {"addr:full": "Shivaji Market Cantonment, Shivaji Market, Pune, Maharashtra 411001", "amenity": "library", "check_date": "2026-03-12", "name": "Siddharth Free Reading Room & Library", "osm_id": "node/11832252006"}, "geometry": {"type": "Point", "coordinates": [73.8567437, 18.5204303]}}, {"type": "Feature", "properties": {"addr:full": "33, Mukund Nagar, Pune, Maharashtra 411037", "amenity": "library", "check_date": "2026-03-15", "name": "Shalaka Library", "osm_id": "node/11832252007"}, "geometry": {"type": "Point", "coordinates": [73.859885, 18.495917]}}, {"type": "Feature", "properties": {"addr:full": "Kalyan Apartment, B/H Canara Bank, Plot No 32, Rambaug Colony, Kothrud, Pune, Maharashtra 411038", "amenity": "library", "name": "Vishwas Library", "osm_id": "node/11832252008"}, "geometry": {"type": "Point", "coordinates": [73.8143438, 18.5104336]}}, {"type": "Feature", "properties": {"addr:full": "Shop No-7, Anand Nagar Building No-8, Paud Road, Kothrud, Pune, Maharashtra 411029", "amenity": "library", "name": "Darshan Library", "osm_id": "node/11832252009"}, "geometry": {"type": "Point", "coordinates": [73.8093763, 18.5082597]}}, {"type": "Feature", "properties": {"addr:full": "Shop No. 2, Survey No. 61/2, Crystal Castle, Opp. Salunki Vihar, Wanowrie, Pune, Maharashtra 411040", "amenity": "library", "name": "Friends library", "osm_id": "node/11832252010"}, "geometry": {"type": "Point", "coordinates": [73.903786, 18.481018]}}, {"type": "Feature", "properties": {"addr:full": "Tempo Chwok, Near Gaurav Complex, Ram Nagar, Vadgaon Sheri, Pune, Maharashtra 411014", "amenity": "library", "name": "Dnanada Library", "osm_id": "node/11832252011"}, "geometry": {"type": "Point", "coordinates": [73.920835, 18.551419]}}, {"type": "Feature", "properties": {"addr:full": "Passport Office, Senapati Bapat Rd, Sheti Mahamandal Colony, Hanuman Nagar, Wadarvadi, Pune, Maharashtra 411016", "amenity": "library", "name": "Ambedkar Library", "osm_id": "node/11832252012"}, "geometry": {"type": "Point", "coordinates": [73.8299369, 18.5242867]}}, {"type": "Feature", "properties": {"addr:full": "Gaikwad Nagar, Aundh, Pune, Maharashtra 411007", "amenity": "library", "check_date": "2026-03-10", "name": "Jungle Book Library", "osm_id": "node/11832252013"}, "geometry": {"type": "Point", "coordinates": [73.8060544, 18.5579876]}}, {"type": "Feature", "properties": {"addr:full": "No.666, Upper Indiranagar, Bibwewadi, Pune, Maharashtra 411037", "amenity": "library", "name": "VIT Library", "osm_id": "node/11832252014"}, "geometry": {"type": "Point", "coordinates": [73.8684708, 18.4634905]}}, {"type": "Feature", "properties": {"addr:full": "KVP Sapatnekar Marg, Anand Park, Aundh, Pune, Maharashtra 411007", "amenity": "library", "name": "AR Pleasures Book And Magazines Library", "osm_id": "node/11832252015"}, "geometry": {"type": "Point", "coordinates": [73.808873, 18.555881]}}, {"type": "Feature", "properties": {"addr:full": "Arihant apartments, flat no 1 and 10 ,ground floor, Near Bsnl Telephone, exchange Office Next to INIFD (Indian National institute of Fashion Design), Near by Bliss Cafe, Salunkhe Vihar Society, Mohammed Wadi, Pune, Maharashtra", "amenity": "library", "name": "Justbooks Wanowrie", "osm_id": "node/11832252016"}, "geometry": {"type": "Point", "coordinates": [73.9019444, 18.4798807]}}, {"type": "Feature", "properties": {"addr:full": "131/1A/2, 131/1A/2, Pune, Maharashtra 411045", "amenity": "library", "name": "SPACE Library", "osm_id": "node/11832252017"}, "geometry": {"type": "Point", "coordinates": [73.7773216, 18.5648688]}}, {"type": "Feature", "properties": {"addr:full": "Shwetambari Apartment, Shop No.8, Opp. P.L. Deshpande Garden, Navasha Maruthi Mandir, Sarita Vihar Phase 2, Dattawadi, Pune, Maharashtra 411030", "amenity": "library", "check_date": "2026-03-15", "name": "My Citi Library", "osm_id": "node/11832252018"}, "geometry": {"type": "Point", "coordinates": [73.834237, 18.4945005]}}, {"type": "Feature", "properties": {"addr:full": "101, Sinhgad Institute Rd, Ambegaon BK, Pune, Maharashtra 411041", "amenity": "library", "name": "Central Library", "osm_id": "node/11832252019"}, "geometry": {"type": "Point", "coordinates": [73.8377252, 18.4637039]}}, {"type": "Feature", "properties": {"addr:full": "Kapil Upavan Plaza, Lake Town Rd, Kapil Upvan, Chaitraban, Mahalaxmi Nagar, Balaji Nagar, Pune, Maharashtra 411037", "amenity": "library", "name": "Rohans Library", "osm_id": "node/11832252020"}, "geometry": {"type": "Point", "coordinates": [73.865182, 18.460966]}}, {"type": "Feature", "properties": {"addr:full": "Mathura Nagar, Chandanagar, opp Hari Om Jwellers, Kharadi Road, Pune 411014, Pune, Maharashtra 411014", "amenity": "library", "check_date": "2026-03-09", "name": "Classic Reads Library", "osm_id": "node/11832252021"}, "geometry": {"type": "Point", "coordinates": [73.930517, 18.562927]}}, {"type": "Feature", "properties": {"addr:full": "Krantiveer Vasudev Phadke Path, Perugate, Sadashiv Peth, Pune, Maharashtra 411030", "amenity": "library", "name": "Studyrooms library", "osm_id": "node/11832252022"}, "geometry": {"type": "Point", "coordinates": [73.85101, 18.508674]}}, {"type": "Feature", "properties": {"addr:full": "A1-24, Lal Bahadur Shastri Rd, Prashant Nagar, Lokamanya Nagar, Sadashiv Peth, Pune, Maharashtra 411030", "amenity": "library", "name": "Ahilya Library", "osm_id": "node/11832252023"}, "geometry": {"type": "Point", "coordinates": [73.8444932, 18.5070457]}}, {"type": "Feature", "properties": {"addr:full": "S N E-3, kumar parisar, coperative society, near mahatma society, Kothrud, Pune, Maharashtra 411038", "amenity": "library", "name": "Shabdasneha vachnalay", "osm_id": "node/11832252024"}, "geometry": {"type": "Point", "coordinates": [73.801569, 18.496114]}}, {"type": "Feature", "properties": {"addr:full": "Bungalow 30 Lane 3C South Avenue, Kalyani Nagar, Pune, Maharashtra 411006", "amenity": "library", "check_date": "2026-03-09", "name": "Gyaan Adab Centre", "osm_id": "node/11832252025"}, "geometry": {"type": "Point", "coordinates": [73.9002631, 18.5440899]}}, {"type": "Feature", "properties": {"addr:full": "Ram Nagar, Baner, Pune, Maharashtra 411045", "amenity": "library", "name": "NIA Library", "osm_id": "node/11832252026"}, "geometry": {"type": "Point", "coordinates": [73.7673881, 18.5723703]}}, {"type": "Feature", "properties": {"addr:full": "3-4 Silver Arch Apartments, Lane No 3, Dahanukar Colony, Pune, Maharashtra 411038", "amenity": "library", "name": "Inspire Bookspace India Private Limited", "osm_id": "node/11832252027"}, "geometry": {"type": "Point", "coordinates": [73.812454, 18.494959]}}, {"type": "Feature", "properties": {"addr:full": "230, Dhawale Path, Sadashiv Peth, Pune, Maharashtra 411030", "amenity": "library", "name": "Lokmanya Vachanalay", "osm_id": "node/11832252028"}, "geometry": {"type": "Point", "coordinates": [73.8462035, 18.5087463]}}, {"type": "Feature", "properties": {"addr:full": "S N 1, Datar complex, near pegasus health club, karvenagar, Pune, Maharashtra 411052", "amenity": "library", "name": "Shabdasneha vachnalaya", "osm_id": "node/11832252030"}, "geometry": {"type": "Point", "coordinates": [73.81463, 18.49196]}}, {"type": "Feature", "properties": {"addr:full": "C/O Sarang Tea Depo, Karve Road, Nal Stop, Nal Stop, Pune, Maharashtra 411004", "amenity": "library", "name": "Manoranjan Library", "osm_id": "node/11832252031"}, "geometry": {"type": "Point", "coordinates": [73.8195394, 18.5031526]}}, {"type": "Feature", "properties": {"addr:full": "1011/17, Sudarshan Apart, (B), 1st Fl, Mitra Co.op. Hsg. Society, Deep Bungalow Chowk, Model Colony, Shivajinagar, Pune, Maharashtra 411016", "amenity": "library", "name": "Parag Library", "osm_id": "node/11832252032"}, "geometry": {"type": "Point", "coordinates": [73.834314, 18.529899]}}, {"type": "Feature", "properties": {"addr:full": "101, Ideal Colony, Kothrud, Pune, Maharashtra 411038", "amenity": "library", "name": "Maharashtra Abhyasika (Study Rooms)", "osm_id": "node/11832252033"}, "geometry": {"type": "Point", "coordinates": [73.8179732, 18.5064134]}}, {"type": "Feature", "properties": {"addr:full": "Sir Parshurambhau College,, Lokamanya Nagar, Sadashiv Peth, Pune, Maharashtra 411030", "amenity": "library", "name": "S.P. College Library", "osm_id": "node/11832252034"}, "geometry": {"type": "Point", "coordinates": [73.8495136, 18.5078701]}}, {"type": "Feature", "properties": {"addr:full": "2047, Parvati Rd, Vijayanagar Colony, Sadashiv Peth, Pune, Maharashtra 411030", "amenity": "library", "check_date": "2026-03-13", "name": "Saraswati Abhyasika", "osm_id": "node/11832252035"}, "geometry": {"type": "Point", "coordinates": [73.852513, 18.5050939]}}, {"type": "Feature", "properties": {"addr:city": "Pune", "addr:district": "Pashan", "addr:full": "Shop No. 6, Regent Plaza, Baner - Pashan Link Road, Baner, Pune, Maharashtra 411045", "addr:housenumber": "334", "addr:postcode": "411045", "addr:street": "Baner-Pashan Link Road", "amenity": "library", "internet_access": "yes", "internet_access:fee": "customers", "name": "Pagdandi Books Chai Cafe", "opening_hours": "Mo-Su 09:00-21:00", "ref:isil": "1553", "osm_id": "node/11832252036"}, "geometry": {"type": "Point", "coordinates": [73.7931179, 18.5521914]}}, {"type": "Feature", "properties": {"addr:full": "801, Anant Vaibhav, Patil nagar, Bavdhan, Pune, Maharashtra 411021", "amenity": "library", "name": "ToyShoy Online Toy Library", "osm_id": "node/11832252037"}, "geometry": {"type": "Point", "coordinates": [73.770726, 18.519131]}}, {"type": "Feature", "properties": {"addr:full": "Krishananagar Society B2 Building Office No G, Mhatre Bridge, Pune, Maharashtra 411030", "amenity": "library", "name": "mylibrary.in", "osm_id": "node/11832252038"}, "geometry": {"type": "Point", "coordinates": [73.8349453, 18.5051045]}}, {"type": "Feature", "properties": {"addr:full": "658, Sinhagad Rd, Panmala, Dattawadi, Pune, Maharashtra 411030", "amenity": "library", "check_date": "2026-03-13", "name": "Ramakrishna Math Library", "osm_id": "node/11832252039"}, "geometry": {"type": "Point", "coordinates": [73.8443312, 18.4997082]}}, {"type": "Feature", "properties": {"addr:full": "A2/404, Atul Nagar, Sr. No. 79/B,, Mumbai Bangalore Highway, Warje, Pune - 411052, Maharashtra 411052", "amenity": "library", "name": "Kids Gurukul, Warje", "osm_id": "node/11832252040"}, "geometry": {"type": "Point", "coordinates": [73.794962, 18.484991]}}, {"type": "Feature", "properties": {"addr:full": "Rakshak Nagar Phase 1, Sr. no.7/3, Swami KRUPA, Anusaya park, lane 3, Opp. pune Maharashtra, Rakshak Nagar, Kharadi, Pune, Maharashtra 411014", "amenity": "library", "name": "DNYANGANGA LIBRARY & STUDY CENTER", "osm_id": "node/11832252041"}, "geometry": {"type": "Point", "coordinates": [73.940072, 18.551155]}}, {"type": "Feature", "properties": {"addr:full": "1st Floor, Cosmos Club House I , Next to Destination Centre, Magarpatta City, Pune, Maharashtra 411013", "amenity": "library", "name": "Just Books, Magarpatta City", "osm_id": "node/11832252042"}, "geometry": {"type": "Point", "coordinates": [73.929598, 18.509502]}}, {"type": "Feature", "properties": {"addr:full": "Ganeshkhind Road, Pune, Maharashtra 411007", "amenity": "library", "name": "Jayakar Library Complex", "osm_id": "node/11832252043"}, "geometry": {"type": "Point", "coordinates": [73.8231958, 18.5503211]}}, {"type": "Feature", "properties": {"addr:full": "2390-B, Azam Campus, K.B. Hidayatullah Road, Camp, Pune, Maharashtra 411001", "amenity": "library", "name": "A.R.S. Inamdar Public Library", "osm_id": "node/11832252044"}, "geometry": {"type": "Point", "coordinates": [73.8780707, 18.5054538]}}, {"type": "Feature", "properties": {"addr:full": "727, Kumthekar Road, Sadashiv Peth, Opposite Sadashiv Post Off, Sadashiv Peth, Pune, Maharashtra 411030", "amenity": "library", "check_date": "2026-03-12", "name": "Phoenix Library", "osm_id": "node/11832252045"}, "geometry": {"type": "Point", "coordinates": [73.8490851, 18.5132769]}}, {"type": "Feature", "properties": {"addr:full": "Sai Nagri Society, Shop No A2, Near Nagarwala School, Kalyani Nagar, Pune, Maharashtra 411006", "amenity": "library", "check_date": "2026-03-13", "name": "Bookaholic Library", "osm_id": "node/11832252046"}, "geometry": {"type": "Point", "coordinates": [73.897799, 18.548459]}}, {"type": "Feature", "properties": {"addr:full": "181, laxmi road, Tulshibaug, Budhwar Peth, Pune, Maharashtra 411002", "amenity": "library", "check_date": "2026-03-17", "name": "Pune Nagar Vachan Mandir", "osm_id": "node/11832252047"}, "geometry": {"type": "Point", "coordinates": [73.856036, 18.515557]}}, {"type": "Feature", "properties": {"addr:full": "Ramsukh House, 3rd Floor Ganeshkhind Road, Near Sancheti Hospital, Pune, Maharashtra 411005", "amenity": "library", "check_date": "2026-03-12", "name": "The British Council Pune", "osm_id": "node/11832252048"}, "geometry": {"type": "Point", "coordinates": [73.851562, 18.5299023]}}, {"type": "Feature", "properties": {"addr:full": "966, Raviwar Peth, Pune, Maharashtra 411002", "amenity": "library", "check_date": "2026-03-13", "name": "Government District Library Pune", "osm_id": "node/11832252049"}, "geometry": {"type": "Point", "coordinates": [73.8617635, 18.5164532]}}, {"type": "Feature", "properties": {"addr:full": "Hulshur, Camp, Pune, Maharashtra 411001", "amenity": "library", "check_date": "2026-03-10", "name": "Cowasjee Dinshaw Hall And Library", "osm_id": "node/11832252050"}, "geometry": {"type": "Point", "coordinates": [73.879645, 18.515038]}}, {"type": "Feature", "properties": {"addr:full": "Warje Malwadi Rd, Rahul Nagar, Kothrud, Pune, Maharashtra 411058", "amenity": "library", "check_date": "2026-03-15", "name": "Manmohan Library", "osm_id": "node/11832252051"}, "geometry": {"type": "Point", "coordinates": [73.8141614, 18.4992494]}}, {"type": "Feature", "properties": {"amenity": "library", "name": "IUCAA library", "osm_id": "node/12270063234"}, "geometry": {"type": "Point", "coordinates": [73.825371, 18.55984]}}, {"type": "Feature", "properties": {"addr:housenumber": "2/29 E-Complex", "addr:postcode": "411048", "addr:street": "Kondhwa Road", "amenity": "library", "name": "VIT Kondhwa Library", "website": "https://vit.edu/", "osm_id": "node/13134368301"}, "geometry": {"type": "Point", "coordinates": [73.8844935, 18.4601378]}}, {"type": "Feature", "properties": {"amenity": "library", "check_date": "2026-03-09", "name": "Sahyadri Abhyasika", "osm_id": "node/13629191950"}, "geometry": {"type": "Point", "coordinates": [73.9529743, 18.5025715]}}, {"type": "Feature", "properties": {"amenity": "library", "check_date": "2026-03-09", "name": "Sahyadri Abhyasika", "osm_id": "node/13629200604"}, "geometry": {"type": "Point", "coordinates": [73.9529717, 18.5025789]}}, {"type": "Feature", "properties": {"amenity": "library", "check_date": "2026-03-09", "name": "Ved Abhyasika", "osm_id": "node/13629471333"}, "geometry": {"type": "Point", "coordinates": [73.9544564, 18.5061702]}}, {"type": "Feature", "properties": {"addr:district": "Pune", "addr:postcode": "411046", "amenity": "library", "internet_access:fee": "customers", "name": "Vision Library", "osm_id": "node/13851755782"}, "geometry": {"type": "Point", "coordinates": [73.8398228, 18.4549073]}}, {"type": "Feature", "properties": {"amenity": "library", "name": "National Film Archive of India", "source": "field trip", "osm_id": "way/202301141"}, "geometry": {"type": "Polygon", "coordinates": [[[73.8293026, 18.5163875], [73.8298926, 18.5161433], [73.8296646, 18.5152353], [73.8290557, 18.5153777], [73.8289297, 18.5154795], [73.8292435, 18.5164078], [73.8293026, 18.5163875]]]}}, {"type": "Feature", "properties": {"access": "customers", "amenity": "library", "building": "yes", "building:levels": "6", "internet_access": "wlan", "internet_access:fee": "customers", "internet_access:ssid": "WPU-LIBRARY", "name": "Agastya Central Library", "opening_hours": "Mo-Fr 08:00-20:00; Sa 08:00-18:00", "operator": "MIT-World Peace University", "operator:type": "university", "website": "https://krc-opac.mitwpu.edu.in/", "osm_id": "way/273750152"}, "geometry": {"type": "Polygon", "coordinates": [[[73.8145079, 18.5169251], [73.8145306, 18.516964], [73.8145654, 18.5169937], [73.8146085, 18.5170112], [73.8146552, 18.5170144], [73.8147005, 18.5170031], [73.8147395, 18.5169785], [73.8147679, 18.5169431], [73.8147827, 18.516901], [73.8147822, 18.5168566], [73.8147666, 18.5168147], [73.8147375, 18.5167799], [73.814698, 18.516756], [73.8146525, 18.5167455], [73.8146058, 18.5167496], [73.8145631, 18.5167678], [73.8145289, 18.5167982], [73.814507, 18.5168375], [73.8144998, 18.5168814], [73.8145079, 18.5169251]]]}}, {"type": "Feature", "properties": {"amenity": "library", "building": "yes", "name": "Bai Jerbai Wadia Library", "osm_id": "way/282003253"}, "geometry": {"type": "Polygon", "coordinates": [[[73.8389175, 18.5236175], [73.8392852, 18.5235538], [73.8393287, 18.5238387], [73.8389689, 18.5239062], [73.8389175, 18.5236175]]]}}, {"type": "Feature", "properties": {"addr:street": "Punavale - Jambe Gaon Road", "amenity": "library", "building": "yes", "name": "Mahadyan Library", "osm_id": "way/359357304"}, "geometry": {"type": "Polygon", "coordinates": [[[73.744594, 18.6382633], [73.744638, 18.6382428], [73.7445419, 18.638057], [73.7444979, 18.6380774], [73.744594, 18.6382633]]]}}, {"type": "Feature", "properties": {"amenity": "library", "building": "yes", "check_date": "2026-03-10", "loc_name": "जंगल बुक लायब्ररी", "name": "Jungle Book Library", "name:mr": "जंगल बुक लायब्ररी", "opening_hours": "Mo-Su 10:00-19:00", "website": "https://www.junglebookpune.org/", "osm_id": "way/359555197"}, "geometry": {"type": "Polygon", "coordinates": [[[73.8060684, 18.5580453], [73.8060734, 18.5579607], [73.8060559, 18.5579598], [73.8060597, 18.5578943], [73.8059878, 18.5578904], [73.8059839, 18.5579558], [73.8059548, 18.5579543], [73.8059587, 18.5578889], [73.8058645, 18.5578839], [73.8058596, 18.5579673], [73.8058231, 18.5579653], [73.8058251, 18.5579319], [73.8057599, 18.5579284], [73.805754, 18.5580286], [73.8060684, 18.5580453]]]}}, {"type": "Feature", "properties": {"air_conditioning": "yes", "amenity": "library", "building": "yes", "email": "oiclibrary@aitpune.edu.in", "internet_access": "wlan", "internet_access:fee": "no", "internet_access:ssid": "Ciscosb", "name": "Aryabhatta Center", "name:etymology:wikidata": "Q11359", "opening_hours": "Mo-Sa 08:30-24:00; Sa 10:00-17:00", "operator": "Army Institute of Technology", "operator:type": "university", "website": "https://www.aitpune.com/Library.aspx", "osm_id": "way/359573228"}, "geometry": {"type": "Polygon", "coordinates": [[[73.8753133, 18.6060818], [73.875311, 18.6059028], [73.8751312, 18.605811], [73.8751306, 18.6058101], [73.8751299, 18.6058105], [73.8751294, 18.6058103], [73.8751292, 18.6058109], [73.8749724, 18.6059123], [73.8749873, 18.6060985], [73.8751578, 18.6061723], [73.8753133, 18.6060818]]]}}, {"type": "Feature", "properties": {"addr:city": "Pune", "addr:housenumber": "78", "addr:postcode": "411007", "addr:street": "विद्यापीठ रस्ता", "amenity": "library", "building": "yes", "name": "Astin Books", "opening_hours": "Mo-Sa 08:00-20:00", "osm_id": "way/359937439"}, "geometry": {"type": "Polygon", "coordinates": [[[73.8246096, 18.546616], [73.8246803, 18.5466596], [73.8248195, 18.546457], [73.8247488, 18.5464133], [73.8246096, 18.546616]]]}}, {"type": "Feature", "properties": {"amenity": "library", "building": "yes", "name": "Ashwamedh Abhyasika", "wheelchair": "no", "osm_id": "way/359969450"}, "geometry": {"type": "Polygon", "coordinates": [[[73.8567577, 18.4616275], [73.8569207, 18.4616992], [73.8569695, 18.4615992], [73.8568065, 18.4615276], [73.8567577, 18.4616275]]]}}, {"type": "Feature", "properties": {"addr:city": "pune", "addr:housenumber": "2390-B", "addr:postcode": "411001", "addr:street": "Hidayatullah path , camp , Azam Campus.", "amenity": "library", "building": "yes", "check_date": "2026-03-12", "description": "the library has a separate children section and a free reading room facility that is open for all irrespective of caste , or religion", "internet_access": "yes", "internet_access:fee": "yes", "name": "A.R.S Inamdar Public library", "opening_hours": "Mo-Sa 08:00-19:00", "operator": "Bombay Public Trust Act 1950", "operator:type": "public", "osm_id": "way/885040321"}, "geometry": {"type": "Polygon", "coordinates": [[[73.8771206, 18.5031711], [73.8771528, 18.5030032], [73.8774103, 18.503049], [73.8773888, 18.5032118], [73.8772547, 18.5031914], [73.8771963, 18.5031826], [73.8771206, 18.5031711]]]}}, {"type": "Feature", "properties": {"amenity": "library", "building": "yes", "check_date": "2026-03-15", "wheelchair": "no", "osm_id": "way/963120169"}, "geometry": {"type": "Polygon", "coordinates": [[[73.8544464, 18.4634531], [73.8544464, 18.4633206], [73.8546955, 18.4632918], [73.8547107, 18.4634371], [73.8544464, 18.4634531]]]}}, {"type": "Feature", "properties": {"amenity": "library", "building": "yes", "name": "mahatma phule", "osm_id": "way/987626979"}, "geometry": {"type": "Polygon", "coordinates": [[[73.8803973, 18.5197272], [73.8802556, 18.5196863], [73.8803265, 18.5194672], [73.8804004, 18.5195928], [73.8803973, 18.5197272]]]}}, {"type": "Feature", "properties": {"amenity": "library", "building": "yes", "name": "sd library", "osm_id": "way/987626980"}, "geometry": {"type": "Polygon", "coordinates": [[[73.8794253, 18.5199211], [73.8794059, 18.5198834], [73.8794811, 18.5198557], [73.8794908, 18.5198993], [73.8794253, 18.5199211]]]}}, {"type": "Feature", "properties": {"addr:city": "Pune", "addr:district": "Pune", "addr:postcode": "411007", "addr:street": "विद्यापीठ रस्ता", "amenity": "library", "building": "library", "name": "Jaykar library (SPPU)", "wikimedia_commons": "File:Pune_university_Jayakar_Library.jpg", "osm_id": "way/1030062477"}, "geometry": {"type": "Polygon", "coordinates": [[[73.8226733, 18.5505054], [73.8227082, 18.5502511], [73.8228343, 18.5502638], [73.8228504, 18.5501519], [73.8230515, 18.5501646], [73.8230757, 18.5499866], [73.8232151, 18.5500019], [73.8232312, 18.5499104], [73.8234136, 18.5499332], [73.8234029, 18.5499994], [73.8236014, 18.5500146], [73.8235263, 18.5506529], [73.8231776, 18.5506249], [73.8231722, 18.5506681], [73.8228182, 18.5506402], [73.8228182, 18.5505893], [73.8227887, 18.5505842], [73.8227887, 18.5505156], [73.8226733, 18.5505054]]]}}, {"type": "Feature", "properties": {"amenity": "library", "building": "yes", "name": "Barbara Ward Library and Documentation Centre", "osm_id": "way/1111285590"}, "geometry": {"type": "Polygon", "coordinates": [[[73.7698963, 18.5073033], [73.7699149, 18.5072279], [73.7700419, 18.507256], [73.7700233, 18.5073314], [73.7698963, 18.5073033]]]}}, {"type": "Feature", "properties": {"amenity": "library", "building": "yes", "name": "vishwas library", "opening_hours": "Mo-Fr 09:00-17:00", "osm_id": "way/1125155162"}, "geometry": {"type": "Polygon", "coordinates": [[[73.8142823, 18.5104], [73.8142863, 18.5103823], [73.8143203, 18.5103894], [73.8143159, 18.5104074], [73.8142823, 18.5104]]]}}, {"type": "Feature", "properties": {"amenity": "library", "building": "yes", "name": "I2IT library", "osm_id": "way/1151918980"}, "geometry": {"type": "Polygon", "coordinates": [[[73.7363932, 18.5845561], [73.7366231, 18.5843346], [73.7368684, 18.5846687], [73.7366193, 18.5848249], [73.7365388, 18.5847195], [73.7363932, 18.5845561]]]}}, {"type": "Feature", "properties": {"amenity": "library", "building": "yes", "check_date": "2026-03-15", "osm_id": "way/1428081261"}, "geometry": {"type": "Polygon", "coordinates": [[[73.8220926, 18.4630947], [73.8222571, 18.4631638], [73.8223505, 18.4629638], [73.822186, 18.4628947], [73.8220926, 18.4630947]]]}}, {"type": "Feature", "properties": {"addr:city": "Lavale", "addr:district": "Pune", "addr:street": "FLAME University Campus", "amenity": "library", "building": "yes", "opening_hours": "Vivekananda Library", "osm_id": "way/1487255951"}, "geometry": {"type": "Polygon", "coordinates": [[[73.7307411, 18.5239913], [73.7309892, 18.5240752], [73.7311005, 18.5240485], [73.731197, 18.5239303], [73.730792, 18.5238082], [73.7307411, 18.5239913]]]}}]}