{"type": "FeatureCollection", "crs": {"type": "name", "properties": {"name": "urn:ogc:def:crs:OGC:1.3:CRS84"}}, "features": [{"type": "Feature", "properties": {"amenity": "toilets", "check_date": "2026-03-15", "osm_id": "node/1839836679"}, "geometry": {"type": "Point", "coordinates": [73.8553136, 18.4700655]}}, {"type": "Feature", "properties": {"amenity": "toilets", "check_date": "2026-03-15", "osm_id": "node/1839836680"}, "geometry": {"type": "Point", "coordinates": [73.8558136, 18.4704493]}}, {"type": "Feature", "properties": {"amenity": "toilets", "osm_id": "node/1839836681"}, "geometry": {"type": "Point", "coordinates": [73.8558333, 18.471]}}, {"type": "Feature", "properties": {"amenity": "toilets", "note": "Ladies Toilet", "osm_id": "node/1840883786"}, "geometry": {"type": "Point", "coordinates": [73.8558611, 18.4711389]}}, {"type": "Feature", "properties": {"amenity": "toilets", "osm_id": "node/2270799525"}, "geometry": {"type": "Point", "coordinates": [73.8529474, 18.5084326]}}, {"type": "Feature", "properties": {"amenity": "toilets", "check_date": "2026-03-12", "osm_id": "node/2273608876"}, "geometry": {"type": "Point", "coordinates": [73.8455228, 18.5132062]}}, {"type": "Feature", "properties": {"amenity": "toilets", "female": "yes", "male": "no", "osm_id": "node/2365553032"}, "geometry": {"type": "Point", "coordinates": [73.8172341, 18.5023066]}}, {"type": "Feature", "properties": {"amenity": "toilets", "osm_id": "node/2684626597"}, "geometry": {"type": "Point", "coordinates": [73.7421978, 18.6285149]}}, {"type": "Feature", "properties": {"access": "yes", "amenity": "toilets", "check_date": "2026-03-12", "osm_id": "node/2852763593"}, "geometry": {"type": "Point", "coordinates": [73.8746132, 18.5297215]}}, {"type": "Feature", "properties": {"access": "yes", "amenity": "toilets", "fee": "no", "toilets:position": "urinal", "wheelchair": "no", "osm_id": "node/2858176071"}, "geometry": {"type": "Point", "coordinates": [73.8466792, 18.5081322]}}, {"type": "Feature", "properties": {"access": "yes", "amenity": "toilets", "female": "yes", "osm_id": "node/2935676190"}, "geometry": {"type": "Point", "coordinates": [73.8280749, 18.5071871]}}, {"type": "Feature", "properties": {"access": "yes", "amenity": "toilets", "check_date": "2026-03-13", "osm_id": "node/2935676320"}, "geometry": {"type": "Point", "coordinates": [73.8580902, 18.5085898]}}, {"type": "Feature", "properties": {"access": "yes", "amenity": "toilets", "check_date": "2026-03-15", "osm_id": "node/3238255115"}, "geometry": {"type": "Point", "coordinates": [73.8584411, 18.5061301]}}, {"type": "Feature", "properties": {"amenity": "toilets", "osm_id": "node/3498347015"}, "geometry": {"type": "Point", "coordinates": [73.7728363, 18.6444959]}}, {"type": "Feature", "properties": {"amenity": "toilets", "check_date": "2026-03-15", "osm_id": "node/3721774616"}, "geometry": {"type": "Point", "coordinates": [73.8277074, 18.4833166]}}, {"type": "Feature", "properties": {"amenity": "toilets", "name": "PMC Swachata Griha", "osm_id": "node/3740999835"}, "geometry": {"type": "Point", "coordinates": [73.8444954, 18.5169054]}}, {"type": "Feature", "properties": {"access": "yes", "amenity": "toilets", "check_date": "2026-03-12", "female": "yes", "male": "yes", "osm_id": "node/3837531779"}, "geometry": {"type": "Point", "coordinates": [73.8448658, 18.5113825]}}, {"type": "Feature", "properties": {"access": "customers", "amenity": "toilets", "check_date": "2026-03-14", "female": "yes", "male": "yes", "source": "gps", "osm_id": "node/4067962005"}, "geometry": {"type": "Point", "coordinates": [73.9017795, 18.5519744]}}, {"type": "Feature", "properties": {"amenity": "toilets", "opening_hours": "24/7", "osm_id": "node/4321021597"}, "geometry": {"type": "Point", "coordinates": [73.8137202, 18.6147052]}}, {"type": "Feature", "properties": {"amenity": "toilets", "osm_id": "node/4639392890"}, "geometry": {"type": "Point", "coordinates": [73.7663998, 18.4242683]}}, {"type": "Feature", "properties": {"amenity": "toilets", "check_date": "2026-03-10", "designation": "Public Toilet", "fee": "no", "wheelchair": "no", "osm_id": "node/5001262593"}, "geometry": {"type": "Point", "coordinates": [73.8035269, 18.5602301]}}, {"type": "Feature", "properties": {"amenity": "toilets", "designation": "Public Toilet", "fee": "no", "wheelchair": "no", "osm_id": "node/5001266249"}, "geometry": {"type": "Point", "coordinates": [73.8073782, 18.5608911]}}, {"type": "Feature", "properties": {"amenity": "toilets", "check_date": "2026-03-12", "osm_id": "node/5273217021"}, "geometry": {"type": "Point", "coordinates": [73.8714097, 18.5292892]}}, {"type": "Feature", "properties": {"access": "yes", "amenity": "toilets", "changing_table": "no", "drinking_water": "yes", "fee": "no", "female": "yes", "level": "-1;0;1", "male": "yes", "operator": "Westend Mall", "toilets:disposal": "flush", "toilets:position": "urinal;seated", "wheelchair": "yes", "osm_id": "node/5773606797"}, "geometry": {"type": "Point", "coordinates": [73.8067887, 18.5622851]}}, {"type": "Feature", "properties": {"access": "yes", "amenity": "toilets", "changing_table": "no", "fee": "no", "male": "yes", "toilets:disposal": "flush", "toilets:handwashing": "no", "toilets:position": "urinal", "wheelchair": "no", "osm_id": "node/6083265786"}, "geometry": {"type": "Point", "coordinates": [73.8499025, 18.4921981]}}, {"type": "Feature", "properties": {"access": "yes", "amenity": "toilets", "female": "yes", "male": "yes", "name": "Sugam", "name:mr": "सुगम", "osm_id": "node/6128594984"}, "geometry": {"type": "Point", "coordinates": [73.754375, 18.601005]}}, {"type": "Feature", "properties": {"access": "yes", "amenity": "toilets", "check_date": "2026-03-10", "female": "yes", "male": "yes", "osm_id": "node/6168664137"}, "geometry": {"type": "Point", "coordinates": [73.8801572, 18.5356599]}}, {"type": "Feature", "properties": {"amenity": "toilets", "operator": "Public", "osm_id": "node/6855183085"}, "geometry": {"type": "Point", "coordinates": [73.8496699, 18.4983321]}}, {"type": "Feature", "properties": {"amenity": "toilets", "osm_id": "node/6897634285"}, "geometry": {"type": "Point", "coordinates": [73.8300974, 18.5303387]}}, {"type": "Feature", "properties": {"amenity": "toilets", "fee": "no", "wheelchair": "no", "osm_id": "node/7196502146"}, "geometry": {"type": "Point", "coordinates": [73.9200475, 18.5169406]}}, {"type": "Feature", "properties": {"access": "customers", "amenity": "toilets", "changing_table": "no", "drinking_water": "no", "fee": "no", "handwashing:soap": "yes", "indoor": "yes", "toilets:access": "customers", "toilets:disposal": "flush", "toilets:hands_drying": "electric_hand_dryer", "toilets:handwashing": "yes", "toilets:position": "seated", "wheelchair": "limited", "osm_id": "node/9348284342"}, "geometry": {"type": "Point", "coordinates": [73.7745094, 18.5697447]}}, {"type": "Feature", "properties": {"access": "customers", "amenity": "toilets", "changing_table": "no", "drinking_water": "no", "fee": "no", "handwashing:soap": "yes", "indoor": "yes", "toilets:access": "customers", "toilets:disposal": "flush", "toilets:hands_drying": "electric_hand_dryer", "toilets:handwashing": "yes", "toilets:position": "seated", "wheelchair": "limited", "osm_id": "node/9348284343"}, "geometry": {"type": "Point", "coordinates": [73.7740644, 18.5703639]}}, {"type": "Feature", "properties": {"access": "yes", "amenity": "toilets", "unisex": "yes", "osm_id": "node/9531527397"}, "geometry": {"type": "Point", "coordinates": [73.8353603, 18.5165974]}}, {"type": "Feature", "properties": {"access": "yes", "amenity": "toilets", "unisex": "yes", "osm_id": "node/9557130498"}, "geometry": {"type": "Point", "coordinates": [73.8290512, 18.5389087]}}, {"type": "Feature", "properties": {"amenity": "toilets", "check_date": "2026-03-12", "osm_id": "node/10016374427"}, "geometry": {"type": "Point", "coordinates": [73.8702365, 18.5297952]}}, {"type": "Feature", "properties": {"amenity": "toilets", "osm_id": "node/10054132356"}, "geometry": {"type": "Point", "coordinates": [73.8233808, 18.512143]}}, {"type": "Feature", "properties": {"amenity": "toilets", "osm_id": "node/10610487651"}, "geometry": {"type": "Point", "coordinates": [73.8743421, 18.5645004]}}, {"type": "Feature", "properties": {"access": "yes", "amenity": "toilets", "check_date": "2024-12-28", "gender_access": "female", "wheelchair": "yes", "osm_id": "node/10648169750"}, "geometry": {"type": "Point", "coordinates": [73.8092108, 18.5576827]}}, {"type": "Feature", "properties": {"amenity": "toilets", "fee": "no", "level": "0", "osm_id": "node/10977349377"}, "geometry": {"type": "Point", "coordinates": [73.7998243, 18.5927094]}}, {"type": "Feature", "properties": {"amenity": "toilets", "check_date": "2023-07-02", "osm_id": "node/11019046829"}, "geometry": {"type": "Point", "coordinates": [73.779739, 18.6145381]}}, {"type": "Feature", "properties": {"access": "yes", "amenity": "toilets", "changing_table": "no", "fee": "no", "female": "yes", "male": "yes", "wheelchair": "no", "osm_id": "node/11097589652"}, "geometry": {"type": "Point", "coordinates": [73.8091886, 18.5608073]}}, {"type": "Feature", "properties": {"access": "yes", "amenity": "toilets", "check_date": "2026-03-12", "fee": "no", "female": "yes", "male": "yes", "osm_id": "node/11097589657"}, "geometry": {"type": "Point", "coordinates": [73.8139976, 18.560857]}}, {"type": "Feature", "properties": {"access": "customers", "amenity": "toilets", "changing_table": "no", "check_date": "2024-01-06", "osm_id": "node/11494079892"}, "geometry": {"type": "Point", "coordinates": [73.7443756, 18.597919]}}, {"type": "Feature", "properties": {"access": "customers", "amenity": "toilets", "changing_table": "no", "check_date": "2024-01-06", "osm_id": "node/11494443657"}, "geometry": {"type": "Point", "coordinates": [73.744875, 18.5987542]}}, {"type": "Feature", "properties": {"amenity": "toilets", "building": "yes", "check_date": "2024-01-16", "osm_id": "node/11524885227"}, "geometry": {"type": "Point", "coordinates": [73.7700213, 18.6039643]}}, {"type": "Feature", "properties": {"amenity": "toilets", "check_date": "2024-08-06", "osm_id": "node/12098053613"}, "geometry": {"type": "Point", "coordinates": [73.7963745, 18.5940893]}}, {"type": "Feature", "properties": {"amenity": "toilets", "check_date": "2024-08-06", "osm_id": "node/12098053614"}, "geometry": {"type": "Point", "coordinates": [73.7963919, 18.5943987]}}, {"type": "Feature", "properties": {"amenity": "toilets", "level": "1", "osm_id": "node/12593104752"}, "geometry": {"type": "Point", "coordinates": [73.7688724, 18.613524]}}, {"type": "Feature", "properties": {"access": "yes", "amenity": "toilets", "osm_id": "node/12651972101"}, "geometry": {"type": "Point", "coordinates": [73.8367249, 18.5621431]}}, {"type": "Feature", "properties": {"access": "customers", "amenity": "toilets", "check_date": "2026-03-09", "fee": "no", "level": "1", "male": "yes", "portable": "no", "toilets:handwashing": "yes", "unisex": "yes", "wheelchair": "yes", "osm_id": "node/13390300271"}, "geometry": {"type": "Point", "coordinates": [73.9088169, 18.5571112]}}, {"type": "Feature", "properties": {"access": "permissive", "amenity": "toilets", "check_date": "2026-03-15", "fee": "no", "level": "0", "toilets:disposal": "flush", "toilets:handwashing": "yes", "toilets:position": "squat", "unisex": "yes", "osm_id": "node/13392139823"}, "geometry": {"type": "Point", "coordinates": [73.8582589, 18.5015534]}}, {"type": "Feature", "properties": {"access": "customers", "amenity": "toilets", "check_date": "2026-03-09", "fee": "no", "female": "yes", "level": "1", "wheelchair": "yes", "osm_id": "node/13392936177"}, "geometry": {"type": "Point", "coordinates": [73.9083091, 18.5569851]}}, {"type": "Feature", "properties": {"access": "yes", "amenity": "toilets", "changing_table": "no", "check_date": "2026-03-15", "fee": "no", "female": "yes", "lit": "no", "male": "yes", "toilets:handwashing": "yes", "osm_id": "node/13392936178"}, "geometry": {"type": "Point", "coordinates": [73.8582335, 18.5015266]}}, {"type": "Feature", "properties": {"amenity": "toilets", "check_date": "2026-01-15", "osm_id": "node/13546511732"}, "geometry": {"type": "Point", "coordinates": [73.8313666, 18.5083992]}}, {"type": "Feature", "properties": {"amenity": "toilets", "check_date": "2026-05-05", "fee": "no", "osm_id": "node/13797623006"}, "geometry": {"type": "Point", "coordinates": [73.7767648, 18.588741]}}, {"type": "Feature", "properties": {"amenity": "toilets", "check_date": "2026-05-25", "osm_id": "node/13875602908"}, "geometry": {"type": "Point", "coordinates": [73.8234082, 18.5294107]}}, {"type": "Feature", "properties": {"access": "yes", "amenity": "toilets", "building": "yes", "check_date": "2026-03-12", "toilets:position": "squat;urinal", "wheelchair": "no", "osm_id": "way/282054954"}, "geometry": {"type": "Polygon", "coordinates": [[[73.8541442, 18.5232805], [73.8541614, 18.5232382], [73.8542444, 18.5232686], [73.8542357, 18.5232899], [73.8541896, 18.523273], [73.854181, 18.523294], [73.8541442, 18.5232805]]]}}, {"type": "Feature", "properties": {"amenity": "toilets", "building": "yes", "changing_table": "no", "toilets:disposal": "flush", "unisex": "yes", "wheelchair": "no", "osm_id": "way/359962215"}, "geometry": {"type": "Polygon", "coordinates": [[[73.8200038, 18.5373494], [73.820227, 18.5374684], [73.8202762, 18.5373855], [73.820053, 18.5372664], [73.8200038, 18.5373494]]]}}, {"type": "Feature", "properties": {"access": "yes", "amenity": "toilets", "building": "yes", "check_date": "2026-03-10", "fee": "no", "female": "yes", "male": "yes", "osm_id": "way/662462502"}, "geometry": {"type": "Polygon", "coordinates": [[[73.8754982, 18.5386149], [73.8755129, 18.5385272], [73.8754811, 18.5385224], [73.8754664, 18.5386101], [73.8754982, 18.5386149]]]}}, {"type": "Feature", "properties": {"amenity": "toilets", "fee": "no", "indoor": "room", "level": "3", "male": "yes", "name": "Gents Toilet", "ref": "A-412", "osm_id": "way/664758827"}, "geometry": {"type": "Polygon", "coordinates": [[[73.8149524, 18.5197631], [73.8149541, 18.5198011], [73.814919, 18.5198017], [73.8149177, 18.519764], [73.8149524, 18.5197631]]]}}, {"type": "Feature", "properties": {"amenity": "toilets", "building": "yes", "fee": "no", "female": "yes", "indoor": "room", "level": "3", "name": "Ladies Toilet", "ref": "A-413", "osm_id": "way/664761850"}, "geometry": {"type": "Polygon", "coordinates": [[[73.8150268, 18.5197997], [73.8149798, 18.5198006], [73.8149789, 18.5197787], [73.8149781, 18.5197605], [73.815026, 18.5197602], [73.8150268, 18.5197997]]]}}, {"type": "Feature", "properties": {"access": "yes", "amenity": "toilets", "building": "yes", "changing_table": "no", "check_date": "2026-03-15", "toilets:disposal": "pitlatrine", "toilets:handwashing": "yes", "unisex": "yes", "wheelchair": "yes", "osm_id": "way/817474250"}, "geometry": {"type": "Polygon", "coordinates": [[[73.8599491, 18.499586], [73.8600192, 18.4995806], [73.8599985, 18.4993996], [73.8599295, 18.499405], [73.8599491, 18.499586]]]}}, {"type": "Feature", "properties": {"access": "yes", "amenity": "toilets", "building": "yes", "changing_table": "no", "toilets:disposal": "pitlatrine", "toilets:handwashing": "yes", "unisex": "yes", "wheelchair": "yes", "osm_id": "way/817474251"}, "geometry": {"type": "Polygon", "coordinates": [[[73.8590316, 18.500202], [73.8592075, 18.5001998], [73.8592006, 18.5001464], [73.8590282, 18.5001475], [73.8590316, 18.500202]]]}}, {"type": "Feature", "properties": {"access": "yes", "amenity": "toilets", "building": "yes", "changing_table": "no", "check_date": "2026-03-15", "toilets:disposal": "pitlatrine", "toilets:handwashing": "yes", "unisex": "yes", "wheelchair": "no", "osm_id": "way/817532715"}, "geometry": {"type": "Polygon", "coordinates": [[[73.8580146, 18.4990922], [73.8579373, 18.4991166], [73.8579631, 18.4991883], [73.8580403, 18.4991687], [73.8580146, 18.4990922]]]}}, {"type": "Feature", "properties": {"amenity": "toilets", "building": "yes", "osm_id": "way/1040773990"}, "geometry": {"type": "Polygon", "coordinates": [[[73.7789221, 18.5200921], [73.778955, 18.520087], [73.7789456, 18.520031], [73.7789127, 18.5200368], [73.7789221, 18.5200921]]]}}, {"type": "Feature", "properties": {"amenity": "toilets", "building": "yes", "osm_id": "way/1087708276"}, "geometry": {"type": "Polygon", "coordinates": [[[73.8192858, 18.5369949], [73.8193891, 18.5369329], [73.8193099, 18.536786], [73.8191791, 18.5368742], [73.8192858, 18.5369949]]]}}, {"type": "Feature", "properties": {"amenity": "toilets", "building": "yes", "osm_id": "way/1167374340"}, "geometry": {"type": "Polygon", "coordinates": [[[73.7595523, 18.5895766], [73.7596047, 18.5895617], [73.7595879, 18.5895089], [73.7595356, 18.5895239], [73.7595523, 18.5895766]]]}}, {"type": "Feature", "properties": {"amenity": "toilets", "building": "yes", "female": "yes", "male": "yes", "osm_id": "way/1216938558"}, "geometry": {"type": "Polygon", "coordinates": [[[73.7907866, 18.5590013], [73.7908018, 18.5590384], [73.7906646, 18.5590889], [73.7906494, 18.5590517], [73.7907866, 18.5590013]]]}}, {"type": "Feature", "properties": {"amenity": "toilets", "building": "shed", "male": "yes", "osm_id": "way/1250660883"}, "geometry": {"type": "Polygon", "coordinates": [[[73.9988606, 18.4930087], [73.9989513, 18.492996], [73.9989413, 18.4929201], [73.9988483, 18.4929325], [73.9988606, 18.4930087]]]}}, {"type": "Feature", "properties": {"amenity": "toilets", "building": "shed", "female": "yes", "osm_id": "way/1250660884"}, "geometry": {"type": "Polygon", "coordinates": [[[73.9989513, 18.492996], [73.9990532, 18.4929852], [73.9990471, 18.4929081], [73.9989413, 18.4929201], [73.9989513, 18.492996]]]}}, {"type": "Feature", "properties": {"amenity": "toilets", "building": "yes", "check_date": "2026-03-12", "osm_id": "way/1385293492"}, "geometry": {"type": "Polygon", "coordinates": [[[73.8546452, 18.523128], [73.8546732, 18.523085], [73.8548862, 18.5232097], [73.8548582, 18.5232527], [73.8546452, 18.523128]]]}}, {"type": "Feature", "properties": {"amenity": "toilets", "building": "yes", "osm_id": "way/1389838812"}, "geometry": {"type": "Polygon", "coordinates": [[[73.7769834, 18.5674248], [73.7770091, 18.5674261], [73.77701, 18.5674099], [73.7769844, 18.5674085], [73.7769834, 18.5674248]]]}}, {"type": "Feature", "properties": {"amenity": "toilets", "building": "yes", "check_date": "2026-03-15", "male": "yes", "toilets:disposal": "bucket", "wheelchair": "limited", "osm_id": "way/1459190901"}, "geometry": {"type": "Polygon", "coordinates": [[[73.8520132, 18.4751842], [73.8520487, 18.4752134], [73.8520642, 18.4751988], [73.8520884, 18.475217], [73.8521319, 18.4751877], [73.8520959, 18.4751554], [73.8520712, 18.4751687], [73.8520525, 18.4751492], [73.8520132, 18.4751842]]]}}]}