{"type": "FeatureCollection", "features": [{"type": "Feature", "properties": {"osm_id": 264480826, "osm_type": "node", "amenity": "fire_station", "created_by": "JOSM"}, "geometry": {"type": "Point", "coordinates": [80.2356816, 13.0637765]}}, {"type": "Feature", "properties": {"osm_id": 302899362, "osm_type": "node", "amenity": "fire_station", "created_by": "Potlatch 0.10f", "name": "Teynampet FS"}, "geometry": {"type": "Point", "coordinates": [80.249119, 13.0474469]}}, {"type": "Feature", "properties": {"osm_id": 2427727851, "osm_type": "node", "amenity": "fire_station"}, "geometry": {"type": "Point", "coordinates": [80.2306922, 13.0351313]}}, {"type": "Feature", "properties": {"osm_id": 3029313653, "osm_type": "node", "amenity": "fire_station", "name": "Tamil Nadu Fire and Rescue Services", "phone": "+91-44-22380206, 22382204"}, "geometry": {"type": "Point", "coordinates": [80.1335964, 12.9436361]}}, {"type": "Feature", "properties": {"osm_id": 5304198425, "osm_type": "node", "amenity": "fire_station"}, "geometry": {"type": "Point", "coordinates": [80.2224311, 12.8310173]}}, {"type": "Feature", "properties": {"osm_id": 5354315736, "osm_type": "node", "addr:city": "chennai", "addr:postcode": "600042", "addr:street": "Thiruvallur Street", "amenity": "fire_station", "name": "Fire service station;Fire Force Service center", "operator": "Government"}, "geometry": {"type": "Point", "coordinates": [80.2276341, 12.9768528]}}, {"type": "Feature", "properties": {"osm_id": 211274291, "osm_type": "way", "amenity": "fire_station"}, "geometry": {"type": "Point", "coordinates": [80.2777191, 13.0429393]}}, {"type": "Feature", "properties": {"osm_id": 217731034, "osm_type": "way", "addr:housename": "Fire and Rescue station", "amenity": "fire_station", "designation": "Fire and Rescue station", "name": "Fire and Rescue station"}, "geometry": {"type": "Point", "coordinates": [80.2306257, 13.0352121]}}, {"type": "Feature", "properties": {"osm_id": 620705901, "osm_type": "way", "amenity": "fire_station", "building": "yes", "fire_station:type": "airport", "name": "Chennai International Airport Fire Station 2"}, "geometry": {"type": "Point", "coordinates": [80.1660222, 12.9925029]}}, {"type": "Feature", "properties": {"osm_id": 1075921840, "osm_type": "way", "amenity": "fire_station", "building": "yes"}, "geometry": {"type": "Point", "coordinates": [80.2963723, 13.1133322]}}, {"type": "Feature", "properties": {"osm_id": 1096512891, "osm_type": "way", "amenity": "fire_station", "building": "fire_station", "fire_station:type": "airport"}, "geometry": {"type": "Point", "coordinates": [80.1716794, 12.9884768]}}, {"type": "Feature", "properties": {"osm_id": 1105414357, "osm_type": "way", "amenity": "fire_station", "building": "yes", "name": "Moolakothalam Fire Station"}, "geometry": {"type": "Point", "coordinates": [80.2782141, 13.1055078]}}, {"type": "Feature", "properties": {"osm_id": 1107911283, "osm_type": "way", "amenity": "fire_station", "building": "yes", "building:levels": "2"}, "geometry": {"type": "Point", "coordinates": [80.2613334, 13.0686327]}}, {"type": "Feature", "properties": {"osm_id": 1122111815, "osm_type": "way", "amenity": "fire_station", "name": "Esplanade Fire Station"}, "geometry": {"type": "Point", "coordinates": [80.2860635, 13.0864782]}}, {"type": "Feature", "properties": {"osm_id": 1172399106, "osm_type": "way", "amenity": "fire_station", "name": "Washermanpet Fire & Rescue Station"}, "geometry": {"type": "Point", "coordinates": [80.2744007, 13.1024404]}}]}