{"type":"FeatureCollection","features":[{"type":"Feature","properties":{"stop_id":"CMRL_01","stop_name":"Wimco Nagar Depot","stop_code":"","mode":"metro","operator":"Chennai Metro Rail Limited","source_feed_id":"chennai_cmrl_metro"},"geometry":{"type":"Point","coordinates":[80.308994,13.183971]}},{"type":"Feature","properties":{"stop_id":"CMRL_02","stop_name":"Wimco Nagar","stop_code":"","mode":"metro","operator":"Chennai Metro Rail Limited","source_feed_id":"chennai_cmrl_metro"},"geometry":{"type":"Point","coordinates":[80.307344,13.17929]}},{"type":"Feature","properties":{"stop_id":"CMRL_03","stop_name":"Thiruvottriyur","stop_code":"","mode":"metro","operator":"Chennai Metro Rail Limited","source_feed_id":"chennai_cmrl_metro"},"geometry":{"type":"Point","coordinates":[80.305226,13.171803]}},{"type":"Feature","properties":{"stop_id":"CMRL_04","stop_name":"Thiruvottriyur Theradi","stop_code":"","mode":"metro","operator":"Chennai Metro Rail Limited","source_feed_id":"chennai_cmrl_metro"},"geometry":{"type":"Point","coordinates":[80.303538,13.165144]}},{"type":"Feature","properties":{"stop_id":"CMRL_05","stop_name":"Kaladipet","stop_code":"","mode":"metro","operator":"Chennai Metro Rail Limited","source_feed_id":"chennai_cmrl_metro"},"geometry":{"type":"Point","coordinates":[80.30244,13.160215]}},{"type":"Feature","properties":{"stop_id":"CMRL_06","stop_name":"Tollgate","stop_code":"","mode":"metro","operator":"Chennai Metro Rail Limited","source_feed_id":"chennai_cmrl_metro"},"geometry":{"type":"Point","coordinates":[80.300927,13.15452]}},{"type":"Feature","properties":{"stop_id":"CMRL_07","stop_name":"New Washermanpet","stop_code":"","mode":"metro","operator":"Chennai Metro Rail Limited","source_feed_id":"chennai_cmrl_metro"},"geometry":{"type":"Point","coordinates":[80.2994,13.148703]}},{"type":"Feature","properties":{"stop_id":"CMRL_08","stop_name":"Tondiarpet","stop_code":"","mode":"metro","operator":"Chennai Metro Rail Limited","source_feed_id":"chennai_cmrl_metro"},"geometry":{"type":"Point","coordinates":[80.296063,13.142521]}},{"type":"Feature","properties":{"stop_id":"CMRL_09","stop_name":"Sri Theagaraya College","stop_code":"","mode":"metro","operator":"Chennai Metro Rail Limited","source_feed_id":"chennai_cmrl_metro"},"geometry":{"type":"Point","coordinates":[80.29231,13.135847]}},{"type":"Feature","properties":{"stop_id":"CMRL_10","stop_name":"Washermanpet","stop_code":"","mode":"metro","operator":"Chennai Metro Rail Limited","source_feed_id":"chennai_cmrl_metro"},"geometry":{"type":"Point","coordinates":[80.288949,13.128798]}},{"type":"Feature","properties":{"stop_id":"CMRL_11","stop_name":"Mannadi","stop_code":"","mode":"metro","operator":"Chennai Metro Rail Limited","source_feed_id":"chennai_cmrl_metro"},"geometry":{"type":"Point","coordinates":[80.277531,13.108962]}},{"type":"Feature","properties":{"stop_id":"CMRL_12","stop_name":"High Court","stop_code":"","mode":"metro","operator":"Chennai Metro Rail Limited","source_feed_id":"chennai_cmrl_metro"},"geometry":{"type":"Point","coordinates":[80.268435,13.088011]}},{"type":"Feature","properties":{"stop_id":"CMRL_13","stop_name":"Puratchi Thalaivar Dr. M.G. Ramachandran Central","stop_code":"","mode":"metro","operator":"Chennai Metro Rail Limited","source_feed_id":"chennai_cmrl_metro"},"geometry":{"type":"Point","coordinates":[80.27391,13.081767]}},{"type":"Feature","properties":{"stop_id":"CMRL_14","stop_name":"Government Estate","stop_code":"","mode":"metro","operator":"Chennai Metro Rail Limited","source_feed_id":"chennai_cmrl_metro"},"geometry":{"type":"Point","coordinates":[80.272086,13.069338]}},{"type":"Feature","properties":{"stop_id":"CMRL_15","stop_name":"LIC","stop_code":"","mode":"metro","operator":"Chennai Metro Rail Limited","source_feed_id":"chennai_cmrl_metro"},"geometry":{"type":"Point","coordinates":[80.26625,13.064762]}},{"type":"Feature","properties":{"stop_id":"CMRL_16","stop_name":"Thousand Lights","stop_code":"","mode":"metro","operator":"Chennai Metro Rail Limited","source_feed_id":"chennai_cmrl_metro"},"geometry":{"type":"Point","coordinates":[80.26153,13.057176]}},{"type":"Feature","properties":{"stop_id":"CMRL_17","stop_name":"AG-DMS","stop_code":"","mode":"metro","operator":"Chennai Metro Rail Limited","source_feed_id":"chennai_cmrl_metro"},"geometry":{"type":"Point","coordinates":[80.254562,13.0457]}},{"type":"Feature","properties":{"stop_id":"CMRL_18","stop_name":"Teynampet","stop_code":"","mode":"metro","operator":"Chennai Metro Rail Limited","source_feed_id":"chennai_cmrl_metro"},"geometry":{"type":"Point","coordinates":[80.246419,13.0368]}},{"type":"Feature","properties":{"stop_id":"CMRL_19","stop_name":"Nandanam","stop_code":"","mode":"metro","operator":"Chennai Metro Rail Limited","source_feed_id":"chennai_cmrl_metro"},"geometry":{"type":"Point","coordinates":[80.241073,13.030976]}},{"type":"Feature","properties":{"stop_id":"CMRL_20","stop_name":"Saidapet","stop_code":"","mode":"metro","operator":"Chennai Metro Rail Limited","source_feed_id":"chennai_cmrl_metro"},"geometry":{"type":"Point","coordinates":[80.231981,13.021404]}},{"type":"Feature","properties":{"stop_id":"CMRL_21","stop_name":"Little Mount","stop_code":"","mode":"metro","operator":"Chennai Metro Rail Limited","source_feed_id":"chennai_cmrl_metro"},"geometry":{"type":"Point","coordinates":[80.223243,13.012085]}},{"type":"Feature","properties":{"stop_id":"CMRL_22","stop_name":"Guindy","stop_code":"","mode":"metro","operator":"Chennai Metro Rail Limited","source_feed_id":"chennai_cmrl_metro"},"geometry":{"type":"Point","coordinates":[80.218687,13.008602]}},{"type":"Feature","properties":{"stop_id":"CMRL_23","stop_name":"Arignar Anna Alandur","stop_code":"","mode":"metro","operator":"Chennai Metro Rail Limited","source_feed_id":"chennai_cmrl_metro"},"geometry":{"type":"Point","coordinates":[80.206136,13.004256]}},{"type":"Feature","properties":{"stop_id":"CMRL_24","stop_name":"OTA-Nanganallur Road","stop_code":"","mode":"metro","operator":"Chennai Metro Rail Limited","source_feed_id":"chennai_cmrl_metro"},"geometry":{"type":"Point","coordinates":[80.1996,12.995455]}},{"type":"Feature","properties":{"stop_id":"CMRL_25","stop_name":"Meenambakkam","stop_code":"","mode":"metro","operator":"Chennai Metro Rail Limited","source_feed_id":"chennai_cmrl_metro"},"geometry":{"type":"Point","coordinates":[80.176479,12.987673]}},{"type":"Feature","properties":{"stop_id":"CMRL_26","stop_name":"Chennai International Airport","stop_code":"","mode":"metro","operator":"Chennai Metro Rail Limited","source_feed_id":"chennai_cmrl_metro"},"geometry":{"type":"Point","coordinates":[80.164203,12.980809]}},{"type":"Feature","properties":{"stop_id":"CMRL_G01","stop_name":"Puratchi Thalaivar Dr. M.G. Ramachandran Central","stop_code":"","mode":"metro","operator":"Chennai Metro Rail Limited","source_feed_id":"chennai_cmrl_metro"},"geometry":{"type":"Point","coordinates":[80.27391,13.081767]}},{"type":"Feature","properties":{"stop_id":"CMRL_G02","stop_name":"Egmore","stop_code":"","mode":"metro","operator":"Chennai Metro Rail Limited","source_feed_id":"chennai_cmrl_metro"},"geometry":{"type":"Point","coordinates":[80.263054,13.080289]}},{"type":"Feature","properties":{"stop_id":"CMRL_G03","stop_name":"Nehru Park","stop_code":"","mode":"metro","operator":"Chennai Metro Rail Limited","source_feed_id":"chennai_cmrl_metro"},"geometry":{"type":"Point","coordinates":[80.250473,13.078784]}},{"type":"Feature","properties":{"stop_id":"CMRL_G04","stop_name":"Kilpauk Medical College","stop_code":"","mode":"metro","operator":"Chennai Metro Rail Limited","source_feed_id":"chennai_cmrl_metro"},"geometry":{"type":"Point","coordinates":[80.242421,13.074342]}},{"type":"Feature","properties":{"stop_id":"CMRL_G05","stop_name":"Pachaiyappas College","stop_code":"","mode":"metro","operator":"Chennai Metro Rail Limited","source_feed_id":"chennai_cmrl_metro"},"geometry":{"type":"Point","coordinates":[80.235973,13.070686]}},{"type":"Feature","properties":{"stop_id":"CMRL_G06","stop_name":"Shenoy Nagar","stop_code":"","mode":"metro","operator":"Chennai Metro Rail Limited","source_feed_id":"chennai_cmrl_metro"},"geometry":{"type":"Point","coordinates":[80.229087,13.066519]}},{"type":"Feature","properties":{"stop_id":"CMRL_G07","stop_name":"Anna Nagar East","stop_code":"","mode":"metro","operator":"Chennai Metro Rail Limited","source_feed_id":"chennai_cmrl_metro"},"geometry":{"type":"Point","coordinates":[80.220368,13.057808]}},{"type":"Feature","properties":{"stop_id":"CMRL_G08","stop_name":"Anna Nagar Tower","stop_code":"","mode":"metro","operator":"Chennai Metro Rail Limited","source_feed_id":"chennai_cmrl_metro"},"geometry":{"type":"Point","coordinates":[80.211329,13.051308]}},{"type":"Feature","properties":{"stop_id":"CMRL_G09","stop_name":"Thirumangalam","stop_code":"","mode":"metro","operator":"Chennai Metro Rail Limited","source_feed_id":"chennai_cmrl_metro"},"geometry":{"type":"Point","coordinates":[80.202075,13.044983]}},{"type":"Feature","properties":{"stop_id":"CMRL_G10","stop_name":"Koyambedu","stop_code":"","mode":"metro","operator":"Chennai Metro Rail Limited","source_feed_id":"chennai_cmrl_metro"},"geometry":{"type":"Point","coordinates":[80.197363,13.035483]}},{"type":"Feature","properties":{"stop_id":"CMRL_G11","stop_name":"Koyambedu Depot","stop_code":"","mode":"metro","operator":"Chennai Metro Rail Limited","source_feed_id":"chennai_cmrl_metro"},"geometry":{"type":"Point","coordinates":[80.195242,13.028636]}},{"type":"Feature","properties":{"stop_id":"CMRL_G12","stop_name":"Puratchi Thalaivi Dr. J. Jayalalithaa CMBT","stop_code":"","mode":"metro","operator":"Chennai Metro Rail Limited","source_feed_id":"chennai_cmrl_metro"},"geometry":{"type":"Point","coordinates":[80.2041,13.0685]}},{"type":"Feature","properties":{"stop_id":"CMRL_G13","stop_name":"Arumbakkam","stop_code":"","mode":"metro","operator":"Chennai Metro Rail Limited","source_feed_id":"chennai_cmrl_metro"},"geometry":{"type":"Point","coordinates":[80.212,13.0616]}},{"type":"Feature","properties":{"stop_id":"CMRL_G14","stop_name":"Vadapalani","stop_code":"","mode":"metro","operator":"Chennai Metro Rail Limited","source_feed_id":"chennai_cmrl_metro"},"geometry":{"type":"Point","coordinates":[80.2153,13.0539]}},{"type":"Feature","properties":{"stop_id":"CMRL_G15","stop_name":"Ashok Nagar","stop_code":"","mode":"metro","operator":"Chennai Metro Rail Limited","source_feed_id":"chennai_cmrl_metro"},"geometry":{"type":"Point","coordinates":[80.209551,13.037265]}},{"type":"Feature","properties":{"stop_id":"CMRL_G16","stop_name":"Ekkattuthangal","stop_code":"","mode":"metro","operator":"Chennai Metro Rail Limited","source_feed_id":"chennai_cmrl_metro"},"geometry":{"type":"Point","coordinates":[80.205302,13.017128]}},{"type":"Feature","properties":{"stop_id":"CMRL_G17","stop_name":"Arignar Anna Alandur","stop_code":"","mode":"metro","operator":"Chennai Metro Rail Limited","source_feed_id":"chennai_cmrl_metro"},"geometry":{"type":"Point","coordinates":[80.206136,13.004256]}},{"type":"Feature","properties":{"stop_id":"CMRL_G18","stop_name":"St. Thomas Mount","stop_code":"","mode":"metro","operator":"Chennai Metro Rail Limited","source_feed_id":"chennai_cmrl_metro"},"geometry":{"type":"Point","coordinates":[80.197151,13.000739]}}]}