{"type": "FeatureCollection", "features": [{"type": "Feature", "properties": {"station_code": "MSB", "name": "Chennai Beach RS", "connections": "South Line; North Line; MRTS Line", "interchange": "North Line; West Line; MRTS Line", "layout": "At Grade", "parking_contract_available": "Yes", "cscl_zone": "5", "cscl_division": "60", "source": "CSCL Sub Urban Rail CSV; OSM station geometry", "geometry_source": "OpenStreetMap via Overpass API", "geometry_match": "station_code", "osm_type": "way", "osm_id": 217653510, "osm_name": "Chennai Beach", "osm_ref": "MSB"}, "geometry": {"type": "Point", "coordinates": [80.2918317, 13.0915941]}}, {"type": "Feature", "properties": {"station_code": "MSF", "name": "Chennai Fort RS", "connections": "South Line; MRTS Line", "interchange": "MRTS Line", "layout": "At Grade", "parking_contract_available": "No", "cscl_zone": "5", "cscl_division": "60", "source": "CSCL Sub Urban Rail CSV; OSM station geometry", "geometry_source": "OpenStreetMap via Overpass API", "geometry_match": "station_code", "osm_type": "node", "osm_id": 919522123, "osm_name": "Chennai Fort", "osm_ref": "MSF:4"}, "geometry": {"type": "Point", "coordinates": [80.2829442, 13.0832295]}}, {"type": "Feature", "properties": {"station_code": "MPKT", "name": "Park Town RS", "connections": "MRTS Line", "interchange": "North Line; West Line; South Line; CMRL BLUE; CMRL Green Line", "layout": "At Grade", "parking_contract_available": "No", "cscl_zone": "5", "cscl_division": "59", "source": "CSCL Sub Urban Rail CSV; OSM station geometry", "geometry_source": "OpenStreetMap via Overpass API", "geometry_match": "station_code", "osm_type": "node", "osm_id": 243041570, "osm_name": "Chennai Park Town", "osm_ref": "MPKT:1;2"}, "geometry": {"type": "Point", "coordinates": [80.2760155, 13.0794798]}}, {"type": "Feature", "properties": {"station_code": "MCPT", "name": "Chintadripet RS", "connections": "MRTS Line", "interchange": "No", "layout": "Elevated", "parking_contract_available": "Yes", "cscl_zone": "5", "cscl_division": "59", "source": "CSCL Sub Urban Rail CSV; OSM station geometry", "geometry_source": "OpenStreetMap via Overpass API", "geometry_match": "station_code", "osm_type": "node", "osm_id": 5311755231, "osm_name": "Chintadaripet", "osm_ref": "MCPT"}, "geometry": {"type": "Point", "coordinates": [80.2738611, 13.0737952]}}, {"type": "Feature", "properties": {"station_code": "MCPK", "name": "Chepauk RS", "connections": "MRTS Line", "interchange": "No", "layout": "Elevated", "parking_contract_available": "Yes", "cscl_zone": "9", "cscl_division": "114", "source": "CSCL Sub Urban Rail CSV; OSM station geometry", "geometry_source": "OpenStreetMap via Overpass API", "geometry_match": "station_code", "osm_type": "node", "osm_id": 2486239287, "osm_name": "Chepauk", "osm_ref": "MCPK"}, "geometry": {"type": "Point", "coordinates": [80.280596, 13.0619312]}}, {"type": "Feature", "properties": {"station_code": "MTCN", "name": "Thiruvallikeni RS / Marina Beach", "connections": "MRTS Line", "interchange": "No", "layout": "Elevated", "parking_contract_available": "yes", "cscl_zone": "9", "cscl_division": "116", "source": "CSCL Sub Urban Rail CSV; OSM station geometry", "geometry_source": "OpenStreetMap via Overpass API", "geometry_match": "station_code", "osm_type": "node", "osm_id": 2486239288, "osm_name": "Thiruvallikeni", "osm_ref": "MTCN"}, "geometry": {"type": "Point", "coordinates": [80.2806044, 13.0559352]}}, {"type": "Feature", "properties": {"station_code": "MLHS", "name": "Light House RS / Marina Beach", "connections": "MRTS Line", "interchange": "No", "layout": "Elevated", "parking_contract_available": "Yes", "cscl_zone": "9", "cscl_division": "121", "source": "CSCL Sub Urban Rail CSV; OSM station geometry", "geometry_source": "OpenStreetMap via Overpass API", "geometry_match": "station_code", "osm_type": "node", "osm_id": 5311755232, "osm_name": "Light House", "osm_ref": "MLHS"}, "geometry": {"type": "Point", "coordinates": [80.2769885, 13.0455374]}}, {"type": "Feature", "properties": {"station_code": "MKAK", "name": "Mundagakanniamman", "connections": "MRTS Line", "interchange": "No", "layout": "Elevated", "parking_contract_available": "Yes", "cscl_zone": "9", "cscl_division": "124", "source": "CSCL Sub Urban Rail CSV; OSM station geometry", "geometry_source": "OpenStreetMap via Overpass API", "geometry_match": "station_code", "osm_type": "node", "osm_id": 5311755233, "osm_name": "Mundakakanni Amman Koil", "osm_ref": "MKAK"}, "geometry": {"type": "Point", "coordinates": [80.2698818, 13.0406508]}}, {"type": "Feature", "properties": {"station_code": "MTMY", "name": "Thirumayilai RS / Cultural Center", "connections": "MRTS Line", "interchange": "No", "layout": "Elevated", "parking_contract_available": "yes", "cscl_zone": "9", "cscl_division": "124", "source": "CSCL Sub Urban Rail CSV; OSM station geometry", "geometry_source": "OpenStreetMap via Overpass API", "geometry_match": "station_code", "osm_type": "node", "osm_id": 5311755234, "osm_name": "Thirumayilai", "osm_ref": "MTMY"}, "geometry": {"type": "Point", "coordinates": [80.2675129, 13.0353976]}}, {"type": "Feature", "properties": {"station_code": "MNDY", "name": "Mandaiveli RS", "connections": "MRTS Line", "interchange": "No", "layout": "Elevated", "parking_contract_available": "Yes", "cscl_zone": "9", "cscl_division": "126", "source": "CSCL Sub Urban Rail CSV; OSM station geometry", "geometry_source": "OpenStreetMap via Overpass API", "geometry_match": "station_code", "osm_type": "node", "osm_id": 5311755235, "osm_name": "Mandaveli", "osm_ref": "MNDY"}, "geometry": {"type": "Point", "coordinates": [80.2606181, 13.0280931]}}, {"type": "Feature", "properties": {"station_code": "GWYR", "name": "Greenways Road RS", "connections": "MRTS Line", "interchange": "No", "layout": "Elevated", "parking_contract_available": "Yes", "cscl_zone": "13", "cscl_division": "173", "source": "CSCL Sub Urban Rail CSV; OSM station geometry", "geometry_source": "OpenStreetMap via Overpass API", "geometry_match": "station_code", "osm_type": "node", "osm_id": 5311755236, "osm_name": "Greenways Road", "osm_ref": "GWYR"}, "geometry": {"type": "Point", "coordinates": [80.2527292, 13.0215846]}}, {"type": "Feature", "properties": {"station_code": "KTPM", "name": "Kotturpuram RS", "connections": "MRTS Line", "interchange": "No", "layout": "Elevated", "parking_contract_available": "Yes", "cscl_zone": "13", "cscl_division": "175", "source": "CSCL Sub Urban Rail CSV; OSM station geometry", "geometry_source": "OpenStreetMap via Overpass API", "geometry_match": "station_code", "osm_type": "node", "osm_id": 5274913769, "osm_name": "Kotturpuram", "osm_ref": "KTPM"}, "geometry": {"type": "Point", "coordinates": [80.2484517, 13.0137182]}}, {"type": "Feature", "properties": {"station_code": "KTBR", "name": "Kasthurba Nagar RS", "connections": "MRTS Line", "interchange": "No", "layout": "Elevated", "parking_contract_available": "Yes", "cscl_zone": "13", "cscl_division": "175", "source": "CSCL Sub Urban Rail CSV; OSM station geometry", "geometry_source": "OpenStreetMap via Overpass API", "geometry_match": "station_code", "osm_type": "node", "osm_id": 5311755237, "osm_name": "Kasturiba Nagar", "osm_ref": "KTBR"}, "geometry": {"type": "Point", "coordinates": [80.2478604, 13.0053823]}}, {"type": "Feature", "properties": {"station_code": "INDR", "name": "Indira Nagar RS", "connections": "MRTS Line", "interchange": "No", "layout": "Elevated", "parking_contract_available": "No", "cscl_zone": "13", "cscl_division": "175", "source": "CSCL Sub Urban Rail CSV; OSM station geometry", "geometry_source": "OpenStreetMap via Overpass API", "geometry_match": "station_code", "osm_type": "node", "osm_id": 5311755238, "osm_name": "Indira Nagar", "osm_ref": "INDR"}, "geometry": {"type": "Point", "coordinates": [80.249716, 12.9960623]}}, {"type": "Feature", "properties": {"station_code": "TYMR", "name": "Thiruvanmiyur RS", "connections": "MRTS Line", "interchange": "No", "layout": "Elevated", "parking_contract_available": "yes", "cscl_zone": "13", "cscl_division": "180", "source": "CSCL Sub Urban Rail CSV; OSM station geometry", "geometry_source": "OpenStreetMap via Overpass API", "geometry_match": "station_code", "osm_type": "node", "osm_id": 5311755239, "osm_name": "Tiruvanmiyur", "osm_ref": "TYMR"}, "geometry": {"type": "Point", "coordinates": [80.2515865, 12.9889822]}}, {"type": "Feature", "properties": {"station_code": "TRMN", "name": "Taramani RS", "connections": "MRTS Line", "interchange": "No", "layout": "Elevated", "parking_contract_available": "yes", "cscl_zone": "14", "cscl_division": "184", "source": "CSCL Sub Urban Rail CSV; OSM station geometry", "geometry_source": "OpenStreetMap via Overpass API", "geometry_match": "station_code", "osm_type": "node", "osm_id": 5311755240, "osm_name": "Taramani", "osm_ref": "TRMN"}, "geometry": {"type": "Point", "coordinates": [80.2416441, 12.9786584]}}, {"type": "Feature", "properties": {"station_code": "PRGD", "name": "Perungudi RS", "connections": "MRTS Line", "interchange": "No", "layout": "Elevated", "parking_contract_available": "Yes", "cscl_zone": "13", "cscl_division": "179", "source": "CSCL Sub Urban Rail CSV; OSM station geometry", "geometry_source": "OpenStreetMap via Overpass API", "geometry_match": "station_code", "osm_type": "node", "osm_id": 5311755241, "osm_name": "Perungudi", "osm_ref": "PRGD"}, "geometry": {"type": "Point", "coordinates": [80.2321916, 12.9760584]}}, {"type": "Feature", "properties": {"station_code": "VLCY", "name": "Velacherry RS", "connections": "MRTS Line", "interchange": "No", "layout": "At Grade", "parking_contract_available": "Yes", "cscl_zone": "14", "cscl_division": "189", "source": "CSCL Sub Urban Rail CSV; OSM station geometry", "geometry_source": "OpenStreetMap via Overpass API", "geometry_match": "station_code", "osm_type": "node", "osm_id": 1141163691, "osm_name": "Velachery", "osm_ref": "VLCY:3"}, "geometry": {"type": "Point", "coordinates": [80.2195576, 12.9671675]}}]}
