{"type": "FeatureCollection", "features": [{"type": "Feature", "properties": {"name": "MRTS Line", "mode": "mrts", "operator": "Southern Railway", "decided_by": "Union government", "station_count": 18, "station_codes": "MSB; MSF; MPKT; MCPT; MCPK; MTCN; MLHS; MKAK; MTMY; MNDY; GWYR; KTPM; KTBR; INDR; TYMR; TRMN; PRGD; VLCY", "source": "CSCL Sub Urban Rail CSV; OSM station geometry"}, "geometry": {"type": "LineString", "coordinates": [[80.2918317, 13.0915941], [80.2829442, 13.0832295], [80.2760155, 13.0794798], [80.2738611, 13.0737952], [80.280596, 13.0619312], [80.2806044, 13.0559352], [80.2769885, 13.0455374], [80.2698818, 13.0406508], [80.2675129, 13.0353976], [80.2606181, 13.0280931], [80.2527292, 13.0215846], [80.2484517, 13.0137182], [80.2478604, 13.0053823], [80.249716, 12.9960623], [80.2515865, 12.9889822], [80.2416441, 12.9786584], [80.2321916, 12.9760584], [80.2195576, 12.9671675]]}}]}
