{"type": "FeatureCollection", "features": [{"type": "Feature", "properties": {"osm_id": 250363729, "osm_type": "node", "amenity": "police", "created_by": "Potlatch 0.10f", "name": "Mambalam Police Station"}, "geometry": {"type": "Point", "coordinates": [80.22946, 13.0349573]}}, {"type": "Feature", "properties": {"osm_id": 259773441, "osm_type": "node", "amenity": "police", "created_by": "Potlatch 0.10f", "name": "Royapettah PS"}, "geometry": {"type": "Point", "coordinates": [80.2637348, 13.0520106]}}, {"type": "Feature", "properties": {"osm_id": 264481213, "osm_type": "node", "amenity": "police", "created_by": "JOSM", "name:en": "Nungambakkam F3 police station"}, "geometry": {"type": "Point", "coordinates": [80.2427681, 13.0596173]}}, {"type": "Feature", "properties": {"osm_id": 300468066, "osm_type": "node", "addr:postcode": "600088", "amenity": "police", "name": "S-8 Adambakkam Police Station"}, "geometry": {"type": "Point", "coordinates": [80.2019683, 12.9893957]}}, {"type": "Feature", "properties": {"osm_id": 301949978, "osm_type": "node", "amenity": "police", "created_by": "Potlatch 0.10f", "name": "Teynampet E3 PS"}, "geometry": {"type": "Point", "coordinates": [80.2494881, 13.048651]}}, {"type": "Feature", "properties": {"osm_id": 312025133, "osm_type": "node", "amenity": "police", "name": "Adyar J2"}, "geometry": {"type": "Point", "coordinates": [80.2557176, 12.997814]}}, {"type": "Feature", "properties": {"osm_id": 313951548, "osm_type": "node", "amenity": "police", "created_by": "Potlatch 0.10f"}, "geometry": {"type": "Point", "coordinates": [80.192063, 12.9814685]}}, {"type": "Feature", "properties": {"osm_id": 320968223, "osm_type": "node", "amenity": "police", "name": "Central Station PS"}, "geometry": {"type": "Point", "coordinates": [80.2755071, 13.0818276]}}, {"type": "Feature", "properties": {"osm_id": 320968578, "osm_type": "node", "amenity": "police", "name": "Chennai Central RPF"}, "geometry": {"type": "Point", "coordinates": [80.2732996, 13.0830613]}}, {"type": "Feature", "properties": {"osm_id": 339282419, "osm_type": "node", "amenity": "police", "created_by": "Potlatch 0.10f", "name": "B1 Saint Thomas Mount PS"}, "geometry": {"type": "Point", "coordinates": [80.200262, 12.9991212]}}, {"type": "Feature", "properties": {"osm_id": 366075241, "osm_type": "node", "amenity": "police", "name": "Koyambedu Police Station"}, "geometry": {"type": "Point", "coordinates": [80.2004587, 13.0696407]}}, {"type": "Feature", "properties": {"osm_id": 370481197, "osm_type": "node", "amenity": "police", "created_by": "Potlatch 0.10f", "name": "Office, Police Commissioner"}, "geometry": {"type": "Point", "coordinates": [80.1990931, 13.0100865]}}, {"type": "Feature", "properties": {"osm_id": 370969674, "osm_type": "node", "amenity": "police", "name": "T15 SRMC PS"}, "geometry": {"type": "Point", "coordinates": [80.1602489, 13.0341993]}}, {"type": "Feature", "properties": {"osm_id": 389948945, "osm_type": "node", "amenity": "police", "name": "KK Nagar PS"}, "geometry": {"type": "Point", "coordinates": [80.2054415, 13.0415108]}}, {"type": "Feature", "properties": {"osm_id": 390852677, "osm_type": "node", "amenity": "police", "name": "N4 PS"}, "geometry": {"type": "Point", "coordinates": [80.2974596, 13.1345408]}}, {"type": "Feature", "properties": {"osm_id": 411318042, "osm_type": "node", "amenity": "police", "name": "Virugambakkam Police Station"}, "geometry": {"type": "Point", "coordinates": [80.1992562, 13.0491123]}}, {"type": "Feature", "properties": {"osm_id": 416412274, "osm_type": "node", "amenity": "police"}, "geometry": {"type": "Point", "coordinates": [80.2674177, 13.03694]}}, {"type": "Feature", "properties": {"osm_id": 687175330, "osm_type": "node", "amenity": "police", "name": "Police Booth"}, "geometry": {"type": "Point", "coordinates": [80.1923421, 13.0737484]}}, {"type": "Feature", "properties": {"osm_id": 687177364, "osm_type": "node", "amenity": "police", "name": "Police Booth"}, "geometry": {"type": "Point", "coordinates": [80.1935705, 13.0656907]}}, {"type": "Feature", "properties": {"osm_id": 747616884, "osm_type": "node", "amenity": "police", "description": "This is roughly the new location", "name": "Velachery", "name:en": "Velachery", "name:hi": "वेलाचेरी", "name:ta": "வேளச்சேரி"}, "geometry": {"type": "Point", "coordinates": [80.2208713, 12.9850126]}}, {"type": "Feature", "properties": {"osm_id": 934859086, "osm_type": "node", "amenity": "police", "name": "Police Booth"}, "geometry": {"type": "Point", "coordinates": [80.1862162, 13.0447322]}}, {"type": "Feature", "properties": {"osm_id": 966556101, "osm_type": "node", "amenity": "police", "name": "Chintadripet"}, "geometry": {"type": "Point", "coordinates": [80.2725042, 13.0749088]}}, {"type": "Feature", "properties": {"osm_id": 983961147, "osm_type": "node", "amenity": "police", "name": "S6 Shankar Nagar Police Station"}, "geometry": {"type": "Point", "coordinates": [80.1257959, 12.9692797]}}, {"type": "Feature", "properties": {"osm_id": 984217571, "osm_type": "node", "amenity": "police", "name": "Vadapalani Police station", "name:ta": "வடபழனி காவல் நிலையம்"}, "geometry": {"type": "Point", "coordinates": [80.2117315, 13.049673]}}, {"type": "Feature", "properties": {"osm_id": 1015569835, "osm_type": "node", "amenity": "police", "name": "Ramapuram Police Station"}, "geometry": {"type": "Point", "coordinates": [80.1790069, 13.0317737]}}, {"type": "Feature", "properties": {"osm_id": 1315141190, "osm_type": "node", "amenity": "police", "name": "Police booth", "toilets:wheelchair": "no", "wheelchair": "limited"}, "geometry": {"type": "Point", "coordinates": [80.2060352, 12.9651635]}}, {"type": "Feature", "properties": {"osm_id": 1391252125, "osm_type": "node", "amenity": "police"}, "geometry": {"type": "Point", "coordinates": [80.2771688, 13.1244932]}}, {"type": "Feature", "properties": {"osm_id": 1451946829, "osm_type": "node", "amenity": "police", "name": "Porur Police Station"}, "geometry": {"type": "Point", "coordinates": [80.1601292, 13.0343074]}}, {"type": "Feature", "properties": {"osm_id": 1597178645, "osm_type": "node", "amenity": "police"}, "geometry": {"type": "Point", "coordinates": [80.2041548, 13.0576855]}}, {"type": "Feature", "properties": {"osm_id": 1711627907, "osm_type": "node", "amenity": "police", "name": "Shastri Nagar Police Station"}, "geometry": {"type": "Point", "coordinates": [80.2659307, 13.0006116]}}, {"type": "Feature", "properties": {"osm_id": 1865961947, "osm_type": "node", "amenity": "police", "name": "Police Outpost", "source": "GPS, survey"}, "geometry": {"type": "Point", "coordinates": [80.1694388, 13.2156173]}}, {"type": "Feature", "properties": {"osm_id": 1896342668, "osm_type": "node", "amenity": "police", "name": "HVF"}, "geometry": {"type": "Point", "coordinates": [80.1073794, 13.1291456]}}, {"type": "Feature", "properties": {"osm_id": 1948632616, "osm_type": "node", "amenity": "police"}, "geometry": {"type": "Point", "coordinates": [80.2046669, 13.0687012]}}, {"type": "Feature", "properties": {"osm_id": 2061123092, "osm_type": "node", "amenity": "police", "designation": "J9 Police Station", "name": "J9 Police Station", "source": "Internet"}, "geometry": {"type": "Point", "coordinates": [80.2416251, 12.947613]}}, {"type": "Feature", "properties": {"osm_id": 2086712180, "osm_type": "node", "amenity": "police", "name": "Madipalkam police stations"}, "geometry": {"type": "Point", "coordinates": [80.1853072, 12.9559858]}}, {"type": "Feature", "properties": {"osm_id": 2139742510, "osm_type": "node", "amenity": "police"}, "geometry": {"type": "Point", "coordinates": [80.1999165, 13.0229741]}}, {"type": "Feature", "properties": {"osm_id": 2210021510, "osm_type": "node", "amenity": "police", "name": "Police Booth"}, "geometry": {"type": "Point", "coordinates": [80.1823209, 12.8975662]}}, {"type": "Feature", "properties": {"osm_id": 2221603034, "osm_type": "node", "amenity": "police", "name": "Police Assistance Booth Mugalivakam"}, "geometry": {"type": "Point", "coordinates": [80.1663239, 13.0207162]}}, {"type": "Feature", "properties": {"osm_id": 2587520257, "osm_type": "node", "amenity": "police", "name": "J6 Police Station"}, "geometry": {"type": "Point", "coordinates": [80.2559315, 12.9874599]}}, {"type": "Feature", "properties": {"osm_id": 3097014588, "osm_type": "node", "amenity": "police", "name": "S-10 Police Station (Pallikaranai)"}, "geometry": {"type": "Point", "coordinates": [80.1950805, 12.9173825]}}, {"type": "Feature", "properties": {"osm_id": 3195423909, "osm_type": "node", "amenity": "police", "name": "Chetpet"}, "geometry": {"type": "Point", "coordinates": [80.2421194, 13.0706907]}}, {"type": "Feature", "properties": {"osm_id": 4308319495, "osm_type": "node", "addr:street": "3rd St, Ragavan Colony, Mettuppalayam, Ashok Nagar, Chennai, Tamil Nadu 600083", "amenity": "police", "name": "R6 KUMARAN NAGAR POLICE STATION ", "opening_hours": "24/7", "phone": "044 2345 2629", "website": "tnpolice.gov.in"}, "geometry": {"type": "Point", "coordinates": [80.2163105, 13.0283677]}}, {"type": "Feature", "properties": {"osm_id": 4445488162, "osm_type": "node", "addr:city": "kancheepuram", "addr:housenumber": "Otteri", "addr:postcode": "600048", "addr:street": "Kancheepuram", "amenity": "police", "name": "Otteri Police Station", "phone": "044 – 22750987"}, "geometry": {"type": "Point", "coordinates": [80.2458786, 13.0874523]}}, {"type": "Feature", "properties": {"osm_id": 4446984572, "osm_type": "node", "addr:city": "kanchipuram", "addr:postcode": "600045", "addr:street": "Muthulinga Street, New Market, Tambaram West,5", "amenity": "police", "name": "police station s11", "phone": "044 2345 2769"}, "geometry": {"type": "Point", "coordinates": [80.1128984, 12.9254171]}}, {"type": "Feature", "properties": {"osm_id": 4449967759, "osm_type": "node", "addr:city": "Chennai, Tamil Nadu", "addr:postcode": "600040", "addr:street": "ambattur Industrial Estate Road, Anna Nagar, J J Nagar, Mogappair East,", "amenity": "police", "name": "J.J Nagar Police Booth (V3)", "phone": "N/A", "website": "tnpolice.gov.in"}, "geometry": {"type": "Point", "coordinates": [80.1878894, 13.0876952]}}, {"type": "Feature", "properties": {"osm_id": 4450010503, "osm_type": "node", "addr:city": "kanchipuram,TN", "addr:postcode": "600130", "addr:street": "Navallur,", "amenity": "police", "name": "Thalambur Police Station", "phone": "044-27437100"}, "geometry": {"type": "Point", "coordinates": [80.2271771, 12.8469006]}}, {"type": "Feature", "properties": {"osm_id": 5079397364, "osm_type": "node", "amenity": "police", "branch": "F-1 Chintadripet", "name": "Police Assistance Booth"}, "geometry": {"type": "Point", "coordinates": [80.2714181, 13.0699263]}}, {"type": "Feature", "properties": {"osm_id": 5226262920, "osm_type": "node", "amenity": "police", "name": "J-10 Semmenchery Police Station"}, "geometry": {"type": "Point", "coordinates": [80.2280156, 12.9008558]}}, {"type": "Feature", "properties": {"osm_id": 5367536437, "osm_type": "node", "amenity": "police", "name": "Police Booth", "operator": "Chennai Police"}, "geometry": {"type": "Point", "coordinates": [80.1816427, 13.0149758]}}, {"type": "Feature", "properties": {"osm_id": 6780251054, "osm_type": "node", "amenity": "police", "name": "Railway Police"}, "geometry": {"type": "Point", "coordinates": [80.2664405, 13.0341367]}}, {"type": "Feature", "properties": {"osm_id": 6854765885, "osm_type": "node", "amenity": "police", "name:en": "Police Booth", "name:signed": "no"}, "geometry": {"type": "Point", "coordinates": [80.2674928, 12.9931857]}}, {"type": "Feature", "properties": {"osm_id": 7060019586, "osm_type": "node", "addr:postcode": "600013", "addr:street": "OM Pettai Rd", "amenity": "police", "name:en": "Coast Guard Store Depot", "opening_hours": "24/7"}, "geometry": {"type": "Point", "coordinates": [80.2974617, 13.1188229]}}, {"type": "Feature", "properties": {"osm_id": 7060026186, "osm_type": "node", "amenity": "police", "name:en": "Indian Army DB AREA"}, "geometry": {"type": "Point", "coordinates": [80.2775929, 13.0757377]}}, {"type": "Feature", "properties": {"osm_id": 7994867411, "osm_type": "node", "amenity": "police"}, "geometry": {"type": "Point", "coordinates": [80.186835, 12.9738305]}}, {"type": "Feature", "properties": {"osm_id": 8096280337, "osm_type": "node", "addr:street": "Guru Siva St, Sapthagiri Colony, West Jafferkhanpet, Chennai, Tamil Nadu 600083", "amenity": "police", "name": "R10 MGR Nagar Police Station", "opening_hours": "24/7", "website": "tnpolice.gov.in"}, "geometry": {"type": "Point", "coordinates": [80.2017034, 13.0310886]}}, {"type": "Feature", "properties": {"osm_id": 8108600154, "osm_type": "node", "addr:street": "14A, Gangai Amman Koil St, VSM Garden, West Jafferkhanpet, Chennai, Tamil Nadu 600083", "amenity": "police", "name": "R6 Police Booth"}, "geometry": {"type": "Point", "coordinates": [80.2116238, 13.026501]}}, {"type": "Feature", "properties": {"osm_id": 8495842126, "osm_type": "node", "amenity": "police"}, "geometry": {"type": "Point", "coordinates": [80.1828617, 13.0504496]}}, {"type": "Feature", "properties": {"osm_id": 8645780209, "osm_type": "node", "amenity": "police", "name": "Velachery Police Station", "opening_hours": "24/7", "phone": "+91 44 2345 2605;+91 44 2345 2606"}, "geometry": {"type": "Point", "coordinates": [80.2209233, 12.9809435]}}, {"type": "Feature", "properties": {"osm_id": 9994034342, "osm_type": "node", "amenity": "police"}, "geometry": {"type": "Point", "coordinates": [80.1331364, 13.0414828]}}, {"type": "Feature", "properties": {"osm_id": 10741550765, "osm_type": "node", "addr:city": "chennai", "addr:postcode": "600122", "addr:street": "mangadu, Chennai", "amenity": "police", "name": "mangadu police station", "phone": "44 – 27178126"}, "geometry": {"type": "Point", "coordinates": [80.114521, 13.0352881]}}, {"type": "Feature", "properties": {"osm_id": 12169790434, "osm_type": "node", "amenity": "police", "name": "Control Room"}, "geometry": {"type": "Point", "coordinates": [80.2182466, 13.0848694]}}, {"type": "Feature", "properties": {"osm_id": 12459049285, "osm_type": "node", "amenity": "police", "check_date": "2024-12-28", "name": "M5 Ennore Police Booth"}, "geometry": {"type": "Point", "coordinates": [80.3076057, 13.1864179]}}, {"type": "Feature", "properties": {"osm_id": 13127975757, "osm_type": "node", "amenity": "police", "name": "Srinagar colony police booth"}, "geometry": {"type": "Point", "coordinates": [80.2272456, 13.0125062]}}, {"type": "Feature", "properties": {"osm_id": 208569725, "osm_type": "way", "amenity": "police", "name": "Mylapore E1 PS"}, "geometry": {"type": "Point", "coordinates": [80.2701421, 13.0359873]}}, {"type": "Feature", "properties": {"osm_id": 211435479, "osm_type": "way", "amenity": "police", "name": "Periamet PS"}, "geometry": {"type": "Point", "coordinates": [80.2709138, 13.0831121]}}, {"type": "Feature", "properties": {"osm_id": 211864592, "osm_type": "way", "amenity": "police"}, "geometry": {"type": "Point", "coordinates": [80.2706569, 13.0590491]}}, {"type": "Feature", "properties": {"osm_id": 214356712, "osm_type": "way", "addr:city": "Chennai", "addr:housenumber": "1", "addr:postcode": "600017", "addr:street": "Madley Road", "amenity": "police", "name": "R1 Police Station", "phone": "044 2345 2608"}, "geometry": {"type": "Point", "coordinates": [80.2294897, 13.0347642]}}, {"type": "Feature", "properties": {"osm_id": 217637688, "osm_type": "way", "amenity": "police", "name": "Esplanade PS"}, "geometry": {"type": "Point", "coordinates": [80.2853702, 13.0864715]}}, {"type": "Feature", "properties": {"osm_id": 217767201, "osm_type": "way", "amenity": "police", "name": "F4 Greams Road PS"}, "geometry": {"type": "Point", "coordinates": [80.2547972, 13.0598386]}}, {"type": "Feature", "properties": {"osm_id": 217864794, "osm_type": "way", "amenity": "police"}, "geometry": {"type": "Point", "coordinates": [80.2873206, 13.1231943]}}, {"type": "Feature", "properties": {"osm_id": 217878794, "osm_type": "way", "amenity": "police"}, "geometry": {"type": "Point", "coordinates": [80.2601445, 13.1000303]}}, {"type": "Feature", "properties": {"osm_id": 217920494, "osm_type": "way", "amenity": "police", "name": "Peravallur Police Station"}, "geometry": {"type": "Point", "coordinates": [80.2263784, 13.1113985]}}, {"type": "Feature", "properties": {"osm_id": 217921152, "osm_type": "way", "amenity": "police"}, "geometry": {"type": "Point", "coordinates": [80.2434556, 13.0934393]}}, {"type": "Feature", "properties": {"osm_id": 217960575, "osm_type": "way", "amenity": "police", "name": "D1 Triplicane Police Station", "ref": "D1"}, "geometry": {"type": "Point", "coordinates": [80.2736489, 13.0672549]}}, {"type": "Feature", "properties": {"osm_id": 231052535, "osm_type": "way", "amenity": "police", "building": "yes", "check_date": "2026-03-30", "name": "K4 Police Station"}, "geometry": {"type": "Point", "coordinates": [80.21797, 13.0925447]}}, {"type": "Feature", "properties": {"osm_id": 240511203, "osm_type": "way", "addr:street": "2nd Avenue, Ashok Nagar, Raghavan Colony, Kodambakkam, Chennai, Tamil Nadu 600024", "amenity": "police", "name": "R3 Ashok Nagar Police Station", "opening_hours": "24/7", "phone": "044 2345 2617", "website": "tnpolice.gov.in"}, "geometry": {"type": "Point", "coordinates": [80.2173045, 13.0440809]}}, {"type": "Feature", "properties": {"osm_id": 241007895, "osm_type": "way", "amenity": "police", "name": "Abhiramapuram"}, "geometry": {"type": "Point", "coordinates": [80.2559671, 13.0332562]}}, {"type": "Feature", "properties": {"osm_id": 241027985, "osm_type": "way", "addr:city": "Chennai", "addr:postcode": "600008", "addr:street": "Egmore High Road", "amenity": "police", "name": "F2 Egmore Police Station", "phone": "044 2345 2678"}, "geometry": {"type": "Point", "coordinates": [80.257014, 13.0750725]}}, {"type": "Feature", "properties": {"osm_id": 297495780, "osm_type": "way", "addr:street": "Velachery - Tambaram Main Road", "amenity": "police", "building": "yes", "check_date": "2026-05-01", "name": "Selaiyur Police Station"}, "geometry": {"type": "Point", "coordinates": [80.1352359, 12.9229459]}}, {"type": "Feature", "properties": {"osm_id": 343141650, "osm_type": "way", "addr:city": "Saidapet", "addr:postcode": "600015", "addr:street": "Anna Salai (Mount Road)", "amenity": "police", "name": "Police Station - J1 - Saidapet"}, "geometry": {"type": "Point", "coordinates": [80.226078, 13.0224076]}}, {"type": "Feature", "properties": {"osm_id": 354469200, "osm_type": "way", "amenity": "police", "building": "yes", "building:levels": "2", "name": "E5 Foreshore Estate Police Station"}, "geometry": {"type": "Point", "coordinates": [80.2748155, 13.0245553]}}, {"type": "Feature", "properties": {"osm_id": 677255714, "osm_type": "way", "amenity": "police", "building": "yes"}, "geometry": {"type": "Point", "coordinates": [80.2611458, 12.9845863]}}, {"type": "Feature", "properties": {"osm_id": 835251736, "osm_type": "way", "amenity": "police", "building": "yes", "name": "Ambattur T1 Police Station"}, "geometry": {"type": "Point", "coordinates": [80.1525569, 13.1073143]}}, {"type": "Feature", "properties": {"osm_id": 1038741390, "osm_type": "way", "amenity": "police", "building": "yes", "name": "Guindy J3 Police station"}, "geometry": {"type": "Point", "coordinates": [80.2106918, 13.0093531]}}, {"type": "Feature", "properties": {"osm_id": 1076586613, "osm_type": "way", "amenity": "police", "building": "yes", "building:levels": "2", "name": "B1 North Beach Police Station"}, "geometry": {"type": "Point", "coordinates": [80.2904578, 13.0899215]}}, {"type": "Feature", "properties": {"osm_id": 1089835073, "osm_type": "way", "amenity": "police", "building": "yes", "building:levels": "2", "name": "C3 Seven Wells Police Station"}, "geometry": {"type": "Point", "coordinates": [80.2816945, 13.0988879]}}, {"type": "Feature", "properties": {"osm_id": 1089863482, "osm_type": "way", "amenity": "police", "building": "yes", "building:levels": "3", "name": "C5 Kothavalchavadi Police Station"}, "geometry": {"type": "Point", "coordinates": [80.2854602, 13.0940347]}}, {"type": "Feature", "properties": {"osm_id": 1090653955, "osm_type": "way", "amenity": "police", "building": "yes", "building:levels": "3", "name": "C1 Flower Bazaar Police Station"}, "geometry": {"type": "Point", "coordinates": [80.2817032, 13.0884077]}}, {"type": "Feature", "properties": {"osm_id": 1090653956, "osm_type": "way", "amenity": "police", "building": "yes", "building:levels": "1", "name": "C1 Flower Bazaar Police Booth"}, "geometry": {"type": "Point", "coordinates": [80.2823944, 13.0883718]}}, {"type": "Feature", "properties": {"osm_id": 1090950056, "osm_type": "way", "amenity": "police", "building": "yes", "building:levels": "1", "name": "H1 Washermanpet Police Station"}, "geometry": {"type": "Point", "coordinates": [80.2809199, 13.1086614]}}, {"type": "Feature", "properties": {"osm_id": 1091003580, "osm_type": "way", "amenity": "police", "building": "yes", "building:levels": "2", "name": "P2 Otteri Police Station"}, "geometry": {"type": "Point", "coordinates": [80.2515633, 13.1003326]}}, {"type": "Feature", "properties": {"osm_id": 1095915240, "osm_type": "way", "amenity": "police", "building": "yes", "building:levels": "1", "name": "E3 Teynampet Police Assistance Booth"}, "geometry": {"type": "Point", "coordinates": [80.2398324, 13.0313112]}}, {"type": "Feature", "properties": {"osm_id": 1095915254, "osm_type": "way", "amenity": "police", "building": "yes", "building:levels": "4", "name": "Office of the Director General of Police Civil Supplies CID Chennai"}, "geometry": {"type": "Point", "coordinates": [80.2432354, 13.0300516]}}, {"type": "Feature", "properties": {"osm_id": 1105971900, "osm_type": "way", "amenity": "police", "building": "yes", "building:levels": "2", "name": "C2 Elephant Gate Police Station"}, "geometry": {"type": "Point", "coordinates": [80.2750124, 13.0926307]}}, {"type": "Feature", "properties": {"osm_id": 1107911282, "osm_type": "way", "amenity": "police", "building": "yes", "building:levels": "3", "name": "Office of the Deputy Commissioner of Police, Pudupet"}, "geometry": {"type": "Point", "coordinates": [80.2620582, 13.0686386]}}, {"type": "Feature", "properties": {"osm_id": 1110191293, "osm_type": "way", "amenity": "police", "building": "yes", "building:levels": "3", "name": "N3 Muthialpet Police Station"}, "geometry": {"type": "Point", "coordinates": [80.2870248, 13.0998376]}}, {"type": "Feature", "properties": {"osm_id": 1112851437, "osm_type": "way", "amenity": "police", "building": "yes", "building:levels": "4", "name": "D5 Marina Police Station"}, "geometry": {"type": "Point", "coordinates": [80.2793207, 13.0391513]}}, {"type": "Feature", "properties": {"osm_id": 1116154383, "osm_type": "way", "amenity": "police", "building": "yes", "building:levels": "3", "name": "B1 North Beach Police Station"}, "geometry": {"type": "Point", "coordinates": [80.2915125, 13.0966217]}}, {"type": "Feature", "properties": {"osm_id": 1122926992, "osm_type": "way", "amenity": "police", "building": "yes", "building:levels": "3", "name": "G7 Chetpet Police Station"}, "geometry": {"type": "Point", "coordinates": [80.2520681, 13.0725347]}}, {"type": "Feature", "properties": {"osm_id": 1123051523, "osm_type": "way", "amenity": "police", "building": "yes", "building:levels": "3", "name": "D2 Anna Salai (Mount Road) Poice Station"}, "geometry": {"type": "Point", "coordinates": [80.262232, 13.061062]}}, {"type": "Feature", "properties": {"osm_id": 1131693908, "osm_type": "way", "amenity": "police", "building": "yes", "building:levels": "3", "name": "Tamil Nadu Police Computer Communication Centre"}, "geometry": {"type": "Point", "coordinates": [80.271388, 13.0225066]}}, {"type": "Feature", "properties": {"osm_id": 1131693910, "osm_type": "way", "amenity": "police", "building": "yes", "building:levels": "3", "name": "Tamil Nadu State Crime Records Bureau", "name:en": "Tamil Nadu State Crime Records Bureau", "name:ta": "மாநில குற்ற ஆவணக் காப்பகம்"}, "geometry": {"type": "Point", "coordinates": [80.2716339, 13.022806]}}, {"type": "Feature", "properties": {"osm_id": 1132145713, "osm_type": "way", "amenity": "police", "building": "yes", "building:levels": "2", "name": "Elliots Beach Police Outpost"}, "geometry": {"type": "Point", "coordinates": [80.2712201, 13.0007139]}}, {"type": "Feature", "properties": {"osm_id": 1176848837, "osm_type": "way", "amenity": "police", "name": "C5 Kothavalchavadi Police Station"}, "geometry": {"type": "Point", "coordinates": [80.2807237, 13.0953439]}}, {"type": "Feature", "properties": {"osm_id": 1330398918, "osm_type": "way", "amenity": "police", "building": "yes", "name": "T-1 Police Station"}, "geometry": {"type": "Point", "coordinates": [80.1587027, 13.1306625]}}]}