{"type": "FeatureCollection", "features": [{"type": "Feature", "properties": {"station_code": "MSB", "name": "Chennai Beach RS", "connections": "South Line; North Line; MRTS Line", "interchange": "North Line; West Line; MRTS Line", "layout": "At Grade", "parking_contract_available": "Yes", "cscl_zone": "5", "cscl_division": "60", "source": "CSCL Sub Urban Rail CSV; OSM station geometry", "geometry_source": "OpenStreetMap via Overpass API", "geometry_match": "station_code", "osm_type": "way", "osm_id": 217653510, "osm_name": "Chennai Beach", "osm_ref": "MSB"}, "geometry": {"type": "Point", "coordinates": [80.2918317, 13.0915941]}}, {"type": "Feature", "properties": {"station_code": "MSF", "name": "Chennai Fort RS", "connections": "South Line; MRTS Line", "interchange": "MRTS Line", "layout": "At Grade", "parking_contract_available": "No", "cscl_zone": "5", "cscl_division": "60", "source": "CSCL Sub Urban Rail CSV; OSM station geometry", "geometry_source": "OpenStreetMap via Overpass API", "geometry_match": "station_code", "osm_type": "node", "osm_id": 919522123, "osm_name": "Chennai Fort", "osm_ref": "MSF:4"}, "geometry": {"type": "Point", "coordinates": [80.2829442, 13.0832295]}}, {"type": "Feature", "properties": {"station_code": "MPK", "name": "Chennai Park RS / Chennai Central", "connections": "South Line", "interchange": "North Line; West Line; MRTS Line; CMRL Blue; CMRL Green Line", "layout": "At Grade", "parking_contract_available": "Yes", "cscl_zone": "5", "cscl_division": "58", "source": "CSCL Sub Urban Rail CSV; OSM station geometry", "geometry_source": "OpenStreetMap via Overpass API", "geometry_match": "station_code", "osm_type": "node", "osm_id": 2481258999, "osm_name": "Chennai Park", "osm_ref": "MPK"}, "geometry": {"type": "Point", "coordinates": [80.2730879, 13.0807537]}}, {"type": "Feature", "properties": {"station_code": "MS", "name": "Chennai Egmore RS / Rail Terminus", "connections": "South Line", "interchange": "CMRL Green Line", "layout": "At Grade", "parking_contract_available": "Yes", "cscl_zone": "5", "cscl_division": "61", "source": "CSCL Sub Urban Rail CSV; OSM station geometry", "geometry_source": "OpenStreetMap via Overpass API", "geometry_match": "station_code", "osm_type": "node", "osm_id": 5275790188, "osm_name": "Chennai Egmore", "osm_ref": "MS"}, "geometry": {"type": "Point", "coordinates": [80.2612572, 13.0777493]}}, {"type": "Feature", "properties": {"station_code": "MSC", "name": "Chetpat RS", "connections": "South Line", "interchange": "No", "layout": "At Grade", "parking_contract_available": "Yes", "cscl_zone": "8", "cscl_division": "104", "source": "CSCL Sub Urban Rail CSV; OSM station geometry", "geometry_source": "OpenStreetMap via Overpass API", "geometry_match": "station_code", "osm_type": "node", "osm_id": 248467412, "osm_name": "Chennai Chetpet", "osm_ref": "MSC"}, "geometry": {"type": "Point", "coordinates": [80.242421, 13.0743424]}}, {"type": "Feature", "properties": {"station_code": "NBK", "name": "Nungambakkam RS", "connections": "South Line", "interchange": "No", "layout": "At Grade", "parking_contract_available": "No", "cscl_zone": "9", "cscl_division": "110", "source": "CSCL Sub Urban Rail CSV; OSM station geometry", "geometry_source": "OpenStreetMap via Overpass API", "geometry_match": "station_code", "osm_type": "node", "osm_id": 5311775881, "osm_name": "Nungambakkam", "osm_ref": "NBK"}, "geometry": {"type": "Point", "coordinates": [80.232839, 13.065841]}}, {"type": "Feature", "properties": {"station_code": "MKK", "name": "Kodambakkam RS", "connections": "South Line", "interchange": "No", "layout": "At Grade", "parking_contract_available": "Yes", "cscl_zone": "9", "cscl_division": "117", "source": "CSCL Sub Urban Rail CSV; OSM station geometry", "geometry_source": "OpenStreetMap via Overpass API", "geometry_match": "station_code", "osm_type": "node", "osm_id": 2481259002, "osm_name": "Kodambakkam", "osm_ref": "MKK"}, "geometry": {"type": "Point", "coordinates": [80.2306892, 13.0516624]}}, {"type": "Feature", "properties": {"station_code": "MBM", "name": "Mambalam RS / T Nagar", "connections": "South Line", "interchange": "No", "layout": "At Grade", "parking_contract_available": "Yes", "cscl_zone": "10", "cscl_division": "136", "source": "CSCL Sub Urban Rail CSV; OSM station geometry", "geometry_source": "OpenStreetMap via Overpass API", "geometry_match": "station_code", "osm_type": "node", "osm_id": 2481259006, "osm_name": "Mambalam", "osm_ref": "MBM"}, "geometry": {"type": "Point", "coordinates": [80.2277752, 13.0380662]}}, {"type": "Feature", "properties": {"station_code": "SP", "name": "Saidapet RS", "connections": "South Line", "interchange": "No", "layout": "At Grade", "parking_contract_available": "Yes", "cscl_zone": "10", "cscl_division": "142", "source": "CSCL Sub Urban Rail CSV; OSM station geometry", "geometry_source": "OpenStreetMap via Overpass API", "geometry_match": "station_code", "osm_type": "node", "osm_id": 2481259029, "osm_name": "Saidapet", "osm_ref": "SP"}, "geometry": {"type": "Point", "coordinates": [80.2237191, 13.0233098]}}, {"type": "Feature", "properties": {"station_code": "GDY", "name": "Guindy RS", "connections": "South Line", "interchange": "CMRL Blue Line", "layout": "At Grade", "parking_contract_available": "Yes", "cscl_zone": "12", "cscl_division": "160", "source": "CSCL Sub Urban Rail CSV; OSM station geometry", "geometry_source": "OpenStreetMap via Overpass API", "geometry_match": "station_code", "osm_type": "node", "osm_id": 3264712327, "osm_name": "Guindy", "osm_ref": "GDY"}, "geometry": {"type": "Point", "coordinates": [80.2126063, 13.0086685]}}, {"type": "Feature", "properties": {"station_code": "STM", "name": "St Thomas Mount RS", "connections": "South Line", "interchange": "CMRL Green Line", "layout": "At Grade", "parking_contract_available": "yes", "cscl_zone": "12", "cscl_division": "161", "source": "CSCL Sub Urban Rail CSV; OSM station geometry", "geometry_source": "OpenStreetMap via Overpass API", "geometry_match": "station_code", "osm_type": "node", "osm_id": 4221752111, "osm_name": "Saint Thomas Mount", "osm_ref": "STM"}, "geometry": {"type": "Point", "coordinates": [80.1993715, 12.9947654]}}, {"type": "Feature", "properties": {"station_code": "PZA", "name": "Palavanthangal RS", "connections": "South Line", "interchange": "No", "layout": "At Grade", "parking_contract_available": "No", "cscl_zone": "12", "cscl_division": "162", "source": "CSCL Sub Urban Rail CSV; OSM station geometry", "geometry_source": "OpenStreetMap via Overpass API", "geometry_match": "station_code", "osm_type": "node", "osm_id": 3187977875, "osm_name": "Palavanthangal", "osm_ref": "PZA"}, "geometry": {"type": "Point", "coordinates": [80.1879401, 12.9906385]}}, {"type": "Feature", "properties": {"station_code": "MN", "name": "Minambakkam RS", "connections": "South Line", "interchange": "No", "layout": "At Grade", "parking_contract_available": "No", "cscl_zone": "12", "cscl_division": "159", "source": "CSCL Sub Urban Rail CSV; OSM station geometry", "geometry_source": "OpenStreetMap via Overpass API", "geometry_match": "station_code", "osm_type": "node", "osm_id": 4885094689, "osm_name": "Meenambakkam", "osm_ref": "MN"}, "geometry": {"type": "Point", "coordinates": [80.1750925, 12.9846976]}}, {"type": "Feature", "properties": {"station_code": "TLM", "name": "Tirusulam RS / Airport", "connections": "South Line", "interchange": "CMRL Blue Line", "layout": "At Grade", "parking_contract_available": "NA", "cscl_zone": "12", "cscl_division": "159", "source": "CSCL Sub Urban Rail CSV; OSM station geometry", "geometry_source": "OpenStreetMap via Overpass API", "geometry_match": "station_code", "osm_type": "node", "osm_id": 4885083053, "osm_name": "Tirusulam", "osm_ref": "TLM"}, "geometry": {"type": "Point", "coordinates": [80.1657933, 12.9804609]}}, {"type": "Feature", "properties": {"station_code": "RPM", "name": "Royapuram RS", "connections": "North Line", "interchange": "West Line", "layout": "At Grade", "parking_contract_available": "No", "cscl_zone": "5", "cscl_division": "52", "source": "CSCL Sub Urban Rail CSV; OSM station geometry", "geometry_source": "OpenStreetMap via Overpass API", "geometry_match": "station_code", "osm_type": "way", "osm_id": 26399018, "osm_name": "Royapuram", "osm_ref": "RPM"}, "geometry": {"type": "Point", "coordinates": [80.2935584, 13.1043166]}}, {"type": "Feature", "properties": {"station_code": "WST", "name": "Washermanpet RS", "connections": "North Line", "interchange": "West Line", "layout": "At Grade", "parking_contract_available": "No", "cscl_zone": "5", "cscl_division": "52", "source": "CSCL Sub Urban Rail CSV; OSM station geometry", "geometry_source": "OpenStreetMap via Overpass API", "geometry_match": "station_code", "osm_type": "node", "osm_id": 254143113, "osm_name": "", "osm_ref": "WST:1"}, "geometry": {"type": "Point", "coordinates": [80.2820595, 13.1089336]}}, {"type": "Feature", "properties": {"station_code": "MMCC", "name": "Chennai Central MMC", "connections": "North Line; West Line", "interchange": "West Line; South Line; MRTS Line; CMRL Blue; CMRL Green Line", "layout": "At Grade", "parking_contract_available": "Yes", "cscl_zone": "5", "cscl_division": "58", "source": "CSCL Sub Urban Rail CSV; OSM station geometry", "geometry_source": "OpenStreetMap via Overpass API", "geometry_match": "station_name", "osm_type": "way", "osm_id": 217845073, "osm_name": "Chennai Central", "osm_ref": "MAS"}, "geometry": {"type": "Point", "coordinates": [80.2745107, 13.0865965]}}, {"type": "Feature", "properties": {"station_code": "BBQ", "name": "Basin Bridge RS", "connections": "North Line; West Line", "interchange": "West Line", "layout": "At Grade", "parking_contract_available": "Yes", "cscl_zone": "5", "cscl_division": "53", "source": "CSCL Sub Urban Rail CSV; OSM station geometry", "geometry_source": "OpenStreetMap via Overpass API", "geometry_match": "station_code", "osm_type": "way", "osm_id": 217954831, "osm_name": "Basin Bridge Junction", "osm_ref": "BBQ"}, "geometry": {"type": "Point", "coordinates": [80.2712614, 13.1020272]}}, {"type": "Feature", "properties": {"station_code": "KOK", "name": "Korukkupet RS", "connections": "North Line", "interchange": "No", "layout": "At Grade", "parking_contract_available": "Yes", "cscl_zone": "4", "cscl_division": "47", "source": "CSCL Sub Urban Rail CSV; OSM station geometry", "geometry_source": "OpenStreetMap via Overpass API", "geometry_match": "station_code", "osm_type": "node", "osm_id": 5274761658, "osm_name": "Korukkupet", "osm_ref": "KOK"}, "geometry": {"type": "Point", "coordinates": [80.2784559, 13.1194248]}}, {"type": "Feature", "properties": {"station_code": "TNP", "name": "Tondiarpet RS", "connections": "North Line", "interchange": "No", "layout": "At Grade", "parking_contract_available": "No", "cscl_zone": "4", "cscl_division": "38", "source": "CSCL Sub Urban Rail CSV; OSM station geometry", "geometry_source": "OpenStreetMap via Overpass API", "geometry_match": "station_code", "osm_type": "node", "osm_id": 5311732458, "osm_name": "Tondiarpet", "osm_ref": "TNP"}, "geometry": {"type": "Point", "coordinates": [80.2819242, 13.1275202]}}, {"type": "Feature", "properties": {"station_code": "VOC", "name": "V O C Nagar RS", "connections": "North Line", "interchange": "No", "layout": "At Grade", "parking_contract_available": "No", "cscl_zone": "4", "cscl_division": "38", "source": "CSCL Sub Urban Rail CSV; OSM station geometry", "geometry_source": "OpenStreetMap via Overpass API", "geometry_match": "station_code", "osm_type": "node", "osm_id": 5287054301, "osm_name": "V.O.C. Nagar", "osm_ref": "VOC"}, "geometry": {"type": "Point", "coordinates": [80.2876108, 13.1408066]}}, {"type": "Feature", "properties": {"station_code": "TVT", "name": "Tiruvottiyur RS", "connections": "North Line", "interchange": "No", "layout": "At Grade", "parking_contract_available": "No", "cscl_zone": "1", "cscl_division": "7", "source": "CSCL Sub Urban Rail CSV; OSM station geometry", "geometry_source": "OpenStreetMap via Overpass API", "geometry_match": "station_code", "osm_type": "node", "osm_id": 5311732459, "osm_name": "Tiruvottiyur", "osm_ref": "TVT"}, "geometry": {"type": "Point", "coordinates": [80.2962076, 13.1586407]}}, {"type": "Feature", "properties": {"station_code": "WCN", "name": "Wimco Nagar RS", "connections": "North Line", "interchange": "No", "layout": "At Grade", "parking_contract_available": "NA", "cscl_zone": "1", "cscl_division": "4", "source": "CSCL Sub Urban Rail CSV; OSM station geometry", "geometry_source": "OpenStreetMap via Overpass API", "geometry_match": "station_code", "osm_type": "node", "osm_id": 5311732501, "osm_name": "Wimco Nagar", "osm_ref": "WCN"}, "geometry": {"type": "Point", "coordinates": [80.3054594, 13.1796833]}}, {"type": "Feature", "properties": {"station_code": "KAVM", "name": "Kathivakkam RS", "connections": "North Line", "interchange": "No", "layout": "At Grade", "parking_contract_available": "NA", "cscl_zone": "1", "cscl_division": "3", "source": "CSCL Sub Urban Rail CSV; OSM station geometry", "geometry_source": "OpenStreetMap via Overpass API", "geometry_match": "station_code", "osm_type": "node", "osm_id": 5311732516, "osm_name": "Kathivakkam", "osm_ref": "KAVM"}, "geometry": {"type": "Point", "coordinates": [80.3165473, 13.2040384]}}, {"type": "Feature", "properties": {"station_code": "ENR", "name": "Ennore RS", "connections": "North Line", "interchange": "No", "layout": "At Grade", "parking_contract_available": "NA", "cscl_zone": "1", "cscl_division": "2", "source": "CSCL Sub Urban Rail CSV; OSM station geometry", "geometry_source": "OpenStreetMap via Overpass API", "geometry_match": "station_code", "osm_type": "node", "osm_id": 5274094702, "osm_name": "Ennore", "osm_ref": "ENR"}, "geometry": {"type": "Point", "coordinates": [80.3216013, 13.2174681]}}, {"type": "Feature", "properties": {"station_code": "VJM", "name": "Vyasarpadi Jeeva RS", "connections": "West Line", "interchange": "No", "layout": "At Grade", "parking_contract_available": "Yes", "cscl_zone": "6", "cscl_division": "70", "source": "CSCL Sub Urban Rail CSV; OSM station geometry", "geometry_source": "OpenStreetMap via Overpass API", "geometry_match": "station_code", "osm_type": "node", "osm_id": 5287023932, "osm_name": "Vyasarpadi Jeeva", "osm_ref": "VJM"}, "geometry": {"type": "Point", "coordinates": [80.2572195, 13.1091961]}}, {"type": "Feature", "properties": {"station_code": "PER", "name": "Perambur RS", "connections": "West Line", "interchange": "No", "layout": "At Grade", "parking_contract_available": "Yes", "cscl_zone": "6", "cscl_division": "71", "source": "CSCL Sub Urban Rail CSV; OSM station geometry", "geometry_source": "OpenStreetMap via Overpass API", "geometry_match": "station_code", "osm_type": "node", "osm_id": 5276205560, "osm_name": "Perambur", "osm_ref": "PER"}, "geometry": {"type": "Point", "coordinates": [80.2444143, 13.107719]}}, {"type": "Feature", "properties": {"station_code": "PCW", "name": "Perambur Carriage works RS", "connections": "West Line", "interchange": "No", "layout": "At Grade", "parking_contract_available": "Yes", "cscl_zone": "6", "cscl_division": "69", "source": "CSCL Sub Urban Rail CSV; OSM station geometry", "geometry_source": "OpenStreetMap via Overpass API", "geometry_match": "station_code", "osm_type": "node", "osm_id": 5276187591, "osm_name": "Perambur Carriage Works", "osm_ref": "PCW"}, "geometry": {"type": "Point", "coordinates": [80.2388864, 13.1072814]}}, {"type": "Feature", "properties": {"station_code": "PEW", "name": "Perambur Loco Works RS", "connections": "West Line", "interchange": "No", "layout": "At Grade", "parking_contract_available": "Yes", "cscl_zone": "8", "cscl_division": "96", "source": "CSCL Sub Urban Rail CSV; OSM station geometry", "geometry_source": "OpenStreetMap via Overpass API", "geometry_match": "station_code", "osm_type": "node", "osm_id": 5276214842, "osm_name": "Perambur Loco Works", "osm_ref": "PEW"}, "geometry": {"type": "Point", "coordinates": [80.2262155, 13.1084975]}}, {"type": "Feature", "properties": {"station_code": "VLK", "name": "Villivakkam RS", "connections": "West Line", "interchange": "No", "layout": "At Grade", "parking_contract_available": "Yes", "cscl_zone": "6", "cscl_division": "65", "source": "CSCL Sub Urban Rail CSV; OSM station geometry", "geometry_source": "OpenStreetMap via Overpass API", "geometry_match": "station_code", "osm_type": "way", "osm_id": 235931387, "osm_name": "Villivakkam", "osm_ref": "VLK"}, "geometry": {"type": "Point", "coordinates": [80.209155, 13.1103186]}}, {"type": "Feature", "properties": {"station_code": "KOTR", "name": "Korattur RS", "connections": "West Line", "interchange": "No", "layout": "At Grade", "parking_contract_available": "No", "cscl_zone": "7", "cscl_division": "83", "source": "CSCL Sub Urban Rail CSV; OSM station geometry", "geometry_source": "OpenStreetMap via Overpass API", "geometry_match": "station_code", "osm_type": "node", "osm_id": 5274761659, "osm_name": "Korattur", "osm_ref": "KOTR"}, "geometry": {"type": "Point", "coordinates": [80.1841521, 13.1131424]}}, {"type": "Feature", "properties": {"station_code": "PVM", "name": "Pattaravakkam RS", "connections": "West Line", "interchange": "No", "layout": "At Grade", "parking_contract_available": "No", "cscl_zone": "7", "cscl_division": "84", "source": "CSCL Sub Urban Rail CSV; OSM station geometry", "geometry_source": "OpenStreetMap via Overpass API", "geometry_match": "station_code", "osm_type": "node", "osm_id": 248545108, "osm_name": "Pattaravakkam", "osm_ref": "PVM"}, "geometry": {"type": "Point", "coordinates": [80.1663975, 13.1143904]}}, {"type": "Feature", "properties": {"station_code": "ABU", "name": "Ambattur RS", "connections": "West Line", "interchange": "No", "layout": "At Grade", "parking_contract_available": "Yes", "cscl_zone": "7", "cscl_division": "85", "source": "CSCL Sub Urban Rail CSV; OSM station geometry", "geometry_source": "OpenStreetMap via Overpass API", "geometry_match": "station_code", "osm_type": "node", "osm_id": 5310778033, "osm_name": "Ambattur", "osm_ref": "ABU"}, "geometry": {"type": "Point", "coordinates": [80.1528611, 13.1140244]}}, {"type": "Feature", "properties": {"station_code": "MPKT", "name": "Park Town RS", "connections": "MRTS Line", "interchange": "North Line; West Line; South Line; CMRL BLUE; CMRL Green Line", "layout": "At Grade", "parking_contract_available": "No", "cscl_zone": "5", "cscl_division": "59", "source": "CSCL Sub Urban Rail CSV; OSM station geometry", "geometry_source": "OpenStreetMap via Overpass API", "geometry_match": "station_code", "osm_type": "node", "osm_id": 243041570, "osm_name": "Chennai Park Town", "osm_ref": "MPKT:1;2"}, "geometry": {"type": "Point", "coordinates": [80.2760155, 13.0794798]}}, {"type": "Feature", "properties": {"station_code": "MCPT", "name": "Chintadripet RS", "connections": "MRTS Line", "interchange": "No", "layout": "Elevated", "parking_contract_available": "Yes", "cscl_zone": "5", "cscl_division": "59", "source": "CSCL Sub Urban Rail CSV; OSM station geometry", "geometry_source": "OpenStreetMap via Overpass API", "geometry_match": "station_code", "osm_type": "node", "osm_id": 5311755231, "osm_name": "Chintadaripet", "osm_ref": "MCPT"}, "geometry": {"type": "Point", "coordinates": [80.2738611, 13.0737952]}}, {"type": "Feature", "properties": {"station_code": "MCPK", "name": "Chepauk RS", "connections": "MRTS Line", "interchange": "No", "layout": "Elevated", "parking_contract_available": "Yes", "cscl_zone": "9", "cscl_division": "114", "source": "CSCL Sub Urban Rail CSV; OSM station geometry", "geometry_source": "OpenStreetMap via Overpass API", "geometry_match": "station_code", "osm_type": "node", "osm_id": 2486239287, "osm_name": "Chepauk", "osm_ref": "MCPK"}, "geometry": {"type": "Point", "coordinates": [80.280596, 13.0619312]}}, {"type": "Feature", "properties": {"station_code": "MTCN", "name": "Thiruvallikeni RS / Marina Beach", "connections": "MRTS Line", "interchange": "No", "layout": "Elevated", "parking_contract_available": "yes", "cscl_zone": "9", "cscl_division": "116", "source": "CSCL Sub Urban Rail CSV; OSM station geometry", "geometry_source": "OpenStreetMap via Overpass API", "geometry_match": "station_code", "osm_type": "node", "osm_id": 2486239288, "osm_name": "Thiruvallikeni", "osm_ref": "MTCN"}, "geometry": {"type": "Point", "coordinates": [80.2806044, 13.0559352]}}, {"type": "Feature", "properties": {"station_code": "MLHS", "name": "Light House RS / Marina Beach", "connections": "MRTS Line", "interchange": "No", "layout": "Elevated", "parking_contract_available": "Yes", "cscl_zone": "9", "cscl_division": "121", "source": "CSCL Sub Urban Rail CSV; OSM station geometry", "geometry_source": "OpenStreetMap via Overpass API", "geometry_match": "station_code", "osm_type": "node", "osm_id": 5311755232, "osm_name": "Light House", "osm_ref": "MLHS"}, "geometry": {"type": "Point", "coordinates": [80.2769885, 13.0455374]}}, {"type": "Feature", "properties": {"station_code": "MKAK", "name": "Mundagakanniamman", "connections": "MRTS Line", "interchange": "No", "layout": "Elevated", "parking_contract_available": "Yes", "cscl_zone": "9", "cscl_division": "124", "source": "CSCL Sub Urban Rail CSV; OSM station geometry", "geometry_source": "OpenStreetMap via Overpass API", "geometry_match": "station_code", "osm_type": "node", "osm_id": 5311755233, "osm_name": "Mundakakanni Amman Koil", "osm_ref": "MKAK"}, "geometry": {"type": "Point", "coordinates": [80.2698818, 13.0406508]}}, {"type": "Feature", "properties": {"station_code": "MTMY", "name": "Thirumayilai RS / Cultural Center", "connections": "MRTS Line", "interchange": "No", "layout": "Elevated", "parking_contract_available": "yes", "cscl_zone": "9", "cscl_division": "124", "source": "CSCL Sub Urban Rail CSV; OSM station geometry", "geometry_source": "OpenStreetMap via Overpass API", "geometry_match": "station_code", "osm_type": "node", "osm_id": 5311755234, "osm_name": "Thirumayilai", "osm_ref": "MTMY"}, "geometry": {"type": "Point", "coordinates": [80.2675129, 13.0353976]}}, {"type": "Feature", "properties": {"station_code": "MNDY", "name": "Mandaiveli RS", "connections": "MRTS Line", "interchange": "No", "layout": "Elevated", "parking_contract_available": "Yes", "cscl_zone": "9", "cscl_division": "126", "source": "CSCL Sub Urban Rail CSV; OSM station geometry", "geometry_source": "OpenStreetMap via Overpass API", "geometry_match": "station_code", "osm_type": "node", "osm_id": 5311755235, "osm_name": "Mandaveli", "osm_ref": "MNDY"}, "geometry": {"type": "Point", "coordinates": [80.2606181, 13.0280931]}}, {"type": "Feature", "properties": {"station_code": "GWYR", "name": "Greenways Road RS", "connections": "MRTS Line", "interchange": "No", "layout": "Elevated", "parking_contract_available": "Yes", "cscl_zone": "13", "cscl_division": "173", "source": "CSCL Sub Urban Rail CSV; OSM station geometry", "geometry_source": "OpenStreetMap via Overpass API", "geometry_match": "station_code", "osm_type": "node", "osm_id": 5311755236, "osm_name": "Greenways Road", "osm_ref": "GWYR"}, "geometry": {"type": "Point", "coordinates": [80.2527292, 13.0215846]}}, {"type": "Feature", "properties": {"station_code": "KTPM", "name": "Kotturpuram RS", "connections": "MRTS Line", "interchange": "No", "layout": "Elevated", "parking_contract_available": "Yes", "cscl_zone": "13", "cscl_division": "175", "source": "CSCL Sub Urban Rail CSV; OSM station geometry", "geometry_source": "OpenStreetMap via Overpass API", "geometry_match": "station_code", "osm_type": "node", "osm_id": 5274913769, "osm_name": "Kotturpuram", "osm_ref": "KTPM"}, "geometry": {"type": "Point", "coordinates": [80.2484517, 13.0137182]}}, {"type": "Feature", "properties": {"station_code": "KTBR", "name": "Kasthurba Nagar RS", "connections": "MRTS Line", "interchange": "No", "layout": "Elevated", "parking_contract_available": "Yes", "cscl_zone": "13", "cscl_division": "175", "source": "CSCL Sub Urban Rail CSV; OSM station geometry", "geometry_source": "OpenStreetMap via Overpass API", "geometry_match": "station_code", "osm_type": "node", "osm_id": 5311755237, "osm_name": "Kasturiba Nagar", "osm_ref": "KTBR"}, "geometry": {"type": "Point", "coordinates": [80.2478604, 13.0053823]}}, {"type": "Feature", "properties": {"station_code": "INDR", "name": "Indira Nagar RS", "connections": "MRTS Line", "interchange": "No", "layout": "Elevated", "parking_contract_available": "No", "cscl_zone": "13", "cscl_division": "175", "source": "CSCL Sub Urban Rail CSV; OSM station geometry", "geometry_source": "OpenStreetMap via Overpass API", "geometry_match": "station_code", "osm_type": "node", "osm_id": 5311755238, "osm_name": "Indira Nagar", "osm_ref": "INDR"}, "geometry": {"type": "Point", "coordinates": [80.249716, 12.9960623]}}, {"type": "Feature", "properties": {"station_code": "TYMR", "name": "Thiruvanmiyur RS", "connections": "MRTS Line", "interchange": "No", "layout": "Elevated", "parking_contract_available": "yes", "cscl_zone": "13", "cscl_division": "180", "source": "CSCL Sub Urban Rail CSV; OSM station geometry", "geometry_source": "OpenStreetMap via Overpass API", "geometry_match": "station_code", "osm_type": "node", "osm_id": 5311755239, "osm_name": "Tiruvanmiyur", "osm_ref": "TYMR"}, "geometry": {"type": "Point", "coordinates": [80.2515865, 12.9889822]}}, {"type": "Feature", "properties": {"station_code": "TRMN", "name": "Taramani RS", "connections": "MRTS Line", "interchange": "No", "layout": "Elevated", "parking_contract_available": "yes", "cscl_zone": "14", "cscl_division": "184", "source": "CSCL Sub Urban Rail CSV; OSM station geometry", "geometry_source": "OpenStreetMap via Overpass API", "geometry_match": "station_code", "osm_type": "node", "osm_id": 5311755240, "osm_name": "Taramani", "osm_ref": "TRMN"}, "geometry": {"type": "Point", "coordinates": [80.2416441, 12.9786584]}}, {"type": "Feature", "properties": {"station_code": "PRGD", "name": "Perungudi RS", "connections": "MRTS Line", "interchange": "No", "layout": "Elevated", "parking_contract_available": "Yes", "cscl_zone": "13", "cscl_division": "179", "source": "CSCL Sub Urban Rail CSV; OSM station geometry", "geometry_source": "OpenStreetMap via Overpass API", "geometry_match": "station_code", "osm_type": "node", "osm_id": 5311755241, "osm_name": "Perungudi", "osm_ref": "PRGD"}, "geometry": {"type": "Point", "coordinates": [80.2321916, 12.9760584]}}, {"type": "Feature", "properties": {"station_code": "VLCY", "name": "Velacherry RS", "connections": "MRTS Line", "interchange": "No", "layout": "At Grade", "parking_contract_available": "Yes", "cscl_zone": "14", "cscl_division": "189", "source": "CSCL Sub Urban Rail CSV; OSM station geometry", "geometry_source": "OpenStreetMap via Overpass API", "geometry_match": "station_code", "osm_type": "node", "osm_id": 1141163691, "osm_name": "Velachery", "osm_ref": "VLCY:3"}, "geometry": {"type": "Point", "coordinates": [80.2195576, 12.9671675]}}]}
