{"type": "FeatureCollection", "features": [{"type": "Feature", "properties": {"name": "MRTS Line", "mode": "mrts", "operator": "Southern Railway", "decided_by": "Union government", "station_count": 18, "station_codes": "MSB; MSF; MPKT; MCPT; MCPK; MTCN; MLHS; MKAK; MTMY; MNDY; GWYR; KTPM; KTBR; INDR; TYMR; TRMN; PRGD; VLCY", "source": "CSCL Sub Urban Rail CSV; OSM station geometry"}, "geometry": {"type": "LineString", "coordinates": [[80.2918317, 13.0915941], [80.2829442, 13.0832295], [80.2760155, 13.0794798], [80.2738611, 13.0737952], [80.280596, 13.0619312], [80.2806044, 13.0559352], [80.2769885, 13.0455374], [80.2698818, 13.0406508], [80.2675129, 13.0353976], [80.2606181, 13.0280931], [80.2527292, 13.0215846], [80.2484517, 13.0137182], [80.2478604, 13.0053823], [80.249716, 12.9960623], [80.2515865, 12.9889822], [80.2416441, 12.9786584], [80.2321916, 12.9760584], [80.2195576, 12.9671675]]}}, {"type": "Feature", "properties": {"name": "North Line", "mode": "suburban_rail", "operator": "Southern Railway", "decided_by": "Union government", "station_count": 12, "station_codes": "MSB; MMCC; RPM; BBQ; WST; KOK; TNP; VOC; TVT; WCN; KAVM; ENR", "source": "CSCL Sub Urban Rail CSV; OSM station geometry"}, "geometry": {"type": "LineString", "coordinates": [[80.2918317, 13.0915941], [80.2745107, 13.0865965], [80.2935584, 13.1043166], [80.2712614, 13.1020272], [80.2820595, 13.1089336], [80.2784559, 13.1194248], [80.2819242, 13.1275202], [80.2876108, 13.1408066], [80.2962076, 13.1586407], [80.3054594, 13.1796833], [80.3165473, 13.2040384], [80.3216013, 13.2174681]]}}, {"type": "Feature", "properties": {"name": "South Line", "mode": "suburban_rail", "operator": "Southern Railway", "decided_by": "Union government", "station_count": 14, "station_codes": "MSB; MSF; MPK; MS; MSC; NBK; MKK; MBM; SP; GDY; STM; PZA; MN; TLM", "source": "CSCL Sub Urban Rail CSV; OSM station geometry"}, "geometry": {"type": "LineString", "coordinates": [[80.2918317, 13.0915941], [80.2829442, 13.0832295], [80.2730879, 13.0807537], [80.2612572, 13.0777493], [80.242421, 13.0743424], [80.232839, 13.065841], [80.2306892, 13.0516624], [80.2277752, 13.0380662], [80.2237191, 13.0233098], [80.2126063, 13.0086685], [80.1993715, 12.9947654], [80.1879401, 12.9906385], [80.1750925, 12.9846976], [80.1657933, 12.9804609]]}}, {"type": "Feature", "properties": {"name": "West Line", "mode": "suburban_rail", "operator": "Southern Railway", "decided_by": "Union government", "station_count": 10, "station_codes": "MMCC; BBQ; VJM; PER; PCW; PEW; VLK; KOTR; PVM; ABU", "source": "CSCL Sub Urban Rail CSV; OSM station geometry"}, "geometry": {"type": "LineString", "coordinates": [[80.2745107, 13.0865965], [80.2712614, 13.1020272], [80.2572195, 13.1091961], [80.2444143, 13.107719], [80.2388864, 13.1072814], [80.2262155, 13.1084975], [80.209155, 13.1103186], [80.1841521, 13.1131424], [80.1663975, 13.1143904], [80.1528611, 13.1140244]]}}]}
