{"type":"FeatureCollection","features":[{"type":"Feature","properties":{"stop_id":"ABU","stop_name":"AMBATTUR","operator":"Indian Railways","mode":"suburban_rail","source":"MobilityData Indian Railways GTFS (unofficial data)"},"geometry":{"type":"Point","coordinates":[80.1534,13.1141]}},{"type":"Feature","properties":{"stop_id":"ANNR","stop_name":"ANNANUR","operator":"Indian Railways","mode":"suburban_rail","source":"MobilityData Indian Railways GTFS (unofficial data)"},"geometry":{"type":"Point","coordinates":[80.127153,13.116428]}},{"type":"Feature","properties":{"stop_id":"APB","stop_name":"ANUPPAMBATTU","operator":"Indian Railways","mode":"suburban_rail","source":"MobilityData Indian Railways GTFS (unofficial data)"},"geometry":{"type":"Point","coordinates":[80.230579,13.304103]}},{"type":"Feature","properties":{"stop_id":"AIPP","stop_name":"ATTIPATTU PUDU NAGAR.H","operator":"Indian Railways","mode":"suburban_rail","source":"MobilityData Indian Railways GTFS (unofficial data)"},"geometry":{"type":"Point","coordinates":[80.300015,13.249052]}},{"type":"Feature","properties":{"stop_id":"AIP","stop_name":"ATTIPPATTU","operator":"Indian Railways","mode":"suburban_rail","source":"MobilityData Indian Railways GTFS (unofficial data)"},"geometry":{"type":"Point","coordinates":[80.2994,13.2491]}},{"type":"Feature","properties":{"stop_id":"AVD","stop_name":"AVADI","operator":"Indian Railways","mode":"suburban_rail","source":"MobilityData Indian Railways GTFS (unofficial data)"},"geometry":{"type":"Point","coordinates":[80.100288,13.118017]}},{"type":"Feature","properties":{"stop_id":"BBQ","stop_name":"BASIN BRIDGE JN","operator":"Indian Railways","mode":"suburban_rail","source":"MobilityData Indian Railways GTFS (unofficial data)"},"geometry":{"type":"Point","coordinates":[80.2713,13.1025]}},{"type":"Feature","properties":{"stop_id":"CGL","stop_name":"CHENGALPATTU JN.","operator":"Indian Railways","mode":"suburban_rail","source":"MobilityData Indian Railways GTFS (unofficial data)"},"geometry":{"type":"Point","coordinates":[79.981499,12.692844]}},{"type":"Feature","properties":{"stop_id":"MSB","stop_name":"CHENNAI BEACH","operator":"Indian Railways","mode":"suburban_rail","source":"MobilityData Indian Railways GTFS (unofficial data)"},"geometry":{"type":"Point","coordinates":[80.291691,13.09043]}},{"type":"Feature","properties":{"stop_id":"MASS","stop_name":"CHENNAI CENTRAL SUBURBAN STATION","operator":"Indian Railways","mode":"suburban_rail","source":"MobilityData Indian Railways GTFS (unofficial data)"},"geometry":{"type":"Point","coordinates":[80.2737504,13.0833296]}},{"type":"Feature","properties":{"stop_id":"MSC","stop_name":"CHENNAI CHETPAT","operator":"Indian Railways","mode":"suburban_rail","source":"MobilityData Indian Railways GTFS (unofficial data)"},"geometry":{"type":"Point","coordinates":[80.24296,13.074253]}},{"type":"Feature","properties":{"stop_id":"MS","stop_name":"CHENNAI EGMORE","operator":"Indian Railways","mode":"suburban_rail","source":"MobilityData Indian Railways GTFS (unofficial data)"},"geometry":{"type":"Point","coordinates":[80.260363,13.077848]}},{"type":"Feature","properties":{"stop_id":"MSF","stop_name":"CHENNAI FORT","operator":"Indian Railways","mode":"suburban_rail","source":"MobilityData Indian Railways GTFS (unofficial data)"},"geometry":{"type":"Point","coordinates":[80.282636,13.08324]}},{"type":"Feature","properties":{"stop_id":"MPK","stop_name":"CHENNAI PARK","operator":"Indian Railways","mode":"suburban_rail","source":"MobilityData Indian Railways GTFS (unofficial data)"},"geometry":{"type":"Point","coordinates":[80.2728,13.0806]}},{"type":"Feature","properties":{"stop_id":"CMP","stop_name":"CHROMEPET","operator":"Indian Railways","mode":"suburban_rail","source":"MobilityData Indian Railways GTFS (unofficial data)"},"geometry":{"type":"Point","coordinates":[80.141187,12.951657]}},{"type":"Feature","properties":{"stop_id":"EGT","stop_name":"EGATTUR","operator":"Indian Railways","mode":"suburban_rail","source":"MobilityData Indian Railways GTFS (unofficial data)"},"geometry":{"type":"Point","coordinates":[79.88451,13.106648]}},{"type":"Feature","properties":{"stop_id":"ENR","stop_name":"ENNORE","operator":"Indian Railways","mode":"suburban_rail","source":"MobilityData Indian Railways GTFS (unofficial data)"},"geometry":{"type":"Point","coordinates":[80.321217,13.217219]}},{"type":"Feature","properties":{"stop_id":"GI","stop_name":"GUDUVANCHERI","operator":"Indian Railways","mode":"suburban_rail","source":"MobilityData Indian Railways GTFS (unofficial data)"},"geometry":{"type":"Point","coordinates":[80.0572,12.845]}},{"type":"Feature","properties":{"stop_id":"GDY","stop_name":"GUINDY","operator":"Indian Railways","mode":"suburban_rail","source":"MobilityData Indian Railways GTFS (unofficial data)"},"geometry":{"type":"Point","coordinates":[80.212362,13.008112]}},{"type":"Feature","properties":{"stop_id":"HC","stop_name":"HINDU COLLEGE","operator":"Indian Railways","mode":"suburban_rail","source":"MobilityData Indian Railways GTFS (unofficial data)"},"geometry":{"type":"Point","coordinates":[80.074883,13.118518]}},{"type":"Feature","properties":{"stop_id":"KBT","stop_name":"KADAMBATTUR","operator":"Indian Railways","mode":"suburban_rail","source":"MobilityData Indian Railways GTFS (unofficial data)"},"geometry":{"type":"Point","coordinates":[79.8624,13.0997]}},{"type":"Feature","properties":{"stop_id":"KAVM","stop_name":"KATHIVAKKAM","operator":"Indian Railways","mode":"suburban_rail","source":"MobilityData Indian Railways GTFS (unofficial data)"},"geometry":{"type":"Point","coordinates":[80.316582,13.204184]}},{"type":"Feature","properties":{"stop_id":"CTM","stop_name":"KATTANGULATUR","operator":"Indian Railways","mode":"suburban_rail","source":"MobilityData Indian Railways GTFS (unofficial data)"},"geometry":{"type":"Point","coordinates":[80.026388,12.805985]}},{"type":"Feature","properties":{"stop_id":"MKK","stop_name":"KODAMBAKKAM","operator":"Indian Railways","mode":"suburban_rail","source":"MobilityData Indian Railways GTFS (unofficial data)"},"geometry":{"type":"Point","coordinates":[80.230815,13.052076]}},{"type":"Feature","properties":{"stop_id":"KOTR","stop_name":"KORATTUR","operator":"Indian Railways","mode":"suburban_rail","source":"MobilityData Indian Railways GTFS (unofficial data)"},"geometry":{"type":"Point","coordinates":[80.183802,13.113085]}},{"type":"Feature","properties":{"stop_id":"KOK","stop_name":"KORUKKUPET JN","operator":"Indian Railways","mode":"suburban_rail","source":"MobilityData Indian Railways GTFS (unofficial data)"},"geometry":{"type":"Point","coordinates":[80.277958,13.119772]}},{"type":"Feature","properties":{"stop_id":"MBM","stop_name":"MAMBALAM","operator":"Indian Railways","mode":"suburban_rail","source":"MobilityData Indian Railways GTFS (unofficial data)"},"geometry":{"type":"Point","coordinates":[80.227704,13.037694]}},{"type":"Feature","properties":{"stop_id":"MMNK","stop_name":"MARAIMALAI NAGAR KAMARAJAR","operator":"Indian Railways","mode":"suburban_rail","source":"MobilityData Indian Railways GTFS (unofficial data)"},"geometry":{"type":"Point","coordinates":[80.019865,12.79661]}},{"type":"Feature","properties":{"stop_id":"MN","stop_name":"MINAMBAKKAM","operator":"Indian Railways","mode":"suburban_rail","source":"MobilityData Indian Railways GTFS (unofficial data)"},"geometry":{"type":"Point","coordinates":[80.174875,12.98457]}},{"type":"Feature","properties":{"stop_id":"MJR","stop_name":"MINJUR","operator":"Indian Railways","mode":"suburban_rail","source":"MobilityData Indian Railways GTFS (unofficial data)"},"geometry":{"type":"Point","coordinates":[80.2597,13.2815]}},{"type":"Feature","properties":{"stop_id":"NPKM","stop_name":"NANDIYAMPAKKAM","operator":"Indian Railways","mode":"suburban_rail","source":"MobilityData Indian Railways GTFS (unofficial data)"},"geometry":{"type":"Point","coordinates":[80.27607,13.268351]}},{"type":"Feature","properties":{"stop_id":"NEC","stop_name":"NEMILICHERRY HALT","operator":"Indian Railways","mode":"suburban_rail","source":"MobilityData Indian Railways GTFS (unofficial data)"},"geometry":{"type":"Point","coordinates":[80.044928,13.121193]}},{"type":"Feature","properties":{"stop_id":"NBK","stop_name":"NUNGAMBAKKAM","operator":"Indian Railways","mode":"suburban_rail","source":"MobilityData Indian Railways GTFS (unofficial data)"},"geometry":{"type":"Point","coordinates":[80.232832,13.065453]}},{"type":"Feature","properties":{"stop_id":"PZA","stop_name":"PALAVANTHANGAL","operator":"Indian Railways","mode":"suburban_rail","source":"MobilityData Indian Railways GTFS (unofficial data)"},"geometry":{"type":"Point","coordinates":[80.186291,12.989755]}},{"type":"Feature","properties":{"stop_id":"PYV","stop_name":"PALAYASIVARAM","operator":"Indian Railways","mode":"suburban_rail","source":"MobilityData Indian Railways GTFS (unofficial data)"},"geometry":{"type":"Point","coordinates":[79.8773,12.7767]}},{"type":"Feature","properties":{"stop_id":"PV","stop_name":"PALLAVARAM","operator":"Indian Railways","mode":"suburban_rail","source":"MobilityData Indian Railways GTFS (unofficial data)"},"geometry":{"type":"Point","coordinates":[80.152731,12.968553]}},{"type":"Feature","properties":{"stop_id":"PALR","stop_name":"PALUR","operator":"Indian Railways","mode":"suburban_rail","source":"MobilityData Indian Railways GTFS (unofficial data)"},"geometry":{"type":"Point","coordinates":[79.9066,12.7663]}},{"type":"Feature","properties":{"stop_id":"PWU","stop_name":"PARANUR","operator":"Indian Railways","mode":"suburban_rail","source":"MobilityData Indian Railways GTFS (unofficial data)"},"geometry":{"type":"Point","coordinates":[79.98373,12.73027]}},{"type":"Feature","properties":{"stop_id":"PAB","stop_name":"PATTABIRAM","operator":"Indian Railways","mode":"suburban_rail","source":"MobilityData Indian Railways GTFS (unofficial data)"},"geometry":{"type":"Point","coordinates":[80.065184,13.11902]}},{"type":"Feature","properties":{"stop_id":"PRES","stop_name":"PATTABIRAM E DEPOT","operator":"Indian Railways","mode":"suburban_rail","source":"MobilityData Indian Railways GTFS (unofficial data)"},"geometry":{"type":"Point","coordinates":[80.068874,13.146018]}},{"type":"Feature","properties":{"stop_id":"PTMS","stop_name":"PATTABIRAM MILITARY SIDING","operator":"Indian Railways","mode":"suburban_rail","source":"MobilityData Indian Railways GTFS (unofficial data)"},"geometry":{"type":"Point","coordinates":[80.059862,13.136824]}},{"type":"Feature","properties":{"stop_id":"PVM","stop_name":"PATTARAVAKKAM","operator":"Indian Railways","mode":"suburban_rail","source":"MobilityData Indian Railways GTFS (unofficial data)"},"geometry":{"type":"Point","coordinates":[80.166206,13.114422]}},{"type":"Feature","properties":{"stop_id":"PER","stop_name":"PERAMBUR","operator":"Indian Railways","mode":"suburban_rail","source":"MobilityData Indian Railways GTFS (unofficial data)"},"geometry":{"type":"Point","coordinates":[80.244913,13.1074]}},{"type":"Feature","properties":{"stop_id":"PCW","stop_name":"PERAMBUR CARRIAGE WORKS","operator":"Indian Railways","mode":"suburban_rail","source":"MobilityData Indian Railways GTFS (unofficial data)"},"geometry":{"type":"Point","coordinates":[80.238819,13.1074]}},{"type":"Feature","properties":{"stop_id":"PEW","stop_name":"PERAMBUR LOCO WORKS","operator":"Indian Railways","mode":"suburban_rail","source":"MobilityData Indian Railways GTFS (unofficial data)"},"geometry":{"type":"Point","coordinates":[80.225515,13.108236]}},{"type":"Feature","properties":{"stop_id":"PRGL","stop_name":"PERUNGALATTUR","operator":"Indian Railways","mode":"suburban_rail","source":"MobilityData Indian Railways GTFS (unofficial data)"},"geometry":{"type":"Point","coordinates":[80.095096,12.905061]}},{"type":"Feature","properties":{"stop_id":"PON","stop_name":"PONNERI","operator":"Indian Railways","mode":"suburban_rail","source":"MobilityData Indian Railways GTFS (unofficial data)"},"geometry":{"type":"Point","coordinates":[80.1984,13.3319]}},{"type":"Feature","properties":{"stop_id":"POTI","stop_name":"POTHERI HALT","operator":"Indian Railways","mode":"suburban_rail","source":"MobilityData Indian Railways GTFS (unofficial data)"},"geometry":{"type":"Point","coordinates":[80.03686,12.820798]}},{"type":"Feature","properties":{"stop_id":"MAS","stop_name":"PURATCHI THALAIVAR DR. MGR CTL","operator":"Indian Railways","mode":"suburban_rail","source":"MobilityData Indian Railways GTFS (unofficial data)"},"geometry":{"type":"Point","coordinates":[80.275156,13.085061]}},{"type":"Feature","properties":{"stop_id":"PTLR","stop_name":"PUTLUR HALT","operator":"Indian Railways","mode":"suburban_rail","source":"MobilityData Indian Railways GTFS (unofficial data)"},"geometry":{"type":"Point","coordinates":[79.93721,13.123032]}},{"type":"Feature","properties":{"stop_id":"PZV","stop_name":"PUZHUTHIVAKKAM","operator":"Indian Railways","mode":"suburban_rail","source":"MobilityData Indian Railways GTFS (unofficial data)"},"geometry":{"type":"Point","coordinates":[80.2016169,12.9779112]}},{"type":"Feature","properties":{"stop_id":"RDY","stop_name":"REDDIPALAYAM","operator":"Indian Railways","mode":"suburban_rail","source":"MobilityData Indian Railways GTFS (unofficial data)"},"geometry":{"type":"Point","coordinates":[79.94751,12.737303]}},{"type":"Feature","properties":{"stop_id":"RPM","stop_name":"ROYAPURAM","operator":"Indian Railways","mode":"suburban_rail","source":"MobilityData Indian Railways GTFS (unofficial data)"},"geometry":{"type":"Point","coordinates":[80.2936,13.1039]}},{"type":"Feature","properties":{"stop_id":"SP","stop_name":"SAIDAPET","operator":"Indian Railways","mode":"suburban_rail","source":"MobilityData Indian Railways GTFS (unofficial data)"},"geometry":{"type":"Point","coordinates":[80.224013,13.02398]}},{"type":"Feature","properties":{"stop_id":"SVR","stop_name":"SEVVAPET ROAD","operator":"Indian Railways","mode":"suburban_rail","source":"MobilityData Indian Railways GTFS (unofficial data)"},"geometry":{"type":"Point","coordinates":[79.966478,13.124787]}},{"type":"Feature","properties":{"stop_id":"SKL","stop_name":"SINGAPERUMAL KOIL","operator":"Indian Railways","mode":"suburban_rail","source":"MobilityData Indian Railways GTFS (unofficial data)"},"geometry":{"type":"Point","coordinates":[80.00124,12.762752]}},{"type":"Feature","properties":{"stop_id":"STM","stop_name":"ST THOMAS MOUNT","operator":"Indian Railways","mode":"suburban_rail","source":"MobilityData Indian Railways GTFS (unofficial data)"},"geometry":{"type":"Point","coordinates":[80.199552,12.995066]}},{"type":"Feature","properties":{"stop_id":"TBM","stop_name":"TAMBARAM","operator":"Indian Railways","mode":"suburban_rail","source":"MobilityData Indian Railways GTFS (unofficial data)"},"geometry":{"type":"Point","coordinates":[80.118055,12.925766]}},{"type":"Feature","properties":{"stop_id":"TBMS","stop_name":"TAMBARAM SANATORIUM","operator":"Indian Railways","mode":"suburban_rail","source":"MobilityData Indian Railways GTFS (unofficial data)"},"geometry":{"type":"Point","coordinates":[80.131574,12.937938]}},{"type":"Feature","properties":{"stop_id":"TMVL","stop_name":"TIRUMULLAIVAYIL","operator":"Indian Railways","mode":"suburban_rail","source":"MobilityData Indian Railways GTFS (unofficial data)"},"geometry":{"type":"Point","coordinates":[80.136681,13.115258]}},{"type":"Feature","properties":{"stop_id":"TI","stop_name":"TIRUNINRAVUR","operator":"Indian Railways","mode":"suburban_rail","source":"MobilityData Indian Railways GTFS (unofficial data)"},"geometry":{"type":"Point","coordinates":[80.0269,13.1237]}},{"type":"Feature","properties":{"stop_id":"TLM","stop_name":"TIRUSULAM","operator":"Indian Railways","mode":"suburban_rail","source":"MobilityData Indian Railways GTFS (unofficial data)"},"geometry":{"type":"Point","coordinates":[80.165691,12.98022]}},{"type":"Feature","properties":{"stop_id":"TRL","stop_name":"TIRUVALLUR","operator":"Indian Railways","mode":"suburban_rail","source":"MobilityData Indian Railways GTFS (unofficial data)"},"geometry":{"type":"Point","coordinates":[79.9134,13.116]}},{"type":"Feature","properties":{"stop_id":"TVT","stop_name":"TIRUVOTTIYUR","operator":"Indian Railways","mode":"suburban_rail","source":"MobilityData Indian Railways GTFS (unofficial data)"},"geometry":{"type":"Point","coordinates":[80.2961,13.1597]}},{"type":"Feature","properties":{"stop_id":"TNP","stop_name":"TONDIARPET","operator":"Indian Railways","mode":"suburban_rail","source":"MobilityData Indian Railways GTFS (unofficial data)"},"geometry":{"type":"Point","coordinates":[80.2813,13.1276]}},{"type":"Feature","properties":{"stop_id":"UPM","stop_name":"URAPPAKKAM","operator":"Indian Railways","mode":"suburban_rail","source":"MobilityData Indian Railways GTFS (unofficial data)"},"geometry":{"type":"Point","coordinates":[80.071621,12.867117]}},{"type":"Feature","properties":{"stop_id":"VDR","stop_name":"VANDALUR","operator":"Indian Railways","mode":"suburban_rail","source":"MobilityData Indian Railways GTFS (unofficial data)"},"geometry":{"type":"Point","coordinates":[80.0844,12.8913]}},{"type":"Feature","properties":{"stop_id":"VLCY","stop_name":"VELACHERRY","operator":"Indian Railways","mode":"suburban_rail","source":"MobilityData Indian Railways GTFS (unofficial data)"},"geometry":{"type":"Point","coordinates":[80.219507,12.967382]}},{"type":"Feature","properties":{"stop_id":"VEU","stop_name":"VEPPAMPATTU","operator":"Indian Railways","mode":"suburban_rail","source":"MobilityData Indian Railways GTFS (unofficial data)"},"geometry":{"type":"Point","coordinates":[79.998407,13.123617]}},{"type":"Feature","properties":{"stop_id":"VLK","stop_name":"VILLIVAKKAM","operator":"Indian Railways","mode":"suburban_rail","source":"MobilityData Indian Railways GTFS (unofficial data)"},"geometry":{"type":"Point","coordinates":[80.2095,13.1099]}},{"type":"Feature","properties":{"stop_id":"VB","stop_name":"VILLIYAMBAKKAM","operator":"Indian Railways","mode":"suburban_rail","source":"MobilityData Indian Railways GTFS (unofficial data)"},"geometry":{"type":"Point","coordinates":[79.9294,12.7547]}},{"type":"Feature","properties":{"stop_id":"VOC","stop_name":"VOC NAGAR","operator":"Indian Railways","mode":"suburban_rail","source":"MobilityData Indian Railways GTFS (unofficial data)"},"geometry":{"type":"Point","coordinates":[80.287228,13.139833]}},{"type":"Feature","properties":{"stop_id":"VPY","stop_name":"VYASARPADI","operator":"Indian Railways","mode":"suburban_rail","source":"MobilityData Indian Railways GTFS (unofficial data)"},"geometry":{"type":"Point","coordinates":[80.257187,13.108905]}},{"type":"Feature","properties":{"stop_id":"VJM","stop_name":"VYASARPADI JEEVA","operator":"Indian Railways","mode":"suburban_rail","source":"MobilityData Indian Railways GTFS (unofficial data)"},"geometry":{"type":"Point","coordinates":[80.257273,13.108738]}},{"type":"Feature","properties":{"stop_id":"WST","stop_name":"WASHERMANPET","operator":"Indian Railways","mode":"suburban_rail","source":"MobilityData Indian Railways GTFS (unofficial data)"},"geometry":{"type":"Point","coordinates":[80.2825,13.1087]}},{"type":"Feature","properties":{"stop_id":"WCN","stop_name":"WIMCO NAGAR","operator":"Indian Railways","mode":"suburban_rail","source":"MobilityData Indian Railways GTFS (unofficial data)"},"geometry":{"type":"Point","coordinates":[80.305767,13.180451]}}]}