{"type": "FeatureCollection", "crs": {"type": "name", "properties": {"name": "urn:ogc:def:crs:OGC:1.3:CRS84"}}, "features": [{"type": "Feature", "properties": {"OBJECTID": 375, "ST_CODE": "32", "ST_NAME": "KERALA", "DT_CODE": "08", "DIST_NAME": "ERNAKULAM", "AC_NO": 75.0, "AC_NAME": "Angamaly", "PC_NO": 11.0, "PC_NAME": "CHALAKUDY", "PC_ID": 3211.0, "STATUS": null, "Shape_Leng": 1.064855, "Shape_Area": 0.034455, "representative": "Roji M. John", "party": "INC", "ac_name": "Angamaly", "office": "MLA"}, "geometry": {"type": "Polygon", "coordinates": [[[76.68774376096587, 10.267344975490289], [76.67961426558594, 10.251521119004508], [76.67357482791601, 10.215736364541613], [76.65147140757944, 10.191126660467035], [76.64146947963286, 10.161630326378486], [76.62863409908448, 10.17549177222753], [76.61357638134496, 10.17188198436611], [76.6033442602295, 10.177017855189888], [76.5928260872542, 10.175992888860776], [76.55627962680342, 10.198536580398923], [76.51658262628723, 10.194898214780835], [76.50242447071281, 10.182689253406352], [76.47184837280423, 10.184184293570354], [76.45961679078232, 10.172891262921496], [76.43891840825802, 10.16295349620691], [76.43016919455272, 10.164553478260473], [76.41730248432225, 10.156530257565407], [76.40989534779214, 10.160368752016325], [76.40333094526699, 10.153628760458957], [76.39489719574902, 10.152871918903998], [76.38969754500573, 10.163298263903812], [76.39527874841559, 10.166615614718921], [76.39373715844317, 10.177291222112274], [76.37279681332234, 10.176416983956699], [76.34686666256647, 10.188319369143642], [76.34383393818575, 10.191112220052958], [76.33643427502182, 10.186192088494124], [76.33919687183823, 10.175551735424278], [76.327875004428, 10.165455915558084], [76.32019196758529, 10.170267463872392], [76.32309314273442, 10.179804217490698], [76.32321385063875, 10.183764296685013], [76.31716763927517, 10.179407567905002], [76.3117869262257, 10.181474370046203], [76.31205108319097, 10.182908035977107], [76.31023727113319, 10.205814601262887], [76.3309228059428, 10.209027355528065], [76.34110098212466, 10.226727195104047], [76.33960385193626, 10.231977369759875], [76.35810642816921, 10.237026928150271], [76.37958998808756, 10.24544211026523], [76.37805387768435, 10.255203057675033], [76.39057783559866, 10.25576124798323], [76.3907481177315, 10.266424077809006], [76.39637938729896, 10.267782554121652], [76.40092457890626, 10.276334225444202], [76.41151292058487, 10.278772426006697], [76.41562671639991, 10.294197006886407], [76.43047289201041, 10.28976968762106], [76.44661836134833, 10.297350290783356], [76.47324573939943, 10.291823320090202], [76.49034733646045, 10.294389301724948], [76.4998465460813, 10.288405203837158], [76.52423856026138, 10.284860684273212], [76.54515316858391, 10.290228370642865], [76.55461183496828, 10.283499991131748], [76.57330643714243, 10.285010808102356], [76.56621138874465, 10.294216403464304], [76.57699835019378, 10.303296401307932], [76.58986857497479, 10.299744664684567], [76.59042519416744, 10.292638182306291], [76.60336905094101, 10.280825647485699], [76.61875740173275, 10.28098161780747], [76.62145594433645, 10.274214108794126], [76.6404352008239, 10.274956202366923], [76.64584675522366, 10.280949491325998], [76.66197140615554, 10.28068654215025], [76.66934324699332, 10.27228933658364], [76.68774376096587, 10.267344975490289]]]}}, {"type": "Feature", "properties": {"OBJECTID": 377, "ST_CODE": "32", "ST_NAME": "KERALA", "DT_CODE": "08", "DIST_NAME": "ERNAKULAM", "AC_NO": 78.0, "AC_NAME": "Paravur", "PC_NO": 12.0, "PC_NAME": "ERNAKULAM", "PC_ID": 3212.0, "STATUS": null, "Shape_Leng": 0.578453, "Shape_Area": 0.009123, "representative": "V.D. Satheesan", "party": "INC", "ac_name": "Paravur", "office": "MLA"}, "geometry": {"type": "Polygon", "coordinates": [[[76.17944044831808, 10.188446573750412], [76.21348355772005, 10.194190600316006], [76.21163769832117, 10.200969088252862], [76.2197929394926, 10.207083219115304], [76.26368046328281, 10.199986189511094], [76.25959968158008, 10.197165652073238], [76.26112026249018, 10.189815108080836], [76.27214508292928, 10.184363825230378], [76.27402423163306, 10.175070018066947], [76.29663321575038, 10.17612842118973], [76.30200054508913, 10.185669523929448], [76.31205108319097, 10.182908035977107], [76.3117869262257, 10.181474370046203], [76.3053862668628, 10.170366210332418], [76.299111296749, 10.170305230002384], [76.29939137890909, 10.166027229672977], [76.29087174233712, 10.161688678889448], [76.28633916192285, 10.153306240190886], [76.28131822355721, 10.154062967531956], [76.278509799088, 10.147838831596857], [76.2718854090844, 10.148208255106908], [76.26410885444011, 10.159726659457817], [76.25473268556505, 10.164568323369451], [76.25469868669506, 10.156132164567794], [76.26108164829947, 10.149949847107791], [76.26111443937992, 10.140844140344825], [76.27024122715096, 10.127096257286496], [76.26982337694733, 10.118204749249799], [76.26456353008291, 10.116185770357049], [76.26869022037744, 10.103894998555404], [76.26498163389533, 10.097068206232791], [76.26717679267489, 10.088935084786385], [76.28427436077317, 10.08622792487887], [76.28148597589711, 10.073087711928395], [76.2807636710067, 10.064106904809876], [76.2590944703336, 10.062530535355961], [76.25409126929668, 10.071144335442796], [76.22892941476073, 10.072056835254784], [76.22318729385859, 10.094421907944763], [76.19367890615666, 10.162846859095339], [76.17861935200153, 10.174349174574786], [76.17518660287948, 10.18645544686143], [76.17944044831808, 10.188446573750412]]]}}, {"type": "Feature", "properties": {"OBJECTID": 378, "ST_CODE": "32", "ST_NAME": "KERALA", "DT_CODE": "08", "DIST_NAME": "ERNAKULAM", "AC_NO": 79.0, "AC_NAME": "Vypeen", "PC_NO": 12.0, "PC_NAME": "ERNAKULAM", "PC_ID": 3212.0, "STATUS": null, "Shape_Leng": 0.582087, "Shape_Area": 0.008019, "representative": "K.N. Unnikrishnan", "party": "CPI(M)", "ac_name": "Vypeen", "office": "MLA"}, "geometry": {"type": "Polygon", "coordinates": [[[76.17518660287948, 10.18645544686143], [76.17861935200153, 10.174349174574786], [76.19367890615666, 10.162846859095339], [76.22318729385859, 10.094421907944763], [76.22892941476073, 10.072056835254784], [76.25409126929668, 10.071144335442796], [76.2590944703336, 10.062530535355961], [76.2807636710067, 10.064106904809876], [76.27973000913266, 10.04785300691077], [76.26775168249424, 10.045809908200738], [76.26870046275621, 10.032703463893768], [76.25778681201183, 10.026392689071372], [76.25977372557702, 10.021109182842565], [76.26783612253911, 10.02178390910018], [76.27146827743911, 10.010150289004685], [76.27372827643887, 10.001361430485701], [76.26960845606544, 9.98354994367503], [76.25656249386407, 9.977124981033114], [76.25778612852707, 9.985710743855805], [76.2513817243871, 9.98064840160248], [76.24583002413635, 9.98715809387096], [76.2402278260534, 9.97455234801248], [76.2388178185875, 9.984642746765417], [76.22566588477281, 9.990426958637272], [76.2206781340887, 9.998922258655341], [76.16745670506293, 10.171108587191611], [76.16711694479125, 10.182266528877278], [76.17518660287948, 10.18645544686143]]]}}, {"type": "Feature", "properties": {"OBJECTID": 379, "ST_CODE": "32", "ST_NAME": "KERALA", "DT_CODE": "08", "DIST_NAME": "ERNAKULAM", "AC_NO": 76.0, "AC_NAME": "Aluva", "PC_NO": 11.0, "PC_NAME": "CHALAKUDY", "PC_ID": 3211.0, "STATUS": null, "Shape_Leng": 0.581995, "Shape_Area": 0.010268, "representative": "Anwar Sadath", "party": "INC", "ac_name": "Aluva", "office": "MLA"}, "geometry": {"type": "Polygon", "coordinates": [[[76.34686666256647, 10.188319369143642], [76.37279681332234, 10.176416983956699], [76.39373715844317, 10.177291222112274], [76.39527874841559, 10.166615614718921], [76.38969754500573, 10.163298263903812], [76.39489719574902, 10.152871918903998], [76.40333094526699, 10.153628760458957], [76.40989534779214, 10.160368752016325], [76.41730248432225, 10.156530257565407], [76.43016919455272, 10.164553478260473], [76.43891840825802, 10.16295349620691], [76.42941841352899, 10.146423373340042], [76.44967987122914, 10.14479276217628], [76.44905825893159, 10.138430322201657], [76.45709043687424, 10.132671619599591], [76.45193704186107, 10.122038862203794], [76.44467891490007, 10.119421098504915], [76.43441084338576, 10.122861292214907], [76.4119403647561, 10.114544638923974], [76.4088042929838, 10.095284933353014], [76.39861612263599, 10.07508345054083], [76.39793361364542, 10.060528727219037], [76.38086953540079, 10.037047480756655], [76.37142605676718, 10.049083436851163], [76.36212284899034, 10.047417146883845], [76.34648574931794, 10.078305775391243], [76.33029411508141, 10.06596022948105], [76.32595414246975, 10.067522659443227], [76.33489376423591, 10.080789281999841], [76.33479697919728, 10.091504321067589], [76.3438163411513, 10.093764959485327], [76.34688894506883, 10.107500743064861], [76.34599314746583, 10.11260418613432], [76.33707155530811, 10.113228139367209], [76.33585791391164, 10.118821250700194], [76.3218335118072, 10.12115454804399], [76.3308550690063, 10.126718130137647], [76.32716224943835, 10.13864550118899], [76.327875004428, 10.165455915558084], [76.33919687183823, 10.175551735424278], [76.33643427502182, 10.186192088494124], [76.34383393818575, 10.191112220052958], [76.34686666256647, 10.188319369143642]]]}}, {"type": "Feature", "properties": {"OBJECTID": 380, "ST_CODE": "32", "ST_NAME": "KERALA", "DT_CODE": "08", "DIST_NAME": "ERNAKULAM", "AC_NO": 74.0, "AC_NAME": "Perumbavoor", "PC_NO": 11.0, "PC_NAME": "CHALAKUDY", "PC_ID": 3211.0, "STATUS": null, "Shape_Leng": 0.719864, "Shape_Area": 0.018829, "representative": "Eldhose P. Kunnappilly", "party": "INC", "ac_name": "Perumbavoor", "office": "MLA"}, "geometry": {"type": "Polygon", "coordinates": [[[76.43891840825802, 10.16295349620691], [76.45961679078232, 10.172891262921496], [76.47184837280423, 10.184184293570354], [76.50242447071281, 10.182689253406352], [76.51658262628723, 10.194898214780835], [76.55627962680342, 10.198536580398923], [76.5928260872542, 10.175992888860776], [76.6033442602295, 10.177017855189888], [76.61357638134496, 10.17188198436611], [76.62863409908448, 10.17549177222753], [76.64146947963286, 10.161630326378486], [76.64160339857801, 10.161384780882997], [76.636913253344, 10.150000255907116], [76.60811889227313, 10.15100099809763], [76.60014815061669, 10.145520123954611], [76.58550868597712, 10.143887261787768], [76.57912614795345, 10.13754817091143], [76.57179864459181, 10.105635644469487], [76.57476165802416, 10.090093396293241], [76.56841944829898, 10.083346929617164], [76.55827132206394, 10.084475153405663], [76.55724518661611, 10.074127592614332], [76.56232801182836, 10.063069017021576], [76.55678131630475, 10.054501053580793], [76.5523824956557, 10.058897955076588], [76.54463224708059, 10.049238664332961], [76.53968075706132, 10.052465066709487], [76.52805325865103, 10.050561186649475], [76.52633083390094, 10.054832235219521], [76.5206279405271, 10.052552925976784], [76.50476106137393, 10.063918065166604], [76.49472065053766, 10.06488551625364], [76.4839562171058, 10.047970768636105], [76.47351700100887, 10.043583488087563], [76.46424737841386, 10.049352012185636], [76.45723469262703, 10.048076563082986], [76.4382127902881, 10.064588054695037], [76.43402595333515, 10.064075476202333], [76.43255505367284, 10.086941568398686], [76.43795824167955, 10.091606276308653], [76.43984141664811, 10.10262885473793], [76.45062153155851, 10.106582736704013], [76.46247516000068, 10.103741562523169], [76.46581746250592, 10.114427057063097], [76.46006337162737, 10.121234289131166], [76.45193704186107, 10.122038862203794], [76.45709043687424, 10.132671619599591], [76.44905825893159, 10.138430322201657], [76.44967987122914, 10.14479276217628], [76.42941841352899, 10.146423373340042], [76.43891840825802, 10.16295349620691]]]}}, {"type": "Feature", "properties": {"OBJECTID": 381, "ST_CODE": "32", "ST_NAME": "KERALA", "DT_CODE": "08", "DIST_NAME": "ERNAKULAM", "AC_NO": 77.0, "AC_NAME": "Kalamassery", "PC_NO": 12.0, "PC_NAME": "ERNAKULAM", "PC_ID": 3212.0, "STATUS": null, "Shape_Leng": 0.671245, "Shape_Area": 0.009721, "representative": "P. Rajeeve", "party": "CPI(M)", "ac_name": "Kalamassery", "office": "MLA"}, "geometry": {"type": "Polygon", "coordinates": [[[76.32309314273442, 10.179804217490698], [76.32019196758529, 10.170267463872392], [76.327875004428, 10.165455915558084], [76.32716224943835, 10.13864550118899], [76.3308550690063, 10.126718130137647], [76.3218335118072, 10.12115454804399], [76.33585791391164, 10.118821250700194], [76.33707155530811, 10.113228139367209], [76.34599314746583, 10.11260418613432], [76.34688894506883, 10.107500743064861], [76.3438163411513, 10.093764959485327], [76.33479697919728, 10.091504321067589], [76.33489376423591, 10.080789281999841], [76.32595414246975, 10.067522659443227], [76.33029411508141, 10.06596022948105], [76.34648574931794, 10.078305775391243], [76.36212284899034, 10.047417146883845], [76.37142605676718, 10.049083436851163], [76.38086953540079, 10.037047480756655], [76.37933355000337, 10.018076959384189], [76.36905533953234, 10.005709223601855], [76.36745196073946, 9.995434809169183], [76.36076713269705, 9.991640877924226], [76.35645908421941, 9.991808715699733], [76.35011065298431, 9.992086880505155], [76.34986523699115, 10.017559948133169], [76.35414622576775, 10.024984979373357], [76.35067450632346, 10.031310137952573], [76.33616322205512, 10.03984567273966], [76.3323835108904, 10.032423387129654], [76.3101427622787, 10.024955448335334], [76.29958245966282, 10.045429311513544], [76.2984085781934, 10.048779415637568], [76.29284370647196, 10.057676316908555], [76.29433914413625, 10.065663901967525], [76.28148597589711, 10.073087711928395], [76.28427436077317, 10.08622792487887], [76.26717679267489, 10.088935084786385], [76.26498163389533, 10.097068206232791], [76.26869022037744, 10.103894998555404], [76.26456353008291, 10.116185770357049], [76.26982337694733, 10.118204749249799], [76.27024122715096, 10.127096257286496], [76.26111443937992, 10.140844140344825], [76.26108164829947, 10.149949847107791], [76.25469868669506, 10.156132164567794], [76.25473268556505, 10.164568323369451], [76.26410885444011, 10.159726659457817], [76.2718854090844, 10.148208255106908], [76.278509799088, 10.147838831596857], [76.28131822355721, 10.154062967531956], [76.28633916192285, 10.153306240190886], [76.29087174233712, 10.161688678889448], [76.29939137890909, 10.166027229672977], [76.299111296749, 10.170305230002384], [76.3053862668628, 10.170366210332418], [76.3117869262257, 10.181474370046203], [76.31716763927517, 10.179407567905002], [76.32321385063875, 10.183764296685013], [76.32309314273442, 10.179804217490698]]]}}, {"type": "Feature", "properties": {"OBJECTID": 382, "ST_CODE": "32", "ST_NAME": "KERALA", "DT_CODE": "08", "DIST_NAME": "ERNAKULAM", "AC_NO": 87.0, "AC_NAME": "Kothamangalam", "PC_NO": 13.0, "PC_NAME": "IDUKKI", "PC_ID": 3213.0, "STATUS": null, "Shape_Leng": 0.803282, "Shape_Area": 0.021967, "representative": "Antony John", "party": "CPI(M)", "ac_name": "Kothamangalam", "office": "MLA"}, "geometry": {"type": "Polygon", "coordinates": [[[76.64160339857801, 10.161384780882997], [76.65872806145092, 10.138839627946538], [76.67049475692755, 10.143075374528962], [76.677039643265, 10.139338449509864], [76.72649458925395, 10.09288167864662], [76.7414040159826, 10.085376325357174], [76.76714664280337, 10.061706768052943], [76.77506997220149, 10.060303853540063], [76.78180370807473, 10.059015961417515], [76.78596943793929, 10.050063726659687], [76.79704724103738, 10.041942189380563], [76.83969716549183, 10.024532373969919], [76.8308325408891, 10.013055147776925], [76.8256889313991, 10.013635970423763], [76.78326755525353, 10.036342376299672], [76.76955211433864, 10.018104693576788], [76.73340239520445, 10.027372351153133], [76.67463429673546, 10.021336950539876], [76.66292738189321, 10.028726125810124], [76.65347627071338, 10.029232455813258], [76.65575674277949, 10.019459144523921], [76.6522340407684, 10.014557935600294], [76.64534501715889, 10.014018244346573], [76.62814623845821, 10.00106974527256], [76.61269759801581, 10.004476461719378], [76.59958855916472, 9.99937213551567], [76.59388178611562, 10.003762066366335], [76.59992902540426, 10.009184733688585], [76.59805483915954, 10.03217059849436], [76.58581501305247, 10.03777305108548], [76.57769427257267, 10.034538849788134], [76.56983202242992, 10.048065287383167], [76.55678131630475, 10.054501053580793], [76.56232801182836, 10.063069017021576], [76.55724518661611, 10.074127592614332], [76.55827132206394, 10.084475153405663], [76.56841944829898, 10.083346929617164], [76.57476165802416, 10.090093396293241], [76.57179864459181, 10.105635644469487], [76.57912614795345, 10.13754817091143], [76.58550868597712, 10.143887261787768], [76.60014815061669, 10.145520123954611], [76.60811889227313, 10.15100099809763], [76.636913253344, 10.150000255907116], [76.64160339857801, 10.161384780882997]]]}}, {"type": "Feature", "properties": {"OBJECTID": 383, "ST_CODE": "32", "ST_NAME": "KERALA", "DT_CODE": "08", "DIST_NAME": "ERNAKULAM", "AC_NO": 84.0, "AC_NAME": "Kunnathunad (SC)", "PC_NO": 11.0, "PC_NAME": "CHALAKUDY", "PC_ID": 3211.0, "STATUS": null, "Shape_Leng": 0.788654, "Shape_Area": 0.019633, "representative": "P.V. Sreenijin", "party": "CPI(M)", "ac_name": "Kunnathunad (SC)", "office": "MLA"}, "geometry": {"type": "Polygon", "coordinates": [[[76.45193704186107, 10.122038862203794], [76.46006337162737, 10.121234289131166], [76.46581746250592, 10.114427057063097], [76.46247516000068, 10.103741562523169], [76.45062153155851, 10.106582736704013], [76.43984141664811, 10.10262885473793], [76.43795824167955, 10.091606276308653], [76.43255505367284, 10.086941568398686], [76.43402595333515, 10.064075476202333], [76.4382127902881, 10.064588054695037], [76.45723469262703, 10.048076563082986], [76.46424737841386, 10.049352012185636], [76.47351700100887, 10.043583488087563], [76.4839562171058, 10.047970768636105], [76.49472065053766, 10.06488551625364], [76.50476106137393, 10.063918065166604], [76.5206279405271, 10.052552925976784], [76.52633083390094, 10.054832235219521], [76.52805325865103, 10.050561186649475], [76.53968075706132, 10.052465066709487], [76.54463224708059, 10.049238664332961], [76.53872715823184, 10.045652305609451], [76.53788944694048, 10.025855466456676], [76.54509449771297, 10.009090625931663], [76.54008365153936, 10.00444887951221], [76.52902575223675, 10.008938723243546], [76.51081623178374, 10.000323815191962], [76.50579650750285, 9.993818317361502], [76.50634079609091, 9.973268638636796], [76.49399931961295, 9.967063124963317], [76.5026744858389, 9.960292624804822], [76.49984335438734, 9.955621465158515], [76.4869692697161, 9.954250606979997], [76.47190080507812, 9.937611879284873], [76.45933911340938, 9.945071877065516], [76.45364274731497, 9.941629179642973], [76.44512239847995, 9.94424756567264], [76.44390796118353, 9.93268351353339], [76.43867785040254, 9.926322452219438], [76.44139010856674, 9.91992299614941], [76.42561758358465, 9.913533979409692], [76.42104514072071, 9.914643158255217], [76.41694031834106, 9.927224245602474], [76.37899239668184, 9.94247757398091], [76.37153388008454, 9.951568395165339], [76.37414099041445, 9.958972135855447], [76.35805929470075, 9.97523652614484], [76.35951321336415, 9.981465403305776], [76.3557975591101, 9.97965382516395], [76.36076713269705, 9.991640877924226], [76.36745196073946, 9.995434809169183], [76.36905533953234, 10.005709223601855], [76.37933355000337, 10.018076959384189], [76.38086953540079, 10.037047480756655], [76.39793361364542, 10.060528727219037], [76.39861612263599, 10.07508345054083], [76.4088042929838, 10.095284933353014], [76.4119403647561, 10.114544638923974], [76.43441084338576, 10.122861292214907], [76.44467891490007, 10.119421098504915], [76.45193704186107, 10.122038862203794]]]}}, {"type": "Feature", "properties": {"OBJECTID": 384, "ST_CODE": "32", "ST_NAME": "KERALA", "DT_CODE": "08", "DIST_NAME": "ERNAKULAM", "AC_NO": 82.0, "AC_NAME": "Ernakulam", "PC_NO": 12.0, "PC_NAME": "ERNAKULAM", "PC_ID": 3212.0, "STATUS": null, "Shape_Leng": 0.322336, "Shape_Area": 0.002298, "representative": "T.J. Vinod", "party": "INC", "ac_name": "Ernakulam", "office": "MLA"}, "geometry": {"type": "Polygon", "coordinates": [[[76.29433914413625, 10.065663901967525], [76.29284370647196, 10.057676316908555], [76.2984085781934, 10.048779415637568], [76.28744427043677, 10.038699333007855], [76.2903450363944, 10.03029194801502], [76.28249313385112, 10.021926412074322], [76.29264349220347, 9.994606371686757], [76.29097202753712, 9.982405745229016], [76.29814651934646, 9.972083324985533], [76.30010005637257, 9.95408170800448], [76.29682014433428, 9.953728173716286], [76.29809935799904, 9.946177175336402], [76.28974705558221, 9.943135862430154], [76.26960845606544, 9.98354994367503], [76.27372827643887, 10.001361430485701], [76.27146827743911, 10.010150289004685], [76.26783612253911, 10.02178390910018], [76.25977372557702, 10.021109182842565], [76.25778681201183, 10.026392689071372], [76.26870046275621, 10.032703463893768], [76.26775168249424, 10.045809908200738], [76.27973000913266, 10.04785300691077], [76.2807636710067, 10.064106904809876], [76.28148597589711, 10.073087711928395], [76.29433914413625, 10.065663901967525]]]}}, {"type": "Feature", "properties": {"OBJECTID": 385, "ST_CODE": "32", "ST_NAME": "KERALA", "DT_CODE": "08", "DIST_NAME": "ERNAKULAM", "AC_NO": 86.0, "AC_NAME": "Muvattupuzha", "PC_NO": 13.0, "PC_NAME": "IDUKKI", "PC_ID": 3213.0, "STATUS": null, "Shape_Leng": 1.021929, "Shape_Area": 0.023547, "representative": "Mathew Kuzhalnadan", "party": "INC", "ac_name": "Muvattupuzha", "office": "MLA"}, "geometry": {"type": "Polygon", "coordinates": [[[76.55678131630475, 10.054501053580793], [76.56983202242992, 10.048065287383167], [76.57769427257267, 10.034538849788134], [76.58581501305247, 10.03777305108548], [76.59805483915954, 10.03217059849436], [76.59992902540426, 10.009184733688585], [76.59388178611562, 10.003762066366335], [76.59958855916472, 9.99937213551567], [76.61269759801581, 10.004476461719378], [76.62814623845821, 10.00106974527256], [76.64534501715889, 10.014018244346573], [76.6522340407684, 10.014557935600294], [76.65575674277949, 10.019459144523921], [76.65347627071338, 10.029232455813258], [76.66292738189321, 10.028726125810124], [76.67463429673546, 10.021336950539876], [76.73340239520445, 10.027372351153133], [76.76955211433864, 10.018104693576788], [76.76420836162663, 10.010987399548924], [76.76845241974343, 10.00156803084002], [76.7659600458195, 9.99722404275542], [76.77016981998128, 9.994528700838941], [76.76462976505167, 9.993242247631656], [76.76496048264022, 9.989517248522247], [76.75994328455499, 9.991742262095784], [76.76580960183173, 9.981431235363289], [76.74423209063855, 9.991441832774399], [76.72621416715015, 9.981711427240612], [76.71962623206502, 9.987563353565974], [76.7099333417504, 9.98859701633927], [76.71333360825946, 9.97867916241347], [76.7084576576948, 9.975912291119414], [76.72304732057745, 9.95312784027766], [76.71352805247767, 9.949670104391828], [76.711422435597, 9.94461166069965], [76.70546692715703, 9.9460320040738], [76.69782190195929, 9.929752472798441], [76.69321135032362, 9.93242156530306], [76.69166445525047, 9.925650025528284], [76.68662186210929, 9.923640622616688], [76.69867344212571, 9.918692610275798], [76.69593001615738, 9.90915838285315], [76.68326347253128, 9.911258038127983], [76.68152166829043, 9.918223703760987], [76.66145512785192, 9.917136867672355], [76.64899189575942, 9.92220904221358], [76.63010534408642, 9.915602997480391], [76.62872303933688, 9.900232366930254], [76.63680518271309, 9.874210200240611], [76.63187932966741, 9.872198546325876], [76.63506729951632, 9.865385133217387], [76.62938078189762, 9.855940691409842], [76.61978037606355, 9.857278235102513], [76.6096475266121, 9.85139874905309], [76.61044944398668, 9.859791723309456], [76.58427007040746, 9.893377492377397], [76.58253146685377, 9.911929127527287], [76.56327787757203, 9.91993481234175], [76.53983540268172, 9.942947533601853], [76.54627577250898, 9.95588976350183], [76.54319936805643, 9.959136525630186], [76.54827950879235, 9.964944655871193], [76.54721058450093, 9.971247255856213], [76.53043614281381, 9.963141515168843], [76.51373721180295, 9.973176989626438], [76.50634079609091, 9.973268638636796], [76.50579650750285, 9.993818317361502], [76.51081623178374, 10.000323815191962], [76.52902575223675, 10.008938723243546], [76.54008365153936, 10.00444887951221], [76.54509449771297, 10.009090625931663], [76.53788944694048, 10.025855466456676], [76.53872715823184, 10.045652305609451], [76.54463224708059, 10.049238664332961], [76.5523824956557, 10.058897955076588], [76.55678131630475, 10.054501053580793]]]}}, {"type": "Feature", "properties": {"OBJECTID": 386, "ST_CODE": "32", "ST_NAME": "KERALA", "DT_CODE": "08", "DIST_NAME": "ERNAKULAM", "AC_NO": 83.0, "AC_NAME": "Thrikkakara", "PC_NO": 12.0, "PC_NAME": "ERNAKULAM", "PC_ID": 3212.0, "STATUS": null, "Shape_Leng": 0.408918, "Shape_Area": 0.004245, "representative": "Uma Thomas", "party": "INC", "ac_name": "Thrikkakara", "office": "MLA"}, "geometry": {"type": "Polygon", "coordinates": [[[76.29958245966282, 10.045429311513544], [76.3101427622787, 10.024955448335334], [76.3323835108904, 10.032423387129654], [76.33616322205512, 10.03984567273966], [76.35067450632346, 10.031310137952573], [76.35414622576775, 10.024984979373357], [76.34986523699115, 10.017559948133169], [76.35011065298431, 9.992086880505155], [76.34307907334062, 9.980435223606719], [76.33699779381317, 9.98054805255066], [76.33678349166485, 9.988532802047246], [76.33096556420946, 9.991309368032944], [76.32490028721855, 9.984732662782221], [76.33207202080717, 9.979428241020571], [76.32515565960608, 9.977728425226701], [76.3202166144053, 9.964383341318182], [76.33090089845774, 9.959503927464311], [76.31454440500033, 9.954135307598392], [76.30630218229993, 9.945937181355873], [76.3028318927777, 9.936795465738214], [76.30737006337779, 9.92770362472254], [76.30081192373137, 9.922805980711473], [76.28974705558221, 9.943135862430154], [76.29809935799904, 9.946177175336402], [76.29682014433428, 9.953728173716286], [76.30010005637257, 9.95408170800448], [76.29814651934646, 9.972083324985533], [76.29097202753712, 9.982405745229016], [76.29264349220347, 9.994606371686757], [76.28249313385112, 10.021926412074322], [76.2903450363944, 10.03029194801502], [76.28744427043677, 10.038699333007855], [76.2984085781934, 10.048779415637568], [76.29958245966282, 10.045429311513544]]]}}, {"type": "Feature", "properties": {"OBJECTID": 389, "ST_CODE": "32", "ST_NAME": "KERALA", "DT_CODE": "08", "DIST_NAME": "ERNAKULAM", "AC_NO": 81.0, "AC_NAME": "Thripunithura", "PC_NO": 12.0, "PC_NAME": "ERNAKULAM", "PC_ID": 3212.0, "STATUS": null, "Shape_Leng": 0.453752, "Shape_Area": 0.006423, "representative": "K. Babu", "party": "INC", "ac_name": "Thripunithura", "office": "MLA"}, "geometry": {"type": "Polygon", "coordinates": [[[76.33096556420946, 9.991309368032944], [76.33678349166485, 9.988532802047246], [76.33699779381317, 9.98054805255066], [76.34307907334062, 9.980435223606719], [76.35109759058139, 9.96895798752115], [76.36411643912243, 9.923088991963482], [76.38084465205912, 9.924001251656478], [76.38469910228179, 9.914663252706987], [76.37434102212052, 9.899609875995054], [76.38064258608654, 9.873388823335574], [76.38648335812053, 9.867030975299315], [76.38316484448205, 9.862939503355449], [76.38943789094594, 9.850643777188623], [76.38809851533426, 9.844210272785915], [76.37258360564891, 9.836796835605526], [76.37096975515016, 9.857366291321341], [76.3530856220039, 9.883785850436709], [76.33375015574512, 9.876736990319898], [76.31151106458401, 9.883286496474682], [76.3029962357877, 9.889907563483291], [76.30081192373137, 9.922805980711473], [76.30737006337779, 9.92770362472254], [76.3028318927777, 9.936795465738214], [76.30630218229993, 9.945937181355873], [76.31454440500033, 9.954135307598392], [76.33090089845774, 9.959503927464311], [76.3202166144053, 9.964383341318182], [76.32515565960608, 9.977728425226701], [76.33207202080717, 9.979428241020571], [76.32490028721855, 9.984732662782221], [76.33096556420946, 9.991309368032944]]]}}, {"type": "Feature", "properties": {"OBJECTID": 390, "ST_CODE": "32", "ST_NAME": "KERALA", "DT_CODE": "08", "DIST_NAME": "ERNAKULAM", "AC_NO": 85.0, "AC_NAME": "Piravom", "PC_NO": 14.0, "PC_NAME": "KOTTAYAM", "PC_ID": 3214.0, "STATUS": null, "Shape_Leng": 1.030827, "Shape_Area": 0.02356, "representative": "Anoop Jacob", "party": "Kerala Congress (Jacob)", "ac_name": "Piravom", "office": "MLA"}, "geometry": {"type": "Polygon", "coordinates": [[[76.35645908421941, 9.991808715699733], [76.36076713269705, 9.991640877924226], [76.3557975591101, 9.97965382516395], [76.35951321336415, 9.981465403305776], [76.35805929470075, 9.97523652614484], [76.37414099041445, 9.958972135855447], [76.37153388008454, 9.951568395165339], [76.37899239668184, 9.94247757398091], [76.41694031834106, 9.927224245602474], [76.42104514072071, 9.914643158255217], [76.42561758358465, 9.913533979409692], [76.44139010856674, 9.91992299614941], [76.43867785040254, 9.926322452219438], [76.44390796118353, 9.93268351353339], [76.44512239847995, 9.94424756567264], [76.45364274731497, 9.941629179642973], [76.45933911340938, 9.945071877065516], [76.47190080507812, 9.937611879284873], [76.4869692697161, 9.954250606979997], [76.49984335438734, 9.955621465158515], [76.5026744858389, 9.960292624804822], [76.49399931961295, 9.967063124963317], [76.50634079609091, 9.973268638636796], [76.51373721180295, 9.973176989626438], [76.53043614281381, 9.963141515168843], [76.54721058450093, 9.971247255856213], [76.54827950879235, 9.964944655871193], [76.54319936805643, 9.959136525630186], [76.54627577250898, 9.95588976350183], [76.53983540268172, 9.942947533601853], [76.56327787757203, 9.91993481234175], [76.58253146685377, 9.911929127527287], [76.58427007040746, 9.893377492377397], [76.61044944398668, 9.859791723309456], [76.6096475266121, 9.85139874905309], [76.61671941656789, 9.837581640680241], [76.60965171025828, 9.84268952819923], [76.60599078334803, 9.840357355007995], [76.6022643651084, 9.845565557404598], [76.57995617543719, 9.84342106373117], [76.58031075203962, 9.822094198088791], [76.57540195823384, 9.819506598550731], [76.56792341013733, 9.824274431719687], [76.56108184465148, 9.820616345767803], [76.55698608923666, 9.803665933735886], [76.54727250911907, 9.799528361644605], [76.54184145561874, 9.808000737943757], [76.54398519386166, 9.813318177392034], [76.53912019344222, 9.81370549111557], [76.53924155965029, 9.822006615812711], [76.52391886926046, 9.826641012972402], [76.52015344652438, 9.82304633282206], [76.51495162751564, 9.848644371140892], [76.49889030234561, 9.851808575505402], [76.49894613675485, 9.860653977998709], [76.48743015068095, 9.853852948554788], [76.48428649492587, 9.860165791817906], [76.47603215655886, 9.861796304955533], [76.45861565199078, 9.848616091059796], [76.44649777125522, 9.834760427851506], [76.42846639121103, 9.824806031772994], [76.41361538714045, 9.822759352861908], [76.40598979629215, 9.830173795484313], [76.39354717036565, 9.831493067651024], [76.38809851533426, 9.844210272785915], [76.38943789094594, 9.850643777188623], [76.38316484448205, 9.862939503355449], [76.38648335812053, 9.867030975299315], [76.38064258608654, 9.873388823335574], [76.37434102212052, 9.899609875995054], [76.38469910228179, 9.914663252706987], [76.38084465205912, 9.924001251656478], [76.36411643912243, 9.923088991963482], [76.35109759058139, 9.96895798752115], [76.34307907334062, 9.980435223606719], [76.35011065298431, 9.992086880505155], [76.35645908421941, 9.991808715699733]]]}}, {"type": "Feature", "properties": {"OBJECTID": 391, "ST_CODE": "32", "ST_NAME": "KERALA", "DT_CODE": "08", "DIST_NAME": "ERNAKULAM", "AC_NO": 80.0, "AC_NAME": "Kochi", "PC_NO": 12.0, "PC_NAME": "ERNAKULAM", "PC_ID": 3212.0, "STATUS": null, "Shape_Leng": 0.487966, "Shape_Area": 0.00625, "representative": "K.J. Maxy", "party": "CPI(M)", "ac_name": "Kochi", "office": "MLA"}, "geometry": {"type": "Polygon", "coordinates": [[[76.26960845606544, 9.98354994367503], [76.28974705558221, 9.943135862430154], [76.30081192373137, 9.922805980711473], [76.3029962357877, 9.889907563483291], [76.2926538721785, 9.890256084051089], [76.29856684088708, 9.853176566645288], [76.28574306788835, 9.849071539220233], [76.28429329060293, 9.836567724321071], [76.2792563065334, 9.830384769241732], [76.28020687644624, 9.822449353854665], [76.28680700633834, 9.818624544387262], [76.29162549112357, 9.806312383110026], [76.28201987281892, 9.804174480567895], [76.28498906009708, 9.790626550075274], [76.27944968055834, 9.789034044985215], [76.27732211032719, 9.789055760914664], [76.26096193234736, 9.88146597727308], [76.23777424168799, 9.956527454778268], [76.2402278260534, 9.97455234801248], [76.24583002413635, 9.98715809387096], [76.2513817243871, 9.98064840160248], [76.25778612852707, 9.985710743855805], [76.25656249386407, 9.977124981033114], [76.26960845606544, 9.98354994367503]]]}}]}