{"type":"FeatureCollection","features":[{"type":"Feature","properties":{"route_id":"r10831465","route_short_name":"","route_long_name":"Vypin ↔ Fort Kochi (Ro Ro)","agency_id":"Kochi city boat","mode":"ferry","operator":"Kochi water transport / ferry services","source_feed_id":"kochi_ferry"},"geometry":{"type":"LineString","coordinates":[[76.2450662,9.968611],[76.2454026,9.973139],[76.2453431,9.9733699],[76.2451048,9.9735477],[76.2445868,9.9738544]]}},{"type":"Feature","properties":{"route_id":"r13498566","route_short_name":"","route_long_name":"Ernakulam ↔ Vypin","agency_id":"Kochi city boat","mode":"ferry","operator":"Kochi water transport / ferry services","source_feed_id":"kochi_ferry"},"geometry":{"type":"LineString","coordinates":[[76.2780566,9.9726176],[76.2773198,9.9713417],[76.2703299,9.9700341],[76.2630665,9.9708847],[76.2622058,9.9701001],[76.2617576,9.9708266],[76.2578174,9.971244],[76.2518627,9.9691296],[76.2444836,9.9743419]]}},{"type":"Feature","properties":{"route_id":"r13498742","route_short_name":"","route_long_name":"Ernakulam ↔ Fort Kochi","agency_id":"Kochi city boat","mode":"ferry","operator":"Kochi water transport / ferry services","source_feed_id":"kochi_ferry"},"geometry":{"type":"LineString","coordinates":[[76.2782106,9.9722775],[76.277529,9.9720841],[76.276778,9.9718674],[76.2752947,9.9714342],[76.272353,9.9705711],[76.2577728,9.9717568],[76.2518627,9.9691296]]}},{"type":"Feature","properties":{"route_id":"r13498857","route_short_name":"","route_long_name":"Ernakulam ↔ Fort Kochi via Wellington Island","agency_id":"Kochi city boat","mode":"ferry","operator":"Kochi water transport / ferry services","source_feed_id":"kochi_ferry"},"geometry":{"type":"LineString","coordinates":[[76.2780566,9.9726176],[76.2773198,9.9713417],[76.2703299,9.9700341],[76.2630665,9.9708847],[76.2622058,9.9701001],[76.2617576,9.9708266],[76.2578174,9.971244],[76.2518627,9.9691296]]}},{"type":"Feature","properties":{"route_id":"r13910870","route_short_name":"","route_long_name":"High Court ↔ Mulavukad","agency_id":"Kochi city boat","mode":"ferry","operator":"Kochi water transport / ferry services","source_feed_id":"kochi_ferry"},"geometry":{"type":"LineString","coordinates":[[76.2722587,9.984635],[76.2693751,9.9858734],[76.2671274,9.9947674],[76.2666044,9.9966402],[76.2667807,9.9969288],[76.2674059,9.9970185],[76.266774,9.9969625],[76.2664702,9.9971131],[76.2663428,9.9975251],[76.2656585,9.9975377],[76.265053,9.9974014],[76.2656404,9.9975813],[76.2662262,9.9979782],[76.2653196,10.0014266],[76.2647751,10.0036428],[76.2644291,10.0037378],[76.2637119,10.0036409],[76.2644076,10.0038435],[76.2646866,10.0041737],[76.2644801,10.0053438],[76.2632811,10.011707],[76.2630987,10.0117809],[76.2618874,10.0115788],[76.2630826,10.0118813],[76.2632006,10.0120345],[76.2614035,10.018997],[76.2605667,10.0201592],[76.2591505,10.0212791],[76.2585068,10.022399],[76.2581205,10.0235823],[76.2579489,10.0243641],[76.2577879,10.024512],[76.2573833,10.0245128],[76.2577906,10.0245609],[76.257906,10.0247656],[76.2580669,10.0261087],[76.2581728,10.0261575],[76.2583663,10.02619],[76.2581836,10.0262407],[76.2580551,10.0263432],[76.258123,10.0269181],[76.2583629,10.027522],[76.2588698,10.0283932],[76.2592431,10.0290394],[76.2603406,10.0300043],[76.261954,10.0306126],[76.2632936,10.0306928],[76.2648731,10.0308064],[76.2655234,10.0304878],[76.2658507,10.0309606],[76.267114,10.0313409],[76.2676538,10.0314532],[76.2679115,10.0312174],[76.2680058,10.0314842],[76.2687126,10.0318863],[76.269131,10.0330907],[76.2692571,10.0361175],[76.2692839,10.0379399],[76.2693348,10.0380838]]}},{"type":"Feature","properties":{"route_id":"r13911254","route_short_name":"","route_long_name":"Ernakulam Boat Jetty ↔ Eloor","agency_id":"Kochi city boat","mode":"ferry","operator":"Kochi water transport / ferry services","source_feed_id":"kochi_ferry"},"geometry":{"type":"LineString","coordinates":[[76.282807,10.0731883],[76.282239,10.0729755],[76.2809354,10.0716234],[76.2802134,10.068625],[76.2811607,10.0674772],[76.2808764,10.0637746],[76.2811929,10.0614321],[76.2799564,10.06083],[76.2770355,10.0598792],[76.2751874,10.0588915],[76.2732321,10.0589549],[76.2715839,10.0584729],[76.2710112,10.058947],[76.2693429,10.0582075],[76.2681091,10.0573782],[76.2674224,10.0559996],[76.2667006,10.0544127],[76.2668216,10.0534959],[76.2662932,10.0518202],[76.2663764,10.0517053],[76.2665833,10.0516509],[76.2663388,10.0515733],[76.2662141,10.0514786],[76.2655127,10.0494208],[76.2650624,10.048459],[76.2657112,10.0472578],[76.2671006,10.046027],[76.2672172,10.0447791],[76.2673393,10.0431139],[76.2669725,10.0428623],[76.2675753,10.0428894],[76.2677336,10.0424774],[76.2686267,10.0388934],[76.2684204,10.038671],[76.2693348,10.0380838],[76.2692839,10.0379399],[76.2692571,10.0361175],[76.269131,10.0330907],[76.2687126,10.0318863],[76.2680058,10.0314842],[76.2679115,10.0312174],[76.2676538,10.0314532],[76.267114,10.0313409],[76.2658507,10.0309606],[76.2655234,10.0304878],[76.2648731,10.0308064],[76.2632936,10.0306928],[76.261954,10.0306126],[76.2603406,10.0300043],[76.2592431,10.0290394],[76.2588698,10.0283932],[76.2583629,10.027522],[76.258123,10.0269181],[76.2580551,10.0263432],[76.2581836,10.0262407],[76.2583663,10.02619],[76.2581728,10.0261575],[76.2580669,10.0261087],[76.257906,10.0247656],[76.2577906,10.0245609],[76.2573833,10.0245128],[76.2577879,10.024512],[76.2579489,10.0243641],[76.2581205,10.0235823],[76.2585068,10.022399],[76.2591505,10.0212791],[76.2605667,10.0201592],[76.2614035,10.018997],[76.2632006,10.0120345],[76.2630826,10.0118813],[76.2618874,10.0115788],[76.2630987,10.0117809],[76.2632811,10.011707],[76.2644801,10.0053438],[76.2646866,10.0041737],[76.2644076,10.0038435],[76.2637119,10.0036409],[76.2644291,10.0037378],[76.2647751,10.0036428],[76.2653196,10.0014266],[76.2662262,9.9979782],[76.2656404,9.9975813],[76.265053,9.9974014],[76.2656585,9.9975377],[76.2663428,9.9975251],[76.2664702,9.9971131],[76.266774,9.9969625],[76.2674059,9.9970185],[76.2667807,9.9969288],[76.2666044,9.9966402],[76.2671274,9.9947674],[76.2693751,9.9858734],[76.2722587,9.984635]]}},{"type":"Feature","properties":{"route_id":"r13911262","route_short_name":"","route_long_name":"Eloor ↔ Chittoor","agency_id":"Kochi city boat","mode":"ferry","operator":"Kochi water transport / ferry services","source_feed_id":"kochi_ferry"},"geometry":{"type":"LineString","coordinates":[[76.2693348,10.0380838],[76.2684204,10.038671],[76.2686267,10.0388934],[76.2677336,10.0424774],[76.2675753,10.0428894],[76.2669725,10.0428623],[76.2673393,10.0431139],[76.2672172,10.0447791],[76.2671006,10.046027],[76.2657112,10.0472578],[76.2650624,10.048459],[76.2655127,10.0494208],[76.2662141,10.0514786],[76.2663388,10.0515733],[76.2665833,10.0516509],[76.2663764,10.0517053],[76.2662932,10.0518202],[76.2668216,10.0534959],[76.2667006,10.0544127],[76.2674224,10.0559996],[76.2681091,10.0573782],[76.2693429,10.0582075],[76.2710112,10.058947],[76.2715839,10.0584729],[76.2732321,10.0589549],[76.2751874,10.0588915],[76.2770355,10.0598792],[76.2799564,10.06083],[76.2811929,10.0614321],[76.2808764,10.0637746],[76.2811607,10.0674772],[76.2802134,10.068625],[76.2809354,10.0716234],[76.282239,10.0729755],[76.282807,10.0731883]]}},{"type":"Feature","properties":{"route_id":"r13911376","route_short_name":"","route_long_name":"Chittoor ↔ Kadamakkudy","agency_id":"Kochi city boat","mode":"ferry","operator":"Kochi water transport / ferry services","source_feed_id":"kochi_ferry"},"geometry":{"type":"LineString","coordinates":[[76.2693348,10.0380838],[76.2684204,10.038671],[76.2686267,10.0388934],[76.2677336,10.0424774],[76.2675753,10.0428894],[76.2669725,10.0428623],[76.2673393,10.0431139],[76.2672172,10.0447791],[76.2671006,10.046027],[76.2657112,10.0472578],[76.2650624,10.048459],[76.2655127,10.0494208],[76.2662141,10.0514786],[76.2663388,10.0515733],[76.2665833,10.0516509],[76.2660277,10.0517212],[76.2654349,10.0512444],[76.2646866,10.051115],[76.2637424,10.0514095],[76.2628841,10.0519324],[76.2621546,10.05301],[76.2619454,10.0537389],[76.2615055,10.054172],[76.2608188,10.0542011],[76.2606417,10.0540068],[76.2603253,10.0542037],[76.2590271,10.0541773],[76.257159,10.0549696],[76.2558876,10.055824],[76.2553706,10.0556663],[76.2552345,10.0559943],[76.253255,10.0562848],[76.2521768,10.0555929],[76.2510931,10.053422],[76.2505264,10.0532279]]}}]}