{"type":"FeatureCollection","features":[{"type":"Feature","properties":{"stop_id":"n3095608399","stop_name":"Vaduthala Boat Jetty","stop_code":"","mode":"ferry","operator":"Kochi water transport / ferry services","source_feed_id":"kochi_ferry"},"geometry":{"type":"Point","coordinates":[76.2679115,10.0312174]}},{"type":"Feature","properties":{"stop_id":"n3864435018","stop_name":"Varapuzha Ferry","stop_code":"","mode":"ferry","operator":"Kochi water transport / ferry services","source_feed_id":"kochi_ferry"},"geometry":{"type":"Point","coordinates":[76.2802134,10.068625]}},{"type":"Feature","properties":{"stop_id":"n5389358324","stop_name":"Pizhala","stop_code":"","mode":"ferry","operator":"Kochi water transport / ferry services","source_feed_id":"kochi_ferry"},"geometry":{"type":"Point","coordinates":[76.2650624,10.048459]}},{"type":"Feature","properties":{"stop_id":"n5880735233","stop_name":"Mulavukadu North","stop_code":"","mode":"ferry","operator":"Kochi water transport / ferry services","source_feed_id":"kochi_ferry"},"geometry":{"type":"Point","coordinates":[76.2618874,10.0115788]}},{"type":"Feature","properties":{"stop_id":"n8677019617","stop_name":"Vypin","stop_code":"","mode":"ferry","operator":"Kochi water transport / ferry services","source_feed_id":"kochi_ferry"},"geometry":{"type":"Point","coordinates":[76.2443566,9.9743136]}},{"type":"Feature","properties":{"stop_id":"n9085334121","stop_name":"Mulavukadu Panchayat","stop_code":"","mode":"ferry","operator":"Kochi water transport / ferry services","source_feed_id":"kochi_ferry"},"geometry":{"type":"Point","coordinates":[76.2573833,10.0245128]}},{"type":"Feature","properties":{"stop_id":"n9300383986","stop_name":"Vypin Jetty","stop_code":"","mode":"ferry","operator":"Kochi water transport / ferry services","source_feed_id":"kochi_ferry"},"geometry":{"type":"Point","coordinates":[76.2446089,9.9738817]}},{"type":"Feature","properties":{"stop_id":"n9300383987","stop_name":"Fort Kochi Junkar Jetty","stop_code":"","mode":"ferry","operator":"Kochi water transport / ferry services","source_feed_id":"kochi_ferry"},"geometry":{"type":"Point","coordinates":[76.2450682,9.9686059]}},{"type":"Feature","properties":{"stop_id":"n9300383988","stop_name":"Fort Kochi","stop_code":"","mode":"ferry","operator":"Kochi water transport / ferry services","source_feed_id":"kochi_ferry"},"geometry":{"type":"Point","coordinates":[76.2518633,9.9691159]}},{"type":"Feature","properties":{"stop_id":"n9300383994","stop_name":"Embarkation Jetty","stop_code":"","mode":"ferry","operator":"Kochi water transport / ferry services","source_feed_id":"kochi_ferry"},"geometry":{"type":"Point","coordinates":[76.2621925,9.9700962]}},{"type":"Feature","properties":{"stop_id":"n9300384000","stop_name":"Ernakulam","stop_code":"","mode":"ferry","operator":"Kochi water transport / ferry services","source_feed_id":"kochi_ferry"},"geometry":{"type":"Point","coordinates":[76.2780701,9.972617]}},{"type":"Feature","properties":{"stop_id":"n9300384001","stop_name":"Ernakulam","stop_code":"","mode":"ferry","operator":"Kochi water transport / ferry services","source_feed_id":"kochi_ferry"},"geometry":{"type":"Point","coordinates":[76.2782358,9.9722927]}},{"type":"Feature","properties":{"stop_id":"n9568470816","stop_name":"Thanthonni Thuruth Ferry Terminal","stop_code":"","mode":"ferry","operator":"Kochi water transport / ferry services","source_feed_id":"kochi_ferry"},"geometry":{"type":"Point","coordinates":[76.2674059,9.9970185]}},{"type":"Feature","properties":{"stop_id":"n9568509455","stop_name":"Korangotta Ferry Terminal","stop_code":"","mode":"ferry","operator":"Kochi water transport / ferry services","source_feed_id":"kochi_ferry"},"geometry":{"type":"Point","coordinates":[76.2583663,10.02619]}},{"type":"Feature","properties":{"stop_id":"n9568509464","stop_name":"Ponnarimangalam Ferry Terminal","stop_code":"","mode":"ferry","operator":"Kochi water transport / ferry services","source_feed_id":"kochi_ferry"},"geometry":{"type":"Point","coordinates":[76.2637119,10.0036409]}},{"type":"Feature","properties":{"stop_id":"n9568509477","stop_name":"Ponjikkara Ferry Terminal","stop_code":"","mode":"ferry","operator":"Kochi water transport / ferry services","source_feed_id":"kochi_ferry"},"geometry":{"type":"Point","coordinates":[76.265053,9.9974014]}},{"type":"Feature","properties":{"stop_id":"n9568509492","stop_name":"Ernakulam Ferry Terminal","stop_code":"","mode":"ferry","operator":"Kochi water transport / ferry services","source_feed_id":"kochi_ferry"},"geometry":{"type":"Point","coordinates":[76.2722655,9.9846344]}},{"type":"Feature","properties":{"stop_id":"n9568742376","stop_name":"Kanayannur","stop_code":"","mode":"ferry","operator":"Kochi water transport / ferry services","source_feed_id":"kochi_ferry"},"geometry":{"type":"Point","coordinates":[76.2811929,10.0614321]}},{"type":"Feature","properties":{"stop_id":"n9568742382","stop_name":"Kandanad","stop_code":"","mode":"ferry","operator":"Kochi water transport / ferry services","source_feed_id":"kochi_ferry"},"geometry":{"type":"Point","coordinates":[76.2751874,10.0588915]}},{"type":"Feature","properties":{"stop_id":"n9568746563","stop_name":"Chittoor Ferry","stop_code":"","mode":"ferry","operator":"Kochi water transport / ferry services","source_feed_id":"kochi_ferry"},"geometry":{"type":"Point","coordinates":[76.2693348,10.0380838]}},{"type":"Feature","properties":{"stop_id":"n9568746564","stop_name":"Chittoor Ferry","stop_code":"","mode":"ferry","operator":"Kochi water transport / ferry services","source_feed_id":"kochi_ferry"},"geometry":{"type":"Point","coordinates":[76.2684204,10.038671]}},{"type":"Feature","properties":{"stop_id":"n9568746573","stop_name":"Porangotta","stop_code":"","mode":"ferry","operator":"Kochi water transport / ferry services","source_feed_id":"kochi_ferry"},"geometry":{"type":"Point","coordinates":[76.2655234,10.0304878]}},{"type":"Feature","properties":{"stop_id":"n9568746600","stop_name":"Eloor Ferry","stop_code":"","mode":"ferry","operator":"Kochi water transport / ferry services","source_feed_id":"kochi_ferry"},"geometry":{"type":"Point","coordinates":[76.282807,10.0731883]}},{"type":"Feature","properties":{"stop_id":"n9568746602","stop_name":"Kothadu","stop_code":"","mode":"ferry","operator":"Kochi water transport / ferry services","source_feed_id":"kochi_ferry"},"geometry":{"type":"Point","coordinates":[76.2715839,10.0584729]}},{"type":"Feature","properties":{"stop_id":"n9568746615","stop_name":"Thekke Jetty","stop_code":"","mode":"ferry","operator":"Kochi water transport / ferry services","source_feed_id":"kochi_ferry"},"geometry":{"type":"Point","coordinates":[76.2667006,10.0544127]}},{"type":"Feature","properties":{"stop_id":"n9568746626","stop_name":"Moolampilly","stop_code":"","mode":"ferry","operator":"Kochi water transport / ferry services","source_feed_id":"kochi_ferry"},"geometry":{"type":"Point","coordinates":[76.2669725,10.0428623]}},{"type":"Feature","properties":{"stop_id":"n9568811887","stop_name":"Paliyamthuruth Central Ferry","stop_code":"","mode":"ferry","operator":"Kochi water transport / ferry services","source_feed_id":"kochi_ferry"},"geometry":{"type":"Point","coordinates":[76.2606418,10.0540064]}},{"type":"Feature","properties":{"stop_id":"n9568811892","stop_name":"Paliyamthuruth East Ferry","stop_code":"","mode":"ferry","operator":"Kochi water transport / ferry services","source_feed_id":"kochi_ferry"},"geometry":{"type":"Point","coordinates":[76.2553706,10.0556663]}},{"type":"Feature","properties":{"stop_id":"n9568852856","stop_name":"Kadamakudy","stop_code":"","mode":"ferry","operator":"Kochi water transport / ferry services","source_feed_id":"kochi_ferry"},"geometry":{"type":"Point","coordinates":[76.2505264,10.0532279]}},{"type":"Feature","properties":{"stop_id":"n9568852875","stop_name":"Kanjirakkadu Ferry","stop_code":"","mode":"ferry","operator":"Kochi water transport / ferry services","source_feed_id":"kochi_ferry"},"geometry":{"type":"Point","coordinates":[76.2665833,10.0516509]}}]}