{"type": "FeatureCollection", "crs": {"type": "name", "properties": {"name": "urn:ogc:def:crs:OGC:1.3:CRS84"}}, "features": [{"type": "Feature", "properties": {"amenity": "library", "name": "AKG Library", "name:etymology:wikidata": "Q3595831", "osm_id": 1474327628, "osm_type": "node"}, "geometry": {"type": "Point", "coordinates": [76.3109697, 10.0312977]}}, {"type": "Feature", "properties": {"amenity": "library", "name": "Eloor Lending Library", "operator": "Private", "osm_id": 1474861343, "osm_type": "node"}, "geometry": {"type": "Point", "coordinates": [76.2799019, 9.9771378]}}, {"type": "Feature", "properties": {"amenity": "library", "name": "Y. N. P. Trust Public Library", "osm_id": 2391284729, "osm_type": "node"}, "geometry": {"type": "Point", "coordinates": [76.2514948, 9.9543408]}}, {"type": "Feature", "properties": {"amenity": "library", "name": "Sree Saraswath Association Public Library", "osm_id": 2391284733, "osm_type": "node"}, "geometry": {"type": "Point", "coordinates": [76.252256, 9.9561295]}}, {"type": "Feature", "properties": {"air_conditioning": "no", "amenity": "library", "name": "University Library", "wheelchair": "yes", "osm_id": 3845025694, "osm_type": "node"}, "geometry": {"type": "Point", "coordinates": [76.3251979, 10.0442648]}}, {"type": "Feature", "properties": {"addr:city": "Fort Kochi", "amenity": "library", "name": "Visual Art Library", "osm_id": 6778153358, "osm_type": "node"}, "geometry": {"type": "Point", "coordinates": [76.2501946, 9.9688361]}}, {"type": "Feature", "properties": {"amenity": "library", "name": "Nayarambalam public Library", "osm_id": 7010358018, "osm_type": "node"}, "geometry": {"type": "Point", "coordinates": [76.2126548, 10.065018]}}, {"type": "Feature", "properties": {"amenity": "library", "name": "Mulanthuruthy Public Library", "osm_id": 7319289411, "osm_type": "node"}, "geometry": {"type": "Point", "coordinates": [76.3903146, 9.9010217]}}, {"type": "Feature", "properties": {"addr:city": "Ernakulam", "addr:district": "Ernakulam", "addr:postcode": "682020", "addr:street": "KP Vallon Road", "amenity": "library", "club": "art", "name": "Soyus Arts Club", "opening_hours": "Mo-Su 06:00-19:00", "osm_id": 7457252835, "osm_type": "node"}, "geometry": {"type": "Point", "coordinates": [76.3014619, 9.9599407]}}, {"type": "Feature", "properties": {"amenity": "library", "name": "Public Library Thiruvankulam", "osm_id": 7465600199, "osm_type": "node"}, "geometry": {"type": "Point", "coordinates": [76.3733144, 9.9430863]}}, {"type": "Feature", "properties": {"amenity": "library", "name": "Amballoor Library", "osm_id": 7466125794, "osm_type": "node"}, "geometry": {"type": "Point", "coordinates": [76.3988836, 9.8635063]}}, {"type": "Feature", "properties": {"amenity": "library", "name": "Ems Library Kakkanad", "osm_id": 7467629751, "osm_type": "node"}, "geometry": {"type": "Point", "coordinates": [76.3443338, 10.0226747]}}, {"type": "Feature", "properties": {"addr:city": "Vaduthala Kochi", "addr:postcode": "682023", "addr:street": "Chittoor Road", "amenity": "library", "internet_access": "no", "name": "Donbosco Youth Library", "osm_id": 7486793604, "osm_type": "node"}, "geometry": {"type": "Point", "coordinates": [76.2767087, 10.0139506]}}, {"type": "Feature", "properties": {"amenity": "library", "name": "College Library", "osm_id": 7503001750, "osm_type": "node"}, "geometry": {"type": "Point", "coordinates": [76.3296066, 10.0562401]}}, {"type": "Feature", "properties": {"amenity": "library", "name": "PK Balakrishnan memorial", "survey:date": "2020-07-04", "osm_id": 7682151986, "osm_type": "node"}, "geometry": {"type": "Point", "coordinates": [76.2171049, 10.0487938]}}, {"type": "Feature", "properties": {"amenity": "library", "name": "Vayanashala", "osm_id": 8977712121, "osm_type": "node"}, "geometry": {"type": "Point", "coordinates": [76.2264086, 10.0598422]}}, {"type": "Feature", "properties": {"amenity": "library", "osm_id": 9056582880, "osm_type": "node"}, "geometry": {"type": "Point", "coordinates": [76.2661591, 10.0401762]}}, {"type": "Feature", "properties": {"amenity": "library", "osm_id": 9096685273, "osm_type": "node"}, "geometry": {"type": "Point", "coordinates": [76.2611248, 10.0527729]}}, {"type": "Feature", "properties": {"amenity": "library", "osm_id": 9097058859, "osm_type": "node"}, "geometry": {"type": "Point", "coordinates": [76.2720159, 10.0553469]}}, {"type": "Feature", "properties": {"amenity": "library", "name": "Grameen library", "osm_id": 9375881090, "osm_type": "node"}, "geometry": {"type": "Point", "coordinates": [76.3547519, 9.9303658]}}, {"type": "Feature", "properties": {"amenity": "library", "osm_id": 9381568138, "osm_type": "node"}, "geometry": {"type": "Point", "coordinates": [76.3516378, 9.9618867]}}, {"type": "Feature", "properties": {"amenity": "library", "name": "K.Bhaskaran Memorial Library & Reading Room,Makaliyam", "osm_id": 9381627116, "osm_type": "node"}, "geometry": {"type": "Point", "coordinates": [76.3580741, 9.9632572]}}, {"type": "Feature", "properties": {"amenity": "library", "osm_id": 9381650320, "osm_type": "node"}, "geometry": {"type": "Point", "coordinates": [76.346396, 9.9470009]}}, {"type": "Feature", "properties": {"addr:housenumber": "Arookutty", "amenity": "library", "name": "Library", "osm_id": 9476461538, "osm_type": "node"}, "geometry": {"type": "Point", "coordinates": [76.3255109, 9.8698272]}}, {"type": "Feature", "properties": {"addr:city": "Ernakulam", "addr:postcode": "682508", "addr:street": "Ochanthuruth", "amenity": "library", "name": "Pakalveed library", "operator": "Cooperative society ochanthuruth", "osm_id": 9481479953, "osm_type": "node"}, "geometry": {"type": "Point", "coordinates": [76.2335133, 10.0060692]}}, {"type": "Feature", "properties": {"addr:housenumber": "Near Thankekkattu Temple", "amenity": "library", "name": "Vayanashala", "osm_id": 9483451598, "osm_type": "node"}, "geometry": {"type": "Point", "coordinates": [76.3334509, 9.8675039]}}, {"type": "Feature", "properties": {"addr:city": "Elamkunnapuzha,Vypeen,Ernakulam", "addr:street": "Malipuram", "amenity": "library", "name": "Vayanashala", "osm_id": 9492764783, "osm_type": "node"}, "geometry": {"type": "Point", "coordinates": [76.2304421, 10.0251569]}}, {"type": "Feature", "properties": {"amenity": "library", "name": "Peoples Library", "osm_id": 9798333851, "osm_type": "node"}, "geometry": {"type": "Point", "coordinates": [76.3257125, 9.9515204]}}, {"type": "Feature", "properties": {"amenity": "library", "name": "Melvin Memorial Library", "osm_id": 9808146480, "osm_type": "node"}, "geometry": {"type": "Point", "coordinates": [76.3214006, 9.9428051]}}, {"type": "Feature", "properties": {"amenity": "library", "name": "Gramina Vayanasala", "osm_id": 10065938731, "osm_type": "node"}, "geometry": {"type": "Point", "coordinates": [76.3015766, 10.0613417]}}, {"type": "Feature", "properties": {"amenity": "library", "name": "Ed Shibu Vayanashala", "panchayath": "mulavukadu", "ward": "2", "osm_id": 10074796438, "osm_type": "node"}, "geometry": {"type": "Point", "coordinates": [76.2532589, 10.0332801]}}, {"type": "Feature", "properties": {"amenity": "library", "panchayath": "Mulavukad", "ward": "15", "osm_id": 10075119372, "osm_type": "node"}, "geometry": {"type": "Point", "coordinates": [76.2473057, 9.9984728]}}, {"type": "Feature", "properties": {"amenity": "library", "name": "Herschel Memorial Library", "name:en": "Herschel Memorial Library", "osm_id": 10270668990, "osm_type": "node"}, "geometry": {"type": "Point", "coordinates": [76.2442211, 9.9680105]}}, {"type": "Feature", "properties": {"amenity": "library", "name": "L.G. Pai Memorial Library", "osm_id": 10270671774, "osm_type": "node"}, "geometry": {"type": "Point", "coordinates": [76.2443096, 9.9586719]}}, {"type": "Feature", "properties": {"amenity": "library", "check_date:opening_hours": "2026-02-12", "name": "Sayed Ahamed Memorial Library And Reading Room", "opening_hours:signed": "no", "osm_id": 10270699115, "osm_type": "node"}, "geometry": {"type": "Point", "coordinates": [76.2409766, 9.9612812]}}, {"type": "Feature", "properties": {"amenity": "library", "name": "Chathrapathi Shivaji Library", "osm_id": 10270702170, "osm_type": "node"}, "geometry": {"type": "Point", "coordinates": [76.2476039, 9.9536397]}}, {"type": "Feature", "properties": {"amenity": "library", "name": "S.Y.S. Library", "osm_id": 10680355121, "osm_type": "node"}, "geometry": {"type": "Point", "coordinates": [76.2531818, 9.9626569]}}, {"type": "Feature", "properties": {"amenity": "library", "name": "VIJAYAMBIKA LIBRARY", "osm_id": 10700202026, "osm_type": "node"}, "geometry": {"type": "Point", "coordinates": [76.2654888, 9.8753619]}}, {"type": "Feature", "properties": {"amenity": "library", "name": "YUVAJANASANKHAM VAYANASHALA", "osm_id": 10700202578, "osm_type": "node"}, "geometry": {"type": "Point", "coordinates": [76.3082593, 9.87335]}}, {"type": "Feature", "properties": {"amenity": "library", "name": "G SANMUKHANPILLA MEMORIAL LIBRARY", "osm_id": 10700202579, "osm_type": "node"}, "geometry": {"type": "Point", "coordinates": [76.2972837, 9.8653257]}}, {"type": "Feature", "properties": {"amenity": "library", "name": "PANDITKARPAN LIBRARY", "osm_id": 10700211734, "osm_type": "node"}, "geometry": {"type": "Point", "coordinates": [76.293732, 9.911194]}}, {"type": "Feature", "properties": {"amenity": "library", "name": "YNP Trust Reading Room", "osm_id": 10732401359, "osm_type": "node"}, "geometry": {"type": "Point", "coordinates": [76.2510125, 9.9546001]}}, {"type": "Feature", "properties": {"amenity": "library", "name": "Nazar Memorial Reading Room", "osm_id": 10732403902, "osm_type": "node"}, "geometry": {"type": "Point", "coordinates": [76.2607434, 9.948539]}}, {"type": "Feature", "properties": {"amenity": "library", "name": "Yashoda's Library", "osm_id": 10732433289, "osm_type": "node"}, "geometry": {"type": "Point", "coordinates": [76.2535681, 9.9576434]}}, {"type": "Feature", "properties": {"amenity": "library", "name": "M.K. Raghavan Memorial Library & Reading Room", "osm_id": 10732624590, "osm_type": "node"}, "geometry": {"type": "Point", "coordinates": [76.2573127, 9.9466306]}}, {"type": "Feature", "properties": {"amenity": "library", "name": "Panayapilly Public Library", "osm_id": 10732624591, "osm_type": "node"}, "geometry": {"type": "Point", "coordinates": [76.2571862, 9.9466041]}}, {"type": "Feature", "properties": {"amenity": "library", "name": "Tagore Library And Reading Room", "osm_id": 10733014336, "osm_type": "node"}, "geometry": {"type": "Point", "coordinates": [76.2598809, 9.9426619]}}, {"type": "Feature", "properties": {"amenity": "library", "name": "Joshy Memorial Library.", "osm_id": 10734277580, "osm_type": "node"}, "geometry": {"type": "Point", "coordinates": [76.2637674, 9.9271189]}}, {"type": "Feature", "properties": {"amenity": "library", "name": "Gandhikrishnan Library", "osm_id": 10734307996, "osm_type": "node"}, "geometry": {"type": "Point", "coordinates": [76.2785693, 9.9149549]}}, {"type": "Feature", "properties": {"amenity": "library", "name": "Sneha Bhavan Orphanage Library", "osm_id": 10734308433, "osm_type": "node"}, "geometry": {"type": "Point", "coordinates": [76.2746832, 9.9240228]}}, {"type": "Feature", "properties": {"amenity": "library", "name": "Sree Vedha Vyasa Vayanasala", "osm_id": 10734334038, "osm_type": "node"}, "geometry": {"type": "Point", "coordinates": [76.2786426, 9.9237966]}}, {"type": "Feature", "properties": {"amenity": "library", "name": "Kannangatu Library", "osm_id": 10734571517, "osm_type": "node"}, "geometry": {"type": "Point", "coordinates": [76.2896644, 9.9192542]}}, {"type": "Feature", "properties": {"amenity": "library", "name": "Kalakairali Library", "osm_id": 10755325250, "osm_type": "node"}, "geometry": {"type": "Point", "coordinates": [76.2507732, 9.9311339]}}, {"type": "Feature", "properties": {"amenity": "library", "name": "Dr Ambedkar Library", "osm_id": 10758164363, "osm_type": "node"}, "geometry": {"type": "Point", "coordinates": [76.2546261, 9.9416682]}}, {"type": "Feature", "properties": {"amenity": "library", "name": "Cochin Brothers Library and Reading Room", "osm_id": 10758294425, "osm_type": "node"}, "geometry": {"type": "Point", "coordinates": [76.2452623, 9.9484202]}}, {"type": "Feature", "properties": {"amenity": "library", "name": "Mahathma Gandhi Grandhalayam", "osm_id": 10758867463, "osm_type": "node"}, "geometry": {"type": "Point", "coordinates": [76.2759303, 10.0192146]}}, {"type": "Feature", "properties": {"amenity": "library", "name": "S.T Antony's Library", "osm_id": 10758867464, "osm_type": "node"}, "geometry": {"type": "Point", "coordinates": [76.2740999, 10.0222433]}}, {"type": "Feature", "properties": {"amenity": "library", "name": "PUBLIC LIBRARY & reading room", "osm_id": 10760691830, "osm_type": "node"}, "geometry": {"type": "Point", "coordinates": [76.3063664, 9.989723]}}, {"type": "Feature", "properties": {"amenity": "library", "name": "Kochi Corporation Public Library And Reading Room", "osm_id": 10761363485, "osm_type": "node"}, "geometry": {"type": "Point", "coordinates": [76.3169139, 9.9684585]}}, {"type": "Feature", "properties": {"air_conditioning": "no", "amenity": "library", "name": "Elamkulam Public Library & Reading Room", "osm_id": 10761675608, "osm_type": "node"}, "geometry": {"type": "Point", "coordinates": [76.2995442, 9.9682069]}}, {"type": "Feature", "properties": {"amenity": "library", "name": "chemmanadu public library", "osm_id": 10943246047, "osm_type": "node"}, "geometry": {"type": "Point", "coordinates": [76.4145289, 9.9511319]}}, {"type": "Feature", "properties": {"amenity": "library", "name": "Navjyothi Library and Arts & Sports Club", "osm_id": 10970143210, "osm_type": "node"}, "geometry": {"type": "Point", "coordinates": [76.2856329, 10.0370138]}}, {"type": "Feature", "properties": {"amenity": "library", "name": "Pandit Karuppan Library", "osm_id": 10970143211, "osm_type": "node"}, "geometry": {"type": "Point", "coordinates": [76.2891176, 10.0523925]}}, {"type": "Feature", "properties": {"amenity": "library", "name": "EMS SMARAKA GRANDHASALA", "osm_id": 10970196060, "osm_type": "node"}, "geometry": {"type": "Point", "coordinates": [76.3822959, 10.0616328]}}, {"type": "Feature", "properties": {"amenity": "library", "name": "Grameena Vayanashala", "osm_id": 11116542375, "osm_type": "node"}, "geometry": {"type": "Point", "coordinates": [76.3693025, 10.0267608]}}, {"type": "Feature", "properties": {"air_conditioning": "yes", "amenity": "library", "name": "Granthapura", "osm_id": 11237192281, "osm_type": "node"}, "geometry": {"type": "Point", "coordinates": [76.2962572, 9.9587617]}}, {"type": "Feature", "properties": {"amenity": "library", "check_date": "2024-06-26", "name": "Tilak Club", "osm_id": 12012848833, "osm_type": "node"}, "geometry": {"type": "Point", "coordinates": [76.280957, 9.9940775]}}, {"type": "Feature", "properties": {"amenity": "library", "internet_access": "wired", "name": "Tagore Library MITS", "osm_id": 12067511666, "osm_type": "node"}, "geometry": {"type": "Point", "coordinates": [76.4083976, 9.9637241]}}, {"type": "Feature", "properties": {"addr:state": "KL", "air_conditioning": "no", "amenity": "library", "baby_feeding": "no", "kids_area:outdoor": "yes", "name": "PT Thomas Memorial Public Library", "operator": "Thrikkakara Municipality", "toilets:wheelchair": "no", "wheelchair": "limited", "osm_id": 12100755278, "osm_type": "node"}, "geometry": {"type": "Point", "coordinates": [76.3478495, 10.017805]}}, {"type": "Feature", "properties": {"amenity": "library", "name": "EWA Library", "osm_id": 12194619062, "osm_type": "node"}, "geometry": {"type": "Point", "coordinates": [76.2839242, 9.9674567]}}, {"type": "Feature", "properties": {"amenity": "library", "name": "KK Shivan Memorial Library", "name:ml": "KK ശിവൻ സ്മാരക വായനശാല", "osm_id": 12451081696, "osm_type": "node"}, "geometry": {"type": "Point", "coordinates": [76.3072801, 9.9769307]}}, {"type": "Feature", "properties": {"amenity": "library", "name": "Mahatma Gandhi Library Reading Room", "osm_id": 12666744210, "osm_type": "node"}, "geometry": {"type": "Point", "coordinates": [76.3466182, 9.946713]}}, {"type": "Feature", "properties": {"amenity": "library", "name": "Mahatma Gandhi Library", "osm_id": 12669790478, "osm_type": "node"}, "geometry": {"type": "Point", "coordinates": [76.346361, 9.9466796]}}, {"type": "Feature", "properties": {"addr:floor": "G", "amenity": "library", "check_date": "2025-10-04", "level": "0", "name": "MEC Library", "operator": "MEC", "operator:type": "private", "osm_id": 13192291796, "osm_type": "node"}, "geometry": {"type": "Point", "coordinates": [76.3289791, 10.0285658]}}, {"type": "Feature", "properties": {"addr:city": "Ernakulam", "addr:postcode": "682035", "addr:street": "Convent Road", "amenity": "library", "building": "yes", "check_date": "2024-07-02", "name": "Ernakulam Public Library", "operator": "Government", "wikidata": "Q13110694", "wikipedia": "en:Ernakulam Public Library", "osm_id": 264718986, "osm_type": "way"}, "geometry": {"type": "Polygon", "coordinates": [[[76.2822592, 9.9764139], [76.2822431, 9.9766411], [76.2823021, 9.9766516], [76.2823343, 9.9764139], [76.2822592, 9.9764139]]]}}, {"type": "Feature", "properties": {"amenity": "library", "building": "yes", "name": "Kendra Grandhashala", "osm_id": 409979365, "osm_type": "way"}, "geometry": {"type": "Polygon", "coordinates": [[[76.2179558, 10.0448782], [76.2180817, 10.0449034], [76.2181092, 10.0447698], [76.2179833, 10.0447446], [76.2179558, 10.0448782]]]}}, {"type": "Feature", "properties": {"amenity": "library", "building": "yes", "name": "University Library Old Block", "osm_id": 475140656, "osm_type": "way"}, "geometry": {"type": "Polygon", "coordinates": [[[76.3251126, 10.0444818], [76.3251126, 10.0444403], [76.3249919, 10.0444403], [76.324992, 10.0446714], [76.3251096, 10.0446714], [76.3251096, 10.044639], [76.3253639, 10.0446389], [76.3253639, 10.0444817], [76.3252408, 10.0444817], [76.3251985, 10.0444818], [76.3251126, 10.0444818]]]}}, {"type": "Feature", "properties": {"amenity": "library", "building": "yes", "name": "Theeradesa Library", "osm_id": 619681831, "osm_type": "way"}, "geometry": {"type": "Polygon", "coordinates": [[[76.3580663, 9.9050688], [76.3581314, 9.905084], [76.3581621, 9.9049565], [76.358097, 9.9049413], [76.3580663, 9.9050688]]]}}, {"type": "Feature", "properties": {"amenity": "library", "building": "yes", "name": "Srishty Culture Society and Library", "osm_id": 619726047, "osm_type": "way"}, "geometry": {"type": "Polygon", "coordinates": [[[76.3712217, 9.8937903], [76.3712342, 9.8937553], [76.3711785, 9.8937361], [76.3711661, 9.8937711], [76.3712217, 9.8937903]]]}}, {"type": "Feature", "properties": {"amenity": "library", "building": "yes", "name": "Yuvadhara Library", "osm_id": 619924935, "osm_type": "way"}, "geometry": {"type": "Polygon", "coordinates": [[[76.3637419, 9.9012528], [76.3637573, 9.9010943], [76.3636765, 9.9010866], [76.363661, 9.9012452], [76.3637419, 9.9012528]]]}}, {"type": "Feature", "properties": {"amenity": "library", "building": "yes", "name": "Krishnamenon Public Library", "osm_id": 619953252, "osm_type": "way"}, "geometry": {"type": "Polygon", "coordinates": [[[76.3621474, 9.9178114], [76.3622449, 9.9178266], [76.3622714, 9.9176627], [76.3621738, 9.9176475], [76.3621474, 9.9178114]]]}}, {"type": "Feature", "properties": {"amenity": "library", "building": "yes", "name": "Mahatma Gandhi Memorial library", "osm_id": 620273074, "osm_type": "way"}, "geometry": {"type": "Polygon", "coordinates": [[[76.3820929, 9.8625178], [76.3819976, 9.8625077], [76.3819782, 9.8626233], [76.3819501, 9.862618], [76.3819407, 9.8626908], [76.381993, 9.8627012], [76.382001, 9.8626563], [76.3820682, 9.8626665], [76.3820929, 9.8625178]]]}}, {"type": "Feature", "properties": {"amenity": "library", "building": "yes", "name": "Njanodhaya Library", "osm_id": 620278934, "osm_type": "way"}, "geometry": {"type": "Polygon", "coordinates": [[[76.3775466, 9.8676448], [76.3776498, 9.8676858], [76.3776906, 9.867586], [76.3775873, 9.867545], [76.3775466, 9.8676448]]]}}, {"type": "Feature", "properties": {"amenity": "library", "building": "yes", "internet_access:fee": "no", "name": "Desiya Vayana Sala", "opening_hours": "Mo-Sa 08:00-18:00", "operator": "Government", "osm_id": 620907869, "osm_type": "way"}, "geometry": {"type": "Polygon", "coordinates": [[[76.3141014, 9.9180943], [76.3142562, 9.9181278], [76.3142309, 9.9182318], [76.3141581, 9.918216], [76.3141676, 9.9181735], [76.3140855, 9.9181558], [76.3141014, 9.9180943]]]}}, {"type": "Feature", "properties": {"amenity": "library", "building": "yes", "name": "Mythri Library", "osm_id": 621340915, "osm_type": "way"}, "geometry": {"type": "Polygon", "coordinates": [[[76.368657, 9.9074144], [76.3687, 9.9073167], [76.3686331, 9.9072882], [76.3685902, 9.907386], [76.368657, 9.9074144]]]}}, {"type": "Feature", "properties": {"amenity": "library", "building": "yes", "name": "thuppampady library", "osm_id": 798407012, "osm_type": "way"}, "geometry": {"type": "Polygon", "coordinates": [[[76.4122319, 9.9136515], [76.4121909, 9.9136501], [76.4121966, 9.9135875], [76.4122333, 9.9135861], [76.4122955, 9.9135916], [76.412287, 9.913664], [76.4122305, 9.9136654], [76.4122319, 9.9136515]]]}}, {"type": "Feature", "properties": {"amenity": "library", "building": "yes", "name": "Vaayanashala", "osm_id": 798640523, "osm_type": "way"}, "geometry": {"type": "Polygon", "coordinates": [[[76.3293003, 10.0285246], [76.329303, 10.0284718], [76.329413, 10.0284823], [76.3294076, 10.0285378], [76.3293003, 10.0285246]]]}}, {"type": "Feature", "properties": {"amenity": "library", "building": "yes", "name": "Puliyanath Memorial Library", "osm_id": 798813285, "osm_type": "way"}, "geometry": {"type": "Polygon", "coordinates": [[[76.2955735, 9.8969184], [76.2956452, 9.896932], [76.2956548, 9.896888], [76.2956156, 9.8968848], [76.2955758, 9.8968786], [76.2955735, 9.8969184]]]}}, {"type": "Feature", "properties": {"addr:housename": "PKM Building", "addr:street": "Thevara Ferry Road", "air_conditioning": "no", "amenity": "library", "building": "yes", "name": "Pandit Karuppan Memorial Library", "name:etymology:wikidata": "Q7130660", "osm_id": 799023172, "osm_type": "way"}, "geometry": {"type": "Polygon", "coordinates": [[[76.3024587, 9.9277607], [76.3025543, 9.9276306], [76.3025605, 9.9277644], [76.3024776, 9.927777], [76.3024587, 9.9277607]]]}}, {"type": "Feature", "properties": {"amenity": "library", "building": "yes", "internet_access": "no", "name": "Changanpuzha Smaraka Grandhashala", "osm_id": 799370868, "osm_type": "way"}, "geometry": {"type": "Polygon", "coordinates": [[[76.3013736, 10.0173985], [76.3014512, 10.0171065], [76.3015189, 10.0171261], [76.3014393, 10.017424], [76.3013736, 10.0173985]]]}}, {"type": "Feature", "properties": {"amenity": "library", "building": "yes", "layer": "-1", "name": "A.K.G. Memorial Library", "osm_id": 802878925, "osm_type": "way"}, "geometry": {"type": "Polygon", "coordinates": [[[76.3162398, 9.989719], [76.3163056, 9.9897467], [76.3163592, 9.9896278], [76.3162801, 9.9895922], [76.3162398, 9.989719]]]}}, {"type": "Feature", "properties": {"amenity": "library", "building": "yes", "name": "Vallathol Smaraka Vayanasala", "osm_id": 808161413, "osm_type": "way"}, "geometry": {"type": "Polygon", "coordinates": [[[76.3953525, 10.0579948], [76.3955058, 10.057971], [76.3954985, 10.0578875], [76.3953393, 10.0579082], [76.3953525, 10.0579948]]]}}, {"type": "Feature", "properties": {"amenity": "library", "building": "yes", "name": "Ambadimala Library", "osm_id": 846486290, "osm_type": "way"}, "geometry": {"type": "Polygon", "coordinates": [[[76.3823788, 9.9373405], [76.3823754, 9.9372271], [76.3825606, 9.9372217], [76.382564, 9.9373352], [76.3823788, 9.9373405]]]}}, {"type": "Feature", "properties": {"amenity": "library", "building": "yes", "name": "K.A. George Memorial Library", "osm_id": 894636763, "osm_type": "way"}, "geometry": {"type": "Polygon", "coordinates": [[[76.4025158, 10.0209592], [76.4025419, 10.02103], [76.4025955, 10.0210171], [76.4025759, 10.0209155], [76.4025158, 10.0209592]]]}}, {"type": "Feature", "properties": {"addr:housename": "Konthuruthy Library", "addr:street": "St John's Road", "air_conditioning": "no", "amenity": "library", "branch": "Konthuruthy", "building": "public", "building:levels": "1", "name": "Youth League Public Library", "roof:levels": "1", "osm_id": 894893948, "osm_type": "way"}, "geometry": {"type": "Polygon", "coordinates": [[[76.3022221, 9.9417767], [76.3021469, 9.941977], [76.3022321, 9.942008], [76.3023073, 9.9418077], [76.3022221, 9.9417767]]]}}, {"type": "Feature", "properties": {"amenity": "library", "building": "yes", "osm_id": 954389137, "osm_type": "way"}, "geometry": {"type": "Polygon", "coordinates": [[[76.4183777, 9.9389704], [76.4183602, 9.9389658], [76.418345, 9.9389129], [76.4183357, 9.9388428], [76.4183731, 9.9388048], [76.4183952, 9.9388002], [76.4184023, 9.9389095], [76.4183777, 9.9389704]]]}}, {"type": "Feature", "properties": {"addr:city": "Ernakulam", "addr:postcode": "682504", "amenity": "library", "building": "yes", "osm_id": 980990871, "osm_type": "way"}, "geometry": {"type": "Polygon", "coordinates": [[[76.2567583, 10.0170965], [76.2567617, 10.0169864], [76.2568365, 10.0169886], [76.2568331, 10.0170987], [76.2567583, 10.0170965]]]}}, {"type": "Feature", "properties": {"amenity": "library", "building": "yes", "name": "VALLATHOL SMARAKA VAYANASHALA", "osm_id": 1009140179, "osm_type": "way"}, "geometry": {"type": "Polygon", "coordinates": [[[76.3953001, 10.0580297], [76.3953466, 10.0580121], [76.3953313, 10.0579556], [76.3952765, 10.0579669], [76.3953001, 10.0580297]]]}}, {"type": "Feature", "properties": {"addr:city": "Thiruvankulam", "addr:street": "Temple Road", "amenity": "library", "building": "yes", "name": "Public Library,Thiruvankulam", "osm_id": 1017105416, "osm_type": "way"}, "geometry": {"type": "Polygon", "coordinates": [[[76.3730727, 9.9430622], [76.3730992, 9.9429928], [76.3732091, 9.9430208], [76.3731875, 9.9430934], [76.3730727, 9.9430622]]]}}, {"type": "Feature", "properties": {"amenity": "library", "building": "yes", "name": "royal club library", "osm_id": 1026137872, "osm_type": "way"}, "geometry": {"type": "Polygon", "coordinates": [[[76.4192766, 9.8975792], [76.4193524, 9.8975882], [76.41936, 9.8975359], [76.4192811, 9.8975224], [76.4192766, 9.8975792]]]}}, {"type": "Feature", "properties": {"amenity": "library", "building": "yes", "name": "grameena vayanashala", "osm_id": 1026263398, "osm_type": "way"}, "geometry": {"type": "Polygon", "coordinates": [[[76.3867471, 9.8848209], [76.3867783, 9.8848199], [76.3867836, 9.8848642], [76.3867471, 9.8848685], [76.3867471, 9.8848209]]]}}, {"type": "Feature", "properties": {"amenity": "library", "building": "yes", "name": "mulam thuruthy samskarika nilayam", "osm_id": 1026266160, "osm_type": "way"}, "geometry": {"type": "Polygon", "coordinates": [[[76.3879861, 9.9132858], [76.387999, 9.9131822], [76.3878917, 9.9131653], [76.3878896, 9.9132773], [76.3879861, 9.9132858]]]}}, {"type": "Feature", "properties": {"amenity": "library", "building": "yes", "name": "grameena vayanashala thuruthikkara", "osm_id": 1026269332, "osm_type": "way"}, "geometry": {"type": "Polygon", "coordinates": [[[76.4000093, 9.8902615], [76.4000118, 9.890215], [76.3999582, 9.890205], [76.3999519, 9.8902641], [76.4000093, 9.8902615]]]}}, {"type": "Feature", "properties": {"addr:city": "Ernakulam", "addr:postcode": "682508", "addr:street": "Puthuvype", "amenity": "library", "building": "yes", "name": "Public Library Puthuvype", "osm_id": 1028403896, "osm_type": "way"}, "geometry": {"type": "Polygon", "coordinates": [[[76.2247902, 10.0021595], [76.2247409, 10.0022262], [76.2247941, 10.0022626], [76.2248372, 10.0021906], [76.2247902, 10.0021595]]]}}, {"type": "Feature", "properties": {"addr:city": "Puthuvype, Ernakulam", "addr:postcode": "682508", "addr:street": "Vypin - Pallippuram Road", "amenity": "library", "building": "yes", "name": "Ashan Memorial Public Library", "osm_id": 1028426027, "osm_type": "way"}, "geometry": {"type": "Polygon", "coordinates": [[[76.2343743, 10.0015821], [76.2343999, 10.0014902], [76.234476, 10.0015085], [76.2344513, 10.001603], [76.2343743, 10.0015821]]]}}, {"type": "Feature", "properties": {"amenity": "library", "building": "yes", "name": "EMS Memmorial Library and Reading Room", "osm_id": 1067105614, "osm_type": "way"}, "geometry": {"type": "Polygon", "coordinates": [[[76.3271277, 9.9382428], [76.3271321, 9.938292], [76.3270755, 9.9382824], [76.3270951, 9.9382374], [76.3271277, 9.9382428]]]}}, {"type": "Feature", "properties": {"amenity": "library", "building": "yes", "name": "AKG Library", "osm_id": 1067122989, "osm_type": "way"}, "geometry": {"type": "Polygon", "coordinates": [[[76.313395, 9.945645], [76.3133604, 9.9456391], [76.3133544, 9.9456884], [76.3134019, 9.9456748], [76.313395, 9.945645]]]}}, {"type": "Feature", "properties": {"amenity": "library", "building": "yes", "name": "George Master Memmorial reading room and Library", "osm_id": 1068399907, "osm_type": "way"}, "geometry": {"type": "Polygon", "coordinates": [[[76.3201726, 9.9526574], [76.3201709, 9.952683], [76.320208, 9.9526854], [76.3202097, 9.9526598], [76.3201726, 9.9526574]]]}}, {"type": "Feature", "properties": {"amenity": "library", "building": "yes", "name": "Public Library", "osm_id": 1074701068, "osm_type": "way"}, "geometry": {"type": "Polygon", "coordinates": [[[76.3572607, 10.0156456], [76.3572586, 10.0156848], [76.3571738, 10.0156803], [76.357176, 10.0156412], [76.3572607, 10.0156456]]]}}, {"type": "Feature", "properties": {"amenity": "library", "building": "yes", "name": "Maithripuram Society Library", "osm_id": 1075260007, "osm_type": "way"}, "geometry": {"type": "Polygon", "coordinates": [[[76.3332096, 10.0196598], [76.3331383, 10.0196168], [76.3331903, 10.019533], [76.3332617, 10.019576], [76.3332096, 10.0196598]]]}}, {"type": "Feature", "properties": {"amenity": "library", "building": "yes", "name": "Smart Cochin Library", "osm_id": 1075993544, "osm_type": "way"}, "geometry": {"type": "Polygon", "coordinates": [[[76.3335457, 10.0089696], [76.3336437, 10.0089722], [76.3336461, 10.008879], [76.3335482, 10.0088765], [76.3335457, 10.0089696]]]}}, {"type": "Feature", "properties": {"amenity": "library", "building": "yes", "name": "Kairali Vayanasala", "osm_id": 1076298440, "osm_type": "way"}, "geometry": {"type": "Polygon", "coordinates": [[[76.3242163, 10.0125796], [76.3241402, 10.0125079], [76.3242113, 10.0124346], [76.3242875, 10.0125063], [76.3242163, 10.0125796]]]}}, {"type": "Feature", "properties": {"amenity": "library", "building": "yes", "name": "EMS Grameena Library,Kuzhikkad", "osm_id": 1095839093, "osm_type": "way"}, "geometry": {"type": "Polygon", "coordinates": [[[76.385562, 9.9781846], [76.3854687, 9.9780571], [76.38557, 9.9779867], [76.3856664, 9.9781276], [76.385562, 9.9781846]]]}}, {"type": "Feature", "properties": {"amenity": "library", "building": "yes", "name": "Grmeena vayanashala ,piyamballimugal", "osm_id": 1095839099, "osm_type": "way"}, "geometry": {"type": "Polygon", "coordinates": [[[76.3928023, 9.9723772], [76.3928505, 9.9723883], [76.3928361, 9.9724184], [76.392787, 9.9724081], [76.3928023, 9.9723772]]]}}, {"type": "Feature", "properties": {"amenity": "library", "building": "yes", "name": "Vallathol grameena library", "osm_id": 1095862006, "osm_type": "way"}, "geometry": {"type": "Polygon", "coordinates": [[[76.4076229, 9.9800494], [76.4077518, 9.9800607], [76.4077589, 9.9799803], [76.4076257, 9.9799563], [76.4076229, 9.9800494]]]}}, {"type": "Feature", "properties": {"amenity": "library", "building": "yes", "name": "Vempilly Grameena Vayanashala", "osm_id": 1095940750, "osm_type": "way"}, "geometry": {"type": "Polygon", "coordinates": [[[76.4150757, 10.0097513], [76.4150649, 10.0096292], [76.4149925, 10.0096354], [76.4150034, 10.0097576], [76.4150757, 10.0097513]]]}}, {"type": "Feature", "properties": {"amenity": "library", "building": "yes", "name": "VPGP Public library , Kaninad", "osm_id": 1095940755, "osm_type": "way"}, "geometry": {"type": "Polygon", "coordinates": [[[76.415681, 9.9936129], [76.4158326, 9.9934848], [76.4158746, 9.9935319], [76.4157782, 9.9936107], [76.4157112, 9.9936655], [76.415681, 9.9936129]]]}}, {"type": "Feature", "properties": {"amenity": "library", "building": "yes", "name": "Veloor grameena library", "osm_id": 1095940773, "osm_type": "way"}, "geometry": {"type": "Polygon", "coordinates": [[[76.3977423, 9.9836238], [76.3977371, 9.98357], [76.3977833, 9.9835664], [76.3977861, 9.9836234], [76.3977423, 9.9836238]]]}}, {"type": "Feature", "properties": {"amenity": "library", "building": "yes", "name": "Public Library,Kakkad", "osm_id": 1097436409, "osm_type": "way"}, "geometry": {"type": "Polygon", "coordinates": [[[76.3824687, 9.954572], [76.3824499, 9.9544815], [76.3825459, 9.9544622], [76.3825647, 9.9545527], [76.3824687, 9.954572]]]}}, {"type": "Feature", "properties": {"amenity": "library", "building": "yes", "name": "Redstar Public Library, Venmani", "osm_id": 1097436412, "osm_type": "way"}, "geometry": {"type": "Polygon", "coordinates": [[[76.3880835, 9.9599902], [76.3881068, 9.9599203], [76.388186, 9.9599459], [76.3881626, 9.9600159], [76.3880835, 9.9599902]]]}}, {"type": "Feature", "properties": {"amenity": "library", "building": "yes", "name": "Kalaasamskaarika sangam yuvajana Library, Vennikulam", "osm_id": 1097436427, "osm_type": "way"}, "geometry": {"type": "Polygon", "coordinates": [[[76.3935942, 9.9464084], [76.3936142, 9.9463664], [76.3936829, 9.9463982], [76.3936628, 9.9464402], [76.3935942, 9.9464084]]]}}, {"type": "Feature", "properties": {"amenity": "library", "building": "yes", "name": "Public Library,Chemmanad", "osm_id": 1097436443, "osm_type": "way"}, "geometry": {"type": "Polygon", "coordinates": [[[76.4144661, 9.9512458], [76.4143987, 9.9511011], [76.4145191, 9.9510228], [76.4145986, 9.9511699], [76.4144661, 9.9512458]]]}}, {"type": "Feature", "properties": {"amenity": "library", "building": "yes", "name": "Kannuattnirapp Public Library", "osm_id": 1097453451, "osm_type": "way"}, "geometry": {"type": "Polygon", "coordinates": [[[76.4097826, 9.9345392], [76.4097465, 9.9344171], [76.409915, 9.9343688], [76.4099511, 9.9344909], [76.4097826, 9.9345392]]]}}, {"type": "Feature", "properties": {"amenity": "library", "building": "yes", "name": "Bodhi Library, Chemmanad", "osm_id": 1097453466, "osm_type": "way"}, "geometry": {"type": "Polygon", "coordinates": [[[76.4155297, 9.94327], [76.4155332, 9.9432169], [76.4156807, 9.9432265], [76.4156772, 9.9432796], [76.4155297, 9.94327]]]}}, {"type": "Feature", "properties": {"amenity": "library", "building": "yes", "name": "AKG Grameena Grandhashala , Udhayamperoor", "osm_id": 1098068417, "osm_type": "way"}, "geometry": {"type": "Polygon", "coordinates": [[[76.3656186, 9.8961471], [76.3656594, 9.8959868], [76.3657181, 9.8960013], [76.3656774, 9.8961616], [76.3656186, 9.8961471]]]}}, {"type": "Feature", "properties": {"amenity": "library", "building": "yes", "name": "Udhaya Arts And Sports Club, Udhayakavala", "osm_id": 1098610439, "osm_type": "way"}, "geometry": {"type": "Polygon", "coordinates": [[[76.3803731, 9.9280366], [76.3803384, 9.9279145], [76.3803862, 9.9279013], [76.380421, 9.9280234], [76.3803731, 9.9280366]]]}}, {"type": "Feature", "properties": {"amenity": "library", "building": "yes", "name": "Chottanikkara Public Library", "osm_id": 1098610452, "osm_type": "way"}, "geometry": {"type": "Polygon", "coordinates": [[[76.3884275, 9.9326803], [76.3884322, 9.9326327], [76.3885402, 9.932643], [76.3885355, 9.9326906], [76.3884275, 9.9326803]]]}}, {"type": "Feature", "properties": {"amenity": "library", "building": "yes", "name": "Mahatma Library, Chottanikkara", "osm_id": 1098610455, "osm_type": "way"}, "geometry": {"type": "Polygon", "coordinates": [[[76.3988258, 9.9248474], [76.3988314, 9.9247474], [76.3988897, 9.9247505], [76.3988842, 9.9248506], [76.3988258, 9.9248474]]]}}, {"type": "Feature", "properties": {"amenity": "library", "building": "yes", "osm_id": 1177166922, "osm_type": "way"}, "geometry": {"type": "Polygon", "coordinates": [[[76.3340752, 9.9031593], [76.3340965, 9.9031175], [76.3341906, 9.9031504], [76.3341663, 9.9031982], [76.3340752, 9.9031593]]]}}, {"type": "Feature", "properties": {"air_conditioning": "no", "amenity": "library", "building": "yes", "name": "Blossom Cochin Library", "osm_id": 1346369170, "osm_type": "way"}, "geometry": {"type": "Polygon", "coordinates": [[[76.3048927, 9.968651], [76.3049435, 9.9686568], [76.3049444, 9.9686112], [76.3048936, 9.9686126], [76.3048927, 9.968651]]]}}, {"type": "Feature", "properties": {"air_conditioning": "no", "amenity": "library", "building": "yes", "name": "Reading Room", "wheelchair": "no", "osm_id": 1350711531, "osm_type": "way"}, "geometry": {"type": "Polygon", "coordinates": [[[76.2922902, 9.9483305], [76.2923036, 9.9482995], [76.2923324, 9.9483117], [76.2923189, 9.9483426], [76.2922902, 9.9483305]]]}}, {"type": "Feature", "properties": {"air_conditioning": "no", "amenity": "library", "building:levels": "1", "building:part": "university", "level": "2", "name": "Hindi Department Library", "wheelchair": "no", "osm_id": 1360130523, "osm_type": "way"}, "geometry": {"type": "Polygon", "coordinates": [[[76.3277699, 10.0427578], [76.3277712, 10.0426693], [76.3283335, 10.0426776], [76.3283322, 10.0427661], [76.3277699, 10.0427578]]]}}, {"type": "Feature", "properties": {"amenity": "library", "building:part": "university", "indoor": "room", "internet_access": "yes", "name": "PSRT Library", "osm_id": 1360130526, "osm_type": "way"}, "geometry": {"type": "Polygon", "coordinates": [[[76.3254551, 10.0461607], [76.3255139, 10.046161], [76.3255154, 10.0460856], [76.3254547, 10.0460853], [76.3254551, 10.0461607]]]}}, {"type": "Feature", "properties": {"amenity": "library", "building": "yes", "name": "University Library", "osm_id": 1465701000, "osm_type": "way"}, "geometry": {"type": "Polygon", "coordinates": [[[76.3249999, 10.0444111], [76.3251959, 10.0444085], [76.3252382, 10.0444079], [76.3252895, 10.0444072], [76.3252871, 10.0442337], [76.3251407, 10.0442356], [76.3249975, 10.0442374], [76.3249999, 10.0444111]]]}}]}