{"type":"FeatureCollection","features":[{"type":"Feature","properties":{"stop_id":"ALVA","stop_name":"Aluva","stop_code":"","mode":"metro","operator":"Kochi Metro Rail Limited","source_feed_id":"kochi_kmrl_official_open_data"},"geometry":{"type":"Point","coordinates":[76.3495,10.1099]}},{"type":"Feature","properties":{"stop_id":"PNCU","stop_name":"Pulinchodu","stop_code":"","mode":"metro","operator":"Kochi Metro Rail Limited","source_feed_id":"kochi_kmrl_official_open_data"},"geometry":{"type":"Point","coordinates":[76.3466,10.0951]}},{"type":"Feature","properties":{"stop_id":"CPPY","stop_name":"Companypady","stop_code":"","mode":"metro","operator":"Kochi Metro Rail Limited","source_feed_id":"kochi_kmrl_official_open_data"},"geometry":{"type":"Point","coordinates":[76.3428,10.0873]}},{"type":"Feature","properties":{"stop_id":"ATTK","stop_name":"Ambattukavu","stop_code":"","mode":"metro","operator":"Kochi Metro Rail Limited","source_feed_id":"kochi_kmrl_official_open_data"},"geometry":{"type":"Point","coordinates":[76.3389,10.0793]}},{"type":"Feature","properties":{"stop_id":"MUTT","stop_name":"Muttom","stop_code":"","mode":"metro","operator":"Kochi Metro Rail Limited","source_feed_id":"kochi_kmrl_official_open_data"},"geometry":{"type":"Point","coordinates":[76.3336,10.0727]}},{"type":"Feature","properties":{"stop_id":"KLMT","stop_name":"Kalamassery","stop_code":"","mode":"metro","operator":"Kochi Metro Rail Limited","source_feed_id":"kochi_kmrl_official_open_data"},"geometry":{"type":"Point","coordinates":[76.322,10.0586]}},{"type":"Feature","properties":{"stop_id":"CCUV","stop_name":"Cochin University","stop_code":"","mode":"metro","operator":"Kochi Metro Rail Limited","source_feed_id":"kochi_kmrl_official_open_data"},"geometry":{"type":"Point","coordinates":[76.3182,10.0467]}},{"type":"Feature","properties":{"stop_id":"PDPM","stop_name":"Pathadipalam","stop_code":"","mode":"metro","operator":"Kochi Metro Rail Limited","source_feed_id":"kochi_kmrl_official_open_data"},"geometry":{"type":"Point","coordinates":[76.3144,10.0361]}},{"type":"Feature","properties":{"stop_id":"EDAP","stop_name":"Edapally","stop_code":"","mode":"metro","operator":"Kochi Metro Rail Limited","source_feed_id":"kochi_kmrl_official_open_data"},"geometry":{"type":"Point","coordinates":[76.3083,10.0251]}},{"type":"Feature","properties":{"stop_id":"CGPP","stop_name":"Changampuzha Park","stop_code":"","mode":"metro","operator":"Kochi Metro Rail Limited","source_feed_id":"kochi_kmrl_official_open_data"},"geometry":{"type":"Point","coordinates":[76.3023,10.0152]}},{"type":"Feature","properties":{"stop_id":"PARV","stop_name":"Palarivattom","stop_code":"","mode":"metro","operator":"Kochi Metro Rail Limited","source_feed_id":"kochi_kmrl_official_open_data"},"geometry":{"type":"Point","coordinates":[76.3048,10.0064]}},{"type":"Feature","properties":{"stop_id":"JLSD","stop_name":"JLN Stadium","stop_code":"","mode":"metro","operator":"Kochi Metro Rail Limited","source_feed_id":"kochi_kmrl_official_open_data"},"geometry":{"type":"Point","coordinates":[76.2989,10.0002]}},{"type":"Feature","properties":{"stop_id":"KALR","stop_name":"Kaloor","stop_code":"","mode":"metro","operator":"Kochi Metro Rail Limited","source_feed_id":"kochi_kmrl_official_open_data"},"geometry":{"type":"Point","coordinates":[76.2914,9.9943]}},{"type":"Feature","properties":{"stop_id":"TNHL","stop_name":"Town Hall","stop_code":"","mode":"metro","operator":"Kochi Metro Rail Limited","source_feed_id":"kochi_kmrl_official_open_data"},"geometry":{"type":"Point","coordinates":[76.2883601,9.9913775]}},{"type":"Feature","properties":{"stop_id":"MGRD","stop_name":"MG Road","stop_code":"","mode":"metro","operator":"Kochi Metro Rail Limited","source_feed_id":"kochi_kmrl_official_open_data"},"geometry":{"type":"Point","coordinates":[76.2823,9.9834]}},{"type":"Feature","properties":{"stop_id":"MACE","stop_name":"Maharajas College","stop_code":"","mode":"metro","operator":"Kochi Metro Rail Limited","source_feed_id":"kochi_kmrl_official_open_data"},"geometry":{"type":"Point","coordinates":[76.2851,9.9732]}},{"type":"Feature","properties":{"stop_id":"ERSH","stop_name":"Ernakulam South","stop_code":"","mode":"metro","operator":"Kochi Metro Rail Limited","source_feed_id":"kochi_kmrl_official_open_data"},"geometry":{"type":"Point","coordinates":[76.2895744,9.9686042]}},{"type":"Feature","properties":{"stop_id":"KVTR","stop_name":"Kadavanthra","stop_code":"","mode":"metro","operator":"Kochi Metro Rail Limited","source_feed_id":"kochi_kmrl_official_open_data"},"geometry":{"type":"Point","coordinates":[76.2981877,9.9665809]}},{"type":"Feature","properties":{"stop_id":"EMKM","stop_name":"Elamkulam","stop_code":"","mode":"metro","operator":"Kochi Metro Rail Limited","source_feed_id":"kochi_kmrl_official_open_data"},"geometry":{"type":"Point","coordinates":[76.3084899,9.9671248]}},{"type":"Feature","properties":{"stop_id":"VYTA","stop_name":"Vyttila","stop_code":"","mode":"metro","operator":"Kochi Metro Rail Limited","source_feed_id":"kochi_kmrl_official_open_data"},"geometry":{"type":"Point","coordinates":[76.3203664,9.9675457]}},{"type":"Feature","properties":{"stop_id":"THYK","stop_name":"Thykoodam","stop_code":"","mode":"metro","operator":"Kochi Metro Rail Limited","source_feed_id":"kochi_kmrl_official_open_data"},"geometry":{"type":"Point","coordinates":[76.3236762,9.9600311]}},{"type":"Feature","properties":{"stop_id":"PETT","stop_name":"Pettah","stop_code":"","mode":"metro","operator":"Kochi Metro Rail Limited","source_feed_id":"kochi_kmrl_official_open_data"},"geometry":{"type":"Point","coordinates":[76.3302101,9.9524842]}},{"type":"Feature","properties":{"stop_id":"VAKK","stop_name":"Vadakkekotta","stop_code":"","mode":"metro","operator":"Kochi Metro Rail Limited","source_feed_id":"kochi_kmrl_official_open_data"},"geometry":{"type":"Point","coordinates":[76.3394827,9.952838]}},{"type":"Feature","properties":{"stop_id":"SNJN","stop_name":"SN Junction","stop_code":"","mode":"metro","operator":"Kochi Metro Rail Limited","source_feed_id":"kochi_kmrl_official_open_data"},"geometry":{"type":"Point","coordinates":[76.3458505,9.9547532]}},{"type":"Feature","properties":{"stop_id":"TPHT","stop_name":"Tripunithura","stop_code":"","mode":"metro","operator":"Kochi Metro Rail Limited","source_feed_id":"kochi_kmrl_official_open_data"},"geometry":{"type":"Point","coordinates":[76.35183,9.95078]}}]}