{"type": "FeatureCollection", "crs": {"type": "name", "properties": {"name": "urn:ogc:def:crs:OGC:1.3:CRS84"}}, "features": [{"type": "Feature", "properties": {"pc_id": 3212, "st_code": 32, "st_name": "Kerala", "pc_no": 12, "pc_name": "Ernakulam", "pc_name_hi": "एर्णाकुलम", "pc_category": "GEN", "wikidata_qid": "Q3595497", "status": null, "2019_election_phase": 3, "2019_election_date": "2019-04-23", "representative": "Hibi Eden", "party": "INC", "office": "MP"}, "geometry": {"type": "MultiPolygon", "coordinates": [[[[76.233, 10.203], [76.264, 10.2], [76.274, 10.175], [76.323, 10.184], [76.331, 10.127], [76.322, 10.121], [76.347, 10.108], [76.326, 10.068], [76.346, 10.078], [76.362, 10.047], [76.381, 10.037], [76.367, 9.995], [76.343, 9.98], [76.364, 9.923], [76.381, 9.924], [76.385, 9.915], [76.374, 9.9], [76.388, 9.845], [76.372, 9.838], [76.353, 9.884], [76.334, 9.877], [76.293, 9.891], [76.299, 9.853], [76.286, 9.849], [76.279, 9.83], [76.292, 9.806], [76.282, 9.804], [76.282, 9.789], [76.238, 9.957], [76.241, 9.982], [76.221, 9.999], [76.167, 10.175], [76.169, 10.185], [76.213, 10.194], [76.22, 10.207], [76.233, 10.203]]]]}}, {"type": "Feature", "properties": {"pc_id": 3211, "st_code": 32, "st_name": "Kerala", "pc_no": 11, "pc_name": "Chalakudy", "pc_name_hi": "चालाकुडी", "pc_category": "GEN", "wikidata_qid": "Q3595248", "status": null, "2019_election_phase": 3, "2019_election_date": "2019-04-23", "representative": "Benny Behanan", "party": "INC", "office": "MP"}, "geometry": {"type": "MultiPolygon", "coordinates": [[[[76.616, 10.391], [76.63, 10.377], [76.661, 10.386], [76.692, 10.363], [76.715, 10.374], [76.763, 10.363], [76.754, 10.336], [76.804, 10.337], [76.817, 10.349], [76.838, 10.338], [76.83, 10.304], [76.849, 10.285], [76.873, 10.299], [76.873, 10.277], [76.898, 10.263], [76.901, 10.252], [76.878, 10.261], [76.875, 10.271], [76.81, 10.286], [76.769, 10.269], [76.749, 10.279], [76.688, 10.267], [76.674, 10.216], [76.651, 10.191], [76.639, 10.152], [76.579, 10.138], [76.575, 10.09], [76.558, 10.084], [76.562, 10.063], [76.539, 10.046], [76.545, 10.008], [76.511, 10.0], [76.506, 9.973], [76.494, 9.966], [76.5, 9.956], [76.472, 9.938], [76.445, 9.944], [76.441, 9.92], [76.421, 9.915], [76.417, 9.927], [76.379, 9.942], [76.356, 9.98], [76.381, 10.037], [76.362, 10.047], [76.346, 10.078], [76.326, 10.068], [76.347, 10.108], [76.322, 10.121], [76.331, 10.127], [76.323, 10.184], [76.274, 10.175], [76.264, 10.2], [76.22, 10.207], [76.213, 10.194], [76.163, 10.184], [76.11, 10.351], [76.133, 10.365], [76.123, 10.401], [76.139, 10.386], [76.149, 10.395], [76.167, 10.296], [76.176, 10.288], [76.205, 10.293], [76.204, 10.318], [76.231, 10.312], [76.228, 10.288], [76.237, 10.282], [76.254, 10.297], [76.271, 10.286], [76.286, 10.3], [76.297, 10.29], [76.311, 10.293], [76.315, 10.345], [76.289, 10.347], [76.284, 10.362], [76.301, 10.384], [76.335, 10.366], [76.338, 10.376], [76.364, 10.361], [76.386, 10.37], [76.411, 10.358], [76.501, 10.383], [76.587, 10.436], [76.616, 10.391]]]]}}]}