{"type": "FeatureCollection", "crs": {"type": "name", "properties": {"name": "urn:ogc:def:crs:OGC:1.3:CRS84"}}, "features": [{"type": "Feature", "properties": {"amenity": "police", "check_date": "2026-01-12", "name": "Fort Kochi Police Station", "ref": "15285018", "osm_id": 653124705, "osm_type": "node"}, "geometry": {"type": "Point", "coordinates": [76.2440364, 9.9673515]}}, {"type": "Feature", "properties": {"amenity": "police", "osm_id": 1025332957, "osm_type": "node"}, "geometry": {"type": "Point", "coordinates": [76.315901, 10.046978]}}, {"type": "Feature", "properties": {"amenity": "police", "name": "Police Station, ET North Cusba", "ref": "15285014", "osm_id": 1906216547, "osm_type": "node"}, "geometry": {"type": "Point", "coordinates": [76.2826992, 9.9888696]}}, {"type": "Feature", "properties": {"addr:city": "Fort Kochi", "amenity": "police", "name": "Customs", "name:ml": "കസ്റ്റംസ്", "operator": "Customs", "osm_id": 3589225441, "osm_type": "node"}, "geometry": {"type": "Point", "coordinates": [76.2512745, 9.9691797]}}, {"type": "Feature", "properties": {"amenity": "police", "name": "Police Signal Control", "osm_id": 3813524936, "osm_type": "node"}, "geometry": {"type": "Point", "coordinates": [76.2883836, 10.0616167]}}, {"type": "Feature", "properties": {"amenity": "police", "name": "Police Aid Post", "osm_id": 3813524938, "osm_type": "node"}, "geometry": {"type": "Point", "coordinates": [76.3077234, 10.0246127]}}, {"type": "Feature", "properties": {"amenity": "police", "name": "Kerala Railway Police Station", "osm_id": 3949438905, "osm_type": "node"}, "geometry": {"type": "Point", "coordinates": [76.2912524, 9.9682328]}}, {"type": "Feature", "properties": {"amenity": "police", "check_date": "2026-01-13", "name": "Janamythri Police Station, Kadavantra", "ref": "15285021", "osm_id": 4293292899, "osm_type": "node"}, "geometry": {"type": "Point", "coordinates": [76.2970222, 9.9701748]}}, {"type": "Feature", "properties": {"addr:street": "Shastha Temple Road", "amenity": "police", "name": "Cerebtec Technologies pvt.ltd", "name:en": "Cerebtec Technologies pvt.ltd", "opening_hours": "Mo-Fr 09:00-18:00", "osm_id": 4463909589, "osm_type": "node"}, "geometry": {"type": "Point", "coordinates": [76.2891741, 9.9960152]}}, {"type": "Feature", "properties": {"amenity": "police", "check_date": "2026-06-06", "name": "Hill Palace Police Camp", "operator": "Kerala Police", "osm_id": 6164203083, "osm_type": "node"}, "geometry": {"type": "Point", "coordinates": [76.360905, 9.9536223]}}, {"type": "Feature", "properties": {"amenity": "police", "check_date": "2026-06-06", "name": "Armed Reserve Police Parade Ground", "osm_id": 6164568045, "osm_type": "node"}, "geometry": {"type": "Point", "coordinates": [76.3610281, 9.9547228]}}, {"type": "Feature", "properties": {"amenity": "police", "level": "1", "name": "Fisheries Station", "name:en": "Fisheries Station", "survey:date": "2020-02-11", "osm_id": 7202758985, "osm_type": "node"}, "geometry": {"type": "Point", "coordinates": [76.2442749, 9.9735714]}}, {"type": "Feature", "properties": {"amenity": "police", "name": "Police Station,Cheranalloor", "ref": "15285005", "osm_id": 7503498271, "osm_type": "node"}, "geometry": {"type": "Point", "coordinates": [76.2876615, 10.0567708]}}, {"type": "Feature", "properties": {"amenity": "police", "name": "Ernakulam Town South Police Station", "ref": "15285015", "wheelchair": "yes", "osm_id": 7761837078, "osm_type": "node"}, "geometry": {"type": "Point", "coordinates": [76.2926337, 9.950256]}}, {"type": "Feature", "properties": {"amenity": "police", "name": "Office of the Commissioner of Police", "osm_id": 7920095112, "osm_type": "node"}, "geometry": {"type": "Point", "coordinates": [76.2795549, 9.9740482]}}, {"type": "Feature", "properties": {"amenity": "police", "check_date": "2025-03-23", "name": "Police aid post", "osm_id": 8018787413, "osm_type": "node"}, "geometry": {"type": "Point", "coordinates": [76.3385102, 10.0366732]}}, {"type": "Feature", "properties": {"amenity": "police", "name": "Police Aid Post", "osm_id": 9280367788, "osm_type": "node"}, "geometry": {"type": "Point", "coordinates": [76.3211645, 9.9695308]}}, {"type": "Feature", "properties": {"addr:city": "Tripunithura", "addr:housenumber": "Kannankulangara", "addr:postcode": "682301", "addr:street": "Mini Byepass Thripunithara", "amenity": "police", "name": "Police Station, Tripunitura", "opening_hours": "24/7", "osm_id": 9375944637, "osm_type": "node"}, "geometry": {"type": "Point", "coordinates": [76.350393, 9.9419781]}}, {"type": "Feature", "properties": {"addr:city": "Thrippunithuira", "addr:postcode": "682301", "addr:street": "Hill Palace Road", "amenity": "police", "check_date": "2026-06-06", "name": "Armed Reserve Police Station, Thrippunithura", "osm_id": 9397197176, "osm_type": "node"}, "geometry": {"type": "Point", "coordinates": [76.3610062, 9.9540785]}}, {"type": "Feature", "properties": {"addr:city": "Thrippunithura", "addr:postcode": "682301", "addr:street": "PWD Rest House", "amenity": "police", "name": "Inspector General of Police, Crime Branch Ernakulam", "ref": "15285027", "osm_id": 9397323221, "osm_type": "node"}, "geometry": {"type": "Point", "coordinates": [76.3505582, 9.9426917]}}, {"type": "Feature", "properties": {"amenity": "police", "name": "City Traffic Police Station (East)", "ref": "15285055", "osm_id": 9822323765, "osm_type": "node"}, "geometry": {"type": "Point", "coordinates": [76.3076516, 10.0222535]}}, {"type": "Feature", "properties": {"amenity": "police", "name": "Police Station , Elamakkara", "ref": "15285002", "osm_id": 9822323766, "osm_type": "node"}, "geometry": {"type": "Point", "coordinates": [76.2904883, 10.0120082]}}, {"type": "Feature", "properties": {"amenity": "police", "name": "Police Station, Thoppumpady", "ref": "15285045", "osm_id": 9843304409, "osm_type": "node"}, "geometry": {"type": "Point", "coordinates": [76.2618844, 9.9374813]}}, {"type": "Feature", "properties": {"addr:street": "Mahatma Gandhi Road", "amenity": "police", "building": "kiosk", "name": "Police Aid Post", "operator": "Kerala Police", "operator:ml": "കേരള പോലീസ്", "operator:wikidata": "Q17064579", "toilets": "no", "osm_id": 11071162550, "osm_type": "node"}, "geometry": {"type": "Point", "coordinates": [76.2917088, 9.9494223]}}, {"type": "Feature", "properties": {"amenity": "police", "name": "ACP Office", "official_name": "Office of the Assistant Commissioner of Police", "operator": "Kerala Police", "operator:ml": "കേരള പോലീസ്", "operator:wikidata": "Q17064579", "osm_id": 11134512218, "osm_type": "node"}, "geometry": {"type": "Point", "coordinates": [76.2761633, 9.987113]}}, {"type": "Feature", "properties": {"amenity": "police", "building": "yes", "name": "Coastal Police Station , Ernakulam", "ref": "15285019", "osm_id": 269837455, "osm_type": "way"}, "geometry": {"type": "Polygon", "coordinates": [[[76.2515048, 9.9690333], [76.2514363, 9.9688867], [76.2516032, 9.968811], [76.2516718, 9.9689577], [76.2515048, 9.9690333]]]}}, {"type": "Feature", "properties": {"amenity": "police", "building": "yes", "name": "Police Station, Mattanchery", "name:ml": "പോലീസ് സ്റ്റേഷൻ, മട്ടാഞ്ചേരി", "operator": "Kerala Police", "operator:ml": "കേരള പോലീസ്", "operator:wikidata": "Q17064579", "operator:wikipedia": "ml:കേരള പോലീസ്", "ref": "15285037", "osm_id": 407943812, "osm_type": "way"}, "geometry": {"type": "Polygon", "coordinates": [[[76.2594166, 9.9595782], [76.2593801, 9.9597579], [76.2595203, 9.9597856], [76.2595309, 9.959733], [76.2595599, 9.9597387], [76.2595677, 9.9597001], [76.2595439, 9.9596954], [76.2595553, 9.9596391], [76.2595297, 9.9596341], [76.2595362, 9.9596017], [76.2594166, 9.9595782]]]}}, {"type": "Feature", "properties": {"amenity": "police", "building": "yes", "name": "Police Station,Njarakkal", "ref": "15286037", "osm_id": 408551827, "osm_type": "way"}, "geometry": {"type": "Polygon", "coordinates": [[[76.2189515, 10.0391159], [76.2188969, 10.0392726], [76.2191158, 10.0393465], [76.2191704, 10.0391898], [76.2189515, 10.0391159]]]}}, {"type": "Feature", "properties": {"amenity": "police", "building": "yes", "name": "Police Station, Mulanthuruthy", "name:ml": "പോലീസ് സ്റ്റേഷൻ, മുളന്തുരുത്തി", "ref": "15286032", "osm_id": 473535753, "osm_type": "way"}, "geometry": {"type": "Polygon", "coordinates": [[[76.3919352, 9.9015839], [76.3919955, 9.9013896], [76.3923159, 9.901433], [76.3922323, 9.9016662], [76.3920653, 9.9016199], [76.3919352, 9.9015839]]]}}, {"type": "Feature", "properties": {"amenity": "police", "building": "yes", "name": "Police Station,Udayamperoor", "ref": "15285048", "osm_id": 619937655, "osm_type": "way"}, "geometry": {"type": "Polygon", "coordinates": [[[76.3646698, 9.9139171], [76.3647734, 9.9139091], [76.36476, 9.9137413], [76.3646564, 9.9137494], [76.3646698, 9.9139171]]]}}, {"type": "Feature", "properties": {"amenity": "police", "building": "yes", "name": "Police Station,Panangad", "ref": "15285042", "osm_id": 620063074, "osm_type": "way"}, "geometry": {"type": "Polygon", "coordinates": [[[76.3165684, 9.9082024], [76.3166858, 9.9081778], [76.3166357, 9.9079452], [76.3165567, 9.9079617], [76.3165639, 9.9079951], [76.3165254, 9.9080031], [76.3165684, 9.9082024]]]}}, {"type": "Feature", "properties": {"amenity": "police", "building": "yes", "name": "Hill Palace Police Station", "name:ml": "ഹില്‍ പാലസ് പോലീസ് സ്റ്റേഷന്‍", "osm_id": 621037130, "osm_type": "way"}, "geometry": {"type": "Polygon", "coordinates": [[[76.3155185, 9.918456], [76.3154823, 9.9184494], [76.3154752, 9.9184871], [76.3155114, 9.9184937], [76.3155185, 9.918456]]]}}, {"type": "Feature", "properties": {"amenity": "police", "building": "yes", "name": "Naval Police Station", "osm_id": 624643626, "osm_type": "way"}, "geometry": {"type": "Polygon", "coordinates": [[[76.2855875, 9.9419784], [76.2856601, 9.942014], [76.2858214, 9.9416942], [76.2856196, 9.9415955], [76.2855838, 9.9416666], [76.2857128, 9.9417298], [76.2855875, 9.9419784]]]}}, {"type": "Feature", "properties": {"amenity": "police", "building": "yes", "name": "Janamaithri Police Station, Kochi Harbour", "ref": "15285024", "osm_id": 630413858, "osm_type": "way"}, "geometry": {"type": "Polygon", "coordinates": [[[76.2683592, 9.9607604], [76.2685094, 9.960805], [76.2685796, 9.9605755], [76.2684293, 9.9605309], [76.2683592, 9.9607604]]]}}, {"type": "Feature", "properties": {"amenity": "police", "osm_id": 658237241, "osm_type": "way"}, "geometry": {"type": "Polygon", "coordinates": [[[76.3605968, 9.9556058], [76.3612945, 9.9555686], [76.3613373, 9.9532382], [76.3605952, 9.9532211], [76.3601463, 9.9535165], [76.3600903, 9.9538375], [76.3601394, 9.9541129], [76.3603052, 9.9543138], [76.3602942, 9.9548195], [76.360507, 9.9547982], [76.3605968, 9.9556058]]]}}, {"type": "Feature", "properties": {"amenity": "police", "building": "yes", "name": "Police Station, Palluruthy", "ref": "15285007", "osm_id": 798253237, "osm_type": "way"}, "geometry": {"type": "Polygon", "coordinates": [[[76.2713801, 9.9275931], [76.2713838, 9.9275697], [76.2713314, 9.9275616], [76.2713418, 9.9274967], [76.2714114, 9.9275075], [76.2714142, 9.9274896], [76.2715448, 9.9275098], [76.2715326, 9.9275865], [76.2714743, 9.9275775], [76.2714696, 9.9276069], [76.2713801, 9.9275931]]]}}, {"type": "Feature", "properties": {"amenity": "police", "building": "yes", "check_date": "2025-12-15", "name": "Police Station,Ambalamedu", "ref": "15285003", "osm_id": 799386637, "osm_type": "way"}, "geometry": {"type": "Polygon", "coordinates": [[[76.3992351, 9.9894309], [76.3993102, 9.989452], [76.3993424, 9.9894256], [76.399396, 9.9894626], [76.3994443, 9.9893569], [76.3993102, 9.989283], [76.3992351, 9.9894309]]]}}, {"type": "Feature", "properties": {"amenity": "police", "building": "yes", "name": "Janamythri Police Station, Palarivattom", "opening_hours": "24/7", "ref": "15285041", "osm_id": 799780983, "osm_type": "way"}, "geometry": {"type": "Polygon", "coordinates": [[[76.305829, 10.0025939], [76.3058648, 10.0024758], [76.3059676, 10.002506], [76.3059319, 10.0026241], [76.305829, 10.0025939]]]}}, {"type": "Feature", "properties": {"amenity": "police", "building": "yes", "osm_id": 802375385, "osm_type": "way"}, "geometry": {"type": "Polygon", "coordinates": [[[76.3356427, 10.0179679], [76.3357741, 10.017746], [76.3358948, 10.0177962], [76.3357768, 10.0180365], [76.3356427, 10.0179679]]]}}, {"type": "Feature", "properties": {"amenity": "police", "building": "yes", "name": "Police Station,Kalamassery", "ref": "15285031", "osm_id": 863469863, "osm_type": "way"}, "geometry": {"type": "Polygon", "coordinates": [[[76.3169842, 10.0463372], [76.3170964, 10.0463547], [76.3171097, 10.0462724], [76.3171489, 10.0462785], [76.317165, 10.0461787], [76.3170136, 10.046155], [76.3169842, 10.0463372]]]}}, {"type": "Feature", "properties": {"amenity": "police", "building": "yes", "name": "Kumbalanghi,Police Station", "osm_id": 895463898, "osm_type": "way"}, "geometry": {"type": "Polygon", "coordinates": [[[76.288033, 9.8791682], [76.2881161, 9.8791954], [76.2881476, 9.8791019], [76.2880577, 9.8790725], [76.288027, 9.8791633], [76.288033, 9.8791682]]]}}, {"type": "Feature", "properties": {"addr:city": "Ernakulam", "addr:postcode": "682018", "addr:street": "Old Railway Station Road", "amenity": "police", "building": "yes", "name": "Central Police Station", "ref": "15285049", "osm_id": 934272978, "osm_type": "way"}, "geometry": {"type": "Polygon", "coordinates": [[[76.2760825, 9.9871386], [76.2762293, 9.9871779], [76.2762804, 9.9869928], [76.2761336, 9.9869535], [76.2760825, 9.9871386]]]}}, {"type": "Feature", "properties": {"addr:city": "Ernakulam", "addr:postcode": "682018", "addr:street": "Old Railway Station Road", "amenity": "police", "building": "yes", "name": "Traffic Police Station", "official_name": "Traffic Enforcement Unit (West)", "opening_hours": "24/7", "operator": "government", "ref": "15285017", "osm_id": 934309201, "osm_type": "way"}, "geometry": {"type": "Polygon", "coordinates": [[[76.2756349, 9.9868766], [76.2756621, 9.9867895], [76.275742, 9.9868137], [76.2757527, 9.9867794], [76.275835, 9.9868044], [76.275817, 9.9868617], [76.2758364, 9.9868676], [76.2758141, 9.9869329], [76.2756349, 9.9868766]]]}}, {"type": "Feature", "properties": {"amenity": "police", "area": "yes", "name": "Njarakkal Police Station", "phone": "+91-484 249 2328", "osm_id": 951772377, "osm_type": "way"}, "geometry": {"type": "Polygon", "coordinates": [[[76.2186627, 10.0392812], [76.2188506, 10.0389344], [76.2193953, 10.0391979], [76.2193577, 10.039339], [76.2193014, 10.0393089], [76.2191981, 10.0395077], [76.2186627, 10.0392812]]]}}, {"type": "Feature", "properties": {"amenity": "police", "building": "yes", "name": "Police Station,Kannamaly", "operator:wikipedia": "ml:കേരള പോലീസ്", "ref": "15285033", "osm_id": 1008817590, "osm_type": "way"}, "geometry": {"type": "Polygon", "coordinates": [[[76.2608248, 9.8860365], [76.2608651, 9.8859038], [76.2610347, 9.8859426], [76.2609973, 9.8860859], [76.2608248, 9.8860365]]]}}, {"type": "Feature", "properties": {"addr:city": "Tripunithara", "addr:housenumber": "Ammankovil", "addr:street": "Ettumanoor - Ernakulam Road", "amenity": "police", "building": "yes", "name": "Police Quarters", "osm_id": 1017122984, "osm_type": "way"}, "geometry": {"type": "Polygon", "coordinates": [[[76.3518184, 9.9361299], [76.3518712, 9.9358762], [76.3523534, 9.9359771], [76.3523302, 9.936221], [76.3518184, 9.9361299]]]}}, {"type": "Feature", "properties": {"amenity": "police", "building": "yes", "check_date": "2025-12-18", "name": "Infopark Police Station and Cyber Crime Police Station", "ref": "15285058", "osm_id": 1063499600, "osm_type": "way"}, "geometry": {"type": "Polygon", "coordinates": [[[76.361408, 10.0069685], [76.3615035, 10.0070986], [76.3616441, 10.007046], [76.3615064, 10.006866], [76.3614839, 10.0068522], [76.361408, 10.0069685]]]}}, {"type": "Feature", "properties": {"amenity": "police", "building": "yes", "name": "Janamaithri Police Station,Thrikkakara", "ref": "15285047", "osm_id": 1063500338, "osm_type": "way"}, "geometry": {"type": "Polygon", "coordinates": [[[76.3453059, 10.0209042], [76.3454544, 10.0208885], [76.3453969, 10.0207155], [76.345258, 10.020736], [76.3453059, 10.0209042]]]}}, {"type": "Feature", "properties": {"amenity": "police", "building": "yes", "name": "Police Station,Mulavukad", "ref": "15285040", "osm_id": 1063500893, "osm_type": "way"}, "geometry": {"type": "Polygon", "coordinates": [[[76.2561737, 10.0142648], [76.2562749, 10.0142842], [76.2563424, 10.0141485], [76.256213, 10.014107], [76.2561737, 10.0142648]]]}}, {"type": "Feature", "properties": {"amenity": "police", "building": "yes", "name": "Maradu Police Station", "ref": "15285050", "type": "government", "osm_id": 1063532425, "osm_type": "way"}, "geometry": {"type": "Polygon", "coordinates": [[[76.3281571, 9.9365858], [76.3282657, 9.9366148], [76.3282951, 9.9364119], [76.3281921, 9.9364137], [76.3281571, 9.9365858]]]}}, {"type": "Feature", "properties": {"amenity": "police", "building": "yes", "name": "Central Police Station", "ref": "15285013", "osm_id": 1070260235, "osm_type": "way"}, "geometry": {"type": "Polygon", "coordinates": [[[76.2758116, 9.9870868], [76.2759873, 9.9871292], [76.2760154, 9.987015], [76.2758397, 9.9869726], [76.2758116, 9.9870868]]]}}, {"type": "Feature", "properties": {"amenity": "police", "building": "yes", "name": "Police Station,Chottanikkara", "osm_id": 1098610443, "osm_type": "way"}, "geometry": {"type": "Polygon", "coordinates": [[[76.3905965, 9.9327018], [76.3905814, 9.9325565], [76.3907551, 9.9325391], [76.3907701, 9.9326844], [76.3905965, 9.9327018]]]}}, {"type": "Feature", "properties": {"amenity": "police", "operator": "Kerala Police", "operator:ml": "കേരള പോലീസ്", "operator:wikidata": "Q17064579", "osm_id": 1200879046, "osm_type": "way"}, "geometry": {"type": "Polygon", "coordinates": [[[76.2755398, 9.9870499], [76.2756573, 9.9866097], [76.2763784, 9.9867693], [76.2763397, 9.987068], [76.2762817, 9.9870619], [76.2762676, 9.9872278], [76.2755398, 9.9870499]]]}}]}