{"type": "FeatureCollection", "crs": {"type": "name", "properties": {"name": "urn:ogc:def:crs:OGC:1.3:CRS84"}}, "features": [{"type": "Feature", "properties": {"amenity": "toilets", "osm_id": 1668536624, "osm_type": "node"}, "geometry": {"type": "Point", "coordinates": [76.2398291, 9.9655414]}}, {"type": "Feature", "properties": {"amenity": "toilets", "fee": "yes", "osm_id": 3928870526, "osm_type": "node"}, "geometry": {"type": "Point", "coordinates": [76.2446595, 9.9686749]}}, {"type": "Feature", "properties": {"amenity": "toilets", "changing_table": "no", "fee": "no", "name": "free toilet", "osm_id": 3996661265, "osm_type": "node"}, "geometry": {"type": "Point", "coordinates": [76.2863416, 9.9875558]}}, {"type": "Feature", "properties": {"amenity": "toilets", "osm_id": 5638853321, "osm_type": "node"}, "geometry": {"type": "Point", "coordinates": [76.3061643, 10.0224215]}}, {"type": "Feature", "properties": {"amenity": "toilets", "operator": "Government of India (GoI)", "osm_id": 6367680686, "osm_type": "node"}, "geometry": {"type": "Point", "coordinates": [76.3162556, 9.9066169]}}, {"type": "Feature", "properties": {"access": "permissive", "amenity": "toilets", "osm_id": 6778153352, "osm_type": "node"}, "geometry": {"type": "Point", "coordinates": [76.2500726, 9.9690487]}}, {"type": "Feature", "properties": {"amenity": "toilets", "fee": "no", "level": "4", "osm_id": 6951172863, "osm_type": "node"}, "geometry": {"type": "Point", "coordinates": [76.2832131, 9.9782888]}}, {"type": "Feature", "properties": {"access": "yes", "amenity": "toilets", "toilets:disposal": "flush", "unisex": "yes", "wheelchair": "yes", "osm_id": 7028282799, "osm_type": "node"}, "geometry": {"type": "Point", "coordinates": [76.3264751, 10.06551]}}, {"type": "Feature", "properties": {"access": "yes", "amenity": "toilets", "fee": "no", "toilets:disposal": "flush", "unisex": "yes", "wheelchair": "limited", "osm_id": 7089632205, "osm_type": "node"}, "geometry": {"type": "Point", "coordinates": [76.271348, 9.9902845]}}, {"type": "Feature", "properties": {"amenity": "toilets", "osm_id": 7098161253, "osm_type": "node"}, "geometry": {"type": "Point", "coordinates": [76.2142434, 10.0581713]}}, {"type": "Feature", "properties": {"amenity": "toilets", "osm_id": 7099411356, "osm_type": "node"}, "geometry": {"type": "Point", "coordinates": [76.2405205, 9.9870065]}}, {"type": "Feature", "properties": {"amenity": "toilets", "osm_id": 7099460112, "osm_type": "node"}, "geometry": {"type": "Point", "coordinates": [76.2480141, 9.9852277]}}, {"type": "Feature", "properties": {"amenity": "toilets", "osm_id": 7099460120, "osm_type": "node"}, "geometry": {"type": "Point", "coordinates": [76.247448, 9.9851463]}}, {"type": "Feature", "properties": {"amenity": "toilets", "fee": "no", "level": "2", "osm_id": 7194781883, "osm_type": "node"}, "geometry": {"type": "Point", "coordinates": [76.2833923, 9.9783256]}}, {"type": "Feature", "properties": {"amenity": "toilets", "fee": "no", "level": "2", "osm_id": 7194781884, "osm_type": "node"}, "geometry": {"type": "Point", "coordinates": [76.2831824, 9.9782807]}}, {"type": "Feature", "properties": {"amenity": "toilets", "fee": "no", "level": "0", "osm_id": 7194801701, "osm_type": "node"}, "geometry": {"type": "Point", "coordinates": [76.2832052, 9.9782682]}}, {"type": "Feature", "properties": {"amenity": "toilets", "fee": "no", "level": "3", "osm_id": 7194812093, "osm_type": "node"}, "geometry": {"type": "Point", "coordinates": [76.2834044, 9.9783283]}}, {"type": "Feature", "properties": {"amenity": "toilets", "fee": "no", "level": "3", "osm_id": 7194812094, "osm_type": "node"}, "geometry": {"type": "Point", "coordinates": [76.2832019, 9.9782887]}}, {"type": "Feature", "properties": {"amenity": "toilets", "fee": "no", "level": "1", "osm_id": 7194813301, "osm_type": "node"}, "geometry": {"type": "Point", "coordinates": [76.2831905, 9.9782715]}}, {"type": "Feature", "properties": {"amenity": "toilets", "level": "1", "osm_id": 7194813302, "osm_type": "node"}, "geometry": {"type": "Point", "coordinates": [76.2833869, 9.9783078]}}, {"type": "Feature", "properties": {"amenity": "toilets", "fee": "no", "level": "5", "osm_id": 7194839672, "osm_type": "node"}, "geometry": {"type": "Point", "coordinates": [76.2833963, 9.978321]}}, {"type": "Feature", "properties": {"amenity": "toilets", "fee": "no", "level": "4", "osm_id": 7194850817, "osm_type": "node"}, "geometry": {"type": "Point", "coordinates": [76.283391, 9.9783256]}}, {"type": "Feature", "properties": {"amenity": "toilets", "osm_id": 7506622679, "osm_type": "node"}, "geometry": {"type": "Point", "coordinates": [76.3123609, 10.0328941]}}, {"type": "Feature", "properties": {"amenity": "toilets", "osm_id": 7510061630, "osm_type": "node"}, "geometry": {"type": "Point", "coordinates": [76.3188579, 9.9639184]}}, {"type": "Feature", "properties": {"amenity": "toilets", "osm_id": 7528370052, "osm_type": "node"}, "geometry": {"type": "Point", "coordinates": [76.3050409, 10.0412946]}}, {"type": "Feature", "properties": {"amenity": "toilets", "osm_id": 8812429118, "osm_type": "node"}, "geometry": {"type": "Point", "coordinates": [76.3278011, 10.054465]}}, {"type": "Feature", "properties": {"access": "yes", "amenity": "toilets", "fee": "yes", "female": "no", "male": "yes", "osm_id": 9280367789, "osm_type": "node"}, "geometry": {"type": "Point", "coordinates": [76.3217298, 9.9693222]}}, {"type": "Feature", "properties": {"access": "yes", "amenity": "toilets", "fee": "yes", "female": "yes", "osm_id": 9280367790, "osm_type": "node"}, "geometry": {"type": "Point", "coordinates": [76.3218552, 9.9690613]}}, {"type": "Feature", "properties": {"access": "yes", "amenity": "toilets", "fee": "yes", "female": "yes", "osm_id": 9282630102, "osm_type": "node"}, "geometry": {"type": "Point", "coordinates": [76.2784213, 9.9726945]}}, {"type": "Feature", "properties": {"access": "yes", "amenity": "toilets", "fee": "yes", "male": "yes", "osm_id": 9282630103, "osm_type": "node"}, "geometry": {"type": "Point", "coordinates": [76.2785249, 9.9724007]}}, {"type": "Feature", "properties": {"access": "yes", "amenity": "toilets", "osm_id": 9404135763, "osm_type": "node"}, "geometry": {"type": "Point", "coordinates": [76.3524255, 9.949935]}}, {"type": "Feature", "properties": {"amenity": "toilets", "osm_id": 10207524317, "osm_type": "node"}, "geometry": {"type": "Point", "coordinates": [76.2427496, 9.9650687]}}, {"type": "Feature", "properties": {"amenity": "toilets", "osm_id": 10270537540, "osm_type": "node"}, "geometry": {"type": "Point", "coordinates": [76.2511133, 9.9681454]}}, {"type": "Feature", "properties": {"access": "customers", "amenity": "toilets", "osm_id": 10579052524, "osm_type": "node"}, "geometry": {"type": "Point", "coordinates": [76.2385244, 9.9587531]}}, {"type": "Feature", "properties": {"amenity": "toilets", "osm_id": 10587459009, "osm_type": "node"}, "geometry": {"type": "Point", "coordinates": [76.2468794, 9.9688083]}}, {"type": "Feature", "properties": {"amenity": "toilets", "osm_id": 11164846406, "osm_type": "node"}, "geometry": {"type": "Point", "coordinates": [76.2430465, 9.9680968]}}, {"type": "Feature", "properties": {"access": "customers", "amenity": "toilets", "fee": "no", "gender_segregated": "yes", "unisex": "yes", "wheelchair": "yes", "osm_id": 11166677102, "osm_type": "node"}, "geometry": {"type": "Point", "coordinates": [76.3224393, 9.9670648]}}, {"type": "Feature", "properties": {"access": "yes", "amenity": "toilets", "wheelchair": "yes", "osm_id": 11260390831, "osm_type": "node"}, "geometry": {"type": "Point", "coordinates": [76.2877062, 9.9276986]}}, {"type": "Feature", "properties": {"access": "customers", "amenity": "toilets", "fee": "yes", "female": "yes", "male": "yes", "osm_id": 11328576792, "osm_type": "node"}, "geometry": {"type": "Point", "coordinates": [76.2863069, 9.9926614]}}, {"type": "Feature", "properties": {"access": "private", "amenity": "toilets", "changing_table": "no", "female": "yes", "toilets:disposal": "flush", "wheelchair": "no", "osm_id": 12067677456, "osm_type": "node"}, "geometry": {"type": "Point", "coordinates": [76.4090443, 9.9638218]}}, {"type": "Feature", "properties": {"amenity": "toilets", "changing_table": "no", "male": "yes", "toilets:disposal": "flush", "wheelchair": "limited", "osm_id": 12067706424, "osm_type": "node"}, "geometry": {"type": "Point", "coordinates": [76.4090377, 9.963593]}}, {"type": "Feature", "properties": {"access": "yes", "amenity": "toilets", "toilets:disposal": "flush", "osm_id": 12596636649, "osm_type": "node"}, "geometry": {"type": "Point", "coordinates": [76.3492042, 10.0374924]}}, {"type": "Feature", "properties": {"amenity": "toilets", "fee": "no", "osm_id": 13423630950, "osm_type": "node"}, "geometry": {"type": "Point", "coordinates": [76.3398312, 10.0238259]}}, {"type": "Feature", "properties": {"amenity": "toilets", "osm_id": 13601960355, "osm_type": "node"}, "geometry": {"type": "Point", "coordinates": [76.3616654, 9.9528693]}}, {"type": "Feature", "properties": {"amenity": "toilets", "fee": "no", "wheelchair": "yes", "osm_id": 13906131525, "osm_type": "node"}, "geometry": {"type": "Point", "coordinates": [76.3169357, 9.9438894]}}, {"type": "Feature", "properties": {"amenity": "toilets", "building": "yes", "osm_id": 620595440, "osm_type": "way"}, "geometry": {"type": "Polygon", "coordinates": [[[76.2864095, 9.8857984], [76.286455, 9.8857983], [76.286455, 9.8857452], [76.2864095, 9.8857452], [76.2864095, 9.8857984]]]}}, {"type": "Feature", "properties": {"access": "customers", "amenity": "toilets", "building": "yes", "female": "yes", "toilets:disposal": "flush", "wheelchair": "limited", "osm_id": 800762117, "osm_type": "way"}, "geometry": {"type": "Polygon", "coordinates": [[[76.406681, 10.0292503], [76.4066667, 10.0292182], [76.4067043, 10.0292002], [76.4067186, 10.0292382], [76.406681, 10.0292503]]]}}, {"type": "Feature", "properties": {"access": "yes", "amenity": "toilets", "building": "yes", "changing_table": "no", "unisex": "yes", "osm_id": 895505323, "osm_type": "way"}, "geometry": {"type": "Polygon", "coordinates": [[[76.256444, 9.9233297], [76.2564916, 9.9233348], [76.2565, 9.9232587], [76.2564524, 9.9232536], [76.256444, 9.9233297]]]}}, {"type": "Feature", "properties": {"access": "customers", "amenity": "toilets", "building": "yes", "toilets:disposal": "flush", "unisex": "yes", "wheelchair": "no", "osm_id": 934517852, "osm_type": "way"}, "geometry": {"type": "Polygon", "coordinates": [[[76.244427, 9.9732027], [76.2444833, 9.9732105], [76.2444949, 9.9731288], [76.2444386, 9.973121], [76.244427, 9.9732027]]]}}, {"type": "Feature", "properties": {"amenity": "toilets", "building": "yes", "osm_id": 952090058, "osm_type": "way"}, "geometry": {"type": "Polygon", "coordinates": [[[76.3276109, 10.0555262], [76.3276764, 10.0555928], [76.3277187, 10.055547], [76.327668, 10.0554804], [76.3276109, 10.0555262]]]}}, {"type": "Feature", "properties": {"amenity": "toilets", "building": "yes", "osm_id": 982764668, "osm_type": "way"}, "geometry": {"type": "Polygon", "coordinates": [[[76.2842124, 9.8975656], [76.2842105, 9.8975154], [76.2842528, 9.8975139], [76.2842547, 9.8975641], [76.2842124, 9.8975656]]]}}, {"type": "Feature", "properties": {"access": "yes", "amenity": "toilets", "building": "yes", "osm_id": 1016533144, "osm_type": "way"}, "geometry": {"type": "Polygon", "coordinates": [[[76.3460429, 9.9430184], [76.346091, 9.9430252], [76.3461026, 9.9429448], [76.3460545, 9.942938], [76.3460429, 9.9430184]]]}}, {"type": "Feature", "properties": {"access": "yes", "amenity": "toilets", "building": "yes", "unisex": "yes", "osm_id": 1026260058, "osm_type": "way"}, "geometry": {"type": "Polygon", "coordinates": [[[76.3835516, 9.9005425], [76.3836096, 9.9005488], [76.3836096, 9.9005721], [76.3835474, 9.9005784], [76.3835516, 9.9005425]]]}}, {"type": "Feature", "properties": {"access": "private", "amenity": "toilets", "building": "yes", "osm_id": 1082607081, "osm_type": "way"}, "geometry": {"type": "Polygon", "coordinates": [[[76.3004571, 10.0140886], [76.30058, 10.0140812], [76.300577, 10.0140319], [76.300454, 10.0140393], [76.3004571, 10.0140886]]]}}, {"type": "Feature", "properties": {"amenity": "toilets", "male": "yes", "room": "yes", "wheelchair": "yes", "osm_id": 1174803127, "osm_type": "way"}, "geometry": {"type": "Polygon", "coordinates": [[[76.3184579, 9.918971], [76.3185017, 9.9189828], [76.3185138, 9.9189363], [76.3184684, 9.9189252], [76.3184579, 9.918971]]]}}, {"type": "Feature", "properties": {"amenity": "toilets", "changing_table": "yes", "room": "yes", "unisex": "yes", "wheelchair": "yes", "osm_id": 1174803128, "osm_type": "way"}, "geometry": {"type": "Polygon", "coordinates": [[[76.3184481, 9.9190083], [76.3184928, 9.9190215], [76.3185017, 9.9189828], [76.3184579, 9.918971], [76.3184481, 9.9190083]]]}}, {"type": "Feature", "properties": {"amenity": "toilets", "female": "yes", "room": "yes", "wheelchair": "yes", "osm_id": 1174803129, "osm_type": "way"}, "geometry": {"type": "Polygon", "coordinates": [[[76.3184364, 9.9190564], [76.3184811, 9.9190696], [76.3184928, 9.9190215], [76.3184481, 9.9190083], [76.3184364, 9.9190564]]]}}, {"type": "Feature", "properties": {"access": "yes", "amenity": "toilets", "building": "toilets", "female": "yes", "name": "ladies toilet", "wheelchair": "yes", "osm_id": 1221425219, "osm_type": "way"}, "geometry": {"type": "Polygon", "coordinates": [[[76.332008, 10.0482046], [76.3320728, 10.0481707], [76.3320627, 10.0481447], [76.3320364, 10.0480902], [76.3319661, 10.0481162], [76.332008, 10.0482046]]]}}, {"type": "Feature", "properties": {"access": "yes", "amenity": "toilets", "building": "yes", "male": "yes", "osm_id": 1221425220, "osm_type": "way"}, "geometry": {"type": "Polygon", "coordinates": [[[76.3322788, 10.0494295], [76.3323049, 10.0494079], [76.3322905, 10.0493793], [76.3322607, 10.0494001], [76.3322788, 10.0494295]]]}}, {"type": "Feature", "properties": {"amenity": "toilets", "building:part": "yes", "fee": "no", "female": "yes", "level": "0", "osm_id": 1360130534, "osm_type": "way"}, "geometry": {"type": "Polygon", "coordinates": [[[76.3257058, 10.0462402], [76.3257057, 10.0462017], [76.3257306, 10.0462021], [76.3257294, 10.0462402], [76.3257058, 10.0462402]]]}}, {"type": "Feature", "properties": {"amenity": "toilets", "building:part": "yes", "fee": "no", "level": "0", "male": "yes", "osm_id": 1360130535, "osm_type": "way"}, "geometry": {"type": "Polygon", "coordinates": [[[76.3257294, 10.0462402], [76.3257306, 10.0462021], [76.3257433, 10.0462023], [76.3257426, 10.0462188], [76.3257597, 10.0462193], [76.3257595, 10.0462393], [76.3257294, 10.0462402]]]}}, {"type": "Feature", "properties": {"amenity": "toilets", "building:part": "yes", "changing_table": "yes", "fee": "no", "level": "0", "unisex": "yes", "wheelchair": "yes", "osm_id": 1360130536, "osm_type": "way"}, "geometry": {"type": "Polygon", "coordinates": [[[76.3257426, 10.0462188], [76.3257597, 10.0462193], [76.3257599, 10.0462029], [76.3257433, 10.0462023], [76.3257426, 10.0462188]]]}}, {"type": "Feature", "properties": {"amenity": "toilets", "building:part": "yes", "fee": "no", "level": "1", "male": "yes", "osm_id": 1360130537, "osm_type": "way"}, "geometry": {"type": "Polygon", "coordinates": [[[76.3257303, 10.0461263], [76.3257314, 10.0460848], [76.325761, 10.0460848], [76.3257606, 10.0461274], [76.3257303, 10.0461263]]]}}, {"type": "Feature", "properties": {"amenity": "toilets", "building:part": "yes", "fee": "no", "female": "yes", "level": "1", "osm_id": 1360130538, "osm_type": "way"}, "geometry": {"type": "Polygon", "coordinates": [[[76.3257294, 10.0462402], [76.3257306, 10.0462021], [76.3257599, 10.0462029], [76.3257595, 10.0462393], [76.3257294, 10.0462402]]]}}, {"type": "Feature", "properties": {"amenity": "toilets", "building": "yes", "osm_id": 1489229336, "osm_type": "way"}, "geometry": {"type": "Polygon", "coordinates": [[[76.3053024, 9.92], [76.3053075, 9.9199772], [76.3053451, 9.9199852], [76.3053401, 9.9200081], [76.3053024, 9.92]]]}}]}