{"type": "FeatureCollection", "features": [{"type": "Feature", "properties": {"ac_name": "Bakshi Kaa Talab", "ac_no": 169.0, "office": "MLA", "pc_name": "MOHANLALGANJ (SC)"}, "geometry": {"type": "Polygon", "coordinates": [[[80.83528361134967, 27.1033097298602], [80.83580791340455, 27.1079802734709], [80.86490156525508, 27.126137866169643], [80.89507575793994, 27.127152318524736], [80.90744048818806, 27.151584292281314], [80.91533564272578, 27.14846594974381], [80.9224586807236, 27.158116506271824], [80.93062941991184, 27.15869840091051], [80.94833922937198, 27.149811277068807], [80.94845260690232, 27.142374705728116], [80.95347166388626, 27.14104569570236], [80.96442241526233, 27.145269945351743], [80.99065235592155, 27.13819150203625], [80.99802397372747, 27.1479138334567], [81.0091495209337, 27.142575773453245], [81.02438247696978, 27.11889053467047], [81.01562994296756, 27.10561745138432], [81.03459739945049, 27.099198099612636], [81.03480426690345, 27.09229243314934], [81.04852256856174, 27.092902237348426], [81.0447483918249, 27.078033642538628], [81.03670249922101, 27.07348781241268], [81.02284773983138, 27.073542457918165], [81.01227203272816, 27.06589366995695], [80.99398009660422, 27.075959136804784], [80.98790337034433, 27.067278169951635], [80.98358961117168, 27.070042149925314], [80.97231184561525, 27.05516635064663], [80.97860066978512, 27.037752907370816], [81.00178708250792, 27.037844458355096], [80.99314400409258, 27.024877519581935], [81.00172659140912, 27.01985851385939], [80.99591218839686, 27.010563139177577], [80.99652668435903, 27.000226312694224], [81.00735280229003, 26.998698015601008], [81.0273987194754, 26.985940974096707], [81.02177902777998, 26.9759695142817], [81.0352426899982, 26.964769493317533], [81.05384817565283, 26.97410008095403], [81.06349081185152, 26.968346187026953], [81.05757883509523, 26.96015278222518], [81.04848629170903, 26.961359574384915], [81.04229161576552, 26.955110273620278], [81.04120061041988, 26.939885727144656], [81.06370536491073, 26.928498834253844], [81.07293514574042, 26.910338524703207], [81.08202868107884, 26.910573531043667], [81.08758177617807, 26.917417645208218], [81.09527099765847, 26.914247044865306], [81.09909347968039, 26.902169177665485], [81.08755949907169, 26.890142717512447], [81.09822357625711, 26.883796932082817], [81.09672129115472, 26.86968397463579], [81.10030680361615, 26.869994158004033], [81.09088617405774, 26.858627752568793], [81.0952036708128, 26.853821707206066], [81.09008231144958, 26.83609043812328], [81.07360127357998, 26.827848604829285], [81.05978034218907, 26.828186956762693], [81.05968441510373, 26.818691810278892], [81.05226619532868, 26.822931331315942], [81.04868356249648, 26.814426306928567], [81.02647716618833, 26.817636483736806], [81.00786317474575, 26.817478460262805], [81.00182729839116, 26.822439149447234], [81.00015501803972, 26.830151024849954], [80.98978981974443, 26.83606952978505], [80.98212650143694, 26.830549899358402], [80.96896745398487, 26.833529968433368], [81.00859534429975, 26.84596893591771], [81.0253052731199, 26.849210856995512], [81.0165222727847, 26.860525744767358], [81.01045035250183, 26.86103225913149], [81.00972715818187, 26.8759917430246], [81.01547493581967, 26.87820435584638], [81.01292779678045, 26.893425622494533], [81.00652617694158, 26.897195658752707], [81.00675080690428, 26.90726316346428], [81.01503349190216, 26.926309625388967], [81.00586700895536, 26.930652762714885], [80.99560238274381, 26.921624692625528], [80.98097457871387, 26.925816457863277], [80.96898824001534, 26.933735691748836], [80.97266357676273, 26.939741776261997], [80.96219368029415, 26.94700615530985], [80.95102675438125, 26.937698173032288], [80.9477386279354, 26.939204415151664], [80.93834426487598, 26.927402343943072], [80.92909519448767, 26.931938097165528], [80.9200318448938, 26.92651675634329], [80.91214613323751, 26.910361366583857], [80.90696995210169, 26.91352677693925], [80.89489408049747, 26.904311521059924], [80.89883201028908, 26.89188976300221], [80.88321083491218, 26.892487243791322], [80.8859261552679, 26.90459285867354], [80.8655706977296, 26.914251161062282], [80.8652045270673, 26.91463231083253], [80.86278795340138, 26.920799208516712], [80.86818198001441, 26.934257080899613], [80.85478332439095, 26.933178622895184], [80.84892748781334, 26.943700287038666], [80.82571316283224, 26.948048790619225], [80.82152771173457, 26.959239024261592], [80.82935532358937, 26.965525335725715], [80.83033361870162, 26.978969302791143], [80.8349754163824, 26.983075897734523], [80.84922848550627, 26.970615315044824], [80.85503757982053, 26.975853638434728], [80.85088407533988, 26.982731175903098], [80.82729627360419, 26.99462828836488], [80.84502589333039, 27.01972466236333], [80.84001918223953, 27.022900282721935], [80.82602913513654, 27.018071847837575], [80.82486498882821, 27.02227065656558], [80.8515281014408, 27.0379878156852], [80.84221320877265, 27.048889506345688], [80.8441746337524, 27.062258989760608], [80.83522038721117, 27.06469292843593], [80.83063599685386, 27.07747144665001], [80.83495422655636, 27.09060309535664], [80.8288450545557, 27.096747842738807], [80.83623239790688, 27.09898323988466], [80.83528361134967, 27.1033097298602]]]}}, {"type": "Feature", "properties": {"ac_name": "Malihabad (SC)", "ac_no": 168.0, "office": "MLA", "pc_name": "MOHANLALGANJ (SC)"}, "geometry": {"type": "Polygon", "coordinates": [[[80.82697104817538, 27.099909345539913], [80.83528361134967, 27.1033097298602], [80.83623239790688, 27.09898323988466], [80.8288450545557, 27.096747842738807], [80.83495422655636, 27.09060309535664], [80.83063599685386, 27.07747144665001], [80.83522038721117, 27.06469292843593], [80.8441746337524, 27.062258989760608], [80.84221320877265, 27.048889506345688], [80.8515281014408, 27.0379878156852], [80.82486498882821, 27.02227065656558], [80.82602913513654, 27.018071847837575], [80.84001918223953, 27.022900282721935], [80.84502589333039, 27.01972466236333], [80.82729627360419, 26.99462828836488], [80.85088407533988, 26.982731175903098], [80.85503757982053, 26.975853638434728], [80.84922848550627, 26.970615315044824], [80.8349754163824, 26.983075897734523], [80.83033361870162, 26.978969302791143], [80.82935532358937, 26.965525335725715], [80.82152771173457, 26.959239024261592], [80.82571316283224, 26.948048790619225], [80.84892748781334, 26.943700287038666], [80.85478332439095, 26.933178622895184], [80.86818198001441, 26.934257080899613], [80.86278795340138, 26.920799208516712], [80.8652045270673, 26.91463231083253], [80.85610512724986, 26.9090988821078], [80.85186483999041, 26.900100325969333], [80.84259848822973, 26.901919110378685], [80.83465676409844, 26.896689355729222], [80.85181068281679, 26.887298778815648], [80.84597259525913, 26.879239639198033], [80.8515928850037, 26.872199883817643], [80.84041958649476, 26.8713340048605], [80.83855768049261, 26.861720246792004], [80.84461866232147, 26.86039290051201], [80.8407257534908, 26.83627069014028], [80.84939270890646, 26.828986589859312], [80.8493938159719, 26.818305950759054], [80.8618163672316, 26.79839794730748], [80.87140761077268, 26.792868221091567], [80.84092332914838, 26.77069065435029], [80.83214096283524, 26.77962185306609], [80.82284839223956, 26.78159803142404], [80.83304988604345, 26.796577613366196], [80.82516411683059, 26.80041692080431], [80.81940447713498, 26.8162581584873], [80.80651725246929, 26.826547134742498], [80.80672888003386, 26.83411962961725], [80.77329891581235, 26.834119215029773], [80.78036206885446, 26.8484861994786], [80.7703610609143, 26.85538360836688], [80.76468414715572, 26.849078338294703], [80.7518994577938, 26.857400585368794], [80.74512613646209, 26.84921503254776], [80.72748349916424, 26.84335692338334], [80.73034781649858, 26.855113220898488], [80.70188634847625, 26.852687734051756], [80.69151224059749, 26.84517097376147], [80.69458121575059, 26.850064468300616], [80.67863424747259, 26.86297179731065], [80.6689995936564, 26.8637614470332], [80.63629874399192, 26.880104415586345], [80.62719127815501, 26.878577097854816], [80.62666232030989, 26.88916528035344], [80.64064311428837, 26.903320123724768], [80.62120844831128, 26.9094455131999], [80.60598156449765, 26.94553049553599], [80.59263980178548, 26.94494268875411], [80.58062179436035, 26.924913965706992], [80.56135907695989, 26.937112110035912], [80.5790504997808, 26.960443029422322], [80.58736763510831, 26.962487525678796], [80.59476678475937, 26.954629991580873], [80.59859780854208, 26.96401523731339], [80.59317135057745, 26.96893521598747], [80.60008176905848, 26.983421943368057], [80.59285268120635, 26.991434992730774], [80.58551627455648, 26.987306181834867], [80.57857574767269, 26.999207107422137], [80.56038931641388, 27.010391407337636], [80.5865700965328, 27.02859227001727], [80.57611118168575, 27.030189156604365], [80.58270965142935, 27.03738617463233], [80.59399154937057, 27.03716808094225], [80.59953734737076, 27.04384017638307], [80.60676201235702, 27.037856270950215], [80.61553478020602, 27.039457301613254], [80.62488693358517, 27.05691144730548], [80.6421577102102, 27.061983578679246], [80.6438130455357, 27.06689228165351], [80.65755226452546, 27.063198069935027], [80.6563312073194, 27.06711235565075], [80.6425691293619, 27.070144476586393], [80.64646028811188, 27.078169849359085], [80.66709521267398, 27.07557725768436], [80.680170311111, 27.06570579618557], [80.70069044980448, 27.062400087993694], [80.70328460360162, 27.070836170353004], [80.71133997685848, 27.069128480994664], [80.71302539630506, 27.08142637722557], [80.73983883239623, 27.10227288078886], [80.75763397852535, 27.100551000128576], [80.7658715805091, 27.089779661702096], [80.770725548945, 27.10314232465862], [80.78046513745619, 27.097965528386453], [80.79215092362631, 27.110913788240794], [80.80493808612385, 27.100425876553004], [80.82697104817538, 27.099909345539913]]]}}, {"type": "Feature", "properties": {"ac_name": "Lucknow North", "ac_no": 172.0, "office": "MLA", "pc_name": "LUCKNOW"}, "geometry": {"type": "Polygon", "coordinates": [[[80.98097457871387, 26.925816457863277], [80.93991269601418, 26.87934614051204], [80.93330095317651, 26.858789191667938], [80.9166775436338, 26.87278219664114], [80.90716994693554, 26.872019895302003], [80.90721963088134, 26.86627223637464], [80.9001969257476, 26.87553579933774], [80.87746611047265, 26.87265369251395], [80.88321083491218, 26.892487243791322], [80.89883201028908, 26.89188976300221], [80.89489408049747, 26.904311521059924], [80.90696995210169, 26.91352677693925], [80.91214613323751, 26.910361366583857], [80.9200318448938, 26.92651675634329], [80.92909519448767, 26.931938097165528], [80.93834426487598, 26.927402343943072], [80.9477386279354, 26.939204415151664], [80.95102675438125, 26.937698173032288], [80.96219368029415, 26.94700615530985], [80.97266357676273, 26.939741776261997], [80.96898824001534, 26.933735691748836], [80.98097457871387, 26.925816457863277]]]}}, {"type": "Feature", "properties": {"ac_name": "Lucknow East", "ac_no": 173.0, "office": "MLA", "pc_name": "LUCKNOW"}, "geometry": {"type": "Polygon", "coordinates": [[[81.01503349190216, 26.926309625388967], [81.00675080690428, 26.90726316346428], [81.00652617694158, 26.897195658752707], [81.01292779678045, 26.893425622494533], [81.01547493581967, 26.87820435584638], [81.00972715818187, 26.8759917430246], [81.01045035250183, 26.86103225913149], [81.0165222727847, 26.860525744767358], [81.0253052731199, 26.849210856995512], [81.00859534429975, 26.84596893591771], [81.00030721930278, 26.85627023918022], [80.99296938452954, 26.851173926835315], [80.98549371786083, 26.863490619796323], [80.97541348504438, 26.86133367321048], [80.97282304904451, 26.86950322079707], [80.93330095317651, 26.858789191667938], [80.93991269601418, 26.87934614051204], [80.98097457871387, 26.925816457863277], [80.99560238274381, 26.921624692625528], [81.00586700895536, 26.930652762714885], [81.01503349190216, 26.926309625388967]]]}}, {"type": "Feature", "properties": {"ac_name": "Lucknow West", "ac_no": 171.0, "office": "MLA", "pc_name": "LUCKNOW"}, "geometry": {"type": "Polygon", "coordinates": [[[80.8655706977296, 26.914251161062282], [80.8859261552679, 26.90459285867354], [80.88321083491218, 26.892487243791322], [80.87746611047265, 26.87265369251395], [80.9001969257476, 26.87553579933774], [80.90721963088134, 26.86627223637464], [80.89172611696677, 26.839519116913777], [80.88440018472079, 26.811603844042224], [80.86891041918057, 26.807486745017343], [80.8618163672316, 26.79839794730748], [80.8493938159719, 26.818305950759054], [80.84939270890646, 26.828986589859312], [80.8407257534908, 26.83627069014028], [80.84461866232147, 26.86039290051201], [80.83855768049261, 26.861720246792004], [80.84041958649476, 26.8713340048605], [80.8515928850037, 26.872199883817643], [80.84597259525913, 26.879239639198033], [80.85181068281679, 26.887298778815648], [80.83465676409844, 26.896689355729222], [80.84259848822973, 26.901919110378685], [80.85186483999041, 26.900100325969333], [80.85610512724986, 26.9090988821078], [80.8652045270673, 26.91463231083253], [80.8655706977296, 26.914251161062282]]]}}, {"type": "Feature", "properties": {"ac_name": "Lucknow Central", "ac_no": 174.0, "office": "MLA", "pc_name": "LUCKNOW"}, "geometry": {"type": "Polygon", "coordinates": [[[80.9166775436338, 26.87278219664114], [80.93330095317651, 26.858789191667938], [80.97282304904451, 26.86950322079707], [80.97541348504438, 26.86133367321048], [80.98549371786083, 26.863490619796323], [80.99296938452954, 26.851173926835315], [81.00030721930278, 26.85627023918022], [81.00859534429975, 26.84596893591771], [80.96896745398487, 26.833529968433368], [80.94089688708175, 26.832995898841716], [80.93891062282705, 26.838277889712913], [80.92632306305899, 26.834535556171033], [80.92279462337325, 26.838517401656816], [80.91544880441887, 26.834982478758434], [80.9080419484772, 26.83841540594625], [80.90556369480873, 26.83317396190887], [80.89676396528483, 26.840600376306384], [80.89172611696677, 26.839519116913777], [80.90721963088134, 26.86627223637464], [80.90716994693554, 26.872019895302003], [80.9166775436338, 26.87278219664114]]]}}, {"type": "Feature", "properties": {"ac_name": "Sarojini Nagar", "ac_no": 170.0, "office": "MLA", "pc_name": "MOHANLALGANJ (SC)"}, "geometry": {"type": "Polygon", "coordinates": [[[80.73034781649858, 26.855113220898488], [80.72748349916424, 26.84335692338334], [80.74512613646209, 26.84921503254776], [80.7518994577938, 26.857400585368794], [80.76468414715572, 26.849078338294703], [80.7703610609143, 26.85538360836688], [80.78036206885446, 26.8484861994786], [80.77329891581235, 26.834119215029773], [80.80672888003386, 26.83411962961725], [80.80651725246929, 26.826547134742498], [80.81940447713498, 26.8162581584873], [80.82516411683059, 26.80041692080431], [80.83304988604345, 26.796577613366196], [80.82284839223956, 26.78159803142404], [80.83214096283524, 26.77962185306609], [80.84092332914838, 26.77069065435029], [80.87140761077268, 26.792868221091567], [80.88078260962976, 26.784474735120966], [80.88873688919614, 26.783752123561726], [80.89372736212812, 26.795265965651822], [80.92327400339258, 26.796809320993418], [80.93220471197793, 26.801536225116763], [80.97486748504645, 26.783764285993072], [80.98423806283637, 26.795071628452945], [80.98956188747121, 26.81361292949316], [81.00182729839116, 26.822439149447234], [81.00786317474575, 26.817478460262805], [81.02647716618833, 26.817636483736806], [81.02162981406474, 26.805980999323708], [81.0280405305461, 26.79786605587384], [81.0135650033223, 26.781222188553215], [81.0293122267779, 26.77716253552262], [81.03157941675676, 26.760818137047465], [81.02596569386174, 26.748830986261055], [81.01090899415482, 26.73933788663419], [81.00065621291395, 26.74807633005861], [80.99746314031171, 26.74490691861945], [80.98337680459593, 26.74639529210907], [80.99025030680627, 26.731062273904854], [80.9830952394538, 26.734758107101015], [80.97447478078658, 26.723208952231403], [80.96788872258651, 26.724613836259607], [80.96333676897677, 26.718765997352932], [80.96584813478364, 26.71025927144825], [80.9611457129044, 26.69272387200914], [80.96706168085194, 26.69045051717768], [80.96928877815463, 26.680300359374144], [80.93890899235618, 26.66227777020299], [80.91012488985183, 26.659296329661913], [80.90418221563681, 26.651397674063446], [80.87583392909261, 26.652424309534297], [80.87100787561303, 26.642504798157972], [80.8474302362165, 26.6530178414003], [80.83796688616292, 26.66586469639867], [80.82466924508964, 26.66415635593114], [80.81578870608399, 26.65374499543526], [80.81286930347562, 26.65705842700487], [80.80566319779842, 26.654794517752862], [80.79940789675709, 26.648197440159777], [80.79255515539614, 26.64543907105633], [80.79439419793397, 26.651246210244437], [80.78694688149346, 26.652733498252417], [80.79157900516702, 26.656320927169077], [80.78350213541529, 26.666848846097423], [80.77716633246035, 26.668778748040836], [80.77084894042633, 26.662860564163736], [80.7668708747911, 26.665707356409428], [80.76965060908839, 26.68191928204925], [80.76546094916353, 26.682913855789877], [80.76553065831331, 26.676813567292356], [80.76085481679644, 26.686189954702684], [80.75702419770863, 26.682260974964095], [80.75594159023228, 26.688270439129496], [80.74437026347692, 26.67982226358663], [80.74565468961231, 26.666660709724], [80.72826059974693, 26.6561621698483], [80.71464304464087, 26.666928854283242], [80.71351742978561, 26.681645427694377], [80.69570750869462, 26.686732398781203], [80.71880910725457, 26.702016311303794], [80.71329572621687, 26.70321013344096], [80.71331691424427, 26.712205038331888], [80.69774584099781, 26.71956547216888], [80.70626582111083, 26.71993025787515], [80.70053178151659, 26.72756949233826], [80.70519789956347, 26.740250524042494], [80.69240308563394, 26.760640815021645], [80.69884064867705, 26.76482947490041], [80.71201541717784, 26.757858691225692], [80.73276472471235, 26.755738401905774], [80.75095479732607, 26.766011801903176], [80.75484363852314, 26.774931153849707], [80.73680622762538, 26.776393553120045], [80.74005408782597, 26.790332528623367], [80.72137312836725, 26.800623326905054], [80.71677253942124, 26.81758507938798], [80.69298635803403, 26.83616671951853], [80.69151224059749, 26.84517097376147], [80.70188634847625, 26.852687734051756], [80.73034781649858, 26.855113220898488]]]}}, {"type": "Feature", "properties": {"ac_name": "Lucknow Cantt.", "ac_no": 175.0, "office": "MLA", "pc_name": "LUCKNOW"}, "geometry": {"type": "Polygon", "coordinates": [[[80.96896745398487, 26.833529968433368], [80.98212650143694, 26.830549899358402], [80.98978981974443, 26.83606952978505], [81.00015501803972, 26.830151024849954], [81.00182729839116, 26.822439149447234], [80.98956188747121, 26.81361292949316], [80.98423806283637, 26.795071628452945], [80.97486748504645, 26.783764285993072], [80.93220471197793, 26.801536225116763], [80.92327400339258, 26.796809320993418], [80.89372736212812, 26.795265965651822], [80.88873688919614, 26.783752123561726], [80.88078260962976, 26.784474735120966], [80.87140761077268, 26.792868221091567], [80.8618163672316, 26.79839794730748], [80.86891041918057, 26.807486745017343], [80.88440018472079, 26.811603844042224], [80.89172611696677, 26.839519116913777], [80.89676396528483, 26.840600376306384], [80.90556369480873, 26.83317396190887], [80.9080419484772, 26.83841540594625], [80.91544880441887, 26.834982478758434], [80.92279462337325, 26.838517401656816], [80.92632306305899, 26.834535556171033], [80.93891062282705, 26.838277889712913], [80.94089688708175, 26.832995898841716], [80.96896745398487, 26.833529968433368]]]}}, {"type": "Feature", "properties": {"ac_name": "Mohanlalganj (SC)", "ac_no": 176.0, "office": "MLA", "pc_name": "MOHANLALGANJ (SC)"}, "geometry": {"type": "Polygon", "coordinates": [[[81.09008231144958, 26.83609043812328], [81.10052837138727, 26.84046926054799], [81.1206604876914, 26.835761526373403], [81.13423019886466, 26.831044983339382], [81.14224842112782, 26.8114632836037], [81.15285913703963, 26.813784882566324], [81.16026668455993, 26.807085847933593], [81.16840584495384, 26.808197983750006], [81.15587290551025, 26.797448003322756], [81.16012174891961, 26.790913407028143], [81.15877198074236, 26.77571109449144], [81.16484354759172, 26.776092930444463], [81.17367782187404, 26.789280011563335], [81.18627981036502, 26.779644186829785], [81.19142823662389, 26.781063695633122], [81.19470873861746, 26.792524527185208], [81.21324665820674, 26.78456724478258], [81.18905700587618, 26.761263846449424], [81.20431553863125, 26.74239765632683], [81.20307794199351, 26.72955622603905], [81.21440913537333, 26.722508552128033], [81.21620769133193, 26.704664291324036], [81.20918970943762, 26.70533929097553], [81.20995552442798, 26.700938981049205], [81.19125115111979, 26.68194395494959], [81.18858074110835, 26.67079987991059], [81.16645855461866, 26.643829860159997], [81.17299124345118, 26.63628545381067], [81.16934565987435, 26.62953989814781], [81.17893799878965, 26.621349296532856], [81.17724961697633, 26.6135244393015], [81.16250094945929, 26.60458878084762], [81.16595451518879, 26.595657763794804], [81.16076306266524, 26.58743450689701], [81.14100576130687, 26.588164093598095], [81.1247540847333, 26.559045570097055], [81.1161353689522, 26.558116617188205], [81.10412869208551, 26.56509919906881], [81.0989827965189, 26.56289484921797], [81.09194545132158, 26.541935845862668], [81.0787833803488, 26.536982715480008], [81.07398255465125, 26.523615468678997], [81.06556645432846, 26.52209633297946], [81.0526242388176, 26.50574117321662], [81.04165848854848, 26.504851293152683], [81.03119170823084, 26.515599304064665], [81.03272133632066, 26.52060460232059], [81.02313938547434, 26.526538643943297], [81.00453513728684, 26.52716854169489], [80.99475551275674, 26.537334352198627], [80.99059472017024, 26.535210860392965], [80.98537507390057, 26.538945177378082], [80.98676697531573, 26.548039844962943], [80.97947637203697, 26.544757776350366], [80.98072345742167, 26.55194795053751], [80.96684678784902, 26.55007752255966], [80.97254877200828, 26.55760284529515], [80.96563918090351, 26.55584918529172], [80.96098904830598, 26.56242101711632], [80.95201587013634, 26.56211289229617], [80.95149781387306, 26.568958014600753], [80.93905392709712, 26.566933830431992], [80.9411525256686, 26.571564336225208], [80.93069025185372, 26.574500218910032], [80.92612528775186, 26.584303787889553], [80.9316315866285, 26.585819673439232], [80.92545911764421, 26.5876326446309], [80.9244493345692, 26.593933908223335], [80.91001331186493, 26.588275293869742], [80.90832506045325, 26.600371838189858], [80.90180594418905, 26.59337437972391], [80.88881813664773, 26.59895410824555], [80.89218013610446, 26.62170684629399], [80.88172238857743, 26.62454283948051], [80.87802478011957, 26.617514099895857], [80.871987387508, 26.618544285890152], [80.87000391654755, 26.623711586220793], [80.87994660974829, 26.63026573467596], [80.87100787561303, 26.642504798157972], [80.87583392909261, 26.652424309534297], [80.90418221563681, 26.651397674063446], [80.91012488985183, 26.659296329661913], [80.93890899235618, 26.66227777020299], [80.96928877815463, 26.680300359374144], [80.96706168085194, 26.69045051717768], [80.9611457129044, 26.69272387200914], [80.96584813478364, 26.71025927144825], [80.96333676897677, 26.718765997352932], [80.96788872258651, 26.724613836259607], [80.97447478078658, 26.723208952231403], [80.9830952394538, 26.734758107101015], [80.99025030680627, 26.731062273904854], [80.98337680459593, 26.74639529210907], [80.99746314031171, 26.74490691861945], [81.00065621291395, 26.74807633005861], [81.01090899415482, 26.73933788663419], [81.02596569386174, 26.748830986261055], [81.03157941675676, 26.760818137047465], [81.0293122267779, 26.77716253552262], [81.0135650033223, 26.781222188553215], [81.0280405305461, 26.79786605587384], [81.02162981406474, 26.805980999323708], [81.02647716618833, 26.817636483736806], [81.04868356249648, 26.814426306928567], [81.05226619532868, 26.822931331315942], [81.05968441510373, 26.818691810278892], [81.05978034218907, 26.828186956762693], [81.07360127357998, 26.827848604829285], [81.09008231144958, 26.83609043812328]]]}}]}