{"type": "FeatureCollection", "features": [{"type": "Feature", "properties": {"name": "Devishiv Hospital, Lucknow"}, "geometry": {"type": "Point", "coordinates": [80.9603472, 26.8746885]}}, {"type": "Feature", "properties": {"name": "Avadh Hospital And Heart Centre"}, "geometry": {"type": "Point", "coordinates": [80.8957547, 26.8024464]}}, {"type": "Feature", "properties": {"name": ""}, "geometry": {"type": "Point", "coordinates": [80.9777199, 26.9188249]}}, {"type": "Feature", "properties": {"name": ""}, "geometry": {"type": "Point", "coordinates": [80.9745792, 26.9044958]}}, {"type": "Feature", "properties": {"name": "Jagrani Hospital"}, "geometry": {"type": "Point", "coordinates": [80.9687508, 26.8977996]}}, {"type": "Feature", "properties": {"name": ""}, "geometry": {"type": "Point", "coordinates": [80.94033, 26.8176012]}}, {"type": "Feature", "properties": {"name": "Ajanta Hospital & IVF Centre"}, "geometry": {"type": "Point", "coordinates": [80.9044751, 26.8146397]}}, {"type": "Feature", "properties": {"name": "Mansarovar Eye Hospital"}, "geometry": {"type": "Point", "coordinates": [80.9399218, 26.8418872]}}, {"type": "Feature", "properties": {"name": "Vaishali Maternity and Infertility Centre"}, "geometry": {"type": "Point", "coordinates": [80.913268, 26.7902712]}}, {"type": "Feature", "properties": {"name": "Ganga Childrens Hospital"}, "geometry": {"type": "Point", "coordinates": [80.898027, 26.7905447]}}, {"type": "Feature", "properties": {"name": "Saroj Hospital and Research Centre"}, "geometry": {"type": "Point", "coordinates": [80.8660483, 26.8270831]}}, {"type": "Feature", "properties": {"name": "Rida Nursing Home"}, "geometry": {"type": "Point", "coordinates": [80.9764923, 26.8722807]}}, {"type": "Feature", "properties": {"name": "Raj Chandra Hospital And Research Centre"}, "geometry": {"type": "Point", "coordinates": [80.9056827, 26.799298]}}, {"type": "Feature", "properties": {"name": "Sadbhavna Medical and Trauma Centre"}, "geometry": {"type": "Point", "coordinates": [80.8767825, 26.8507359]}}, {"type": "Feature", "properties": {"name": "Metro Hospital and Trauma Centre"}, "geometry": {"type": "Point", "coordinates": [80.9898859, 26.8595311]}}, {"type": "Feature", "properties": {"name": "Rida Hospital"}, "geometry": {"type": "Point", "coordinates": [80.9622954, 26.8896937]}}, {"type": "Feature", "properties": {"name": "Shri Hari Kamal Netra Neelaym and Laser Centre"}, "geometry": {"type": "Point", "coordinates": [80.9547544, 26.8966428]}}, {"type": "Feature", "properties": {"name": "Safiya Clinic and Nursing Home"}, "geometry": {"type": "Point", "coordinates": [80.9248924, 26.8528432]}}, {"type": "Feature", "properties": {"name": "Rishi Hospital"}, "geometry": {"type": "Point", "coordinates": [81.0220738, 26.8663756]}}, {"type": "Feature", "properties": {"name": "Ranjana Nursing and Maternity Home"}, "geometry": {"type": "Point", "coordinates": [80.9039091, 26.8487999]}}, {"type": "Feature", "properties": {"name": "Dr.Shyama Prasad Mukherjee (Civil) Hospital"}, "geometry": {"type": "Point", "coordinates": [80.9489809, 26.8446682]}}, {"type": "Feature", "properties": {"name": "Varshney Clinic and Hospital"}, "geometry": {"type": "Point", "coordinates": [80.9353687, 26.8907187]}}, {"type": "Feature", "properties": {"name": "Nishat Hospital"}, "geometry": {"type": "Point", "coordinates": [80.936254, 26.8504049]}}, {"type": "Feature", "properties": {"name": "Get-Well Hospital"}, "geometry": {"type": "Point", "coordinates": [80.9547467, 26.8964072]}}, {"type": "Feature", "properties": {"name": "Jan Kalyan Eye Hospiyal"}, "geometry": {"type": "Point", "coordinates": [80.9789613, 26.8783845]}}, {"type": "Feature", "properties": {"name": "Surya Hospital"}, "geometry": {"type": "Point", "coordinates": [80.9165476, 26.7951291]}}, {"type": "Feature", "properties": {"name": "Modern Pathology and Diagnostic Center"}, "geometry": {"type": "Point", "coordinates": [81.0097302, 26.8510595]}}, {"type": "Feature", "properties": {"name": "Urmil Hospital, Lucknow"}, "geometry": {"type": "Point", "coordinates": [80.9382574, 26.9024338]}}, {"type": "Feature", "properties": {"name": "Nav Jeevan Nursing Home"}, "geometry": {"type": "Point", "coordinates": [80.8755521, 26.8330813]}}, {"type": "Feature", "properties": {"name": "Abhinav Drishti Eye Hospital"}, "geometry": {"type": "Point", "coordinates": [80.9538938, 26.878323]}}, {"type": "Feature", "properties": {"name": "Chandra Mother And Eye Care Pvt Ltd"}, "geometry": {"type": "Point", "coordinates": [81.0056037, 26.8661579]}}, {"type": "Feature", "properties": {"name": "Saral Krishna Hospital"}, "geometry": {"type": "Point", "coordinates": [80.9450716, 26.891931]}}, {"type": "Feature", "properties": {"name": "Ajanta Hospital and Ivf Centre Pvt. Limited"}, "geometry": {"type": "Point", "coordinates": [80.9051429, 26.8157204]}}, {"type": "Feature", "properties": {"name": "Garg Ophthalmic Centre"}, "geometry": {"type": "Point", "coordinates": [80.936797, 26.8753527]}}, {"type": "Feature", "properties": {"name": "Dewa Hospital, Jankipuram"}, "geometry": {"type": "Point", "coordinates": [80.9607169, 26.9145412]}}, {"type": "Feature", "properties": {"name": "Biraj Maternity and Child Care"}, "geometry": {"type": "Point", "coordinates": [80.8987632, 26.7813383]}}, {"type": "Feature", "properties": {"name": "Tc Eye Care"}, "geometry": {"type": "Point", "coordinates": [81.0074189, 26.8586631]}}, {"type": "Feature", "properties": {"name": "Prabhkar Medical Centre"}, "geometry": {"type": "Point", "coordinates": [80.939966, 26.9034671]}}, {"type": "Feature", "properties": {"name": "Chiranjeev Hospital and Heart Centre"}, "geometry": {"type": "Point", "coordinates": [80.9943619, 26.8577682]}}, {"type": "Feature", "properties": {"name": "Ankur Nursing Home"}, "geometry": {"type": "Point", "coordinates": [80.8750592, 26.8417269]}}, {"type": "Feature", "properties": {"name": "Shalimar Hospital"}, "geometry": {"type": "Point", "coordinates": [80.9776597, 26.8761679]}}, {"type": "Feature", "properties": {"name": "Vishwas Eye and Laser Centre"}, "geometry": {"type": "Point", "coordinates": [81.0058692, 26.8457355]}}, {"type": "Feature", "properties": {"name": "The South City Hospital and Trauma Centre"}, "geometry": {"type": "Point", "coordinates": [80.9430787, 26.7711457]}}, {"type": "Feature", "properties": {"name": "Govind Hospital and Research Centre"}, "geometry": {"type": "Point", "coordinates": [80.9303905, 26.7859225]}}, {"type": "Feature", "properties": {"name": "Devika Surgical And Maternity Clinic"}, "geometry": {"type": "Point", "coordinates": [80.9368023, 26.8850431]}}, {"type": "Feature", "properties": {"name": "Rml Mehrotra Pathology"}, "geometry": {"type": "Point", "coordinates": [80.9326704, 26.8783457]}}, {"type": "Feature", "properties": {"name": "Jeevan Hospital And Trauma Centre"}, "geometry": {"type": "Point", "coordinates": [80.9368868, 26.8971164]}}, {"type": "Feature", "properties": {"name": "Sun Eye Hospital And Laser Centre Pvt Ltd"}, "geometry": {"type": "Point", "coordinates": [80.8961092, 26.8068548]}}, {"type": "Feature", "properties": {"name": "Precision Eye Care"}, "geometry": {"type": "Point", "coordinates": [80.9381582, 26.8858601]}}, {"type": "Feature", "properties": {"name": "Surgical and Maternity Centre Ahuja Hospital"}, "geometry": {"type": "Point", "coordinates": [81.0002527, 26.8540339]}}, {"type": "Feature", "properties": {"name": "Eye-Q Super Speciality Eye Hospitals, Rajajipuram"}, "geometry": {"type": "Point", "coordinates": [80.8764888, 26.8401773]}}, {"type": "Feature", "properties": {"name": "Mayo Medical Centre Pvt.Ltd"}, "geometry": {"type": "Point", "coordinates": [80.9965847, 26.8512145]}}, {"type": "Feature", "properties": {"name": "Dr. Rama Bhatnagar Nursing Home"}, "geometry": {"type": "Point", "coordinates": [80.8907247, 26.7920502]}}, {"type": "Feature", "properties": {"name": "Kapoor Surgical Nursing Home"}, "geometry": {"type": "Point", "coordinates": [80.9341127, 26.8748096]}}, {"type": "Feature", "properties": {"name": "Shiva Hospital, Lucknow"}, "geometry": {"type": "Point", "coordinates": [80.9618992, 26.8993812]}}, {"type": "Feature", "properties": {"name": "Harsha Hospital, Lucknow"}, "geometry": {"type": "Point", "coordinates": [80.9337847, 26.8967834]}}, {"type": "Feature", "properties": {"name": "Lucknow Gastroenterology and Gynaecology Centre"}, "geometry": {"type": "Point", "coordinates": [80.9402738, 26.8748754]}}, {"type": "Feature", "properties": {"name": "Raj Scanning Ltd and Lucknow Cancer Institute"}, "geometry": {"type": "Point", "coordinates": [80.9612767, 26.8468326]}}, {"type": "Feature", "properties": {"name": "Rajendra Nagar Hospital"}, "geometry": {"type": "Point", "coordinates": [80.9179697, 26.8407611]}}, {"type": "Feature", "properties": {"name": "Aliganj Orthopadic and Orthoscopy Centre"}, "geometry": {"type": "Point", "coordinates": [80.9422197, 26.8943447]}}, {"type": "Feature", "properties": {"name": "Pankaj Ent"}, "geometry": {"type": "Point", "coordinates": [80.8963995, 26.808002]}}, {"type": "Feature", "properties": {"name": "Brijraj Hospital"}, "geometry": {"type": "Point", "coordinates": [80.900654, 26.871304]}}, {"type": "Feature", "properties": {"name": "Sawhney Nursing Home"}, "geometry": {"type": "Point", "coordinates": [80.9118906, 26.8220295]}}, {"type": "Feature", "properties": {"name": "Kilkari Shishu and Bal Chikitsa"}, "geometry": {"type": "Point", "coordinates": [80.9107393, 26.8654616]}}, {"type": "Feature", "properties": {"name": "M V Hospital and Research Centre"}, "geometry": {"type": "Point", "coordinates": [80.9069976, 26.86873]}}, {"type": "Feature", "properties": {"name": "Dr Subodh Agrawal Memorial (SAM) Eye Hospital"}, "geometry": {"type": "Point", "coordinates": [80.9424175, 26.8578047]}}, {"type": "Feature", "properties": {"name": "Sheela Health Care"}, "geometry": {"type": "Point", "coordinates": [80.9085151, 26.8124032]}}, {"type": "Feature", "properties": {"name": "Lovee Shubh Clinic Private Limited"}, "geometry": {"type": "Point", "coordinates": [80.9955132, 26.8576204]}}, {"type": "Feature", "properties": {"name": "Satyam Nursing Home, Lucknow"}, "geometry": {"type": "Point", "coordinates": [80.9095041, 26.8495238]}}, {"type": "Feature", "properties": {"name": "Vishal Hospital and Heart Centre"}, "geometry": {"type": "Point", "coordinates": [80.9518227, 26.9104561]}}, {"type": "Feature", "properties": {"name": "Pulse Hospital and Trauma Centre"}, "geometry": {"type": "Point", "coordinates": [80.9502523, 26.7604851]}}, {"type": "Feature", "properties": {"name": "Chandra Hospital, Lucknow"}, "geometry": {"type": "Point", "coordinates": [81.0361232, 26.8789677]}}, {"type": "Feature", "properties": {"name": "Jivan Jyoti Surgical Center and Nursing Home"}, "geometry": {"type": "Point", "coordinates": [80.9850076, 26.8806957]}}, {"type": "Feature", "properties": {"name": "Daliganj Hospital"}, "geometry": {"type": "Point", "coordinates": [80.9284915, 26.8715497]}}, {"type": "Feature", "properties": {"name": "New Metro Hospital"}, "geometry": {"type": "Point", "coordinates": [80.9101506, 26.8629696]}}, {"type": "Feature", "properties": {"name": "Healing Touch Nursing Home"}, "geometry": {"type": "Point", "coordinates": [80.9569243, 26.8581002]}}, {"type": "Feature", "properties": {"name": "S. C. Trivedi Memorial Mother and Child Trust Hospital"}, "geometry": {"type": "Point", "coordinates": [80.946484, 26.8915808]}}, {"type": "Feature", "properties": {"name": "Tender Care Nursing Home"}, "geometry": {"type": "Point", "coordinates": [80.9703876, 26.8896217]}}, {"type": "Feature", "properties": {"name": "Sushrut Hospital Maternity and Trauma Centre"}, "geometry": {"type": "Point", "coordinates": [80.9360992, 26.8962346]}}, {"type": "Feature", "properties": {"name": "Rukhsana Medical and Trauma Centre"}, "geometry": {"type": "Point", "coordinates": [80.9033789, 26.8559474]}}, {"type": "Feature", "properties": {"name": "Shriram Hospital"}, "geometry": {"type": "Point", "coordinates": [80.9787894, 26.877733]}}, {"type": "Feature", "properties": {"name": "Javitri Hospital"}, "geometry": {"type": "Point", "coordinates": [80.9422975, 26.7789033]}}, {"type": "Feature", "properties": {"name": "Arushi Medical Center"}, "geometry": {"type": "Point", "coordinates": [80.9419575, 26.8969322]}}, {"type": "Feature", "properties": {"name": "Jwala Hospital"}, "geometry": {"type": "Point", "coordinates": [80.9962669, 26.8830384]}}, {"type": "Feature", "properties": {"name": "Neera Hospital - Lucknow"}, "geometry": {"type": "Point", "coordinates": [80.9515183, 26.8851346]}}, {"type": "Feature", "properties": {"name": "Miranda Clinic"}, "geometry": {"type": "Point", "coordinates": [80.909872, 26.834993]}}, {"type": "Feature", "properties": {"name": "Tahilyani Nursing Home Endoscopic Center"}, "geometry": {"type": "Point", "coordinates": [80.9964592, 26.8491624]}}, {"type": "Feature", "properties": {"name": "Shifa Nursing Home(Pvt)Ltd"}, "geometry": {"type": "Point", "coordinates": [80.9052703, 26.8571203]}}, {"type": "Feature", "properties": {"name": "Nur Manzil Psychiatric Centre"}, "geometry": {"type": "Point", "coordinates": [80.9360737, 26.8479776]}}, {"type": "Feature", "properties": {"name": "Chandra Prabha Nursing Home"}, "geometry": {"type": "Point", "coordinates": [80.8852771, 26.7973043]}}, {"type": "Feature", "properties": {"name": "Kamla Devi Memorial Hospital And Fertility Centre"}, "geometry": {"type": "Point", "coordinates": [80.9260262, 26.8411505]}}, {"type": "Feature", "properties": {"name": "Pawars Clinic"}, "geometry": {"type": "Point", "coordinates": [80.9503508, 26.8939284]}}, {"type": "Feature", "properties": {"name": "Indira Gandhi Eye Hospital And Research Centre"}, "geometry": {"type": "Point", "coordinates": [80.9325202, 26.8508471]}}, {"type": "Feature", "properties": {"name": "Hanumant Endosurgery Center"}, "geometry": {"type": "Point", "coordinates": [80.9881197, 26.8485713]}}, {"type": "Feature", "properties": {"name": "F.I. Hosptial"}, "geometry": {"type": "Point", "coordinates": [80.9369887, 26.8420895]}}, {"type": "Feature", "properties": {"name": "Medical Care Centre and Hospital"}, "geometry": {"type": "Point", "coordinates": [80.9003149, 26.8102996]}}, {"type": "Feature", "properties": {"name": "Centre For Neurosciences and Trauma"}, "geometry": {"type": "Point", "coordinates": [80.9811422, 26.885982]}}, {"type": "Feature", "properties": {"name": "B. N. K. Hospital"}, "geometry": {"type": "Point", "coordinates": [80.9326687, 26.8794653]}}, {"type": "Feature", "properties": {"name": "Suri Medical Foundation Hospital"}, "geometry": {"type": "Point", "coordinates": [80.9785107, 26.8724637]}}, {"type": "Feature", "properties": {"name": "Sukriti Eye Care Clinic Pvt Ltd"}, "geometry": {"type": "Point", "coordinates": [80.94825, 26.8826071]}}, {"type": "Feature", "properties": {"name": "Kilkari Child and Mother Care Centre"}, "geometry": {"type": "Point", "coordinates": [80.9364402, 26.8938644]}}, {"type": "Feature", "properties": {"name": "Gayatri Hospital, Lucknow"}, "geometry": {"type": "Point", "coordinates": [80.9782691, 26.8697132]}}, {"type": "Feature", "properties": {"name": "Globe Medicare"}, "geometry": {"type": "Point", "coordinates": [80.9415139, 26.8747475]}}, {"type": "Feature", "properties": {"name": "Dr Begs Child Care"}, "geometry": {"type": "Point", "coordinates": [80.959961, 26.8505198]}}, {"type": "Feature", "properties": {"name": "Zainiss Hospital"}, "geometry": {"type": "Point", "coordinates": [80.9968033, 26.858501]}}, {"type": "Feature", "properties": {"name": "Susanjeevani Hospital Maternity and Eye Care Centre"}, "geometry": {"type": "Point", "coordinates": [80.9477935, 26.8807738]}}, {"type": "Feature", "properties": {"name": "Gupta Hospital - Lucknow"}, "geometry": {"type": "Point", "coordinates": [80.8899697, 26.7922704]}}, {"type": "Feature", "properties": {"name": "Green Cross Medical center"}, "geometry": {"type": "Point", "coordinates": [80.9316971, 26.8796945]}}, {"type": "Feature", "properties": {"name": "Udyaan Healthcare"}, "geometry": {"type": "Point", "coordinates": [80.9268576, 26.7908918]}}, {"type": "Feature", "properties": {"name": "Krishna Life Line Hospital"}, "geometry": {"type": "Point", "coordinates": [80.9421828, 26.7821153]}}, {"type": "Feature", "properties": {"name": "Handa Hospital, Lucknow"}, "geometry": {"type": "Point", "coordinates": [80.9426891, 26.8398841]}}, {"type": "Feature", "properties": {"name": "Kamakhaya Hospital"}, "geometry": {"type": "Point", "coordinates": [80.9033039, 26.8704348]}}, {"type": "Feature", "properties": {"name": "Divya Deep Maternity and Heart Centre"}, "geometry": {"type": "Point", "coordinates": [80.9962414, 26.8819032]}}, {"type": "Feature", "properties": {"name": "Manjula Hospital And Trauma Centre"}, "geometry": {"type": "Point", "coordinates": [80.9760343, 26.8713828]}}, {"type": "Feature", "properties": {"name": "Mother And Child Care Centre, Lucknow"}, "geometry": {"type": "Point", "coordinates": [80.8894768, 26.873197]}}, {"type": "Feature", "properties": {"name": "K.K Hospital"}, "geometry": {"type": "Point", "coordinates": [80.9233041, 26.8644818]}}, {"type": "Feature", "properties": {"name": "Lucknow Hospital"}, "geometry": {"type": "Point", "coordinates": [80.8906576, 26.7954518]}}, {"type": "Feature", "properties": {"name": "Heramba Clinic"}, "geometry": {"type": "Point", "coordinates": [80.8793008, 26.8488768]}}, {"type": "Feature", "properties": {"name": "Rajdhani Hospital, Lucknow"}, "geometry": {"type": "Point", "coordinates": [80.9431384, 26.7736708]}}, {"type": "Feature", "properties": {"name": "O P Chaudhary Hospital and Research Centre"}, "geometry": {"type": "Point", "coordinates": [80.9472428, 26.7647348]}}, {"type": "Feature", "properties": {"name": "Aastha Hospital For Elderly"}, "geometry": {"type": "Point", "coordinates": [80.9505057, 26.8821992]}}, {"type": "Feature", "properties": {"name": "Rajdhani Hospital and Maternity Centre"}, "geometry": {"type": "Point", "coordinates": [80.9169191, 26.874404]}}, {"type": "Feature", "properties": {"name": "Lal Hospital and Research Centre"}, "geometry": {"type": "Point", "coordinates": [80.8925807, 26.7965639]}}, {"type": "Feature", "properties": {"name": "Deepak Life Sciences Hospital and Trauma Center"}, "geometry": {"type": "Point", "coordinates": [80.9360325, 26.9247615]}}, {"type": "Feature", "properties": {"name": "National Hospital, Lucknow"}, "geometry": {"type": "Point", "coordinates": [80.8864076, 26.8499426]}}, {"type": "Feature", "properties": {"name": "Sanjivini Lung Centre"}, "geometry": {"type": "Point", "coordinates": [81.0253572, 26.8674679]}}, {"type": "Feature", "properties": {"name": "Dr Madhu Gupta Nursing Home"}, "geometry": {"type": "Point", "coordinates": [80.9472562, 26.8705753]}}, {"type": "Feature", "properties": {"name": "Nazar Eye Care Clinic"}, "geometry": {"type": "Point", "coordinates": [80.9971477, 26.8849355]}}, {"type": "Feature", "properties": {"name": "Autar Hospital"}, "geometry": {"type": "Point", "coordinates": [80.8945911, 26.842774]}}, {"type": "Feature", "properties": {"name": "Chirayu Matenity and Surgical Clinic"}, "geometry": {"type": "Point", "coordinates": [80.8879969, 26.8387091]}}, {"type": "Feature", "properties": {"name": "Lucknow Eye Hospital"}, "geometry": {"type": "Point", "coordinates": [80.9277794, 26.8379372]}}, {"type": "Feature", "properties": {"name": "Sunflower Medical and Gynae Centre"}, "geometry": {"type": "Point", "coordinates": [80.9422727, 26.8794264]}}, {"type": "Feature", "properties": {"name": "Forrd Hospital / Nova Hospital Ltd."}, "geometry": {"type": "Point", "coordinates": [80.9980117, 26.853093]}}, {"type": "Feature", "properties": {"name": "Aparajita Hospital"}, "geometry": {"type": "Point", "coordinates": [80.9504414, 26.9113901]}}, {"type": "Feature", "properties": {"name": "Savitri Devi Hospital"}, "geometry": {"type": "Point", "coordinates": [81.0562009, 26.8890167]}}, {"type": "Feature", "properties": {"name": "Sahar Hospital"}, "geometry": {"type": "Point", "coordinates": [80.9214449, 26.861037]}}, {"type": "Feature", "properties": {"name": "Eras Lucknow Medical College And Hospital - Lucknow"}, "geometry": {"type": "Point", "coordinates": [80.8726466, 26.8784473]}}, {"type": "Feature", "properties": {"name": "Asha Hospital"}, "geometry": {"type": "Point", "coordinates": [80.9444185, 26.767523]}}, {"type": "Feature", "properties": {"name": "Balaji Hospital, Namakkal"}, "geometry": {"type": "Point", "coordinates": [80.9871507, 26.8458773]}}, {"type": "Feature", "properties": {"name": "Goel Hospital, Lucknow"}, "geometry": {"type": "Point", "coordinates": [80.9723262, 26.8697774]}}, {"type": "Feature", "properties": {"name": "Brahmaesh Orthopaedic And Taruma Centre"}, "geometry": {"type": "Point", "coordinates": [80.9460801, 26.8488382]}}, {"type": "Feature", "properties": {"name": "T.B. HOSPITAL THAKURGANJ"}, "geometry": {"type": "Point", "coordinates": [80.8963694, 26.8710305]}}, {"type": "Feature", "properties": {"name": "Goverment Hospital"}, "geometry": {"type": "Point", "coordinates": [80.9036596, 26.813663]}}, {"type": "Feature", "properties": {"name": "Lokbandhu Sri Rajnarain Combined Hospital"}, "geometry": {"type": "Point", "coordinates": [80.9011249, 26.7934993]}}, {"type": "Feature", "properties": {"name": "RANI LAXMI BAI COMBINED HOSPITAL"}, "geometry": {"type": "Point", "coordinates": [80.8917412, 26.8313411]}}, {"type": "Feature", "properties": {"name": "Bhau Rao Devras Hospital"}, "geometry": {"type": "Point", "coordinates": [80.9536104, 26.8753323]}}, {"type": "Feature", "properties": {"name": "JHALKARI BAI MAHILA HOSPITALS"}, "geometry": {"type": "Point", "coordinates": [80.9452862, 26.8460131]}}, {"type": "Feature", "properties": {"name": "32INTACT"}, "geometry": {"type": "Point", "coordinates": [80.9449159, 26.9106712]}}, {"type": "Feature", "properties": {"name": "Base Hospital, Lucknow"}, "geometry": {"type": "Point", "coordinates": [80.9364982, 26.8084243]}}, {"type": "Feature", "properties": {"name": "Om Hospital"}, "geometry": {"type": "Point", "coordinates": [80.8588224, 26.7411604]}}, {"type": "Feature", "properties": {"name": "Janki Eye Hospital"}, "geometry": {"type": "Point", "coordinates": [80.9322093, 26.7811435]}}, {"type": "Feature", "properties": {"name": "Mehdi Hospital"}, "geometry": {"type": "Point", "coordinates": [80.8905099, 26.854626]}}, {"type": "Feature", "properties": {"name": "Nadsi Hospital"}, "geometry": {"type": "Point", "coordinates": [80.8996572, 26.8163759]}}, {"type": "Feature", "properties": {"name": "Kiran Hospital and Maternity Home"}, "geometry": {"type": "Point", "coordinates": [80.9100492, 26.7903108]}}, {"type": "Feature", "properties": {"name": "B Hope Hospital"}, "geometry": {"type": "Point", "coordinates": [80.8888975, 26.8532026]}}, {"type": "Feature", "properties": {"name": "Shirdi Hospital"}, "geometry": {"type": "Point", "coordinates": [80.9588485, 26.9140807]}}, {"type": "Feature", "properties": {"name": "Oxford Hospital"}, "geometry": {"type": "Point", "coordinates": [80.9503758, 26.7507776]}}, {"type": "Feature", "properties": {"name": "Saha Hospital"}, "geometry": {"type": "Point", "coordinates": [80.9001343, 26.7906841]}}, {"type": "Feature", "properties": {"name": "Autar Hospital"}, "geometry": {"type": "Point", "coordinates": [80.897317, 26.8455789]}}, {"type": "Feature", "properties": {"name": "Globe City Hospital"}, "geometry": {"type": "Point", "coordinates": [80.8900013, 26.848008]}}, {"type": "Feature", "properties": {"name": "Nayab Hospital"}, "geometry": {"type": "Point", "coordinates": [80.9285055, 26.8401445]}}, {"type": "Feature", "properties": {"name": "Eye Hospital"}, "geometry": {"type": "Point", "coordinates": [80.8885437, 26.8398712]}}, {"type": "Feature", "properties": {"name": "Sethi Hospital"}, "geometry": {"type": "Point", "coordinates": [80.8852291, 26.8466405]}}, {"type": "Feature", "properties": {"name": "Brhmashree Eye Hospital"}, "geometry": {"type": "Point", "coordinates": [80.902821, 26.780847]}}, {"type": "Feature", "properties": {"name": "Tulip Eye Hospital"}, "geometry": {"type": "Point", "coordinates": [80.8989469, 26.7980082]}}, {"type": "Feature", "properties": {"name": "Greens Medical Centre"}, "geometry": {"type": "Point", "coordinates": [80.8976756, 26.796716]}}, {"type": "Feature", "properties": {"name": "Northern Railway Divisional Hospital, Lucknow"}, "geometry": {"type": "Point", "coordinates": [80.9241858, 26.821399]}}, {"type": "Feature", "properties": {"name": "Mother Care Children Hospital"}, "geometry": {"type": "Point", "coordinates": [80.9494975, 26.7489984]}}, {"type": "Feature", "properties": {"name": "Brahmashree Netra Chikitsalaya"}, "geometry": {"type": "Point", "coordinates": [80.9046607, 26.7793175]}}, {"type": "Feature", "properties": {"name": "Singh Hospital"}, "geometry": {"type": "Point", "coordinates": [80.9712574, 26.7659805]}}, {"type": "Feature", "properties": {"name": "Cantonment Board Hospital"}, "geometry": {"type": "Point", "coordinates": [80.9444723, 26.8257088]}}, {"type": "Feature", "properties": {"name": "Holy Family Hospital"}, "geometry": {"type": "Point", "coordinates": [80.9011295, 26.8565387]}}, {"type": "Feature", "properties": {"name": "Medwell Hospital"}, "geometry": {"type": "Point", "coordinates": [80.9369666, 26.84184]}}, {"type": "Feature", "properties": {"name": "St. Mary's Hospital"}, "geometry": {"type": "Point", "coordinates": [80.8981588, 26.8473332]}}, {"type": "Feature", "properties": {"name": "Ram Prakash Gupta Mother And Child State Referral Hospital"}, "geometry": {"type": "Point", "coordinates": [81.0088859, 26.8083739]}}, {"type": "Feature", "properties": {"name": "Ram Swaroop Hospital"}, "geometry": {"type": "Point", "coordinates": [80.9185079, 26.8444993]}}, {"type": "Feature", "properties": {"name": "Welcome Hospital & Trauma Centre"}, "geometry": {"type": "Point", "coordinates": [80.9308593, 26.8845556]}}, {"type": "Feature", "properties": {"name": "Career Institute Of Medical Sciences and Hospital"}, "geometry": {"type": "Point", "coordinates": [80.885981, 26.918186]}}, {"type": "Feature", "properties": {"name": "Ali Hospital"}, "geometry": {"type": "Point", "coordinates": [80.9061501, 26.8166802]}}, {"type": "Feature", "properties": {"name": "Dr. Sahani Hospital"}, "geometry": {"type": "Point", "coordinates": [80.9120612, 26.8217475]}}, {"type": "Feature", "properties": {"name": "Zenith Hospital"}, "geometry": {"type": "Point", "coordinates": [80.9288802, 26.8668996]}}, {"type": "Feature", "properties": {"name": "ESIC Hospital"}, "geometry": {"type": "Point", "coordinates": [80.8855539, 26.7858387]}}, {"type": "Feature", "properties": {"name": "Rajpoot Hospital"}, "geometry": {"type": "Point", "coordinates": [80.9128033, 26.8030319]}}, {"type": "Feature", "properties": {"name": "CGHS Wellness Centre-3"}, "geometry": {"type": "Point", "coordinates": [80.9044492, 26.7907714]}}, {"type": "Feature", "properties": {"name": "Fehmina Hospital and Blood Bank"}, "geometry": {"type": "Point", "coordinates": [80.9047437, 26.8548711]}}, {"type": "Feature", "properties": {"name": "Moon Hospital"}, "geometry": {"type": "Point", "coordinates": [80.866146, 26.847925]}}, {"type": "Feature", "properties": {"name": "Silverline Hospital"}, "geometry": {"type": "Point", "coordinates": [80.8869151, 26.7977709]}}, {"type": "Feature", "properties": {"name": "Sai Hospital"}, "geometry": {"type": "Point", "coordinates": [80.8746359, 26.8454545]}}, {"type": "Feature", "properties": {"name": "Shatabdi Hospital"}, "geometry": {"type": "Point", "coordinates": [80.9180576, 26.8667223]}}, {"type": "Feature", "properties": {"name": "Chandra Hospital"}, "geometry": {"type": "Point", "coordinates": [80.8993645, 26.809509]}}, {"type": "Feature", "properties": {"name": "Noor Hospital"}, "geometry": {"type": "Point", "coordinates": [80.9214015, 26.8557166]}}, {"type": "Feature", "properties": {"name": "Health City"}, "geometry": {"type": "Point", "coordinates": [80.9934592, 26.8566599]}}, {"type": "Feature", "properties": {"name": "A M S Hospital, Lucknow"}, "geometry": {"type": "Point", "coordinates": [80.9097648, 26.8623674]}}, {"type": "Feature", "properties": {"name": "Buddheshwar Hospital"}, "geometry": {"type": "Point", "coordinates": [80.8500146, 26.8398049]}}, {"type": "Feature", "properties": {"name": "Field Hospital"}, "geometry": {"type": "Point", "coordinates": [80.9439518, 26.8019891]}}, {"type": "Feature", "properties": {"name": "Suraj Multispeciality Hospital"}, "geometry": {"type": "Point", "coordinates": [80.9478626, 26.8183398]}}, {"type": "Feature", "properties": {"name": "Charak Hospital"}, "geometry": {"type": "Point", "coordinates": [80.871309, 26.872571]}}, {"type": "Feature", "properties": {"name": "Hitech Hospital & Trauma Centre"}, "geometry": {"type": "Point", "coordinates": [80.8580979, 26.8524846]}}, {"type": "Feature", "properties": {"name": "New Govind Hospital & Trauma Centre"}, "geometry": {"type": "Point", "coordinates": [80.9306196, 26.7780283]}}, {"type": "Feature", "properties": {"name": "Medanta Lucknow Hospital"}, "geometry": {"type": "Point", "coordinates": [80.9856814, 26.7776953]}}, {"type": "Feature", "properties": {"name": "Unique Hospital and Trauma Centre"}, "geometry": {"type": "Point", "coordinates": [80.881432, 26.8714561]}}, {"type": "Feature", "properties": {"name": "Saina Charitable Hospital"}, "geometry": {"type": "Point", "coordinates": [80.8897137, 26.7913344]}}, {"type": "Feature", "properties": {"name": "Eye Q Super Speciality Eye Hospital"}, "geometry": {"type": "Point", "coordinates": [80.888399, 26.7935391]}}, {"type": "Feature", "properties": {"name": "U.P. Hospital"}, "geometry": {"type": "Point", "coordinates": [80.8733019, 26.872799]}}, {"type": "Feature", "properties": {"name": "Agarwal Clinic"}, "geometry": {"type": "Point", "coordinates": [80.8464471, 26.835095]}}, {"type": "Feature", "properties": {"name": "City Hospital"}, "geometry": {"type": "Point", "coordinates": [80.9049302, 26.8167521]}}, {"type": "Feature", "properties": {"name": "Kalyan Sewa Hospital Eye Centre"}, "geometry": {"type": "Point", "coordinates": [80.8731967, 26.8222844]}}, {"type": "Feature", "properties": {"name": "Radha Hospital"}, "geometry": {"type": "Point", "coordinates": [80.8820987, 26.8376948]}}, {"type": "Feature", "properties": {"name": "Scope Hospital"}, "geometry": {"type": "Point", "coordinates": [80.9638961, 26.76562]}}, {"type": "Feature", "properties": {"name": "Plus Hospital"}, "geometry": {"type": "Point", "coordinates": [80.9073273, 26.8619784]}}, {"type": "Feature", "properties": {"name": "Mariyam Hospital"}, "geometry": {"type": "Point", "coordinates": [80.9460149, 26.8472761]}}, {"type": "Feature", "properties": {"name": "Crop Hospital"}, "geometry": {"type": "Point", "coordinates": [80.8932889, 26.7834712]}}, {"type": "Feature", "properties": {"name": "Motherhood Hospital"}, "geometry": {"type": "Point", "coordinates": [80.9544692, 26.7904878]}}, {"type": "Feature", "properties": {"name": "India Hospital"}, "geometry": {"type": "Point", "coordinates": [80.8600929, 26.8434488]}}, {"type": "Feature", "properties": {"name": "Balaji Hospital & Eye Centre"}, "geometry": {"type": "Point", "coordinates": [80.8933345, 26.7954249]}}, {"type": "Feature", "properties": {"name": "Rahat Hospital & Trauma Care"}, "geometry": {"type": "Point", "coordinates": [80.9114721, 26.8641485]}}, {"type": "Feature", "properties": {"name": "Anand Hospital"}, "geometry": {"type": "Point", "coordinates": [80.9365687, 26.910629]}}, {"type": "Feature", "properties": {"name": "General Hospital"}, "geometry": {"type": "Point", "coordinates": [80.9430851, 26.7448114]}}, {"type": "Feature", "properties": {"name": "Neelkanth Hospital"}, "geometry": {"type": "Point", "coordinates": [80.8902143, 26.7853909]}}, {"type": "Feature", "properties": {"name": "Madhavbaug Clinic"}, "geometry": {"type": "Point", "coordinates": [80.8967853, 26.8020406]}}, {"type": "Feature", "properties": {"name": "CMC Medical Centre"}, "geometry": {"type": "Point", "coordinates": [80.8891023, 26.7928072]}}, {"type": "Feature", "properties": {"name": "Rajaram Hospital"}, "geometry": {"type": "Point", "coordinates": [80.8972183, 26.8003634]}}, {"type": "Feature", "properties": {"name": "Balaganj Hospital & Maternity Centre"}, "geometry": {"type": "Point", "coordinates": [80.8802997, 26.8692909]}}, {"type": "Feature", "properties": {"name": "Hope Hospital"}, "geometry": {"type": "Point", "coordinates": [80.9296976, 26.8340056]}}, {"type": "Feature", "properties": {"name": "Indira Gandhi Hospital & Research Centre"}, "geometry": {"type": "Point", "coordinates": [80.9056147, 26.745413]}}, {"type": "Feature", "properties": {"name": "Galaxy Hospital"}, "geometry": {"type": "Point", "coordinates": [81.0109215, 26.7979537]}}, {"type": "Feature", "properties": {"name": "Vardaan Children Hospital"}, "geometry": {"type": "Point", "coordinates": [80.8994006, 26.8095842]}}, {"type": "Feature", "properties": {"name": "Indus Hospital & Trauma Centre"}, "geometry": {"type": "Point", "coordinates": [80.8521757, 26.8448193]}}, {"type": "Feature", "properties": {"name": "Janki Hospital"}, "geometry": {"type": "Point", "coordinates": [80.891097, 26.774066]}}, {"type": "Feature", "properties": {"name": "Jaccha Baccha Hospital"}, "geometry": {"type": "Point", "coordinates": [80.9046463, 26.8469313]}}, {"type": "Feature", "properties": {"name": "Chandra Hospital, Rajajipuram"}, "geometry": {"type": "Point", "coordinates": [80.8782306, 26.8323498]}}, {"type": "Feature", "properties": {"name": "Shine Hospital"}, "geometry": {"type": "Point", "coordinates": [80.897102, 26.8451846]}}, {"type": "Feature", "properties": {"name": "Singh Hospital, Lucknow"}, "geometry": {"type": "Point", "coordinates": [80.9238088, 26.794491]}}, {"type": "Feature", "properties": {"name": "Asra Hospital"}, "geometry": {"type": "Point", "coordinates": [80.9587444, 26.908268]}}, {"type": "Feature", "properties": {"name": "Dr.Manju Pankaj Tripathi Diagnostics and Multi Speciality Hospital"}, "geometry": {"type": "Point", "coordinates": [80.8858923, 26.7980243]}}, {"type": "Feature", "properties": {"name": "Rajaji Puram Hospital and Maternity Research Centre"}, "geometry": {"type": "Point", "coordinates": [80.876143, 26.8382781]}}, {"type": "Feature", "properties": {"name": "Shaurya Hospital"}, "geometry": {"type": "Point", "coordinates": [80.9100076, 26.7891714]}}, {"type": "Feature", "properties": {"name": "Medshine Hospital"}, "geometry": {"type": "Point", "coordinates": [80.9108482, 26.8053968]}}, {"type": "Feature", "properties": {"name": "Arogya Hospital"}, "geometry": {"type": "Point", "coordinates": [80.9098691, 26.7769975]}}, {"type": "Feature", "properties": {"name": "Deo's Medical and Surgical"}, "geometry": {"type": "Point", "coordinates": [80.8923008, 26.8041859]}}, {"type": "Feature", "properties": {"name": "Relief Hospital"}, "geometry": {"type": "Point", "coordinates": [80.9339719, 26.8890258]}}, {"type": "Feature", "properties": {"name": "Roy's Hospital Centre"}, "geometry": {"type": "Point", "coordinates": [80.9013158, 26.7889169]}}, {"type": "Feature", "properties": {"name": "Avadh Hospital, Alambagh"}, "geometry": {"type": "Point", "coordinates": [80.8970151, 26.8090329]}}, {"type": "Feature", "properties": {"name": "SKD Hospital"}, "geometry": {"type": "Point", "coordinates": [80.9000673, 26.797846]}}, {"type": "Feature", "properties": {"name": "United Hospital"}, "geometry": {"type": "Point", "coordinates": [80.8992596, 26.8745265]}}, {"type": "Feature", "properties": {"name": "Khan Hospital"}, "geometry": {"type": "Point", "coordinates": [80.8798797, 26.8504658]}}, {"type": "Feature", "properties": {"name": "Sana Hospital & Research Centre"}, "geometry": {"type": "Point", "coordinates": [80.8861973, 26.8498931]}}, {"type": "Feature", "properties": {"name": "ECHS Polyclinic"}, "geometry": {"type": "Point", "coordinates": [80.9409858, 26.8192895]}}, {"type": "Feature", "properties": {"name": "SGPGI, Lucknow"}, "geometry": {"type": "Point", "coordinates": [80.9360624, 26.7464155]}}, {"type": "Feature", "properties": {"name": "Vatsala Hospital"}, "geometry": {"type": "Point", "coordinates": [80.9025334, 26.8533879]}}, {"type": "Feature", "properties": {"name": "Surgical Nursing Home"}, "geometry": {"type": "Point", "coordinates": [80.8995506, 26.7869465]}}, {"type": "Feature", "properties": {"name": "Varsha Hospital"}, "geometry": {"type": "Point", "coordinates": [80.9921386, 26.8893661]}}, {"type": "Feature", "properties": {"name": "CGHS Hospital"}, "geometry": {"type": "Point", "coordinates": [80.9954584, 26.8629327]}}, {"type": "Feature", "properties": {"name": "Indu Medical Center"}, "geometry": {"type": "Point", "coordinates": [80.9448174, 26.8989354]}}, {"type": "Feature", "properties": {"name": "Indu Hospital Aliganj"}, "geometry": {"type": "Point", "coordinates": [80.9417117, 26.9010096]}}, {"type": "Feature", "properties": {"name": "Divyavani Clinic"}, "geometry": {"type": "Point", "coordinates": [80.9477741, 26.8989145]}}, {"type": "Feature", "properties": {"name": ""}, "geometry": {"type": "Point", "coordinates": [80.9402724, 26.8748633]}}, {"type": "Feature", "properties": {"name": ""}, "geometry": {"type": "Point", "coordinates": [80.9564218, 26.8825366]}}, {"type": "Feature", "properties": {"name": "Highway Hospital & Trauma Centre"}, "geometry": {"type": "Point", "coordinates": [80.9386332, 26.9050701]}}, {"type": "Feature", "properties": {"name": "Ganga Laxmi IVF"}, "geometry": {"type": "Point", "coordinates": [81.0004895, 26.8476516]}}, {"type": "Feature", "properties": {"name": "RK Medical Centre"}, "geometry": {"type": "Point", "coordinates": [80.9862047, 26.8855924]}}, {"type": "Feature", "properties": {"name": "Kalindi Arthritis Clinic"}, "geometry": {"type": "Point", "coordinates": [80.959433, 26.8993265]}}, {"type": "Feature", "properties": {"name": "rishi hospital"}, "geometry": {"type": "Point", "coordinates": [81.0220699, 26.8665293]}}, {"type": "Feature", "properties": {"name": "Homeopathy"}, "geometry": {"type": "Point", "coordinates": [80.989722, 26.7815349]}}, {"type": "Feature", "properties": {"name": "Galaxy Hospital"}, "geometry": {"type": "Point", "coordinates": [81.0109279, 26.7979262]}}, {"type": "Feature", "properties": {"name": "Sadbhavna Clinic"}, "geometry": {"type": "Point", "coordinates": [81.0013022, 26.8854208]}}, {"type": "Feature", "properties": {"name": "Cair family clinic"}, "geometry": {"type": "Point", "coordinates": [81.0325034, 26.8741776]}}, {"type": "Feature", "properties": {"name": "Shakuntala eyeclini"}, "geometry": {"type": "Point", "coordinates": [81.0297015, 26.8722871]}}, {"type": "Feature", "properties": {"name": "Dr Manish Sharma"}, "geometry": {"type": "Point", "coordinates": [80.9015504, 26.7981769]}}, {"type": "Feature", "properties": {"name": "Dr. Santosh Singh"}, "geometry": {"type": "Point", "coordinates": [80.9985595, 26.8715624]}}, {"type": "Feature", "properties": {"name": "SITE"}, "geometry": {"type": "Point", "coordinates": [80.9607484, 26.7571278]}}, {"type": "Feature", "properties": {"name": "Dr Prasoon Shamshery"}, "geometry": {"type": "Point", "coordinates": [80.9422234, 26.8767749]}}, {"type": "Feature", "properties": {"name": "SM Hospital"}, "geometry": {"type": "Point", "coordinates": [80.9128296, 26.9335057]}}, {"type": "Feature", "properties": {"name": "Dr Kanchan Srivastava Dermatologist"}, "geometry": {"type": "Point", "coordinates": [80.9469963, 26.8910856]}}, {"type": "Feature", "properties": {"name": "The Doctors Corner"}, "geometry": {"type": "Point", "coordinates": [80.9460553, 26.8926942]}}, {"type": "Feature", "properties": {"name": "Dr Sandeep Dubey"}, "geometry": {"type": "Point", "coordinates": [80.9513446, 26.885208]}}, {"type": "Feature", "properties": {"name": "Nirvan Hospital"}, "geometry": {"type": "Point", "coordinates": [80.9675295, 26.8988093]}}, {"type": "Feature", "properties": {"name": "Ashirwad Health Care"}, "geometry": {"type": "Point", "coordinates": [80.991279, 26.8846698]}}, {"type": "Feature", "properties": {"name": "Kejriwal Clinic"}, "geometry": {"type": "Point", "coordinates": [80.9911615, 26.8780436]}}, {"type": "Feature", "properties": {"name": "Gastro Care Clinic"}, "geometry": {"type": "Point", "coordinates": [80.9912129, 26.8770396]}}, {"type": "Feature", "properties": {"name": "Shristi Hospital and Neoborn Care Centre"}, "geometry": {"type": "Point", "coordinates": [80.993757, 26.8825041]}}, {"type": "Feature", "properties": {"name": "Amar Hospital"}, "geometry": {"type": "Point", "coordinates": [80.9747252, 26.8920082]}}, {"type": "Feature", "properties": {"name": "Wellsun medicity"}, "geometry": {"type": "Point", "coordinates": [80.9652655, 26.7717095]}}, {"type": "Feature", "properties": {"name": "Titan Medics Hospital"}, "geometry": {"type": "Point", "coordinates": [80.9621147, 26.9307933]}}, {"type": "Feature", "properties": {"name": "Sab Rang Clinic"}, "geometry": {"type": "Point", "coordinates": [80.8990064, 26.8722864]}}, {"type": "Feature", "properties": {"name": "Noor Mission Hospital"}, "geometry": {"type": "Point", "coordinates": [80.8795637, 26.8632244]}}]}