{"type": "FeatureCollection", "features": [{"type": "Feature", "properties": {"name": "Reader's Choice Library"}, "geometry": {"type": "Point", "coordinates": [80.9464362, 26.9008772]}}, {"type": "Feature", "properties": {"name": "MUNSHIPULIA CENTRAL LIBRARY"}, "geometry": {"type": "Point", "coordinates": [80.9988173, 26.885056]}}, {"type": "Feature", "properties": {"name": "Sankalp Sansthan Library"}, "geometry": {"type": "Point", "coordinates": [81.0009959, 26.8849477]}}, {"type": "Feature", "properties": {"name": "Study World Library"}, "geometry": {"type": "Point", "coordinates": [80.9834786, 26.8753152]}}]}