{"type":"FeatureCollection","features":[{"type":"Feature","properties":{"route_id":"lucknow_red","route_short_name":"Red","route_long_name":"Lucknow Metro Red Line","agency_id":"LUCKNOWMETRO","mode":"metro","operator":"Uttar Pradesh Metro Rail Corporation - Lucknow Metro","source_feed_id":"lucknow_metro_unofficial_constructed"},"geometry":{"type":"LineString","coordinates":[[80.8836391,26.7662824],[80.8786976,26.7713636],[80.8826512,26.777877],[80.891762,26.794391],[80.8964272,26.8030998],[80.9025123,26.8140101],[80.9072927,26.8184732],[80.9098575,26.8253101],[80.9154077,26.8320029],[80.9231133,26.8324023],[80.93433,26.8384284],[80.9399056,26.8415965],[80.9415944,26.8500335],[80.9368084,26.8539449],[80.9395458,26.865529],[80.9456475,26.8710268],[80.9610133,26.8706977],[80.9738961,26.8709686],[80.9823474,26.8722368],[80.9909732,26.8727659],[80.9959863,26.8879654]]}}]}