{"type": "FeatureCollection", "features": [{"type": "Feature", "properties": {"name": "Alambagh Bus Station"}, "geometry": {"type": "Point", "coordinates": [80.9072927, 26.8184732]}}, {"type": "Feature", "properties": {"name": "Alambagh"}, "geometry": {"type": "Point", "coordinates": [80.9025123, 26.8140101]}}, {"type": "Feature", "properties": {"name": "Krishna Nagar"}, "geometry": {"type": "Point", "coordinates": [80.891762, 26.794391]}}, {"type": "Feature", "properties": {"name": "Mawaiya"}, "geometry": {"type": "Point", "coordinates": [80.9098575, 26.8253101]}}, {"type": "Feature", "properties": {"name": "Singar Nagar"}, "geometry": {"type": "Point", "coordinates": [80.8964272, 26.8030998]}}, {"type": "Feature", "properties": {"name": "Charbagh Railway Station"}, "geometry": {"type": "Point", "coordinates": [80.9231133, 26.8324023]}}, {"type": "Feature", "properties": {"name": "Durgapuri"}, "geometry": {"type": "Point", "coordinates": [80.9154077, 26.8320029]}}, {"type": "Feature", "properties": {"name": "Sachivalaya"}, "geometry": {"type": "Point", "coordinates": [80.9399056, 26.8415965]}}, {"type": "Feature", "properties": {"name": "Hussainganj"}, "geometry": {"type": "Point", "coordinates": [80.93433, 26.8384284]}}, {"type": "Feature", "properties": {"name": "Chaudhary Charan Singh International Airport"}, "geometry": {"type": "Point", "coordinates": [80.8836391, 26.7662824]}}, {"type": "Feature", "properties": {"name": "Transport Nagar"}, "geometry": {"type": "Point", "coordinates": [80.8826512, 26.777877]}}, {"type": "Feature", "properties": {"name": "Amausi"}, "geometry": {"type": "Point", "coordinates": [80.8786976, 26.7713636]}}, {"type": "Feature", "properties": {"name": "Lekhraj Market"}, "geometry": {"type": "Point", "coordinates": [80.9738961, 26.8709686]}}, {"type": "Feature", "properties": {"name": "Munshipulia"}, "geometry": {"type": "Point", "coordinates": [80.9959863, 26.8879654]}}, {"type": "Feature", "properties": {"name": "Indira Nagar"}, "geometry": {"type": "Point", "coordinates": [80.9909732, 26.8727659]}}, {"type": "Feature", "properties": {"name": "Bhootnath Market"}, "geometry": {"type": "Point", "coordinates": [80.9823474, 26.8722368]}}, {"type": "Feature", "properties": {"name": "Badshah Nagar"}, "geometry": {"type": "Point", "coordinates": [80.9610133, 26.8706977]}}, {"type": "Feature", "properties": {"name": "IT College"}, "geometry": {"type": "Point", "coordinates": [80.9456475, 26.8710268]}}, {"type": "Feature", "properties": {"name": "Vishwavidyalaya"}, "geometry": {"type": "Point", "coordinates": [80.9395458, 26.865529]}}, {"type": "Feature", "properties": {"name": "KD Singh Babu Stadium"}, "geometry": {"type": "Point", "coordinates": [80.9368084, 26.8539449]}}, {"type": "Feature", "properties": {"name": "Hazratganj"}, "geometry": {"type": "Point", "coordinates": [80.9415944, 26.8500335]}}]}