{"type":"FeatureCollection","features":[{"type":"Feature","properties":{"stop_id":"LUCKNOWMETRO_alambagh","stop_name":"Alambagh","stop_code":"","mode":"metro","operator":"Uttar Pradesh Metro Rail Corporation - Lucknow Metro","source_feed_id":"lucknow_metro_unofficial_constructed"},"geometry":{"type":"Point","coordinates":[80.9025123,26.8140101]}},{"type":"Feature","properties":{"stop_id":"LUCKNOWMETRO_alambagh_bus_station","stop_name":"Alambagh Bus Station","stop_code":"","mode":"metro","operator":"Uttar Pradesh Metro Rail Corporation - Lucknow Metro","source_feed_id":"lucknow_metro_unofficial_constructed"},"geometry":{"type":"Point","coordinates":[80.9072927,26.8184732]}},{"type":"Feature","properties":{"stop_id":"LUCKNOWMETRO_amausi","stop_name":"Amausi","stop_code":"","mode":"metro","operator":"Uttar Pradesh Metro Rail Corporation - Lucknow Metro","source_feed_id":"lucknow_metro_unofficial_constructed"},"geometry":{"type":"Point","coordinates":[80.8786976,26.7713636]}},{"type":"Feature","properties":{"stop_id":"LUCKNOWMETRO_badshah_nagar","stop_name":"Badshah Nagar","stop_code":"","mode":"metro","operator":"Uttar Pradesh Metro Rail Corporation - Lucknow Metro","source_feed_id":"lucknow_metro_unofficial_constructed"},"geometry":{"type":"Point","coordinates":[80.9610133,26.8706977]}},{"type":"Feature","properties":{"stop_id":"LUCKNOWMETRO_bhootnath_market","stop_name":"Bhootnath Market","stop_code":"","mode":"metro","operator":"Uttar Pradesh Metro Rail Corporation - Lucknow Metro","source_feed_id":"lucknow_metro_unofficial_constructed"},"geometry":{"type":"Point","coordinates":[80.9823474,26.8722368]}},{"type":"Feature","properties":{"stop_id":"LUCKNOWMETRO_charbagh_railway_station","stop_name":"Charbagh Railway Station","stop_code":"","mode":"metro","operator":"Uttar Pradesh Metro Rail Corporation - Lucknow Metro","source_feed_id":"lucknow_metro_unofficial_constructed"},"geometry":{"type":"Point","coordinates":[80.9231133,26.8324023]}},{"type":"Feature","properties":{"stop_id":"LUCKNOWMETRO_chaudhary_charan_singh_international_airport","stop_name":"Chaudhary Charan Singh International Airport","stop_code":"","mode":"metro","operator":"Uttar Pradesh Metro Rail Corporation - Lucknow Metro","source_feed_id":"lucknow_metro_unofficial_constructed"},"geometry":{"type":"Point","coordinates":[80.8836391,26.7662824]}},{"type":"Feature","properties":{"stop_id":"LUCKNOWMETRO_durgapuri","stop_name":"Durgapuri","stop_code":"","mode":"metro","operator":"Uttar Pradesh Metro Rail Corporation - Lucknow Metro","source_feed_id":"lucknow_metro_unofficial_constructed"},"geometry":{"type":"Point","coordinates":[80.9154077,26.8320029]}},{"type":"Feature","properties":{"stop_id":"LUCKNOWMETRO_hazratganj","stop_name":"Hazratganj","stop_code":"","mode":"metro","operator":"Uttar Pradesh Metro Rail Corporation - Lucknow Metro","source_feed_id":"lucknow_metro_unofficial_constructed"},"geometry":{"type":"Point","coordinates":[80.9415944,26.8500335]}},{"type":"Feature","properties":{"stop_id":"LUCKNOWMETRO_hussainganj","stop_name":"Hussainganj","stop_code":"","mode":"metro","operator":"Uttar Pradesh Metro Rail Corporation - Lucknow Metro","source_feed_id":"lucknow_metro_unofficial_constructed"},"geometry":{"type":"Point","coordinates":[80.93433,26.8384284]}},{"type":"Feature","properties":{"stop_id":"LUCKNOWMETRO_it_college","stop_name":"IT College","stop_code":"","mode":"metro","operator":"Uttar Pradesh Metro Rail Corporation - Lucknow Metro","source_feed_id":"lucknow_metro_unofficial_constructed"},"geometry":{"type":"Point","coordinates":[80.9456475,26.8710268]}},{"type":"Feature","properties":{"stop_id":"LUCKNOWMETRO_indira_nagar","stop_name":"Indira Nagar","stop_code":"","mode":"metro","operator":"Uttar Pradesh Metro Rail Corporation - Lucknow Metro","source_feed_id":"lucknow_metro_unofficial_constructed"},"geometry":{"type":"Point","coordinates":[80.9909732,26.8727659]}},{"type":"Feature","properties":{"stop_id":"LUCKNOWMETRO_kd_singh_babu_stadium","stop_name":"KD Singh Babu Stadium","stop_code":"","mode":"metro","operator":"Uttar Pradesh Metro Rail Corporation - Lucknow Metro","source_feed_id":"lucknow_metro_unofficial_constructed"},"geometry":{"type":"Point","coordinates":[80.9368084,26.8539449]}},{"type":"Feature","properties":{"stop_id":"LUCKNOWMETRO_krishna_nagar","stop_name":"Krishna Nagar","stop_code":"","mode":"metro","operator":"Uttar Pradesh Metro Rail Corporation - Lucknow Metro","source_feed_id":"lucknow_metro_unofficial_constructed"},"geometry":{"type":"Point","coordinates":[80.891762,26.794391]}},{"type":"Feature","properties":{"stop_id":"LUCKNOWMETRO_lekhraj_market","stop_name":"Lekhraj Market","stop_code":"","mode":"metro","operator":"Uttar Pradesh Metro Rail Corporation - Lucknow Metro","source_feed_id":"lucknow_metro_unofficial_constructed"},"geometry":{"type":"Point","coordinates":[80.9738961,26.8709686]}},{"type":"Feature","properties":{"stop_id":"LUCKNOWMETRO_mawaiya","stop_name":"Mawaiya","stop_code":"","mode":"metro","operator":"Uttar Pradesh Metro Rail Corporation - Lucknow Metro","source_feed_id":"lucknow_metro_unofficial_constructed"},"geometry":{"type":"Point","coordinates":[80.9098575,26.8253101]}},{"type":"Feature","properties":{"stop_id":"LUCKNOWMETRO_munshipulia","stop_name":"Munshipulia","stop_code":"","mode":"metro","operator":"Uttar Pradesh Metro Rail Corporation - Lucknow Metro","source_feed_id":"lucknow_metro_unofficial_constructed"},"geometry":{"type":"Point","coordinates":[80.9959863,26.8879654]}},{"type":"Feature","properties":{"stop_id":"LUCKNOWMETRO_sachivalaya","stop_name":"Sachivalaya","stop_code":"","mode":"metro","operator":"Uttar Pradesh Metro Rail Corporation - Lucknow Metro","source_feed_id":"lucknow_metro_unofficial_constructed"},"geometry":{"type":"Point","coordinates":[80.9399056,26.8415965]}},{"type":"Feature","properties":{"stop_id":"LUCKNOWMETRO_singar_nagar","stop_name":"Singar Nagar","stop_code":"","mode":"metro","operator":"Uttar Pradesh Metro Rail Corporation - Lucknow Metro","source_feed_id":"lucknow_metro_unofficial_constructed"},"geometry":{"type":"Point","coordinates":[80.8964272,26.8030998]}},{"type":"Feature","properties":{"stop_id":"LUCKNOWMETRO_transport_nagar","stop_name":"Transport Nagar","stop_code":"","mode":"metro","operator":"Uttar Pradesh Metro Rail Corporation - Lucknow Metro","source_feed_id":"lucknow_metro_unofficial_constructed"},"geometry":{"type":"Point","coordinates":[80.8826512,26.777877]}},{"type":"Feature","properties":{"stop_id":"LUCKNOWMETRO_vishwavidyalaya","stop_name":"Vishwavidyalaya","stop_code":"","mode":"metro","operator":"Uttar Pradesh Metro Rail Corporation - Lucknow Metro","source_feed_id":"lucknow_metro_unofficial_constructed"},"geometry":{"type":"Point","coordinates":[80.9395458,26.865529]}}]}