{"type": "FeatureCollection", "features": [{"type": "Feature", "properties": {"name": "Hazratganj Police Station"}, "geometry": {"type": "Point", "coordinates": [80.9460958, 26.8471889]}}, {"type": "Feature", "properties": {"name": "Mahanagar Police Station"}, "geometry": {"type": "Point", "coordinates": [80.9587271, 26.8730854]}}, {"type": "Feature", "properties": {"name": "Dugawan Police Chowki"}, "geometry": {"type": "Point", "coordinates": [80.918437, 26.8458026]}}, {"type": "Feature", "properties": {"name": "Alambagh Police Station"}, "geometry": {"type": "Point", "coordinates": [80.9095211, 26.8262917]}}, {"type": "Feature", "properties": {"name": "Police Chowki"}, "geometry": {"type": "Point", "coordinates": [80.9243626, 26.8482599]}}, {"type": "Feature", "properties": {"name": "para thana"}, "geometry": {"type": "Point", "coordinates": [80.8740677, 26.8240226]}}, {"type": "Feature", "properties": {"name": ""}, "geometry": {"type": "Point", "coordinates": [80.9125252, 26.7939541]}}, {"type": "Feature", "properties": {"name": ""}, "geometry": {"type": "Point", "coordinates": [80.9396569, 26.8476468]}}, {"type": "Feature", "properties": {"name": "Police Station, Talkatora"}, "geometry": {"type": "Point", "coordinates": [80.8756188, 26.8463184]}}, {"type": "Feature", "properties": {"name": "Gomti Nagar Police Station"}, "geometry": {"type": "Point", "coordinates": [80.9943769, 26.8545022]}}, {"type": "Feature", "properties": {"name": "Sec 8 Police Station"}, "geometry": {"type": "Point", "coordinates": [81.0026735, 26.8776836]}}, {"type": "Feature", "properties": {"name": "Ghazipur Police Station"}, "geometry": {"type": "Point", "coordinates": [80.9836441, 26.8726767]}}, {"type": "Feature", "properties": {"name": "Lekhraj Police Chauki"}, "geometry": {"type": "Point", "coordinates": [80.9736898, 26.8710836]}}, {"type": "Feature", "properties": {"name": ""}, "geometry": {"type": "Point", "coordinates": [80.9233034, 26.7963062]}}, {"type": "Feature", "properties": {"name": "Police Chowki Makboolganj"}, "geometry": {"type": "Point", "coordinates": [80.9249873, 26.8395969]}}, {"type": "Feature", "properties": {"name": "Police Chowki Gole Market"}, "geometry": {"type": "Point", "coordinates": [80.9575986, 26.8735077]}}, {"type": "Feature", "properties": {"name": "Police Chowki Chowk"}, "geometry": {"type": "Point", "coordinates": [80.9088933, 26.8657739]}}, {"type": "Feature", "properties": {"name": "Police Station Babuganj"}, "geometry": {"type": "Point", "coordinates": [80.9332237, 26.871297]}}, {"type": "Feature", "properties": {"name": "Police Chowki Polytechnic"}, "geometry": {"type": "Point", "coordinates": [80.9952163, 26.8730987]}}]}