{"type": "FeatureCollection", "features": [{"type": "Feature", "properties": {"name": "Central Bank of India Staff Training College"}, "geometry": {"type": "Point", "coordinates": [80.960557, 26.8708952]}}, {"type": "Feature", "properties": {"name": ""}, "geometry": {"type": "Point", "coordinates": [80.9772932, 26.7749183]}}, {"type": "Feature", "properties": {"name": "suryodaya public intercollege"}, "geometry": {"type": "Point", "coordinates": [80.8608407, 26.8325512]}}, {"type": "Feature", "properties": {"name": "annie besant inter college"}, "geometry": {"type": "Point", "coordinates": [81.0200123, 26.8623446]}}, {"type": "Feature", "properties": {"name": ""}, "geometry": {"type": "Point", "coordinates": [80.9774464, 26.9027279]}}, {"type": "Feature", "properties": {"name": ""}, "geometry": {"type": "Point", "coordinates": [80.8885079, 26.8326745]}}, {"type": "Feature", "properties": {"name": ""}, "geometry": {"type": "Point", "coordinates": [81.0595358, 26.8928123]}}, {"type": "Feature", "properties": {"name": "La Martinière College, Lucknow"}, "geometry": {"type": "Point", "coordinates": [80.9627492, 26.8396845]}}, {"type": "Feature", "properties": {"name": "भारतीय रेल परिवहन प्रबंधन संस्थान"}, "geometry": {"type": "Point", "coordinates": [80.8795794, 26.8159822]}}, {"type": "Feature", "properties": {"name": "Lucknow University's RCUS"}, "geometry": {"type": "Point", "coordinates": [80.9362015, 26.8617445]}}, {"type": "Feature", "properties": {"name": ""}, "geometry": {"type": "Point", "coordinates": [80.8742294, 26.8415273]}}, {"type": "Feature", "properties": {"name": ""}, "geometry": {"type": "Point", "coordinates": [80.8881778, 26.8328295]}}, {"type": "Feature", "properties": {"name": "St. James Mission School, Rajaji Puram"}, "geometry": {"type": "Point", "coordinates": [80.8809564, 26.8401823]}}, {"type": "Feature", "properties": {"name": "SKD Academy, Rajaji Puram"}, "geometry": {"type": "Point", "coordinates": [80.8762644, 26.8396639]}}, {"type": "Feature", "properties": {"name": "Red Rose School"}, "geometry": {"type": "Point", "coordinates": [80.8802632, 26.8365853]}}, {"type": "Feature", "properties": {"name": ""}, "geometry": {"type": "Point", "coordinates": [80.9506536, 26.9143752]}}, {"type": "Feature", "properties": {"name": "APS Academy"}, "geometry": {"type": "Point", "coordinates": [80.9433478, 26.7755203]}}, {"type": "Feature", "properties": {"name": ""}, "geometry": {"type": "Point", "coordinates": [81.0026735, 26.8775229]}}, {"type": "Feature", "properties": {"name": "Urja Academy"}, "geometry": {"type": "Point", "coordinates": [80.9423348, 26.8951469]}}, {"type": "Feature", "properties": {"name": "KV Aliganj Ground"}, "geometry": {"type": "Point", "coordinates": [80.9489553, 26.900517]}}, {"type": "Feature", "properties": {"name": "CMS Ground"}, "geometry": {"type": "Point", "coordinates": [80.950391, 26.9030479]}}, {"type": "Feature", "properties": {"name": ""}, "geometry": {"type": "Point", "coordinates": [80.9849906, 26.8446728]}}, {"type": "Feature", "properties": {"name": "Dr. Sarvepalli Radhakrishnan Girls Inter College"}, "geometry": {"type": "Point", "coordinates": [80.9439776, 26.7863794]}}, {"type": "Feature", "properties": {"name": "National PG School"}, "geometry": {"type": "Point", "coordinates": [80.9449385, 26.7800404]}}, {"type": "Feature", "properties": {"name": "Allen House Public School"}, "geometry": {"type": "Point", "coordinates": [80.9559272, 26.780845]}}, {"type": "Feature", "properties": {"name": "Maharaja Agrasen Inter College"}, "geometry": {"type": "Point", "coordinates": [80.9120706, 26.8366372]}}, {"type": "Feature", "properties": {"name": "GMC Office Lucknow"}, "geometry": {"type": "Point", "coordinates": [80.9400761, 26.839797]}}, {"type": "Feature", "properties": {"name": "GMC"}, "geometry": {"type": "Point", "coordinates": [80.9401451, 26.840711]}}, {"type": "Feature", "properties": {"name": "GMC Lucknow"}, "geometry": {"type": "Point", "coordinates": [80.9401139, 26.8421316]}}, {"type": "Feature", "properties": {"name": "GMC Lucknow"}, "geometry": {"type": "Point", "coordinates": [80.9401523, 26.8410279]}}, {"type": "Feature", "properties": {"name": "Ashish Mahendra Office"}, "geometry": {"type": "Point", "coordinates": [80.9443129, 26.8501062]}}, {"type": "Feature", "properties": {"name": "Gurukul Academy"}, "geometry": {"type": "Point", "coordinates": [80.9820831, 26.875625]}}, {"type": "Feature", "properties": {"name": "FITTJEE"}, "geometry": {"type": "Point", "coordinates": [80.9076325, 26.7889755]}}, {"type": "Feature", "properties": {"name": "GD GOENKA PUBLIC SCHOOL"}, "geometry": {"type": "Point", "coordinates": [80.9918524, 26.779741]}}, {"type": "Feature", "properties": {"name": "सेठ आनन्दराम जैपुरिया विद्यालय"}, "geometry": {"type": "Point", "coordinates": [80.8459654, 26.82391]}}, {"type": "Feature", "properties": {"name": "Kasa Coaching"}, "geometry": {"type": "Point", "coordinates": [80.9926112, 26.8801324]}}, {"type": "Feature", "properties": {"name": "Tiwari Tutorials"}, "geometry": {"type": "Point", "coordinates": [80.9932987, 26.8824812]}}, {"type": "Feature", "properties": {"name": "LAL TUITION CENTRE"}, "geometry": {"type": "Point", "coordinates": [80.9980823, 26.8847652]}}, {"type": "Feature", "properties": {"name": "JE AE Coaching Rising Center"}, "geometry": {"type": "Point", "coordinates": [80.9981692, 26.8850733]}}, {"type": "Feature", "properties": {"name": "EduGorilla"}, "geometry": {"type": "Point", "coordinates": [80.9990672, 26.8850043]}}, {"type": "Feature", "properties": {"name": "Saroj Institute of Technology"}, "geometry": {"type": "Point", "coordinates": [81.0107186, 26.7986374]}}, {"type": "Feature", "properties": {"name": "A-Z tuition centre"}, "geometry": {"type": "Point", "coordinates": [81.0053422, 26.8857168]}}, {"type": "Feature", "properties": {"name": "Navyug Kanya Mahavidyalaya"}, "geometry": {"type": "Point", "coordinates": [80.9188684, 26.8409767]}}, {"type": "Feature", "properties": {"name": "A.K.D Public School"}, "geometry": {"type": "Point", "coordinates": [80.9056065, 26.8066313]}}, {"type": "Feature", "properties": {"name": "House of Musicians"}, "geometry": {"type": "Point", "coordinates": [80.9261699, 26.7836829]}}, {"type": "Feature", "properties": {"name": "Alfiya Public Inter College"}, "geometry": {"type": "Point", "coordinates": [80.8783392, 26.8631812]}}, {"type": "Feature", "properties": {"name": "KIDZEE ASHIYANA | BEST PRESHOOL IN ASHIYANA | PRESCHOOL IN ASHIYANA"}, "geometry": {"type": "Point", "coordinates": [80.9188065, 26.7962976]}}]}