{"type": "FeatureCollection", "features": [{"type": "Feature", "properties": {"name": "Lalbagh"}, "geometry": {"type": "Point", "coordinates": [80.8701804, 26.7908341]}}, {"type": "Feature", "properties": {"name": "Lucknow Main Hotel ANR"}, "geometry": {"type": "Point", "coordinates": [80.9213257, 26.8370396]}}, {"type": "Feature", "properties": {"name": "Lucknow Main 221 KTM Bike"}, "geometry": {"type": "Point", "coordinates": [80.9334646, 26.8394343]}}, {"type": "Feature", "properties": {"name": "Hotel Nexus"}, "geometry": {"type": "Point", "coordinates": [80.9299112, 26.8383138]}}, {"type": "Feature", "properties": {"name": "Lucknow Main 221"}, "geometry": {"type": "Point", "coordinates": [80.926476, 26.8373486]}}, {"type": "Feature", "properties": {"name": "Lucknow Hotel ANR"}, "geometry": {"type": "Point", "coordinates": [80.9213289, 26.8371478]}}, {"type": "Feature", "properties": {"name": "Lucknow Main 332"}, "geometry": {"type": "Point", "coordinates": [80.9232779, 26.8369886]}}, {"type": "Feature", "properties": {"name": "Lucknow Main"}, "geometry": {"type": "Point", "coordinates": [80.9242831, 26.8374181]}}, {"type": "Feature", "properties": {"name": "Lucknow Main 221 KTM Bike"}, "geometry": {"type": "Point", "coordinates": [80.9335726, 26.8392677]}}, {"type": "Feature", "properties": {"name": "Lucknow Main 221"}, "geometry": {"type": "Point", "coordinates": [80.9295848, 26.8390031]}}, {"type": "Feature", "properties": {"name": "Lucknow Main 221"}, "geometry": {"type": "Point", "coordinates": [80.9263134, 26.8374784]}}, {"type": "Feature", "properties": {"name": "Lucknow Main"}, "geometry": {"type": "Point", "coordinates": [80.9243269, 26.837286]}}, {"type": "Feature", "properties": {"name": "Lucknow Main"}, "geometry": {"type": "Point", "coordinates": [80.9231744, 26.8370973]}}, {"type": "Feature", "properties": {"name": "IT Crossing"}, "geometry": {"type": "Point", "coordinates": [80.9406694, 26.8712923]}}, {"type": "Feature", "properties": {"name": ""}, "geometry": {"type": "Point", "coordinates": [80.9314374, 26.849864]}}, {"type": "Feature", "properties": {"name": ""}, "geometry": {"type": "Point", "coordinates": [80.9957971, 26.8719852]}}, {"type": "Feature", "properties": {"name": "Polytechnic Chauraha"}, "geometry": {"type": "Point", "coordinates": [80.9962507, 26.8713839]}}, {"type": "Feature", "properties": {"name": ""}, "geometry": {"type": "Point", "coordinates": [80.9867662, 26.8803185]}}, {"type": "Feature", "properties": {"name": ""}, "geometry": {"type": "Point", "coordinates": [80.9908161, 26.8802839]}}, {"type": "Feature", "properties": {"name": "Honeyman rode bus stop"}, "geometry": {"type": "Point", "coordinates": [81.026541, 26.8731425]}}, {"type": "Feature", "properties": {"name": "Medanta Bus Stop"}, "geometry": {"type": "Point", "coordinates": [80.9836193, 26.7786816]}}, {"type": "Feature", "properties": {"name": ""}, "geometry": {"type": "Point", "coordinates": [80.931699, 26.851232]}}, {"type": "Feature", "properties": {"name": "Gole Market"}, "geometry": {"type": "Point", "coordinates": [80.9575299, 26.873085]}}, {"type": "Feature", "properties": {"name": "Nishat Ganj"}, "geometry": {"type": "Point", "coordinates": [80.9564558, 26.8674065]}}, {"type": "Feature", "properties": {"name": "Burlington Chauraha"}, "geometry": {"type": "Point", "coordinates": [80.9374178, 26.8407473]}}]}